HIERARCHY
ROOT Hips
{
  OFFSET 0.000000 95.000000 0.000000
  CHANNELS 6 Xposition Yposition Zposition Zrotation Xrotation Yrotation
  JOINT Spine
  {
    OFFSET 0.000000 10.000000 0.000000
    CHANNELS 3 Zrotation Xrotation Yrotation
    JOINT Spine1
    {
      OFFSET 0.000000 12.000000 0.000000
      CHANNELS 3 Zrotation Xrotation Yrotation
      JOINT Spine2
      {
        OFFSET 0.000000 12.000000 0.000000
        CHANNELS 3 Zrotation Xrotation Yrotation
        JOINT Neck
        {
          OFFSET 0.000000 10.000000 0.000000
          CHANNELS 3 Zrotation Xrotation Yrotation
          JOINT Head
          {
            OFFSET 0.000000 8.000000 0.000000
            CHANNELS 3 Zrotation Xrotation Yrotation
            End Site
            {
              OFFSET 0.000000 10.000000 0.000000
            }
          }
        }
        JOINT LeftShoulder
        {
          OFFSET 6.000000 8.000000 0.000000
          CHANNELS 3 Zrotation Xrotation Yrotation
          JOINT LeftArm
          {
            OFFSET 12.000000 0.000000 0.000000
            CHANNELS 3 Zrotation Xrotation Yrotation
            JOINT LeftForeArm
            {
              OFFSET 24.000000 0.000000 0.000000
              CHANNELS 3 Zrotation Xrotation Yrotation
              JOINT LeftHand
              {
                OFFSET 22.000000 0.000000 0.000000
                CHANNELS 3 Zrotation Xrotation Yrotation
                JOINT LeftHandThumb1
                {
                  OFFSET 1.800000 -1.400000 0.500000
                  CHANNELS 3 Zrotation Xrotation Yrotation
                  JOINT LeftHandThumb2
                  {
                    OFFSET 2.400000 0.000000 0.000000
                    CHANNELS 3 Zrotation Xrotation Yrotation
                    JOINT LeftHandThumb3
                    {
                      OFFSET 1.900000 0.000000 0.000000
                      CHANNELS 3 Zrotation Xrotation Yrotation
                      End Site
                      {
                        OFFSET 1.600000 0.000000 0.000000
                      }
                    }
                  }
                }
                JOINT LeftHandIndex1
                {
                  OFFSET 6.600000 1.200000 0.300000
                  CHANNELS 3 Zrotation Xrotation Yrotation
                  JOINT LeftHandIndex2
                  {
                    OFFSET 2.000000 0.000000 0.000000
                    CHANNELS 3 Zrotation Xrotation Yrotation
                    JOINT LeftHandIndex3
                    {
                      OFFSET 1.200000 0.000000 0.000000
                      CHANNELS 3 Zrotation Xrotation Yrotation
                      End Site
                      {
                        OFFSET 1.000000 0.000000 0.000000
                      }
                    }
                  }
                }
                JOINT LeftHandMiddle1
                {
                  OFFSET 7.200000 0.000000 0.300000
                  CHANNELS 3 Zrotation Xrotation Yrotation
                  JOINT LeftHandMiddle2
                  {
                    OFFSET 3.000000 0.000000 0.000000
                    CHANNELS 3 Zrotation Xrotation Yrotation
                    JOINT LeftHandMiddle3
                    {
                      OFFSET 2.000000 0.000000 0.000000
                      CHANNELS 3 Zrotation Xrotation Yrotation
                      End Site
                      {
                        OFFSET 1.600000 0.000000 0.000000
                      }
                    }
                  }
                }
                JOINT LeftHandRing1
                {
                  OFFSET 7.100000 -1.000000 0.400000
                  CHANNELS 3 Zrotation Xrotation Yrotation
                  JOINT LeftHandRing2
                  {
                    OFFSET 2.600000 0.000000 0.000000
                    CHANNELS 3 Zrotation Xrotation Yrotation
                    JOINT LeftHandRing3
                    {
                      OFFSET 1.600000 0.000000 0.000000
                      CHANNELS 3 Zrotation Xrotation Yrotation
                      End Site
                      {
                        OFFSET 1.300000 0.000000 0.000000
                      }
                    }
                  }
                }
                JOINT LeftHandPinky1
                {
                  OFFSET 6.500000 -2.000000 0.500000
                  CHANNELS 3 Zrotation Xrotation Yrotation
                  JOINT LeftHandPinky2
                  {
                    OFFSET 1.900000 0.000000 0.000000
                    CHANNELS 3 Zrotation Xrotation Yrotation
                    JOINT LeftHandPinky3
                    {
                      OFFSET 1.400000 0.000000 0.000000
                      CHANNELS 3 Zrotation Xrotation Yrotation
                      End Site
                      {
                        OFFSET 1.300000 0.000000 0.000000
                      }
                    }
                  }
                }
              }
            }
          }
        }
        JOINT RightShoulder
        {
          OFFSET -6.000000 8.000000 0.000000
          CHANNELS 3 Zrotation Xrotation Yrotation
          JOINT RightArm
          {
            OFFSET -12.000000 0.000000 0.000000
            CHANNELS 3 Zrotation Xrotation Yrotation
            JOINT RightForeArm
            {
              OFFSET -24.000000 0.000000 0.000000
              CHANNELS 3 Zrotation Xrotation Yrotation
              JOINT RightHand
              {
                OFFSET -22.000000 0.000000 0.000000
                CHANNELS 3 Zrotation Xrotation Yrotation
                JOINT RightHandThumb1
                {
                  OFFSET -1.800000 -1.400000 0.500000
                  CHANNELS 3 Zrotation Xrotation Yrotation
                  JOINT RightHandThumb2
                  {
                    OFFSET -2.400000 0.000000 0.000000
                    CHANNELS 3 Zrotation Xrotation Yrotation
                    JOINT RightHandThumb3
                    {
                      OFFSET -1.900000 0.000000 0.000000
                      CHANNELS 3 Zrotation Xrotation Yrotation
                      End Site
                      {
                        OFFSET -1.600000 0.000000 0.000000
                      }
                    }
                  }
                }
                JOINT RightHandIndex1
                {
                  OFFSET -6.600000 1.200000 0.300000
                  CHANNELS 3 Zrotation Xrotation Yrotation
                  JOINT RightHandIndex2
                  {
                    OFFSET -2.000000 0.000000 0.000000
                    CHANNELS 3 Zrotation Xrotation Yrotation
                    JOINT RightHandIndex3
                    {
                      OFFSET -1.200000 0.000000 0.000000
                      CHANNELS 3 Zrotation Xrotation Yrotation
                      End Site
                      {
                        OFFSET -1.000000 0.000000 0.000000
                      }
                    }
                  }
                }
                JOINT RightHandMiddle1
                {
                  OFFSET -7.200000 0.000000 0.300000
                  CHANNELS 3 Zrotation Xrotation Yrotation
                  JOINT RightHandMiddle2
                  {
                    OFFSET -3.000000 0.000000 0.000000
                    CHANNELS 3 Zrotation Xrotation Yrotation
                    JOINT RightHandMiddle3
                    {
                      OFFSET -2.000000 0.000000 0.000000
                      CHANNELS 3 Zrotation Xrotation Yrotation
                      End Site
                      {
                        OFFSET -1.600000 0.000000 0.000000
                      }
                    }
                  }
                }
                JOINT RightHandRing1
                {
                  OFFSET -7.100000 -1.000000 0.400000
                  CHANNELS 3 Zrotation Xrotation Yrotation
                  JOINT RightHandRing2
                  {
                    OFFSET -2.600000 0.000000 0.000000
                    CHANNELS 3 Zrotation Xrotation Yrotation
                    JOINT RightHandRing3
                    {
                      OFFSET -1.600000 0.000000 0.000000
                      CHANNELS 3 Zrotation Xrotation Yrotation
                      End Site
                      {
                        OFFSET -1.300000 0.000000 0.000000
                      }
                    }
                  }
                }
                JOINT RightHandPinky1
                {
                  OFFSET -6.500000 -2.000000 0.500000
                  CHANNELS 3 Zrotation Xrotation Yrotation
                  JOINT RightHandPinky2
                  {
                    OFFSET -1.900000 0.000000 0.000000
                    CHANNELS 3 Zrotation Xrotation Yrotation
                    JOINT RightHandPinky3
                    {
                      OFFSET -1.400000 0.000000 0.000000
                      CHANNELS 3 Zrotation Xrotation Yrotation
                      End Site
                      {
                        OFFSET -1.300000 0.000000 0.000000
                      }
                    }
                  }
                }
              }
            }
          }
        }
      }
    }
  }
  JOINT LeftUpLeg
  {
    OFFSET 10.000000 -5.000000 0.000000
    CHANNELS 3 Zrotation Xrotation Yrotation
    JOINT LeftLeg
    {
      OFFSET 0.000000 -42.000000 0.000000
      CHANNELS 3 Zrotation Xrotation Yrotation
      JOINT LeftFoot
      {
        OFFSET 0.000000 -42.000000 4.000000
        CHANNELS 3 Zrotation Xrotation Yrotation
        End Site
        {
          OFFSET 0.000000 0.000000 12.000000
        }
      }
    }
  }
  JOINT RightUpLeg
  {
    OFFSET -10.000000 -5.000000 0.000000
    CHANNELS 3 Zrotation Xrotation Yrotation
    JOINT RightLeg
    {
      OFFSET 0.000000 -42.000000 0.000000
      CHANNELS 3 Zrotation Xrotation Yrotation
      JOINT RightFoot
      {
        OFFSET 0.000000 -42.000000 4.000000
        CHANNELS 3 Zrotation Xrotation Yrotation
        End Site
        {
          OFFSET 0.000000 0.000000 12.000000
        }
      }
    }
  }
}
MOTION
Frames: 60
Frame Time: 0.033333
0.0705 0.1748 -0.0697 -5.2312 12.6878 13.3335 5.2822 1.2478 -13.2542 0.0000 0.0000 0.0000 0.0000 0.0000 0.0000 5.7015 50.2680 4.3651 0.0000 0.0000 0.0000 0.0000 0.0000 0.0000 -79.9118 2.2598 17.9335 -10.5976 10.5364 -11.5221 -174.4404 17.1155 174.9826 48.3590 -9.4102 5.1180 9.9257 0.0000 0.0000 2.8372 0.0000 0.0000 -2.6212 0.2674 -0.9403 9.0356 0.0000 0.0000 1.8126 0.0000 0.0000 11.0962 -0.0830 -3.9179 26.6577 0.0000 0.0000 20.1593 0.0000 0.0000 17.1603 -0.9076 -4.5015 38.5948 0.0000 0.0000 38.4819 0.0000 0.0000 21.3261 -2.0403 -4.2261 32.8206 0.0000 0.0000 49.5984 0.0000 0.0000 0.0000 0.0000 0.0000 83.5374 -22.4012 10.8414 55.6910 46.3975 116.5145 23.3424 38.5371 41.1992 -64.5340 -13.1330 -3.7456 49.4832 0.0000 0.0000 10.5601 0.0000 0.0000 1.1782 -0.8672 -5.3626 3.8811 0.0000 0.0000 5.5860 0.0000 0.0000 -11.3609 -0.7763 -3.0204 4.4376 0.0000 0.0000 3.0503 0.0000 0.0000 0.2733 0.1731 -1.0997 13.3458 0.0000 0.0000 3.2527 0.0000 0.0000 -5.7328 -0.0619 -1.4694 18.4197 0.0000 0.0000 3.5692 0.0000 0.0000 7.1897 -14.0651 -15.1208 0.0000 0.0000 0.0000 0.0000 0.0000 0.0000 15.5466 -5.6004 -13.5491 0.0000 0.0000 0.0000 0.0000 0.0000 0.0000
0.0625 0.1859 -0.0847 -5.0823 12.9437 13.0525 4.7778 1.1080 -13.0264 0.0000 0.0000 0.0000 0.0000 0.0000 0.0000 6.5644 50.1915 5.0051 0.0000 0.0000 0.0000 0.0000 0.0000 0.0000 -80.0003 1.1036 16.7962 -9.8557 9.9147 -10.8236 -173.3868 12.8130 176.3156 48.3216 -9.1164 6.3643 11.0964 0.0000 0.0000 2.5706 0.0000 0.0000 -5.0214 0.1362 0.6609 8.6906 0.0000 0.0000 2.9683 0.0000 0.0000 8.7181 -0.2279 -1.7830 31.6165 0.0000 0.0000 24.4437 0.0000 0.0000 15.9879 -0.8890 -1.8089 41.6780 0.0000 0.0000 33.0096 0.0000 0.0000 21.6145 -1.7697 -1.6530 34.4198 0.0000 0.0000 46.4445 0.0000 0.0000 0.0000 0.0000 0.0000 81.0385 -25.7097 14.9331 59.9652 67.7409 136.1679 -7.9774 13.2665 42.2200 -58.0037 -11.6597 -4.6156 54.4574 0.0000 0.0000 12.5831 0.0000 0.0000 4.6101 -0.6959 -6.4136 3.3830 0.0000 0.0000 6.0404 0.0000 0.0000 -9.6149 -0.8267 -5.0334 3.5593 0.0000 0.0000 3.4136 0.0000 0.0000 1.6039 0.5801 -3.1486 13.7614 0.0000 0.0000 4.8839 0.0000 0.0000 -4.8722 0.5454 -3.4924 19.7981 0.0000 0.0000 4.8271 0.0000 0.0000 7.3646 -13.2401 -14.6862 0.0000 0.0000 0.0000 0.0000 0.0000 0.0000 15.4309 -5.6449 -13.2262 0.0000 0.0000 0.0000 0.0000 0.0000 0.0000
0.0564 0.1944 -0.0962 -4.9680 13.1366 12.8384 4.3897 1.0036 -12.8535 0.0000 0.0000 0.0000 0.0000 0.0000 0.0000 7.2281 50.1314 5.4968 0.0000 0.0000 0.0000 0.0000 0.0000 0.0000 -80.0317 0.2286 15.9351 -9.3078 9.4488 -10.3061 -173.1805 13.1186 176.6718 48.3216 -9.1164 6.3643 11.0964 0.0000 0.0000 2.5706 0.0000 0.0000 -5.0214 0.1362 0.6609 8.6906 0.0000 0.0000 2.9683 0.0000 0.0000 8.7181 -0.2279 -1.7830 31.6165 0.0000 0.0000 24.4437 0.0000 0.0000 15.9879 -0.8890 -1.8089 41.6780 0.0000 0.0000 33.0096 0.0000 0.0000 21.6145 -1.7697 -1.6530 34.4198 0.0000 0.0000 46.4445 0.0000 0.0000 0.0000 0.0000 0.0000 78.8244 -28.0371 18.1385 68.4536 80.3390 149.4721 -11.3156 1.3026 48.9204 -58.0037 -11.6597 -4.6156 54.4574 0.0000 0.0000 12.5831 0.0000 0.0000 4.6101 -0.6959 -6.4136 3.3830 0.0000 0.0000 6.0404 0.0000 0.0000 -9.6149 -0.8267 -5.0334 3.5593 0.0000 0.0000 3.4136 0.0000 0.0000 1.6039 0.5801 -3.1486 13.7614 0.0000 0.0000 4.8839 0.0000 0.0000 -4.8722 0.5454 -3.4924 19.7981 0.0000 0.0000 4.8271 0.0000 0.0000 7.4980 -12.5904 -14.3504 0.0000 0.0000 0.0000 0.0000 0.0000 0.0000 15.3393 -5.6733 -12.9792 0.0000 0.0000 0.0000 0.0000 0.0000 0.0000
0.0533 0.1979 -0.1113 -4.9125 11.7081 12.6459 4.0650 0.9169 -12.6898 0.0000 0.0000 0.0000 0.0000 0.0000 0.0000 8.1039 51.1853 5.9957 0.0000 0.0000 0.0000 0.0000 0.0000 0.0000 -80.0284 1.1703 15.3083 -8.3465 9.3889 -10.3512 -172.5089 12.0315 176.9330 48.1635 -9.1303 6.1375 11.5896 0.0000 0.0000 2.7288 0.0000 0.0000 -6.4499 0.1571 1.0751 9.3931 0.0000 0.0000 3.3417 0.0000 0.0000 6.5306 -0.1543 -2.0683 35.0727 0.0000 0.0000 27.1095 0.0000 0.0000 13.9919 -0.8171 -2.2005 46.3902 0.0000 0.0000 37.7895 0.0000 0.0000 20.2852 -1.7508 -2.1185 37.6159 0.0000 0.0000 49.0345 0.0000 0.0000 0.0000 0.0000 0.0000 77.6205 -28.7482 21.1463 179.3709 76.1538 269.8943 -45.3135 -19.6941 50.3459 -47.6025 -9.0134 -6.0596 53.4091 0.0000 0.0000 15.4472 0.0000 0.0000 8.8682 -0.3396 -7.1576 1.6830 0.0000 0.0000 4.5644 0.0000 0.0000 -6.1956 -0.6485 -7.1673 2.4032 0.0000 0.0000 3.5106 0.0000 0.0000 -3.7140 0.5758 -7.2371 10.4507 0.0000 0.0000 5.6601 0.0000 0.0000 -10.6049 0.7661 -7.4460 16.5848 0.0000 0.0000 5.3963 0.0000 0.0000 7.1380 -11.8298 -14.0243 0.0000 0.0000 0.0000 0.0000 0.0000 0.0000 15.3089 -2.8139 -12.3094 0.0000 0.0000 0.0000 0.0000 0.0000 0.0000
0.0509 0.2005 -0.1227 -4.8719 10.5835 12.4992 3.8166 0.8516 -12.5599 0.0000 0.0000 0.0000 0.0000 0.0000 0.0000 8.8161 52.0258 6.4065 0.0000 0.0000 0.0000 0.0000 0.0000 0.0000 -80.0149 1.9577 14.8808 -7.6462 9.3946 -10.4351 -172.0134 12.4831 177.5067 48.1635 -9.1303 6.1375 11.5896 0.0000 0.0000 2.7288 0.0000 0.0000 -6.4499 0.1571 1.0751 9.3931 0.0000 0.0000 3.3417 0.0000 0.0000 6.5306 -0.1543 -2.0683 35.0727 0.0000 0.0000 27.1095 0.0000 0.0000 13.9919 -0.8171 -2.2005 46.3902 0.0000 0.0000 37.7895 0.0000 0.0000 20.2852 -1.7508 -2.1185 37.6159 0.0000 0.0000 49.0345 0.0000 0.0000 0.0000 0.0000 0.0000 76.6267 -29.2337 23.4911 193.5683 65.9673 287.4825 -50.4643 -29.2337 58.2201 -47.6025 -9.0134 -6.0596 53.4091 0.0000 0.0000 15.4472 0.0000 0.0000 8.8682 -0.3396 -7.1576 1.6830 0.0000 0.0000 4.5644 0.0000 0.0000 -6.1956 -0.6485 -7.1673 2.4032 0.0000 0.0000 3.5106 0.0000 0.0000 -3.7140 0.5758 -7.2371 10.4507 0.0000 0.0000 5.6601 0.0000 0.0000 -10.6049 0.7661 -7.4460 16.5848 0.0000 0.0000 5.3963 0.0000 0.0000 6.8644 -11.1881 -13.7716 0.0000 0.0000 0.0000 0.0000 0.0000 0.0000 15.3048 -0.5984 -11.8115 0.0000 0.0000 0.0000 0.0000 0.0000 0.0000
0.0529 0.2100 -0.1156 -4.7380 11.7318 12.2079 4.0572 0.8814 -12.2369 0.0000 0.0000 0.0000 0.0000 0.0000 0.0000 8.9027 50.0838 6.2060 0.0000 0.0000 0.0000 0.0000 0.0000 0.0000 -80.6856 -0.3517 13.3424 -7.6622 9.2533 -10.3949 -172.3578 8.0760 176.7890 48.8794 -9.0551 7.2400 12.4745 0.0000 0.0000 2.0507 0.0000 0.0000 -6.3159 0.1447 1.1157 8.5170 0.0000 0.0000 2.8124 0.0000 0.0000 6.9270 -0.2404 -0.8006 32.2481 0.0000 0.0000 22.6344 0.0000 0.0000 13.7683 -0.7884 -1.1371 46.3672 0.0000 0.0000 39.9546 0.0000 0.0000 20.1958 -1.6471 -1.3051 38.7844 0.0000 0.0000 55.4847 0.0000 0.0000 0.0000 0.0000 0.0000 73.3430 -32.1722 27.4662 199.2827 51.0030 297.4584 -77.5952 -45.1343 64.2101 -41.0864 -7.1879 -6.8213 42.3842 0.0000 0.0000 16.7928 0.0000 0.0000 10.3196 -0.2167 -7.5285 0.4832 0.0000 0.0000 2.3769 0.0000 0.0000 -3.8338 -0.4465 -8.5080 1.7145 0.0000 0.0000 3.0234 0.0000 0.0000 -9.6170 0.0463 -10.3683 5.4832 0.0000 0.0000 4.9763 0.0000 0.0000 -16.2976 0.4212 -10.3003 10.3041 0.0000 0.0000 4.7205 0.0000 0.0000 7.2758 -10.9653 -13.4256 0.0000 0.0000 0.0000 0.0000 0.0000 0.0000 15.6089 -1.8643 -11.6208 0.0000 0.0000 0.0000 0.0000 0.0000 0.0000
0.0544 0.2171 -0.1102 -4.6369 12.6010 11.9915 4.2351 0.9013 -11.9921 0.0000 0.0000 0.0000 0.0000 0.0000 0.0000 8.9662 48.5780 6.0560 0.0000 0.0000 0.0000 0.0000 0.0000 0.0000 -81.1438 -2.3049 11.9682 -7.5858 8.9307 -10.1046 -172.5255 8.9863 177.6884 48.8794 -9.0551 7.2400 12.4745 0.0000 0.0000 2.0507 0.0000 0.0000 -6.3159 0.1447 1.1157 8.5170 0.0000 0.0000 2.8124 0.0000 0.0000 6.9270 -0.2404 -0.8006 32.2481 0.0000 0.0000 22.6344 0.0000 0.0000 13.7683 -0.7884 -1.1371 46.3672 0.0000 0.0000 39.9546 0.0000 0.0000 20.1958 -1.6471 -1.3051 38.7844 0.0000 0.0000 55.4847 0.0000 0.0000 0.0000 0.0000 0.0000 70.7116 -34.1173 30.4714 201.9414 43.1077 301.0437 -84.7567 -49.6778 74.3619 -41.0864 -7.1879 -6.8213 42.3842 0.0000 0.0000 16.7928 0.0000 0.0000 10.3196 -0.2167 -7.5285 0.4832 0.0000 0.0000 2.3769 0.0000 0.0000 -3.8338 -0.4465 -8.5080 1.7145 0.0000 0.0000 3.0234 0.0000 0.0000 -9.6170 0.0463 -10.3683 5.4832 0.0000 0.0000 4.9763 0.0000 0.0000 -16.2976 0.4212 -10.3003 10.3041 0.0000 0.0000 4.7205 0.0000 0.0000 7.5773 -10.7864 -13.1569 0.0000 0.0000 0.0000 0.0000 0.0000 0.0000 15.8314 -2.8217 -11.4803 0.0000 0.0000 0.0000 0.0000 0.0000 0.0000
0.0601 0.2060 -0.1138 -4.9692 11.4587 11.8034 3.7687 0.7946 -11.8894 0.0000 0.0000 0.0000 0.0000 0.0000 0.0000 11.6159 49.0953 7.6969 0.0000 0.0000 0.0000 0.0000 0.0000 0.0000 -80.6035 -1.3137 11.7996 -6.6042 7.8026 -8.6322 -349.0140 24.4618 187.1356 52.7612 -8.0039 17.6885 8.2112 0.0000 0.0000 8.0619 0.0000 0.0000 -15.8370 0.6346 1.7379 4.4871 0.0000 0.0000 0.4410 0.0000 0.0000 -7.5013 0.2618 -0.7799 4.0377 0.0000 0.0000 0.8252 0.0000 0.0000 1.0523 0.0445 0.7885 2.1338 0.0000 0.0000 0.9763 0.0000 0.0000 12.1276 -0.1244 4.0101 4.4626 0.0000 0.0000 1.1631 0.0000 0.0000 0.0000 0.0000 0.0000 70.3220 -33.7796 31.4441 204.2764 37.7025 303.9575 -105.5590 -56.2801 84.3755 -39.1039 -6.3904 -7.7019 28.3569 0.0000 0.0000 13.4397 0.0000 0.0000 9.4897 -0.3387 -7.8320 0.6151 0.0000 0.0000 1.2157 0.0000 0.0000 -3.4383 -0.4163 -9.0328 1.2553 0.0000 0.0000 2.5358 0.0000 0.0000 -11.8276 -0.2518 -11.0917 2.1128 0.0000 0.0000 4.1929 0.0000 0.0000 -18.1985 0.2021 -10.9628 5.8394 0.0000 0.0000 3.8067 0.0000 0.0000 7.8870 -9.7467 -12.8988 0.0000 0.0000 0.0000 0.0000 0.0000 0.0000 15.9758 -1.9676 -11.2603 0.0000 0.0000 0.0000 0.0000 0.0000 0.0000
0.0620 0.2208 -0.1222 -4.9825 10.8445 12.3969 3.1654 0.7050 -12.5426 0.0000 0.0000 0.0000 0.0000 0.0000 0.0000 14.8765 49.5475 9.7297 0.0000 0.0000 0.0000 0.0000 0.0000 0.0000 -79.7328 -1.5627 10.7785 -6.6927 7.2086 -7.9925 -172.5668 6.2852 176.2781 48.9750 -9.2261 6.5825 12.7923 0.0000 0.0000 1.3054 0.0000 0.0000 -7.4910 0.2807 0.4896 8.5580 0.0000 0.0000 2.3647 0.0000 0.0000 5.2275 -0.1154 -2.2451 39.2316 0.0000 0.0000 32.3619 0.0000 0.0000 12.4723 -0.7711 -2.4845 53.8082 0.0000 0.0000 50.6021 0.0000 0.0000 18.7085 -1.6619 -2.0738 44.3383 0.0000 0.0000 60.9634 0.0000 0.0000 0.0000 0.0000 0.0000 66.1912 -34.4868 35.4500 209.0344 35.7964 305.3264 -125.6120 -57.1670 98.5780 -39.0456 -6.0450 -8.7142 19.4879 0.0000 0.0000 9.5362 0.0000 0.0000 7.9733 -0.5124 -7.8387 0.5797 0.0000 0.0000 0.8501 0.0000 0.0000 -4.1528 -0.5018 -9.0026 1.0558 0.0000 0.0000 2.2939 0.0000 0.0000 -12.8647 -0.4250 -10.5849 0.6003 0.0000 0.0000 3.6321 0.0000 0.0000 -18.9705 0.0331 -10.6886 3.6774 0.0000 0.0000 3.1195 0.0000 0.0000 7.8611 -8.8292 -13.3885 0.0000 0.0000 0.0000 0.0000 0.0000 0.0000 16.7091 -2.1559 -11.9142 0.0000 0.0000 0.0000 0.0000 0.0000 0.0000
0.0635 0.2320 -0.1292 -4.9927 10.3971 12.8427 2.7031 0.6260 -13.0298 0.0000 0.0000 0.0000 0.0000 0.0000 0.0000 17.3742 49.8434 11.2890 0.0000 0.0000 0.0000 0.0000 0.0000 0.0000 -79.0634 -1.7339 10.0052 -6.8001 6.7621 -7.5138 -172.6415 6.5604 176.5521 48.9750 -9.2261 6.5825 12.7923 0.0000 0.0000 1.3054 0.0000 0.0000 -7.4910 0.2807 0.4896 8.5580 0.0000 0.0000 2.3647 0.0000 0.0000 5.2275 -0.1154 -2.2451 39.2316 0.0000 0.0000 32.3619 0.0000 0.0000 12.4723 -0.7711 -2.4845 53.8082 0.0000 0.0000 50.6021 0.0000 0.0000 18.7085 -1.6619 -2.0738 44.3383 0.0000 0.0000 60.9634 0.0000 0.0000 0.0000 0.0000 0.0000 62.9208 -34.8016 38.4696 212.9909 35.7112 306.1009 -126.2362 -57.1560 99.4669 -39.0456 -6.0450 -8.7142 19.4879 0.0000 0.0000 9.5362 0.0000 0.0000 7.9733 -0.5124 -7.8387 0.5797 0.0000 0.0000 0.8501 0.0000 0.0000 -4.1528 -0.5018 -9.0026 1.0558 0.0000 0.0000 2.2939 0.0000 0.0000 -12.8647 -0.4250 -10.5849 0.6003 0.0000 0.0000 3.6321 0.0000 0.0000 -18.9705 0.0331 -10.6886 3.6774 0.0000 0.0000 3.1195 0.0000 0.0000 7.8358 -8.1668 -13.7597 0.0000 0.0000 0.0000 0.0000 0.0000 0.0000 17.2517 -2.3424 -12.4214 0.0000 0.0000 0.0000 0.0000 0.0000 0.0000
0.0668 0.2352 -0.1401 -4.7920 9.4988 13.1546 2.0867 0.4960 -13.3655 0.0000 0.0000 0.0000 0.0000 0.0000 0.0000 20.4703 50.3732 13.1067 0.0000 0.0000 0.0000 0.0000 0.0000 0.0000 -78.7253 -1.5562 9.0434 -6.6539 5.6884 -6.2201 -172.7710 7.3509 176.3105 48.7834 -9.2555 6.2439 11.6657 0.0000 0.0000 1.8348 0.0000 0.0000 -6.9671 0.2288 0.7096 10.0628 0.0000 0.0000 3.0133 0.0000 0.0000 5.7416 -0.1461 -1.8589 44.5340 0.0000 0.0000 41.5443 0.0000 0.0000 12.5541 -0.7553 -1.8652 53.8938 0.0000 0.0000 51.4516 0.0000 0.0000 18.3473 -1.6061 -1.8086 42.4640 0.0000 0.0000 61.3735 0.0000 0.0000 0.0000 0.0000 0.0000 58.2636 -34.8690 43.0869 219.4778 36.7986 307.0398 -124.7814 -56.9546 100.9911 -38.2588 -5.4624 -9.7911 21.9424 0.0000 0.0000 23.0527 0.0000 0.0000 0.6767 -1.9166 -11.0010 0.9749 0.0000 0.0000 0.5096 0.0000 0.0000 -5.7245 -0.6457 -8.0895 2.1874 0.0000 0.0000 2.3459 0.0000 0.0000 -13.0266 -0.4968 -8.7708 2.9976 0.0000 0.0000 3.8282 0.0000 0.0000 -17.1022 -0.3009 -6.4252 5.0680 0.0000 0.0000 3.5451 0.0000 0.0000 6.8862 -7.3427 -13.9483 0.0000 0.0000 0.0000 0.0000 0.0000 0.0000 17.0482 -1.8677 -12.7139 0.0000 0.0000 0.0000 0.0000 0.0000 0.0000
0.0693 0.2376 -0.1483 -4.6436 8.8530 13.3816 1.6332 0.3954 -13.6054 0.0000 0.0000 0.0000 0.0000 0.0000 0.0000 22.7789 50.7191 14.4588 0.0000 0.0000 0.0000 0.0000 0.0000 0.0000 -78.4857 -1.4029 8.3709 -6.5740 4.9003 -5.2759 -172.8353 7.1080 176.0570 48.7834 -9.2555 6.2439 11.6657 0.0000 0.0000 1.8348 0.0000 0.0000 -6.9671 0.2288 0.7096 10.0628 0.0000 0.0000 3.0133 0.0000 0.0000 5.7416 -0.1461 -1.8589 44.5340 0.0000 0.0000 41.5443 0.0000 0.0000 12.5541 -0.7553 -1.8652 53.8938 0.0000 0.0000 51.4516 0.0000 0.0000 18.3473 -1.6061 -1.8086 42.4640 0.0000 0.0000 61.3735 0.0000 0.0000 0.0000 0.0000 0.0000 54.9458 -34.6644 46.2713 224.4551 37.9817 308.0816 -122.8079 -56.3438 98.9248 -38.2588 -5.4624 -9.7911 21.9424 0.0000 0.0000 23.0527 0.0000 0.0000 0.6767 -1.9166 -11.0010 0.9749 0.0000 0.0000 0.5096 0.0000 0.0000 -5.7245 -0.6457 -8.0895 2.1874 0.0000 0.0000 2.3459 0.0000 0.0000 -13.0266 -0.4968 -8.7708 2.9976 0.0000 0.0000 3.8282 0.0000 0.0000 -17.1022 -0.3009 -6.4252 5.0680 0.0000 0.0000 3.5451 0.0000 0.0000 6.1715 -6.7565 -14.0916 0.0000 0.0000 0.0000 0.0000 0.0000 0.0000 16.9039 -1.5472 -12.9331 0.0000 0.0000 0.0000 0.0000 0.0000 0.0000
0.0676 0.2455 -0.1455 -4.6803 8.4229 13.3624 1.4467 0.3499 -13.5931 0.0000 0.0000 0.0000 0.0000 0.0000 0.0000 24.7850 50.7696 15.5656 0.0000 0.0000 0.0000 0.0000 0.0000 0.0000 -78.4079 -2.0085 6.9740 -6.2386 4.0946 -4.4013 -173.1044 3.6444 174.2336 51.0447 -9.7740 6.3627 13.1923 0.0000 0.0000 1.1588 0.0000 0.0000 -6.1903 0.1853 0.7404 8.6197 0.0000 0.0000 2.7287 0.0000 0.0000 7.7827 -0.2631 -0.9055 31.2185 0.0000 0.0000 31.6842 0.0000 0.0000 14.1419 -0.8136 -1.6493 44.5032 0.0000 0.0000 52.4463 0.0000 0.0000 20.6604 -1.8111 -2.4647 37.3920 0.0000 0.0000 58.8042 0.0000 0.0000 0.0000 0.0000 0.0000 51.6757 -35.0650 50.4066 226.9970 36.2317 307.1237 -118.7863 -55.9552 98.1557 -39.4342 -5.6604 -10.2369 22.5712 0.0000 0.0000 26.5261 0.0000 0.0000 3.0439 -1.5781 -11.0272 9.1125 0.0000 0.0000 2.6423 0.0000 0.0000 -4.9842 -0.5599 -8.0390 6.6878 0.0000 0.0000 4.0174 0.0000 0.0000 -13.6802 -0.5823 -8.8260 8.7014 0.0000 0.0000 4.9241 0.0000 0.0000 -18.4538 -0.5455 -5.9246 9.9424 0.0000 0.0000 4.1979 0.0000 0.0000 6.0673 -6.8457 -14.0867 0.0000 0.0000 0.0000 0.0000 0.0000 0.0000 16.6164 -1.3248 -12.9312 0.0000 0.0000 0.0000 0.0000 0.0000 0.0000
0.0663 0.2515 -0.1434 -4.7088 8.1192 13.3457 1.3154 0.3178 -13.5803 0.0000 0.0000 0.0000 0.0000 0.0000 0.0000 26.2676 50.7960 16.3805 0.0000 0.0000 0.0000 0.0000 0.0000 0.0000 -78.3346 -2.4372 5.9808 -6.0193 3.5347 -3.7983 -173.0405 3.9551 174.5497 51.0447 -9.7740 6.3627 13.1923 0.0000 0.0000 1.1588 0.0000 0.0000 -6.1903 0.1853 0.7404 8.6197 0.0000 0.0000 2.7287 0.0000 0.0000 7.7827 -0.2631 -0.9055 31.2185 0.0000 0.0000 31.6842 0.0000 0.0000 14.1419 -0.8136 -1.6493 44.5032 0.0000 0.0000 52.4463 0.0000 0.0000 20.6604 -1.8111 -2.4647 37.3920 0.0000 0.0000 58.8042 0.0000 0.0000 0.0000 0.0000 0.0000 49.5026 -35.2603 53.2290 228.7809 35.1799 306.3998 -119.9444 -56.2197 99.5046 -39.4342 -5.6604 -10.2369 22.5712 0.0000 0.0000 26.5261 0.0000 0.0000 3.0439 -1.5781 -11.0272 9.1125 0.0000 0.0000 2.6423 0.0000 0.0000 -4.9842 -0.5599 -8.0390 6.6878 0.0000 0.0000 4.0174 0.0000 0.0000 -13.6802 -0.5823 -8.8260 8.7014 0.0000 0.0000 4.9241 0.0000 0.0000 -18.4538 -0.5455 -5.9246 9.9424 0.0000 0.0000 4.1979 0.0000 0.0000 5.9933 -6.9212 -14.0811 0.0000 0.0000 0.0000 0.0000 0.0000 0.0000 16.4064 -1.1746 -12.9280 0.0000 0.0000 0.0000 0.0000 0.0000 0.0000
0.0673 0.2515 -0.1414 -4.4959 8.1932 13.5522 1.3088 0.3209 -13.7741 0.0000 0.0000 0.0000 0.0000 0.0000 0.0000 25.2283 51.1045 15.8413 0.0000 0.0000 0.0000 0.0000 0.0000 0.0000 -78.5361 -2.8945 5.4738 -5.8072 3.4262 -3.7153 -173.0854 8.5313 176.9782 51.2096 -9.9166 5.8510 13.5008 0.0000 0.0000 1.1683 0.0000 0.0000 -6.0660 0.1801 0.7311 9.3533 0.0000 0.0000 4.5763 0.0000 0.0000 7.6850 -0.1968 -1.8422 37.9561 0.0000 0.0000 45.9642 0.0000 0.0000 14.3066 -0.8302 -2.3181 48.8651 0.0000 0.0000 56.9224 0.0000 0.0000 19.8512 -1.7649 -2.4144 39.5565 0.0000 0.0000 62.6840 0.0000 0.0000 0.0000 0.0000 0.0000 48.5615 -35.8418 55.2184 227.4399 34.1516 304.2502 -116.1811 -55.8156 98.6302 -40.7787 -5.8920 -10.7625 23.3661 0.0000 0.0000 30.8993 0.0000 0.0000 8.1830 -0.7114 -9.8627 22.9921 0.0000 0.0000 5.9923 0.0000 0.0000 -2.2796 -0.2337 -6.9315 17.6781 0.0000 0.0000 6.5751 0.0000 0.0000 -13.2508 -0.5454 -7.9935 17.8361 0.0000 0.0000 6.6983 0.0000 0.0000 -19.1509 -0.8214 -4.4974 18.8338 0.0000 0.0000 5.2389 0.0000 0.0000 5.9398 -7.8802 -14.3640 0.0000 0.0000 0.0000 0.0000 0.0000 0.0000 16.3717 -1.4491 -13.1630 0.0000 0.0000 0.0000 0.0000 0.0000 0.0000
0.0664 0.2543 -0.1347 -4.3114 8.6503 13.6896 1.4053 0.3479 -13.9020 0.0000 0.0000 0.0000 0.0000 0.0000 0.0000 23.9234 50.7056 15.0053 0.0000 0.0000 0.0000 0.0000 0.0000 0.0000 -78.6030 -3.3761 5.4691 -5.6974 3.1498 -3.3788 -173.0440 8.5756 176.6257 51.4402 -10.0540 5.4319 14.1863 0.0000 0.0000 1.6885 0.0000 0.0000 -5.6451 0.1993 0.4208 8.9463 0.0000 0.0000 3.6119 0.0000 0.0000 7.4991 -0.1756 -2.0931 37.1635 0.0000 0.0000 46.2461 0.0000 0.0000 13.8707 -0.8177 -2.4714 42.8086 0.0000 0.0000 56.1002 0.0000 0.0000 19.9738 -1.8161 -2.7792 40.3377 0.0000 0.0000 67.5728 0.0000 0.0000 0.0000 0.0000 0.0000 48.1393 -36.8385 56.8509 223.7713 32.9691 301.0389 -114.2596 -55.8382 99.4871 -42.3144 -6.1878 -11.3029 24.3426 0.0000 0.0000 36.1342 0.0000 0.0000 18.7596 0.7348 -6.3286 48.8737 0.0000 0.0000 10.4784 0.0000 0.0000 4.8011 0.3527 -3.6274 38.2967 0.0000 0.0000 9.7769 0.0000 0.0000 -10.1574 -0.2980 -5.2454 34.4810 0.0000 0.0000 9.0182 0.0000 0.0000 -18.2052 -1.1835 -1.1618 34.9079 0.0000 0.0000 6.7464 0.0000 0.0000 6.4021 -8.5605 -14.5557 0.0000 0.0000 0.0000 0.0000 0.0000 0.0000 16.4652 -1.9891 -13.3383 0.0000 0.0000 0.0000 0.0000 0.0000 0.0000
0.0657 0.2563 -0.1296 -4.1692 8.9767 13.7992 1.4713 0.3670 -14.0027 0.0000 0.0000 0.0000 0.0000 0.0000 0.0000 22.9670 50.4166 14.3969 0.0000 0.0000 0.0000 0.0000 0.0000 0.0000 -78.6509 -3.7613 5.4134 -5.6083 2.8861 -3.0607 -172.8604 8.3351 176.4004 51.4402 -10.0540 5.4319 14.1863 0.0000 0.0000 1.6885 0.0000 0.0000 -5.6451 0.1993 0.4208 8.9463 0.0000 0.0000 3.6119 0.0000 0.0000 7.4991 -0.1756 -2.0931 37.1635 0.0000 0.0000 46.2461 0.0000 0.0000 13.8707 -0.8177 -2.4714 42.8086 0.0000 0.0000 56.1002 0.0000 0.0000 19.9738 -1.8161 -2.7792 40.3377 0.0000 0.0000 67.5728 0.0000 0.0000 0.0000 0.0000 0.0000 47.8365 -37.5463 58.0335 221.0021 31.9798 298.6865 -116.5180 -57.4661 100.7920 -42.3144 -6.1878 -11.3029 24.3426 0.0000 0.0000 36.1342 0.0000 0.0000 18.7596 0.7348 -6.3286 48.8737 0.0000 0.0000 10.4784 0.0000 0.0000 4.8011 0.3527 -3.6274 38.2967 0.0000 0.0000 9.7769 0.0000 0.0000 -10.1574 -0.2980 -5.2454 34.4810 0.0000 0.0000 9.0182 0.0000 0.0000 -18.2052 -1.1835 -1.1618 34.9079 0.0000 0.0000 6.7464 0.0000 0.0000 6.7562 -9.0549 -14.7036 0.0000 0.0000 0.0000 0.0000 0.0000 0.0000 16.5290 -2.3775 -13.4732 0.0000 0.0000 0.0000 0.0000 0.0000 0.0000
0.0606 0.2492 -0.1301 -4.1642 8.4673 13.8885 1.4782 0.3708 -14.0792 0.0000 0.0000 0.0000 0.0000 0.0000 0.0000 22.4365 51.0045 14.1400 0.0000 0.0000 0.0000 0.0000 0.0000 0.0000 -78.6445 -2.7120 6.1554 -5.5015 3.1271 -3.3067 -172.0773 2.9555 174.8557 49.6710 -9.2782 7.1252 12.6587 0.0000 0.0000 1.6719 0.0000 0.0000 -7.1509 0.2395 0.6985 8.5984 0.0000 0.0000 2.4109 0.0000 0.0000 5.9218 -0.2029 -0.8507 34.1583 0.0000 0.0000 27.2093 0.0000 0.0000 13.1493 -0.7645 -1.3035 47.6287 0.0000 0.0000 42.7023 0.0000 0.0000 20.5698 -1.6750 -1.3516 38.8855 0.0000 0.0000 52.9960 0.0000 0.0000 0.0000 0.0000 0.0000 50.4731 -37.3445 55.7964 215.3790 32.3711 296.5659 -114.4546 -57.4441 101.2809 -44.0595 -6.5787 -11.7762 25.5106 0.0000 0.0000 41.9642 0.0000 0.0000 37.6923 1.5163 1.0456 106.2264 0.0000 0.0000 16.5207 0.0000 0.0000 21.1484 0.1639 3.8939 84.1252 0.0000 0.0000 8.4133 0.0000 0.0000 -0.0753 -0.2464 1.7290 71.3698 0.0000 0.0000 9.2154 0.0000 0.0000 -13.0751 -2.0868 5.9963 67.1876 0.0000 0.0000 9.3553 0.0000 0.0000 6.7665 -7.8633 -14.6584 0.0000 0.0000 0.0000 0.0000 0.0000 0.0000 16.4388 -1.8453 -13.5131 0.0000 0.0000 0.0000 0.0000 0.0000 0.0000
0.0568 0.2437 -0.1304 -4.1606 8.0844 13.9561 1.4823 0.3734 -14.1373 0.0000 0.0000 0.0000 0.0000 0.0000 0.0000 22.0305 51.4509 13.9428 0.0000 0.0000 0.0000 0.0000 0.0000 0.0000 -78.6155 -1.8705 6.7819 -5.4349 3.3473 -3.5366 -171.8676 2.6565 174.5463 49.6710 -9.2782 7.1252 12.6587 0.0000 0.0000 1.6719 0.0000 0.0000 -7.1509 0.2395 0.6985 8.5984 0.0000 0.0000 2.4109 0.0000 0.0000 5.9218 -0.2029 -0.8507 34.1583 0.0000 0.0000 27.2093 0.0000 0.0000 13.1493 -0.7645 -1.3035 47.6287 0.0000 0.0000 42.7023 0.0000 0.0000 20.5698 -1.6750 -1.3516 38.8855 0.0000 0.0000 52.9960 0.0000 0.0000 0.0000 0.0000 0.0000 52.2639 -37.1285 54.2786 211.1181 31.9769 294.9544 -116.9126 -59.3899 102.3828 -44.0595 -6.5787 -11.7762 25.5106 0.0000 0.0000 41.9642 0.0000 0.0000 37.6923 1.5163 1.0456 106.2264 0.0000 0.0000 16.5207 0.0000 0.0000 21.1484 0.1639 3.8939 84.1252 0.0000 0.0000 8.4133 0.0000 0.0000 -0.0753 -0.2464 1.7290 71.3698 0.0000 0.0000 9.2154 0.0000 0.0000 -13.0751 -2.0868 5.9963 67.1876 0.0000 0.0000 9.3553 0.0000 0.0000 6.7752 -6.9411 -14.6237 0.0000 0.0000 0.0000 0.0000 0.0000 0.0000 16.3698 -1.4457 -13.5444 0.0000 0.0000 0.0000 0.0000 0.0000 0.0000
0.0551 0.2396 -0.1304 -4.2394 7.7030 14.2272 1.5912 0.4086 -14.3964 0.0000 0.0000 0.0000 0.0000 0.0000 0.0000 22.3400 51.9504 14.1513 0.0000 0.0000 0.0000 0.0000 0.0000 0.0000 -78.5463 -1.1337 7.2640 -5.5132 3.7073 -3.9527 -171.0718 5.3891 175.9038 48.6783 -9.0965 6.8347 13.1320 0.0000 0.0000 2.4543 0.0000 0.0000 -7.7851 0.2166 1.1887 8.4128 0.0000 0.0000 2.4929 0.0000 0.0000 5.5617 -0.1843 -0.9781 35.0337 0.0000 0.0000 26.3046 0.0000 0.0000 13.5280 -0.7899 -1.7124 49.5254 0.0000 0.0000 44.1709 0.0000 0.0000 20.5924 -1.7609 -2.0679 43.4383 0.0000 0.0000 57.6541 0.0000 0.0000 0.0000 0.0000 0.0000 54.6482 -36.9066 52.2701 207.2600 32.3082 293.5525 -113.8767 -58.0258 103.0930 -46.0112 -7.0814 -12.1072 26.8711 0.0000 0.0000 47.8738 0.0000 0.0000 59.9401 -0.8346 9.9262 135.0488 0.0000 0.0000 39.0644 0.0000 0.0000 47.5301 -4.3241 14.5728 166.6795 0.0000 0.0000 25.2690 0.0000 0.0000 24.9351 -4.3292 15.5337 152.0729 0.0000 0.0000 19.3127 0.0000 0.0000 1.8145 -6.1606 19.4611 120.4043 0.0000 0.0000 17.7660 0.0000 0.0000 7.0065 -7.6726 -14.9974 0.0000 0.0000 0.0000 0.0000 0.0000 0.0000 16.4383 -1.6192 -13.8992 0.0000 0.0000 0.0000 0.0000 0.0000 0.0000
0.0527 0.2306 -0.1311 -4.3780 7.0815 14.0541 1.7216 0.4360 -14.2086 0.0000 0.0000 0.0000 0.0000 0.0000 0.0000 21.4406 52.6391 13.6786 0.0000 0.0000 0.0000 0.0000 0.0000 0.0000 -78.4128 0.5948 8.7817 -5.8742 4.2020 -4.4308 -171.2325 5.2979 175.3699 48.8892 -9.0271 7.3752 12.4480 0.0000 0.0000 2.2972 0.0000 0.0000 -6.7345 0.1822 0.9949 8.4039 0.0000 0.0000 1.2641 0.0000 0.0000 6.6478 -0.2644 -0.2213 34.7445 0.0000 0.0000 25.0244 0.0000 0.0000 13.7684 -0.7828 -0.8448 43.7180 0.0000 0.0000 39.7629 0.0000 0.0000 20.8861 -1.7202 -1.5804 37.3622 0.0000 0.0000 51.7550 0.0000 0.0000 0.0000 0.0000 0.0000 57.9268 -36.1327 49.0594 202.0599 30.5065 292.7449 -114.8595 -56.8611 108.7010 -48.1336 -7.6878 -12.2500 28.4132 0.0000 0.0000 53.2292 0.0000 0.0000 74.8638 -4.1802 14.9517 98.8407 0.0000 0.0000 33.9201 0.0000 0.0000 68.5446 -10.5193 20.1590 108.4908 0.0000 0.0000 32.4738 0.0000 0.0000 54.6294 -14.4448 25.4140 113.3239 0.0000 0.0000 28.8014 0.0000 0.0000 27.6343 -17.2342 32.6988 119.2179 0.0000 0.0000 19.5665 0.0000 0.0000 6.8634 -7.4447 -14.8169 0.0000 0.0000 0.0000 0.0000 0.0000 0.0000 16.2342 -0.5299 -13.5955 0.0000 0.0000 0.0000 0.0000 0.0000 0.0000
0.0508 0.2238 -0.1317 -4.4841 6.6184 13.9233 1.8277 0.4581 -14.0664 0.0000 0.0000 0.0000 0.0000 0.0000 0.0000 20.7483 53.1519 13.3092 0.0000 0.0000 0.0000 0.0000 0.0000 0.0000 -78.2601 1.8689 9.9003 -6.1604 4.5857 -4.8045 -171.2605 4.7057 174.7536 48.8892 -9.0271 7.3752 12.4480 0.0000 0.0000 2.2972 0.0000 0.0000 -6.7345 0.1822 0.9949 8.4039 0.0000 0.0000 1.2641 0.0000 0.0000 6.6478 -0.2644 -0.2213 34.7445 0.0000 0.0000 25.0244 0.0000 0.0000 13.7684 -0.7828 -0.8448 43.7180 0.0000 0.0000 39.7629 0.0000 0.0000 20.8861 -1.7202 -1.5804 37.3622 0.0000 0.0000 51.7550 0.0000 0.0000 0.0000 0.0000 0.0000 60.3204 -35.4361 46.6755 198.4342 29.3425 292.3545 -117.6906 -57.8640 110.8772 -48.1336 -7.6878 -12.2500 28.4132 0.0000 0.0000 53.2292 0.0000 0.0000 74.8638 -4.1802 14.9517 98.8407 0.0000 0.0000 33.9201 0.0000 0.0000 68.5446 -10.5193 20.1590 108.4908 0.0000 0.0000 32.4738 0.0000 0.0000 54.6294 -14.4448 25.4140 113.3239 0.0000 0.0000 28.8014 0.0000 0.0000 27.6343 -17.2342 32.6988 119.2179 0.0000 0.0000 19.5665 0.0000 0.0000 6.7626 -7.2733 -14.6795 0.0000 0.0000 0.0000 0.0000 0.0000 0.0000 16.0892 0.2810 -13.3680 0.0000 0.0000 0.0000 0.0000 0.0000 0.0000
0.0521 0.2170 -0.1353 -4.5110 5.9928 14.6274 1.8833 0.4961 -14.7535 0.0000 0.0000 0.0000 0.0000 0.0000 0.0000 19.7986 54.2454 12.9176 0.0000 0.0000 0.0000 0.0000 0.0000 0.0000 -78.2893 3.7470 11.5043 -5.9282 5.5851 -5.9445 -170.1888 1.5889 174.4531 47.6566 -8.6516 7.6440 12.3531 0.0000 0.0000 2.4149 0.0000 0.0000 -8.5517 0.2592 1.1845 9.4913 0.0000 0.0000 1.9287 0.0000 0.0000 3.8149 -0.1582 -0.0237 40.0451 0.0000 0.0000 30.7586 0.0000 0.0000 11.6668 -0.6767 -0.7000 47.4509 0.0000 0.0000 40.6036 0.0000 0.0000 18.9842 -1.5423 -1.0608 38.2752 0.0000 0.0000 53.1272 0.0000 0.0000 0.0000 0.0000 0.0000 62.2677 -34.6668 44.9081 197.1811 31.0761 291.8532 -116.5254 -62.4065 103.6947 -42.5473 -6.1296 -11.7378 32.8841 0.0000 0.0000 48.5375 0.0000 0.0000 71.2223 -3.6649 14.6935 63.3840 0.0000 0.0000 27.1483 0.0000 0.0000 63.8401 -8.2848 18.0353 67.5982 0.0000 0.0000 28.7019 0.0000 0.0000 54.6254 -10.2460 19.5263 75.3263 0.0000 0.0000 28.6242 0.0000 0.0000 49.0957 -15.6732 23.0080 71.9795 0.0000 0.0000 23.5616 0.0000 0.0000 6.4500 -6.6241 -15.3185 0.0000 0.0000 0.0000 0.0000 0.0000 0.0000 16.5819 0.8428 -14.0135 0.0000 0.0000 0.0000 0.0000 0.0000 0.0000
0.0529 0.2119 -0.1381 -4.5311 5.5382 15.1571 1.9198 0.5244 -15.2713 0.0000 0.0000 0.0000 0.0000 0.0000 0.0000 19.0419 55.0474 12.5884 0.0000 0.0000 0.0000 0.0000 0.0000 0.0000 -78.2772 5.0631 12.6067 -5.7716 6.3108 -6.7823 -170.0134 1.4141 174.2720 47.6566 -8.6516 7.6440 12.3531 0.0000 0.0000 2.4149 0.0000 0.0000 -8.5517 0.2592 1.1845 9.4913 0.0000 0.0000 1.9287 0.0000 0.0000 3.8149 -0.1582 -0.0237 40.0451 0.0000 0.0000 30.7586 0.0000 0.0000 11.6668 -0.6767 -0.7000 47.4509 0.0000 0.0000 40.6036 0.0000 0.0000 18.9842 -1.5423 -1.0608 38.2752 0.0000 0.0000 53.1272 0.0000 0.0000 0.0000 0.0000 0.0000 63.6406 -34.0614 43.6405 196.2220 32.3902 291.4118 -113.7251 -62.3865 100.3675 -42.5473 -6.1296 -11.7378 32.8841 0.0000 0.0000 48.5375 0.0000 0.0000 71.2223 -3.6649 14.6935 63.3840 0.0000 0.0000 27.1483 0.0000 0.0000 63.8401 -8.2848 18.0353 67.5982 0.0000 0.0000 28.7019 0.0000 0.0000 54.6254 -10.2460 19.5263 75.3263 0.0000 0.0000 28.6242 0.0000 0.0000 49.0957 -15.6732 23.0080 71.9795 0.0000 0.0000 23.5616 0.0000 0.0000 6.2055 -6.1579 -15.8011 0.0000 0.0000 0.0000 0.0000 0.0000 0.0000 16.9505 1.2451 -14.5023 0.0000 0.0000 0.0000 0.0000 0.0000 0.0000
0.0516 0.2098 -0.1341 -4.5697 6.3530 14.2679 2.1916 0.5624 -14.3852 0.0000 0.0000 0.0000 0.0000 0.0000 0.0000 17.3587 54.6781 11.5928 0.0000 0.0000 0.0000 0.0000 0.0000 0.0000 -78.2326 3.9448 12.2959 -6.1194 5.8530 -6.2244 -170.0707 1.9140 174.8857 47.2900 -8.4080 8.2631 12.0399 0.0000 0.0000 3.4120 0.0000 0.0000 -8.1058 0.2085 1.4242 9.3633 0.0000 0.0000 2.0050 0.0000 0.0000 5.0550 -0.2207 0.2251 39.9041 0.0000 0.0000 33.3355 0.0000 0.0000 12.8489 -0.7278 -0.4471 47.5428 0.0000 0.0000 42.2290 0.0000 0.0000 19.6372 -1.5648 -0.9190 37.5671 0.0000 0.0000 52.9400 0.0000 0.0000 0.0000 0.0000 0.0000 64.8049 -34.5076 42.3850 196.1712 31.5202 292.3330 -114.6248 -65.4471 97.6135 -37.5586 -4.9796 -10.5949 36.8964 0.0000 0.0000 44.1979 0.0000 0.0000 68.7209 -3.7613 15.4762 42.7621 0.0000 0.0000 18.6233 0.0000 0.0000 61.5794 -8.0551 18.2497 51.6275 0.0000 0.0000 19.2998 0.0000 0.0000 55.4997 -9.6715 18.5213 57.7158 0.0000 0.0000 20.2155 0.0000 0.0000 60.2000 -15.1153 19.8650 41.1870 0.0000 0.0000 12.5806 0.0000 0.0000 6.7944 -5.8001 -14.8744 0.0000 0.0000 0.0000 0.0000 0.0000 0.0000 17.1146 1.1834 -13.5182 0.0000 0.0000 0.0000 0.0000 0.0000 0.0000
0.0506 0.2083 -0.1309 -4.5994 6.9214 13.5729 2.3673 0.5771 -13.6918 0.0000 0.0000 0.0000 0.0000 0.0000 0.0000 16.1128 54.4680 10.8649 0.0000 0.0000 0.0000 0.0000 0.0000 0.0000 -78.1655 3.2047 12.1403 -6.4044 5.5794 -5.8829 -170.0890 1.7325 174.6956 47.2900 -8.4080 8.2631 12.0399 0.0000 0.0000 3.4120 0.0000 0.0000 -8.1058 0.2085 1.4242 9.3633 0.0000 0.0000 2.0050 0.0000 0.0000 5.0550 -0.2207 0.2251 39.9041 0.0000 0.0000 33.3355 0.0000 0.0000 12.8489 -0.7278 -0.4471 47.5428 0.0000 0.0000 42.2290 0.0000 0.0000 19.6372 -1.5648 -0.9190 37.5671 0.0000 0.0000 52.9400 0.0000 0.0000 0.0000 0.0000 0.0000 65.6622 -34.8031 41.4782 196.1360 30.8374 293.0376 -114.6276 -64.6442 98.3824 -37.5586 -4.9796 -10.5949 36.8964 0.0000 0.0000 44.1979 0.0000 0.0000 68.7209 -3.7613 15.4762 42.7621 0.0000 0.0000 18.6233 0.0000 0.0000 61.5794 -8.0551 18.2497 51.6275 0.0000 0.0000 19.2998 0.0000 0.0000 55.4997 -9.6715 18.5213 57.7158 0.0000 0.0000 20.2155 0.0000 0.0000 60.2000 -15.1153 19.8650 41.1870 0.0000 0.0000 12.5806 0.0000 0.0000 7.2122 -5.4601 -14.1332 0.0000 0.0000 0.0000 0.0000 0.0000 0.0000 17.2066 1.2010 -12.7436 0.0000 0.0000 0.0000 0.0000 0.0000 0.0000
0.0575 0.2095 -0.1154 -4.8596 8.3482 14.2551 2.9628 0.7596 -14.3669 0.0000 0.0000 0.0000 0.0000 0.0000 0.0000 15.8599 53.1100 10.6136 0.0000 0.0000 0.0000 0.0000 0.0000 0.0000 -78.6843 1.3189 11.4130 -5.8026 5.7891 -6.2542 -327.2989 -61.4683 139.9401 51.1510 -12.4050 -6.8888 5.6617 0.0000 0.0000 4.3052 0.0000 0.0000 2.4568 2.7320 -13.9459 63.3913 0.0000 0.0000 30.2355 0.0000 0.0000 9.4146 0.6537 -12.6984 64.8082 0.0000 0.0000 27.9896 0.0000 0.0000 16.8043 -0.8772 -7.9596 57.8824 0.0000 0.0000 32.4106 0.0000 0.0000 24.9934 -2.2021 -4.7140 38.4081 0.0000 0.0000 32.9513 0.0000 0.0000 0.0000 0.0000 0.0000 64.9148 -36.5152 42.6915 198.2336 29.7118 293.6279 -138.9321 -53.8742 117.2732 -28.2787 -2.2069 -10.3061 17.2409 0.0000 0.0000 12.3730 0.0000 0.0000 55.5725 1.6027 2.8577 51.6103 0.0000 0.0000 15.9086 0.0000 0.0000 28.9180 0.8528 1.4654 34.3436 0.0000 0.0000 11.0545 0.0000 0.0000 29.3370 0.7587 2.3798 62.0818 0.0000 0.0000 23.3136 0.0000 0.0000 33.0590 -0.6581 5.3171 42.2081 0.0000 0.0000 4.8503 0.0000 0.0000 7.9936 -7.6062 -15.1167 0.0000 0.0000 0.0000 0.0000 0.0000 0.0000 17.2472 -0.0977 -13.5768 0.0000 0.0000 0.0000 0.0000 0.0000 0.0000
0.0634 0.2149 -0.1037 -5.0210 9.7163 14.2785 3.3943 0.8714 -14.3816 0.0000 0.0000 0.0000 0.0000 0.0000 0.0000 15.3823 51.6934 10.2278 0.0000 0.0000 0.0000 0.0000 0.0000 0.0000 -79.2173 -0.4520 10.8019 -5.0739 5.6758 -6.1807 -169.5658 8.5571 177.8054 47.4247 -8.5586 7.7838 10.9931 0.0000 0.0000 2.3397 0.0000 0.0000 -7.1832 0.1692 1.3097 9.3667 0.0000 0.0000 1.2448 0.0000 0.0000 6.4562 -0.2529 -0.2907 33.3826 0.0000 0.0000 22.8701 0.0000 0.0000 13.6458 -0.7759 -0.7955 41.7326 0.0000 0.0000 33.6080 0.0000 0.0000 20.3267 -1.6469 -1.2385 31.8274 0.0000 0.0000 43.2903 0.0000 0.0000 0.0000 0.0000 0.0000 63.8557 -37.9496 43.8321 200.4311 29.0512 294.4294 -150.5434 39.8148 164.2614 -38.3636 1.6924 -29.7808 4.9497 0.0000 0.0000 10.0344 0.0000 0.0000 8.1590 -3.1063 -30.7352 54.4491 0.0000 0.0000 14.7476 0.0000 0.0000 -2.7371 -0.3123 -8.2427 11.1038 0.0000 0.0000 2.2766 0.0000 0.0000 -11.8236 0.0450 -18.9614 33.8541 0.0000 0.0000 6.0052 0.0000 0.0000 -20.1150 2.2760 -29.3992 27.0794 0.0000 0.0000 1.4302 0.0000 0.0000 8.5971 -9.9422 -15.4841 0.0000 0.0000 0.0000 0.0000 0.0000 0.0000 17.4108 -1.7031 -13.8139 0.0000 0.0000 0.0000 0.0000 0.0000 0.0000
0.0678 0.2191 -0.0948 -5.1451 10.7311 14.2924 3.7186 0.9551 -14.3841 0.0000 0.0000 0.0000 0.0000 0.0000 0.0000 15.0453 50.6313 9.9566 0.0000 0.0000 0.0000 0.0000 0.0000 0.0000 -79.5966 -1.8021 10.3139 -4.5156 5.5703 -6.0964 -169.2708 8.8535 178.1729 47.4247 -8.5586 7.7838 10.9931 0.0000 0.0000 2.3397 0.0000 0.0000 -7.1832 0.1692 1.3097 9.3667 0.0000 0.0000 1.2448 0.0000 0.0000 6.4562 -0.2529 -0.2907 33.3826 0.0000 0.0000 22.8701 0.0000 0.0000 13.6458 -0.7759 -0.7955 41.7326 0.0000 0.0000 33.6080 0.0000 0.0000 20.3267 -1.6469 -1.2385 31.8274 0.0000 0.0000 43.2903 0.0000 0.0000 0.0000 0.0000 0.0000 62.9300 -39.0080 44.8141 202.1294 28.5891 294.9939 -149.0393 39.9655 166.0487 -38.3636 1.6924 -29.7808 4.9497 0.0000 0.0000 10.0344 0.0000 0.0000 8.1590 -3.1063 -30.7352 54.4491 0.0000 0.0000 14.7476 0.0000 0.0000 -2.7371 -0.3123 -8.2427 11.1038 0.0000 0.0000 2.2766 0.0000 0.0000 -11.8236 0.0450 -18.9614 33.8541 0.0000 0.0000 6.0052 0.0000 0.0000 -20.1150 2.2760 -29.3992 27.0794 0.0000 0.0000 1.4302 0.0000 0.0000 9.0639 -11.7168 -15.7867 0.0000 0.0000 0.0000 0.0000 0.0000 0.0000 17.5320 -2.9003 -14.0011 0.0000 0.0000 0.0000 0.0000 0.0000 0.0000
0.0627 0.2268 -0.1098 -4.9296 10.2797 14.5622 3.6024 0.9424 -14.6411 0.0000 0.0000 0.0000 0.0000 0.0000 0.0000 14.4314 50.8855 9.5525 0.0000 0.0000 0.0000 0.0000 0.0000 0.0000 -79.2738 -0.8412 11.0420 -4.9269 5.8874 -6.4623 -169.3963 6.8346 176.6642 47.2902 -8.4813 7.9604 11.6856 0.0000 0.0000 2.9818 0.0000 0.0000 -6.9352 0.1145 1.6492 9.9818 0.0000 0.0000 2.7534 0.0000 0.0000 6.5939 -0.2942 0.3321 30.4985 0.0000 0.0000 19.0197 0.0000 0.0000 14.3900 -0.8031 -0.1662 40.6101 0.0000 0.0000 30.6412 0.0000 0.0000 21.5936 -1.6546 -0.6114 34.2386 0.0000 0.0000 43.3348 0.0000 0.0000 0.0000 0.0000 0.0000 61.7836 -38.5854 45.7413 205.9566 31.3611 295.8349 -22.7311 -13.4788 324.7756 -46.5313 -10.9901 3.1896 6.8205 0.0000 0.0000 3.2357 0.0000 0.0000 3.7206 3.5209 22.5095 45.5084 0.0000 0.0000 15.7375 0.0000 0.0000 -2.7929 0.1266 9.9597 19.0380 0.0000 0.0000 5.7308 0.0000 0.0000 -4.0403 -0.3372 1.0546 14.4614 0.0000 0.0000 5.9741 0.0000 0.0000 -10.4422 0.2438 -4.8757 8.2912 0.0000 0.0000 4.7100 0.0000 0.0000 8.4094 -9.4513 -15.6813 0.0000 0.0000 0.0000 0.0000 0.0000 0.0000 17.2005 -1.3617 -13.9719 0.0000 0.0000 0.0000 0.0000 0.0000 0.0000
0.0588 0.2326 -0.1213 -4.7673 9.9644 14.7621 3.5187 0.9330 -14.8317 0.0000 0.0000 0.0000 0.0000 0.0000 0.0000 13.9612 51.0481 9.2408 0.0000 0.0000 0.0000 0.0000 0.0000 0.0000 -79.0242 -0.1894 11.5342 -5.2360 6.1047 -6.7169 -169.3507 6.6558 176.4799 47.2902 -8.4813 7.9604 11.6856 0.0000 0.0000 2.9818 0.0000 0.0000 -6.9352 0.1145 1.6492 9.9818 0.0000 0.0000 2.7534 0.0000 0.0000 6.5939 -0.2942 0.3321 30.4985 0.0000 0.0000 19.0197 0.0000 0.0000 14.3900 -0.8031 -0.1662 40.6101 0.0000 0.0000 30.6412 0.0000 0.0000 21.5936 -1.6546 -0.6114 34.2386 0.0000 0.0000 43.3348 0.0000 0.0000 0.0000 0.0000 0.0000 61.0245 -38.2688 46.3419 208.7597 33.1206 296.6688 -25.0973 -13.1061 325.1100 -46.5313 -10.9901 3.1896 6.8205 0.0000 0.0000 3.2357 0.0000 0.0000 3.7206 3.5209 22.5095 45.5084 0.0000 0.0000 15.7375 0.0000 0.0000 -2.7929 0.1266 9.9597 19.0380 0.0000 0.0000 5.7308 0.0000 0.0000 -4.0403 -0.3372 1.0546 14.4614 0.0000 0.0000 5.9741 0.0000 0.0000 -10.4422 0.2438 -4.8757 8.2912 0.0000 0.0000 4.7100 0.0000 0.0000 7.9301 -7.6678 -15.6125 0.0000 0.0000 0.0000 0.0000 0.0000 0.0000 16.9584 -0.2014 -13.9540 0.0000 0.0000 0.0000 0.0000 0.0000 0.0000
0.0671 0.2328 -0.1078 -5.1209 10.6006 14.6252 3.7702 0.9910 -14.7061 0.0000 0.0000 0.0000 0.0000 0.0000 0.0000 14.2834 50.3203 9.4466 0.0000 0.0000 0.0000 0.0000 0.0000 0.0000 -79.5885 -1.0748 11.0725 -3.9661 5.9189 -6.5285 -169.3659 9.8495 178.6848 47.0361 -8.2723 8.5449 10.2969 0.0000 0.0000 2.7879 0.0000 0.0000 -5.8282 0.0182 1.8850 11.3668 0.0000 0.0000 1.3509 0.0000 0.0000 8.5846 -0.3796 0.2831 29.0678 0.0000 0.0000 16.4117 0.0000 0.0000 15.8758 -0.8834 -0.6105 38.3326 0.0000 0.0000 29.1148 0.0000 0.0000 21.7977 -1.7418 -1.2972 30.6752 0.0000 0.0000 35.5555 0.0000 0.0000 0.0000 0.0000 0.0000 60.7832 -38.9141 46.5734 210.4194 33.8212 297.3154 -25.6096 17.6083 311.9062 -56.8827 -12.0046 -0.5613 1.7281 0.0000 0.0000 1.8457 0.0000 0.0000 -14.6393 4.8767 17.4891 31.8946 0.0000 0.0000 8.4020 0.0000 0.0000 -0.2662 -0.0081 1.2645 13.9937 0.0000 0.0000 0.9773 0.0000 0.0000 3.5960 0.7066 -2.9012 11.0269 0.0000 0.0000 0.7440 0.0000 0.0000 -0.6015 1.5544 -5.2791 6.3459 0.0000 0.0000 2.1475 0.0000 0.0000 8.1828 -10.4913 -15.9272 0.0000 0.0000 0.0000 0.0000 0.0000 0.0000 17.2180 -0.8181 -13.9100 0.0000 0.0000 0.0000 0.0000 0.0000 0.0000
0.0735 0.2330 -0.0975 -5.3891 11.0717 14.5172 3.9512 1.0315 -14.6082 0.0000 0.0000 0.0000 0.0000 0.0000 0.0000 14.5473 49.7772 9.6134 0.0000 0.0000 0.0000 0.0000 0.0000 0.0000 -80.0178 -1.7515 10.7018 -2.9829 5.7661 -6.3693 -168.9301 9.9801 178.9212 47.0361 -8.2723 8.5449 10.2969 0.0000 0.0000 2.7879 0.0000 0.0000 -5.8282 0.0182 1.8850 11.3668 0.0000 0.0000 1.3509 0.0000 0.0000 8.5846 -0.3796 0.2831 29.0678 0.0000 0.0000 16.4117 0.0000 0.0000 15.8758 -0.8834 -0.6105 38.3326 0.0000 0.0000 29.1148 0.0000 0.0000 21.7977 -1.7418 -1.2972 30.6752 0.0000 0.0000 35.5555 0.0000 0.0000 0.0000 0.0000 0.0000 60.6323 -39.3947 46.7237 211.5625 34.2204 297.7948 -26.7517 17.3566 311.7209 -56.8827 -12.0046 -0.5613 1.7281 0.0000 0.0000 1.8457 0.0000 0.0000 -14.6393 4.8767 17.4891 31.8946 0.0000 0.0000 8.4020 0.0000 0.0000 -0.2662 -0.0081 1.2645 13.9937 0.0000 0.0000 0.9773 0.0000 0.0000 3.5960 0.7066 -2.9012 11.0269 0.0000 0.0000 0.7440 0.0000 0.0000 -0.6015 1.5544 -5.2791 6.3459 0.0000 0.0000 2.1475 0.0000 0.0000 8.3878 -12.8205 -16.2184 0.0000 0.0000 0.0000 0.0000 0.0000 0.0000 17.4107 -1.2732 -13.8771 0.0000 0.0000 0.0000 0.0000 0.0000 0.0000
0.0735 0.2348 -0.0972 -5.5098 10.8038 13.9336 3.7162 0.9322 -14.0621 0.0000 0.0000 0.0000 0.0000 0.0000 0.0000 14.9245 50.1655 9.9513 0.0000 0.0000 0.0000 0.0000 0.0000 0.0000 -79.8270 -1.5882 10.5778 -3.0488 5.9274 -6.5600 -169.4149 8.5922 178.7140 46.3190 -8.1797 8.1534 10.7318 0.0000 0.0000 3.8779 0.0000 0.0000 -6.9958 0.1733 1.1865 11.2272 0.0000 0.0000 1.5976 0.0000 0.0000 7.0369 -0.2721 -0.3490 28.6659 0.0000 0.0000 17.4970 0.0000 0.0000 14.3569 -0.8215 -1.5834 37.5000 0.0000 0.0000 27.8746 0.0000 0.0000 20.7909 -1.8429 -2.6823 30.5844 0.0000 0.0000 38.5621 0.0000 0.0000 0.0000 0.0000 0.0000 61.8578 -38.8072 45.0550 211.2704 34.8863 298.5395 -36.8365 29.7868 299.5233 -59.4778 -11.9919 -4.5142 6.6483 0.0000 0.0000 8.7732 0.0000 0.0000 -9.7823 0.1292 2.1427 16.8016 0.0000 0.0000 5.6818 0.0000 0.0000 -0.3685 -0.0128 0.7909 16.2708 0.0000 0.0000 5.6766 0.0000 0.0000 -3.7708 -0.5090 2.7753 11.7172 0.0000 0.0000 4.7761 0.0000 0.0000 2.1111 -0.7955 2.9276 5.8326 0.0000 0.0000 7.5389 0.0000 0.0000 8.0826 -14.2317 -15.8386 0.0000 0.0000 0.0000 0.0000 0.0000 0.0000 16.9662 -1.2214 -13.3448 0.0000 0.0000 0.0000 0.0000 0.0000 0.0000
0.0692 0.2464 -0.1026 -5.5595 11.0663 13.5599 3.6419 0.8895 -13.7070 0.0000 0.0000 0.0000 0.0000 0.0000 0.0000 15.6929 49.9492 10.4093 0.0000 0.0000 0.0000 0.0000 0.0000 0.0000 -79.7689 -2.0401 10.3406 -2.9423 5.7853 -6.4026 -170.0469 10.3002 177.9630 48.0634 -8.8522 7.2304 11.4007 0.0000 0.0000 2.2031 0.0000 0.0000 -5.8594 0.1252 1.0736 11.2120 0.0000 0.0000 1.7087 0.0000 0.0000 8.4148 -0.2851 -0.8976 31.2501 0.0000 0.0000 20.3302 0.0000 0.0000 15.4828 -0.8702 -2.0758 39.4454 0.0000 0.0000 32.1310 0.0000 0.0000 22.0360 -1.9276 -2.9270 32.7630 0.0000 0.0000 37.7661 0.0000 0.0000 0.0000 0.0000 0.0000 61.0355 -38.4120 44.6456 211.5134 36.3810 299.2849 -33.2952 34.6489 299.2703 -63.1575 -12.6713 -5.7439 9.5292 0.0000 0.0000 0.6331 0.0000 0.0000 -14.9724 1.0651 5.5077 27.4956 0.0000 0.0000 6.8339 0.0000 0.0000 0.7274 0.0324 -0.3220 14.0022 0.0000 0.0000 2.2212 0.0000 0.0000 2.4902 -0.0717 1.3028 10.2594 0.0000 0.0000 1.2534 0.0000 0.0000 4.2861 -0.5394 2.5031 3.2591 0.0000 0.0000 3.9485 0.0000 0.0000 7.8604 -14.1368 -15.4450 0.0000 0.0000 0.0000 0.0000 0.0000 0.0000 16.3974 -1.6260 -13.0745 0.0000 0.0000 0.0000 0.0000 0.0000 0.0000
0.0660 0.2552 -0.1068 -5.5973 11.2602 13.2740 3.5807 0.8566 -13.4361 0.0000 0.0000 0.0000 0.0000 0.0000 0.0000 16.2699 49.7840 10.7531 0.0000 0.0000 0.0000 0.0000 0.0000 0.0000 -79.7200 -2.3731 10.1668 -2.8650 5.6774 -6.2828 -170.0010 10.3396 178.0149 48.0634 -8.8522 7.2304 11.4007 0.0000 0.0000 2.2031 0.0000 0.0000 -5.8594 0.1252 1.0736 11.2120 0.0000 0.0000 1.7087 0.0000 0.0000 8.4148 -0.2851 -0.8976 31.2501 0.0000 0.0000 20.3302 0.0000 0.0000 15.4828 -0.8702 -2.0758 39.4454 0.0000 0.0000 32.1310 0.0000 0.0000 22.0360 -1.9276 -2.9270 32.7630 0.0000 0.0000 37.7661 0.0000 0.0000 0.0000 0.0000 0.0000 60.4117 -38.1090 44.3242 211.6743 37.5110 299.8532 -33.4956 34.8901 298.7189 -63.1575 -12.6713 -5.7439 9.5292 0.0000 0.0000 0.6331 0.0000 0.0000 -14.9724 1.0651 5.5077 27.4956 0.0000 0.0000 6.8339 0.0000 0.0000 0.7274 0.0324 -0.3220 14.0022 0.0000 0.0000 2.2212 0.0000 0.0000 2.4902 -0.0717 1.3028 10.2594 0.0000 0.0000 1.2534 0.0000 0.0000 4.2861 -0.5394 2.5031 3.2591 0.0000 0.0000 3.9485 0.0000 0.0000 7.6933 -14.0811 -15.1471 0.0000 0.0000 0.0000 0.0000 0.0000 0.0000 15.9727 -1.9296 -12.8658 0.0000 0.0000 0.0000 0.0000 0.0000 0.0000
0.0693 0.2537 -0.1056 -5.6951 11.0554 12.6663 3.5432 0.8087 -12.8408 0.0000 0.0000 0.0000 0.0000 0.0000 0.0000 15.9688 49.7631 10.5603 0.0000 0.0000 0.0000 0.0000 0.0000 0.0000 -79.9033 -2.3247 9.9591 -2.3708 5.4921 -6.0772 -170.2100 12.2961 177.5061 49.2118 -9.3845 6.1274 11.7684 0.0000 0.0000 2.8216 0.0000 0.0000 -5.3604 0.0956 1.0919 11.8804 0.0000 0.0000 2.8046 0.0000 0.0000 9.2350 -0.3069 -0.9733 27.0065 0.0000 0.0000 17.9491 0.0000 0.0000 16.2774 -0.8995 -2.1548 35.6240 0.0000 0.0000 31.0533 0.0000 0.0000 23.0528 -2.0187 -3.3970 29.2263 0.0000 0.0000 33.1818 0.0000 0.0000 0.0000 0.0000 0.0000 60.9013 -37.7532 43.6401 211.5571 37.6643 300.1962 -34.3346 36.5024 301.1631 -60.4936 -12.0615 -5.8266 8.9038 0.0000 0.0000 0.1828 0.0000 0.0000 -12.7530 1.6035 7.3400 34.5884 0.0000 0.0000 12.9869 0.0000 0.0000 -0.2071 -0.0061 1.3921 12.1937 0.0000 0.0000 0.8743 0.0000 0.0000 4.0359 -0.2984 2.9799 6.9670 0.0000 0.0000 1.4429 0.0000 0.0000 5.0835 -1.0064 3.9370 2.2025 0.0000 0.0000 4.3640 0.0000 0.0000 7.6131 -14.5487 -14.6042 0.0000 0.0000 0.0000 0.0000 0.0000 0.0000 15.4443 -2.0126 -12.3299 0.0000 0.0000 0.0000 0.0000 0.0000 0.0000
0.0718 0.2525 -0.1047 -5.7692 10.9036 12.2025 3.5175 0.7735 -12.3857 0.0000 0.0000 0.0000 0.0000 0.0000 0.0000 15.7413 49.7460 10.4153 0.0000 0.0000 0.0000 0.0000 0.0000 0.0000 -80.0413 -2.2884 9.8084 -2.0022 5.3567 -5.9284 -170.0072 12.2866 177.5420 49.2118 -9.3845 6.1274 11.7684 0.0000 0.0000 2.8216 0.0000 0.0000 -5.3604 0.0956 1.0919 11.8804 0.0000 0.0000 2.8046 0.0000 0.0000 9.2350 -0.3069 -0.9733 27.0065 0.0000 0.0000 17.9491 0.0000 0.0000 16.2774 -0.8995 -2.1548 35.6240 0.0000 0.0000 31.0533 0.0000 0.0000 23.0528 -2.0187 -3.3970 29.2263 0.0000 0.0000 33.1818 0.0000 0.0000 0.0000 0.0000 0.0000 61.2761 -37.4826 43.1173 211.4767 37.8291 300.4523 -34.4783 36.4349 301.1228 -60.4936 -12.0615 -5.8266 8.9038 0.0000 0.0000 0.1828 0.0000 0.0000 -12.7530 1.6035 7.3400 34.5884 0.0000 0.0000 12.9869 0.0000 0.0000 -0.2071 -0.0061 1.3921 12.1937 0.0000 0.0000 0.8743 0.0000 0.0000 4.0359 -0.2984 2.9799 6.9670 0.0000 0.0000 1.4429 0.0000 0.0000 5.0835 -1.0064 3.9370 2.2025 0.0000 0.0000 4.3640 0.0000 0.0000 7.5553 -14.8841 -14.1862 0.0000 0.0000 0.0000 0.0000 0.0000 0.0000 15.0549 -2.0807 -11.9188 0.0000 0.0000 0.0000 0.0000 0.0000 0.0000
0.0701 0.2571 -0.1108 -5.5563 10.8241 12.4499 3.3456 0.7505 -12.6296 0.0000 0.0000 0.0000 0.0000 0.0000 0.0000 15.3989 49.7431 10.2152 0.0000 0.0000 0.0000 0.0000 0.0000 0.0000 -79.9613 -2.1588 9.8768 -2.0320 5.4867 -6.0871 -171.4440 4.1785 177.0035 49.9610 -9.2210 7.7271 12.5470 0.0000 0.0000 2.1541 0.0000 0.0000 -4.3402 -0.0186 1.5016 13.5587 0.0000 0.0000 2.3981 0.0000 0.0000 9.2247 -0.3678 -0.2153 30.2513 0.0000 0.0000 19.9655 0.0000 0.0000 15.3697 -0.8622 -1.3716 34.1029 0.0000 0.0000 31.1300 0.0000 0.0000 21.5310 -1.8360 -2.2998 28.7856 0.0000 0.0000 33.7016 0.0000 0.0000 0.0000 0.0000 0.0000 60.5915 -37.6350 44.0064 213.0607 38.7586 300.5722 -36.3683 36.2055 299.5429 -61.4294 -12.4525 -4.1210 7.6699 0.0000 0.0000 4.8490 0.0000 0.0000 -16.2709 2.3908 9.4701 38.7326 0.0000 0.0000 21.5230 0.0000 0.0000 0.4538 0.0129 1.5207 11.5296 0.0000 0.0000 0.7840 0.0000 0.0000 0.0954 -0.3393 2.4348 10.2862 0.0000 0.0000 0.1759 0.0000 0.0000 3.3783 -0.5736 2.4592 4.5405 0.0000 0.0000 3.9465 0.0000 0.0000 7.3530 -14.9577 -14.3885 0.0000 0.0000 0.0000 0.0000 0.0000 0.0000 15.0897 -1.5653 -12.0408 0.0000 0.0000 0.0000 0.0000 0.0000 0.0000
0.0688 0.2606 -0.1154 -5.3956 10.7656 12.6344 3.2154 0.7320 -12.8116 0.0000 0.0000 0.0000 0.0000 0.0000 0.0000 15.1390 49.7362 10.0629 0.0000 0.0000 0.0000 0.0000 0.0000 0.0000 -79.9004 -2.0662 9.9243 -2.0570 5.5793 -6.2008 -171.3998 4.2425 177.0767 49.9610 -9.2210 7.7271 12.5470 0.0000 0.0000 2.1541 0.0000 0.0000 -4.3402 -0.0186 1.5016 13.5587 0.0000 0.0000 2.3981 0.0000 0.0000 9.2247 -0.3678 -0.2153 30.2513 0.0000 0.0000 19.9655 0.0000 0.0000 15.3697 -0.8622 -1.3716 34.1029 0.0000 0.0000 31.1300 0.0000 0.0000 21.5310 -1.8360 -2.2998 28.7856 0.0000 0.0000 33.7016 0.0000 0.0000 0.0000 0.0000 0.0000 60.0600 -37.7444 44.6872 214.2829 39.4360 300.7051 -37.4755 36.0795 298.6026 -61.4294 -12.4525 -4.1210 7.6699 0.0000 0.0000 4.8490 0.0000 0.0000 -16.2709 2.3908 9.4701 38.7326 0.0000 0.0000 21.5230 0.0000 0.0000 0.4538 0.0129 1.5207 11.5296 0.0000 0.0000 0.7840 0.0000 0.0000 0.0954 -0.3393 2.4348 10.2862 0.0000 0.0000 0.1759 0.0000 0.0000 3.3783 -0.5736 2.4592 4.5405 0.0000 0.0000 3.9465 0.0000 0.0000 7.1995 -15.0133 -14.5385 0.0000 0.0000 0.0000 0.0000 0.0000 0.0000 15.1107 -1.1782 -12.1323 0.0000 0.0000 0.0000 0.0000 0.0000 0.0000
0.0728 0.2593 -0.1058 -5.5417 11.1706 12.7078 3.3707 0.7722 -12.8889 0.0000 0.0000 0.0000 0.0000 0.0000 0.0000 14.6289 49.4165 9.8022 0.0000 0.0000 0.0000 0.0000 0.0000 0.0000 -80.1099 -2.6216 9.6775 -1.5428 5.3775 -5.9747 -170.8148 5.9965 177.8185 49.1944 -9.0758 7.5020 11.4594 0.0000 0.0000 2.8308 0.0000 0.0000 -5.4373 0.0306 1.6111 12.9501 0.0000 0.0000 2.7515 0.0000 0.0000 8.3770 -0.3273 -0.3051 30.9775 0.0000 0.0000 21.5569 0.0000 0.0000 14.4311 -0.8199 -1.2406 35.4665 0.0000 0.0000 32.3284 0.0000 0.0000 20.2654 -1.7797 -2.3663 30.6456 0.0000 0.0000 38.7506 0.0000 0.0000 0.0000 0.0000 0.0000 59.8766 -38.2437 45.0308 214.2539 38.7065 300.6006 -36.5240 37.8923 300.9701 -61.9913 -12.3975 -5.8583 3.5133 0.0000 0.0000 4.9730 0.0000 0.0000 -21.0254 2.8728 10.1931 44.3221 0.0000 0.0000 28.5104 0.0000 0.0000 -1.1751 -0.0250 2.3313 8.3231 0.0000 0.0000 0.8396 0.0000 0.0000 1.5177 -0.4906 3.7374 10.8561 0.0000 0.0000 1.9026 0.0000 0.0000 3.1718 -0.6525 2.6597 4.7497 0.0000 0.0000 4.6013 0.0000 0.0000 7.4497 -15.4646 -14.7324 0.0000 0.0000 0.0000 0.0000 0.0000 0.0000 15.3196 -1.6212 -12.2689 0.0000 0.0000 0.0000 0.0000 0.0000 0.0000
0.0716 0.2574 -0.1091 -5.7021 10.6661 11.6577 3.3002 0.6936 -11.8552 0.0000 0.0000 0.0000 0.0000 0.0000 0.0000 14.8348 49.7230 9.9061 0.0000 0.0000 0.0000 0.0000 0.0000 0.0000 -79.9940 -2.2982 9.5240 -1.6716 5.1842 -5.7533 -170.1510 3.9906 175.6056 50.3895 -9.4822 7.0037 13.1234 0.0000 0.0000 1.5547 0.0000 0.0000 -6.5001 0.0992 1.5642 12.2743 0.0000 0.0000 3.2165 0.0000 0.0000 7.2875 -0.3124 0.1312 30.5446 0.0000 0.0000 24.3889 0.0000 0.0000 13.8195 -0.7886 -1.0219 36.3392 0.0000 0.0000 37.3312 0.0000 0.0000 20.4278 -1.7922 -2.4026 30.2494 0.0000 0.0000 39.7948 0.0000 0.0000 0.0000 0.0000 0.0000 61.4328 -37.5353 43.3628 213.0356 38.9749 300.6767 -40.6714 41.9992 297.0686 -65.0696 -13.1267 -5.3690 6.3275 0.0000 0.0000 7.6161 0.0000 0.0000 -16.9792 1.3848 6.4217 50.0408 0.0000 0.0000 33.2602 0.0000 0.0000 0.1114 0.0038 0.8213 8.4498 0.0000 0.0000 1.4136 0.0000 0.0000 -1.4345 -0.3946 2.4536 11.8214 0.0000 0.0000 3.2145 0.0000 0.0000 1.9235 -1.0898 3.8046 6.6108 0.0000 0.0000 3.3237 0.0000 0.0000 7.3856 -14.4827 -13.5408 0.0000 0.0000 0.0000 0.0000 0.0000 0.0000 14.9951 -0.3757 -11.0325 0.0000 0.0000 0.0000 0.0000 0.0000 0.0000
0.0708 0.2560 -0.1117 -5.8251 10.2713 10.8438 3.2534 0.6361 -11.0514 0.0000 0.0000 0.0000 0.0000 0.0000 0.0000 14.9891 49.9627 9.9849 0.0000 0.0000 0.0000 0.0000 0.0000 0.0000 -79.9081 -2.0426 9.4101 -1.7634 5.0414 -5.5894 -170.1927 3.9520 175.5613 50.3895 -9.4822 7.0037 13.1234 0.0000 0.0000 1.5547 0.0000 0.0000 -6.5001 0.0992 1.5642 12.2743 0.0000 0.0000 3.2165 0.0000 0.0000 7.2875 -0.3124 0.1312 30.5446 0.0000 0.0000 24.3889 0.0000 0.0000 13.8195 -0.7886 -1.0219 36.3392 0.0000 0.0000 37.3312 0.0000 0.0000 20.4278 -1.7922 -2.4026 30.2494 0.0000 0.0000 39.7948 0.0000 0.0000 0.0000 0.0000 0.0000 62.6397 -36.9506 42.0585 211.9922 39.1052 300.7169 -40.5693 42.0622 297.0876 -65.0696 -13.1267 -5.3690 6.3275 0.0000 0.0000 7.6161 0.0000 0.0000 -16.9792 1.3848 6.4217 50.0408 0.0000 0.0000 33.2602 0.0000 0.0000 0.1114 0.0038 0.8213 8.4498 0.0000 0.0000 1.4136 0.0000 0.0000 -1.4345 -0.3946 2.4536 11.8214 0.0000 0.0000 3.2145 0.0000 0.0000 1.9235 -1.0898 3.8046 6.6108 0.0000 0.0000 3.3237 0.0000 0.0000 7.3469 -13.7375 -12.6226 0.0000 0.0000 0.0000 0.0000 0.0000 0.0000 14.7598 0.5795 -10.0796 0.0000 0.0000 0.0000 0.0000 0.0000 0.0000
0.0714 0.2517 -0.1119 -5.8031 9.9423 11.3643 3.1455 0.6448 -11.5721 0.0000 0.0000 0.0000 0.0000 0.0000 0.0000 15.2852 50.2641 10.2163 0.0000 0.0000 0.0000 0.0000 0.0000 0.0000 -79.7627 -1.4919 9.6736 -1.6844 5.2581 -5.8418 -169.7285 8.0442 176.7542 47.7806 -8.8814 6.8042 11.0456 0.0000 0.0000 2.3106 0.0000 0.0000 -6.2461 0.2099 0.5678 13.1409 0.0000 0.0000 2.1195 0.0000 0.0000 7.7691 -0.2526 -1.0532 36.3900 0.0000 0.0000 29.8116 0.0000 0.0000 14.8245 -0.8500 -2.4855 40.5952 0.0000 0.0000 39.9919 0.0000 0.0000 20.7649 -1.9402 -3.5288 34.0407 0.0000 0.0000 43.6631 0.0000 0.0000 0.0000 0.0000 0.0000 63.1330 -36.7384 41.7784 212.1013 39.4120 300.7072 -35.5101 35.1062 303.4083 -61.9818 -12.4412 -5.4007 6.3219 0.0000 0.0000 5.6441 0.0000 0.0000 -20.8356 3.1852 11.0443 51.4589 0.0000 0.0000 23.3534 0.0000 0.0000 -0.3492 -0.0152 -0.1978 9.4603 0.0000 0.0000 1.3141 0.0000 0.0000 1.0482 0.1322 -0.4864 9.8067 0.0000 0.0000 1.8115 0.0000 0.0000 3.5925 0.6216 -0.9990 5.3846 0.0000 0.0000 2.2927 0.0000 0.0000 7.4921 -13.6305 -13.1402 0.0000 0.0000 0.0000 0.0000 0.0000 0.0000 15.2155 0.6658 -10.5771 0.0000 0.0000 0.0000 0.0000 0.0000 0.0000
0.0719 0.2485 -0.1120 -5.7865 9.6928 11.7482 3.0574 0.6481 -11.9566 0.0000 0.0000 0.0000 0.0000 0.0000 0.0000 15.5154 50.4947 10.3966 0.0000 0.0000 0.0000 0.0000 0.0000 0.0000 -79.6462 -1.0625 9.8902 -1.6318 5.4348 -6.0473 -169.6608 8.0554 176.7759 47.7806 -8.8814 6.8042 11.0456 0.0000 0.0000 2.3106 0.0000 0.0000 -6.2461 0.2099 0.5678 13.1409 0.0000 0.0000 2.1195 0.0000 0.0000 7.7691 -0.2526 -1.0532 36.3900 0.0000 0.0000 29.8116 0.0000 0.0000 14.8245 -0.8500 -2.4855 40.5952 0.0000 0.0000 39.9919 0.0000 0.0000 20.7649 -1.9402 -3.5288 34.0407 0.0000 0.0000 43.6631 0.0000 0.0000 0.0000 0.0000 0.0000 63.5004 -36.5769 41.5735 212.1843 39.6320 300.7006 -35.8054 35.1138 303.1240 -61.9818 -12.4412 -5.4007 6.3219 0.0000 0.0000 5.6441 0.0000 0.0000 -20.8356 3.1852 11.0443 51.4589 0.0000 0.0000 23.3534 0.0000 0.0000 -0.3492 -0.0152 -0.1978 9.4603 0.0000 0.0000 1.3141 0.0000 0.0000 1.0482 0.1322 -0.4864 9.8067 0.0000 0.0000 1.8115 0.0000 0.0000 3.5925 0.6216 -0.9990 5.3846 0.0000 0.0000 2.2927 0.0000 0.0000 7.5994 -13.5504 -13.5217 0.0000 0.0000 0.0000 0.0000 0.0000 0.0000 15.5535 0.7448 -10.9428 0.0000 0.0000 0.0000 0.0000 0.0000 0.0000
0.0699 0.2450 -0.1103 -5.9508 9.7109 11.1362 3.2203 0.6468 -11.3446 0.0000 0.0000 0.0000 0.0000 0.0000 0.0000 15.1198 50.6485 10.1772 0.0000 0.0000 0.0000 0.0000 0.0000 0.0000 -79.7518 -1.0468 9.9641 -1.8017 5.5114 -6.1235 -169.4130 4.3534 177.0787 48.7589 -8.8255 8.1192 12.1918 0.0000 0.0000 1.9563 0.0000 0.0000 -5.9368 0.0785 1.4691 11.6019 0.0000 0.0000 1.4545 0.0000 0.0000 7.9916 -0.3552 0.3104 29.5798 0.0000 0.0000 19.0662 0.0000 0.0000 14.7682 -0.8292 -0.7058 33.1611 0.0000 0.0000 27.9056 0.0000 0.0000 20.7318 -1.7140 -1.6037 29.2904 0.0000 0.0000 37.7136 0.0000 0.0000 0.0000 0.0000 0.0000 64.7356 -36.5250 40.6057 210.4484 38.6505 300.2264 -33.7687 33.0507 306.3777 -60.7984 -12.3047 -4.2547 2.3522 0.0000 0.0000 5.3496 0.0000 0.0000 -16.3275 3.6918 13.3545 54.6685 0.0000 0.0000 17.7477 0.0000 0.0000 0.9026 0.0231 1.8440 10.6168 0.0000 0.0000 0.3674 0.0000 0.0000 2.9577 0.1599 0.0439 9.7198 0.0000 0.0000 0.4261 0.0000 0.0000 6.2257 0.8383 -0.9511 5.6112 0.0000 0.0000 3.4687 0.0000 0.0000 7.8470 -11.9287 -12.7134 0.0000 0.0000 0.0000 0.0000 0.0000 0.0000 16.0235 2.2329 -9.9857 0.0000 0.0000 0.0000 0.0000 0.0000 0.0000
0.0752 0.2370 -0.0919 -6.1002 10.5773 11.1499 3.5627 0.7165 -11.3560 0.0000 0.0000 0.0000 0.0000 0.0000 0.0000 14.5490 49.9870 9.8074 0.0000 0.0000 0.0000 0.0000 0.0000 0.0000 -80.4364 -2.0355 9.6874 -1.2300 5.5542 -6.1554 -168.4269 4.4724 177.3970 48.6601 -8.6629 8.7180 13.3923 0.0000 0.0000 2.2268 0.0000 0.0000 -7.0540 0.1043 1.7945 9.9361 0.0000 0.0000 2.9625 0.0000 0.0000 6.3308 -0.2778 0.2487 28.0266 0.0000 0.0000 20.4317 0.0000 0.0000 13.6004 -0.7610 -0.1856 37.0937 0.0000 0.0000 33.5632 0.0000 0.0000 20.2018 -1.5859 -0.7990 34.2566 0.0000 0.0000 47.9223 0.0000 0.0000 0.0000 0.0000 0.0000 65.6919 -37.4914 40.2836 208.8695 36.1055 299.7798 -31.0933 33.2597 309.8569 -61.4772 -12.4729 -4.0215 3.0353 0.0000 0.0000 3.0601 0.0000 0.0000 -15.5745 3.6769 13.4939 57.8021 0.0000 0.0000 24.4065 0.0000 0.0000 -0.4964 -0.0165 0.9621 9.2585 0.0000 0.0000 0.5438 0.0000 0.0000 1.2405 0.1389 -0.4537 7.7985 0.0000 0.0000 0.5178 0.0000 0.0000 4.5685 0.7639 -1.1575 5.4898 0.0000 0.0000 3.2738 0.0000 0.0000 8.2889 -11.5613 -12.7221 0.0000 0.0000 0.0000 0.0000 0.0000 0.0000 16.4713 1.5764 -10.0308 0.0000 0.0000 0.0000 0.0000 0.0000 0.0000
0.0792 0.2309 -0.0780 -6.2155 11.2633 11.1532 3.8297 0.7703 -11.3552 0.0000 0.0000 0.0000 0.0000 0.0000 0.0000 14.1165 49.4576 9.5269 0.0000 0.0000 0.0000 0.0000 0.0000 0.0000 -80.9620 -2.8253 9.4682 -0.7896 5.5866 -6.1756 -168.3928 4.6429 177.5869 48.6601 -8.6629 8.7180 13.3923 0.0000 0.0000 2.2268 0.0000 0.0000 -7.0540 0.1043 1.7945 9.9361 0.0000 0.0000 2.9625 0.0000 0.0000 6.3308 -0.2778 0.2487 28.0266 0.0000 0.0000 20.4317 0.0000 0.0000 13.6004 -0.7610 -0.1856 37.0937 0.0000 0.0000 33.5632 0.0000 0.0000 20.2018 -1.5859 -0.7990 34.2566 0.0000 0.0000 47.9223 0.0000 0.0000 0.0000 0.0000 0.0000 66.5033 -38.2166 39.9438 207.6563 34.2016 299.5455 -29.9867 32.8014 311.3931 -61.4772 -12.4729 -4.0215 3.0353 0.0000 0.0000 3.0601 0.0000 0.0000 -15.5745 3.6769 13.4939 57.8021 0.0000 0.0000 24.4065 0.0000 0.0000 -0.4964 -0.0165 0.9621 9.2585 0.0000 0.0000 0.5438 0.0000 0.0000 1.2405 0.1389 -0.4537 7.7985 0.0000 0.0000 0.5178 0.0000 0.0000 4.5685 0.7639 -1.1575 5.4898 0.0000 0.0000 3.2738 0.0000 0.0000 8.6318 -11.3092 -12.7198 0.0000 0.0000 0.0000 0.0000 0.0000 0.0000 16.8172 1.0492 -10.0641 0.0000 0.0000 0.0000 0.0000 0.0000 0.0000
0.0791 0.2288 -0.0796 -6.2807 10.9406 10.8607 3.6840 0.7224 -11.0795 0.0000 0.0000 0.0000 0.0000 0.0000 0.0000 14.6521 49.7836 9.8931 0.0000 0.0000 0.0000 0.0000 0.0000 0.0000 -80.9864 -2.2150 9.8230 -0.6371 5.6763 -6.2656 -167.9594 2.1503 175.8391 48.9849 -8.8798 8.1384 13.9645 0.0000 0.0000 2.6951 0.0000 0.0000 -8.6570 0.2408 1.4157 10.7948 0.0000 0.0000 3.3252 0.0000 0.0000 5.0701 -0.2055 -0.1339 35.1980 0.0000 0.0000 25.1688 0.0000 0.0000 11.7303 -0.7094 -1.4957 42.5943 0.0000 0.0000 37.8722 0.0000 0.0000 18.6558 -1.7481 -2.7320 38.5413 0.0000 0.0000 49.1403 0.0000 0.0000 0.0000 0.0000 0.0000 67.7494 -37.7058 38.6955 206.7727 34.6422 299.5407 -28.5389 26.8269 313.2834 -60.1186 -12.5363 -1.0061 0.5335 0.0000 0.0000 2.5887 0.0000 0.0000 -21.0431 6.3032 19.1700 55.1154 0.0000 0.0000 22.6897 0.0000 0.0000 -1.6534 -0.0563 0.8741 9.5442 0.0000 0.0000 1.4825 0.0000 0.0000 0.4663 0.3393 -2.1560 8.1102 0.0000 0.0000 0.9783 0.0000 0.0000 3.6222 1.7828 -4.3644 6.0824 0.0000 0.0000 2.9662 0.0000 0.0000 8.4418 -12.0753 -12.5449 0.0000 0.0000 0.0000 0.0000 0.0000 0.0000 16.6936 0.3245 -9.9753 0.0000 0.0000 0.0000 0.0000 0.0000 0.0000
0.0790 0.2272 -0.0809 -6.3301 10.6982 10.6388 3.5755 0.6874 -10.8692 0.0000 0.0000 0.0000 0.0000 0.0000 0.0000 15.0613 50.0271 10.1742 0.0000 0.0000 0.0000 0.0000 0.0000 0.0000 -81.0019 -1.7646 10.0824 -0.5215 5.7478 -6.3382 -167.9499 1.9983 175.6725 48.9849 -8.8798 8.1384 13.9645 0.0000 0.0000 2.6951 0.0000 0.0000 -8.6570 0.2408 1.4157 10.7948 0.0000 0.0000 3.3252 0.0000 0.0000 5.0701 -0.2055 -0.1339 35.1980 0.0000 0.0000 25.1688 0.0000 0.0000 11.7303 -0.7094 -1.4957 42.5943 0.0000 0.0000 37.8722 0.0000 0.0000 18.6558 -1.7481 -2.7320 38.5413 0.0000 0.0000 49.1403 0.0000 0.0000 0.0000 0.0000 0.0000 68.6858 -37.2979 37.7481 206.0994 35.0088 299.5311 -28.7288 26.9465 312.9828 -60.1186 -12.5363 -1.0061 0.5335 0.0000 0.0000 2.5887 0.0000 0.0000 -21.0431 6.3032 19.1700 55.1154 0.0000 0.0000 22.6897 0.0000 0.0000 -1.6534 -0.0563 0.8741 9.5442 0.0000 0.0000 1.4825 0.0000 0.0000 0.4663 0.3393 -2.1560 8.1102 0.0000 0.0000 0.9783 0.0000 0.0000 3.6222 1.7828 -4.3644 6.0824 0.0000 0.0000 2.9662 0.0000 0.0000 8.3002 -12.5982 -12.4008 0.0000 0.0000 0.0000 0.0000 0.0000 0.0000 16.6036 -0.2220 -9.9046 0.0000 0.0000 0.0000 0.0000 0.0000 0.0000
0.0773 0.2193 -0.0852 -6.2311 10.6027 11.1033 3.7021 0.7413 -11.3072 0.0000 0.0000 0.0000 0.0000 0.0000 0.0000 14.3527 50.1600 9.7293 0.0000 0.0000 0.0000 0.0000 0.0000 0.0000 -80.6708 -0.7673 11.2776 -1.2154 6.1804 -6.8344 -168.2233 1.9423 174.9923 49.2029 -8.9620 8.0233 14.5055 0.0000 0.0000 3.6807 0.0000 0.0000 -7.7398 0.1799 1.4922 10.7090 0.0000 0.0000 2.3785 0.0000 0.0000 6.2160 -0.2555 -0.0694 33.3003 0.0000 0.0000 23.5009 0.0000 0.0000 13.3615 -0.7669 -0.9998 38.4864 0.0000 0.0000 36.8803 0.0000 0.0000 19.5411 -1.6568 -1.6881 33.5501 0.0000 0.0000 45.1196 0.0000 0.0000 0.0000 0.0000 0.0000 69.4325 -37.0989 37.2140 205.3632 35.2713 299.1237 -26.9449 19.2255 316.7136 -59.2367 -12.7758 2.2764 2.5236 0.0000 0.0000 11.0221 0.0000 0.0000 -17.3147 7.9640 25.4100 53.9264 0.0000 0.0000 26.8415 0.0000 0.0000 -1.2172 -0.0406 0.9532 9.9554 0.0000 0.0000 0.3865 0.0000 0.0000 1.1588 0.5686 -3.3219 8.7377 0.0000 0.0000 2.0058 0.0000 0.0000 3.6712 2.2329 -5.6472 6.7281 0.0000 0.0000 3.9914 0.0000 0.0000 8.3673 -11.9106 -12.7556 0.0000 0.0000 0.0000 0.0000 0.0000 0.0000 17.1241 -0.1289 -10.3120 0.0000 0.0000 0.0000 0.0000 0.0000 0.0000
0.0759 0.2132 -0.0883 -6.1559 10.5282 11.4544 3.7987 0.7836 -11.6383 0.0000 0.0000 0.0000 0.0000 0.0000 0.0000 13.8105 50.2583 9.3873 0.0000 0.0000 0.0000 0.0000 0.0000 0.0000 -80.3838 0.0095 12.2193 -1.7628 6.5237 -7.2265 -168.2779 1.4983 174.5063 49.2029 -8.9620 8.0233 14.5055 0.0000 0.0000 3.6807 0.0000 0.0000 -7.7398 0.1799 1.4922 10.7090 0.0000 0.0000 2.3785 0.0000 0.0000 6.2160 -0.2555 -0.0694 33.3003 0.0000 0.0000 23.5009 0.0000 0.0000 13.3615 -0.7669 -0.9998 38.4864 0.0000 0.0000 36.8803 0.0000 0.0000 19.5411 -1.6568 -1.6881 33.5501 0.0000 0.0000 45.1196 0.0000 0.0000 0.0000 0.0000 0.0000 69.9576 -36.9528 36.8476 204.8330 35.4593 298.8105 -27.2112 19.3729 316.3754 -59.2367 -12.7758 2.2764 2.5236 0.0000 0.0000 11.0221 0.0000 0.0000 -17.3147 7.9640 25.4100 53.9264 0.0000 0.0000 26.8415 0.0000 0.0000 -1.2172 -0.0406 0.9532 9.9554 0.0000 0.0000 0.3865 0.0000 0.0000 1.1588 0.5686 -3.3219 8.7377 0.0000 0.0000 2.0058 0.0000 0.0000 3.6712 2.2329 -5.6472 6.7281 0.0000 0.0000 3.9914 0.0000 0.0000 8.4172 -11.3800 -13.0221 0.0000 0.0000 0.0000 0.0000 0.0000 0.0000 17.5194 -0.0575 -10.6200 0.0000 0.0000 0.0000 0.0000 0.0000 0.0000
0.0738 0.2120 -0.0808 -5.7642 11.5097 11.4700 4.1055 0.8441 -11.5983 0.0000 0.0000 0.0000 0.0000 0.0000 0.0000 12.3816 49.0201 8.2706 0.0000 0.0000 0.0000 0.0000 0.0000 0.0000 -80.8788 -1.0436 12.0916 -2.3963 6.6450 -7.3491 -167.6727 3.2256 175.0607 49.3621 -9.0952 7.6064 14.7137 0.0000 0.0000 3.9212 0.0000 0.0000 -8.7089 0.2056 1.7816 10.0534 0.0000 0.0000 3.7852 0.0000 0.0000 5.4211 -0.1864 -0.8371 39.9314 0.0000 0.0000 30.0191 0.0000 0.0000 13.0994 -0.7706 -1.6308 46.0901 0.0000 0.0000 40.9558 0.0000 0.0000 19.3229 -1.6638 -1.8370 41.9154 0.0000 0.0000 52.2821 0.0000 0.0000 0.0000 0.0000 0.0000 69.6947 -37.4191 36.7241 202.8476 35.3130 297.9713 -23.2986 14.8850 319.1158 -57.0957 -12.6734 3.9050 9.0504 0.0000 0.0000 5.7490 0.0000 0.0000 1.8026 3.2803 19.2875 73.9344 0.0000 0.0000 25.6994 0.0000 0.0000 -2.8585 -0.0349 3.3741 8.9709 0.0000 0.0000 1.1637 0.0000 0.0000 -3.6491 -0.1773 -0.2530 4.4011 0.0000 0.0000 2.2183 0.0000 0.0000 -4.0794 0.5072 -3.0340 4.0254 0.0000 0.0000 2.6901 0.0000 0.0000 8.6642 -10.7732 -12.8682 0.0000 0.0000 0.0000 0.0000 0.0000 0.0000 17.3518 -0.3205 -10.5608 0.0000 0.0000 0.0000 0.0000 0.0000 0.0000
0.0653 0.2113 -0.0982 -5.4495 10.7294 11.1789 3.7647 0.7537 -11.3054 0.0000 0.0000 0.0000 0.0000 0.0000 0.0000 11.9223 49.6860 7.9950 0.0000 0.0000 0.0000 0.0000 0.0000 0.0000 -80.5082 0.1718 12.7327 -3.4972 6.8808 -7.5678 -169.8277 2.0023 174.2817 49.0789 -9.0270 7.5894 12.6341 0.0000 0.0000 1.0020 0.0000 0.0000 -6.8148 0.1703 1.1289 10.5734 0.0000 0.0000 1.5442 0.0000 0.0000 6.9477 -0.2704 -0.3205 41.8794 0.0000 0.0000 34.2000 0.0000 0.0000 13.5597 -0.7773 -1.0559 45.4729 0.0000 0.0000 46.1737 0.0000 0.0000 19.8492 -1.6465 -1.4658 35.9256 0.0000 0.0000 48.8679 0.0000 0.0000 0.0000 0.0000 0.0000 71.2327 -35.5311 34.1603 201.6067 41.2345 296.8382 -32.5348 10.5242 311.9863 -51.1334 -10.3365 -3.6702 5.6991 0.0000 0.0000 10.4375 0.0000 0.0000 21.2606 0.9615 -2.6721 125.0680 0.0000 0.0000 15.7990 0.0000 0.0000 28.9254 5.0611 -14.6748 79.9254 0.0000 0.0000 18.7911 0.0000 0.0000 20.9174 3.9095 -7.9832 58.6083 0.0000 0.0000 31.2495 0.0000 0.0000 0.7022 0.9957 -2.9876 24.1728 0.0000 0.0000 17.6155 0.0000 0.0000 8.0816 -9.0679 -12.2637 0.0000 0.0000 0.0000 0.0000 0.0000 0.0000 16.7581 0.5719 -10.1612 0.0000 0.0000 0.0000 0.0000 0.0000 0.0000
0.0589 0.2108 -0.1116 -5.2083 10.1335 10.9463 3.5025 0.6862 -11.0706 0.0000 0.0000 0.0000 0.0000 0.0000 0.0000 11.5769 50.2016 7.7889 0.0000 0.0000 0.0000 0.0000 0.0000 0.0000 -80.1998 1.1357 13.2747 -4.3324 7.1110 -7.7891 -170.3145 1.7422 174.0002 49.0789 -9.0270 7.5894 12.6341 0.0000 0.0000 1.0020 0.0000 0.0000 -6.8148 0.1703 1.1289 10.5734 0.0000 0.0000 1.5442 0.0000 0.0000 6.9477 -0.2704 -0.3205 41.8794 0.0000 0.0000 34.2000 0.0000 0.0000 13.5597 -0.7773 -1.0559 45.4729 0.0000 0.0000 46.1737 0.0000 0.0000 19.8492 -1.6465 -1.4658 35.9256 0.0000 0.0000 48.8679 0.0000 0.0000 0.0000 0.0000 0.0000 72.1727 -34.0934 32.4175 200.6219 45.7988 295.7091 -35.8446 11.6921 308.8144 -51.1334 -10.3365 -3.6702 5.6991 0.0000 0.0000 10.4375 0.0000 0.0000 21.2606 0.9615 -2.6721 125.0680 0.0000 0.0000 15.7990 0.0000 0.0000 28.9254 5.0611 -14.6748 79.9254 0.0000 0.0000 18.7911 0.0000 0.0000 20.9174 3.9095 -7.9832 58.6083 0.0000 0.0000 31.2495 0.0000 0.0000 0.7022 0.9957 -2.9876 24.1728 0.0000 0.0000 17.6155 0.0000 0.0000 7.6497 -7.8143 -11.8204 0.0000 0.0000 0.0000 0.0000 0.0000 0.0000 16.3085 1.2537 -9.8555 0.0000 0.0000 0.0000 0.0000 0.0000 0.0000
0.0506 0.2092 -0.1212 -4.7764 10.3031 11.6663 3.3893 0.7067 -11.7638 0.0000 0.0000 0.0000 0.0000 0.0000 0.0000 10.3413 50.4422 7.0928 0.0000 0.0000 0.0000 0.0000 0.0000 0.0000 -79.8763 1.8234 14.4094 -5.3335 7.8779 -8.6640 -169.4725 2.7612 174.0988 48.3548 -8.8017 7.7673 12.7751 0.0000 0.0000 3.9747 0.0000 0.0000 -7.8669 0.1903 1.4642 9.3026 0.0000 0.0000 2.1987 0.0000 0.0000 5.3599 -0.2233 -0.0034 36.7094 0.0000 0.0000 27.4133 0.0000 0.0000 12.0377 -0.6915 -0.6005 43.7069 0.0000 0.0000 37.9420 0.0000 0.0000 18.6582 -1.4854 -0.7897 33.7950 0.0000 0.0000 46.5860 0.0000 0.0000 0.0000 0.0000 0.0000 72.1958 -33.3039 31.2160 200.3779 54.6985 292.9718 -35.4509 -47.1893 409.3481 -60.6747 -12.7431 -0.0497 36.8508 0.0000 0.0000 17.3869 0.0000 0.0000 32.4712 0.1453 12.4130 18.7924 0.0000 0.0000 10.4673 0.0000 0.0000 28.7286 -2.7270 15.3917 15.0587 0.0000 0.0000 5.0091 0.0000 0.0000 36.7255 -5.3898 15.4014 12.2242 0.0000 0.0000 8.9321 0.0000 0.0000 27.1629 -7.6413 16.8103 11.2978 0.0000 0.0000 3.8223 0.0000 0.0000 7.2314 -6.5182 -12.3221 0.0000 0.0000 0.0000 0.0000 0.0000 0.0000 16.1982 0.3041 -10.7260 0.0000 0.0000 0.0000 0.0000 0.0000 0.0000
0.0443 0.2079 -0.1287 -4.4507 10.4229 12.2150 3.3043 0.7208 -12.2917 0.0000 0.0000 0.0000 0.0000 0.0000 0.0000 9.3979 50.6282 6.5578 0.0000 0.0000 0.0000 0.0000 0.0000 0.0000 -79.6184 2.3274 15.2477 -6.0905 8.4447 -9.3219 -169.7450 2.6156 173.9379 48.3548 -8.8017 7.7673 12.7751 0.0000 0.0000 3.9747 0.0000 0.0000 -7.8669 0.1903 1.4642 9.3026 0.0000 0.0000 2.1987 0.0000 0.0000 5.3599 -0.2233 -0.0034 36.7094 0.0000 0.0000 27.4133 0.0000 0.0000 12.0377 -0.6915 -0.6005 43.7069 0.0000 0.0000 37.9420 0.0000 0.0000 18.6582 -1.4854 -0.7897 33.7950 0.0000 0.0000 46.5860 0.0000 0.0000 0.0000 0.0000 0.0000 72.1738 -32.7508 30.3863 200.0667 60.9825 290.8076 -32.6777 -42.0056 404.2232 -60.6747 -12.7431 -0.0497 36.8508 0.0000 0.0000 17.3869 0.0000 0.0000 32.4712 0.1453 12.4130 18.7924 0.0000 0.0000 10.4673 0.0000 0.0000 28.7286 -2.7270 15.3917 15.0587 0.0000 0.0000 5.0091 0.0000 0.0000 36.7255 -5.3898 15.4014 12.2242 0.0000 0.0000 8.9321 0.0000 0.0000 27.1629 -7.6413 16.8103 11.2978 0.0000 0.0000 3.8223 0.0000 0.0000 6.9238 -5.6212 -12.7266 0.0000 0.0000 0.0000 0.0000 0.0000 0.0000 16.1202 -0.4476 -11.3901 0.0000 0.0000 0.0000 0.0000 0.0000 0.0000
0.0459 0.1991 -0.1344 -4.0831 10.4394 12.9981 3.2024 0.7431 -13.0501 0.0000 0.0000 0.0000 0.0000 0.0000 0.0000 8.4760 50.8302 6.0237 0.0000 0.0000 0.0000 0.0000 0.0000 0.0000 -79.4565 2.7364 15.8141 -6.8773 8.5253 -9.3316 -171.5037 12.1052 174.7614 48.8421 -9.4751 5.3258 10.6905 0.0000 0.0000 1.8920 0.0000 0.0000 -5.2231 0.1528 0.6136 10.7647 0.0000 0.0000 2.1245 0.0000 0.0000 9.0803 -0.1893 -2.3883 34.7648 0.0000 0.0000 27.1905 0.0000 0.0000 15.2912 -0.8722 -3.5686 41.1254 0.0000 0.0000 41.9408 0.0000 0.0000 20.9972 -2.0091 -4.0501 30.9589 0.0000 0.0000 42.3970 0.0000 0.0000 0.0000 0.0000 0.0000 73.0438 -31.7783 28.6583 207.6700 76.0735 291.4169 -1.2262 -24.3707 400.2685 -68.7088 -14.3886 6.6983 40.0640 0.0000 0.0000 11.2178 0.0000 0.0000 26.9429 0.6651 9.5244 11.2261 0.0000 0.0000 7.1698 0.0000 0.0000 19.7372 -1.3906 12.7532 11.6748 0.0000 0.0000 3.0761 0.0000 0.0000 23.7840 -2.8499 11.7447 10.7819 0.0000 0.0000 6.2216 0.0000 0.0000 14.1067 -4.6677 12.9802 10.1688 0.0000 0.0000 3.9810 0.0000 0.0000 6.8322 -6.9556 -13.6231 0.0000 0.0000 0.0000 0.0000 0.0000 0.0000 16.4640 -2.3991 -12.5035 0.0000 0.0000 0.0000 0.0000 0.0000 0.0000
0.0470 0.1925 -0.1386 -3.8078 10.4488 13.5867 3.1261 0.7582 -13.6200 0.0000 0.0000 0.0000 0.0000 0.0000 0.0000 7.7822 50.9762 5.6191 0.0000 0.0000 0.0000 0.0000 0.0000 0.0000 -79.3295 3.0396 16.2365 -7.4603 8.5987 -9.3487 -171.8589 11.7619 174.3300 48.8421 -9.4751 5.3258 10.6905 0.0000 0.0000 1.8920 0.0000 0.0000 -5.2231 0.1528 0.6136 10.7647 0.0000 0.0000 2.1245 0.0000 0.0000 9.0803 -0.1893 -2.3883 34.7648 0.0000 0.0000 27.1905 0.0000 0.0000 15.2912 -0.8722 -3.5686 41.1254 0.0000 0.0000 41.9408 0.0000 0.0000 20.9972 -2.0091 -4.0501 30.9589 0.0000 0.0000 42.3970 0.0000 0.0000 0.0000 0.0000 0.0000 73.6426 -31.0623 27.4293 239.8372 85.1309 318.5110 -0.2023 -12.9695 397.7081 -68.7088 -14.3886 6.6983 40.0640 0.0000 0.0000 11.2178 0.0000 0.0000 26.9429 0.6651 9.5244 11.2261 0.0000 0.0000 7.1698 0.0000 0.0000 19.7372 -1.3906 12.7532 11.6748 0.0000 0.0000 3.0761 0.0000 0.0000 23.7840 -2.8499 11.7447 10.7819 0.0000 0.0000 6.2216 0.0000 0.0000 14.1067 -4.6677 12.9802 10.1688 0.0000 0.0000 3.9810 0.0000 0.0000 6.7662 -7.8697 -14.2818 0.0000 0.0000 0.0000 0.0000 0.0000 0.0000 16.7327 -3.8838 -13.3466 0.0000 0.0000 0.0000 0.0000 0.0000 0.0000
0.0475 0.1906 -0.1329 -3.9735 10.0276 14.3621 3.1613 0.8126 -14.4019 0.0000 0.0000 0.0000 0.0000 0.0000 0.0000 8.4907 51.2761 6.0844 0.0000 0.0000 0.0000 0.0000 0.0000 0.0000 -79.4765 3.7418 16.5031 -7.3602 8.5243 -9.1401 -183.7596 -26.8411 161.1707 51.7892 -10.5321 3.3841 2.0938 0.0000 0.0000 4.3510 0.0000 0.0000 5.1272 -0.5641 1.4385 1.3347 0.0000 0.0000 1.1481 0.0000 0.0000 8.3178 -0.1973 -2.0588 1.1775 0.0000 0.0000 2.2677 0.0000 0.0000 -1.6696 -0.3371 -2.7721 13.4401 0.0000 0.0000 3.1685 0.0000 0.0000 -39.4075 6.8953 4.4516 16.4111 0.0000 0.0000 4.2614 0.0000 0.0000 0.0000 0.0000 0.0000 76.1090 -28.1540 23.0371 365.4097 73.7842 434.1883 39.7240 11.6930 402.5857 -68.1037 -14.3489 7.3684 27.0208 0.0000 0.0000 3.0713 0.0000 0.0000 13.0335 0.8298 3.7467 3.4918 0.0000 0.0000 5.1598 0.0000 0.0000 2.6572 -0.0603 7.3717 6.9389 0.0000 0.0000 1.8698 0.0000 0.0000 1.3339 -0.8955 6.3678 8.9262 0.0000 0.0000 3.7285 0.0000 0.0000 -8.1446 -2.3002 7.3247 8.4428 0.0000 0.0000 4.0143 0.0000 0.0000 6.9884 -6.5237 -14.9412 0.0000 0.0000 0.0000 0.0000 0.0000 0.0000 16.9239 -4.4406 -14.3150 0.0000 0.0000 0.0000 0.0000 0.0000 0.0000
