HIERARCHY
ROOT Hips
{
  OFFSET 0.000000 95.000000 0.000000
  CHANNELS 6 Xposition Yposition Zposition Zrotation Xrotation Yrotation
  JOINT Spine
  {
    OFFSET 0.000000 10.000000 0.000000
    CHANNELS 3 Zrotation Xrotation Yrotation
    JOINT Spine1
    {
      OFFSET 0.000000 12.000000 0.000000
      CHANNELS 3 Zrotation Xrotation Yrotation
      JOINT Spine2
      {
        OFFSET 0.000000 12.000000 0.000000
        CHANNELS 3 Zrotation Xrotation Yrotation
        JOINT Neck
        {
          OFFSET 0.000000 10.000000 0.000000
          CHANNELS 3 Zrotation Xrotation Yrotation
          JOINT Head
          {
            OFFSET 0.000000 8.000000 0.000000
            CHANNELS 3 Zrotation Xrotation Yrotation
            End Site
            {
              OFFSET 0.000000 10.000000 0.000000
            }
          }
        }
        JOINT LeftShoulder
        {
          OFFSET 6.000000 8.000000 0.000000
          CHANNELS 3 Zrotation Xrotation Yrotation
          JOINT LeftArm
          {
            OFFSET 12.000000 0.000000 0.000000
            CHANNELS 3 Zrotation Xrotation Yrotation
            JOINT LeftForeArm
            {
              OFFSET 24.000000 0.000000 0.000000
              CHANNELS 3 Zrotation Xrotation Yrotation
              JOINT LeftHand
              {
                OFFSET 22.000000 0.000000 0.000000
                CHANNELS 3 Zrotation Xrotation Yrotation
                JOINT LeftHandThumb1
                {
                  OFFSET 1.800000 -1.400000 0.500000
                  CHANNELS 3 Zrotation Xrotation Yrotation
                  JOINT LeftHandThumb2
                  {
                    OFFSET 2.400000 0.000000 0.000000
                    CHANNELS 3 Zrotation Xrotation Yrotation
                    JOINT LeftHandThumb3
                    {
                      OFFSET 1.900000 0.000000 0.000000
                      CHANNELS 3 Zrotation Xrotation Yrotation
                      End Site
                      {
                        OFFSET 1.600000 0.000000 0.000000
                      }
                    }
                  }
                }
                JOINT LeftHandIndex1
                {
                  OFFSET 6.600000 1.200000 0.300000
                  CHANNELS 3 Zrotation Xrotation Yrotation
                  JOINT LeftHandIndex2
                  {
                    OFFSET 2.000000 0.000000 0.000000
                    CHANNELS 3 Zrotation Xrotation Yrotation
                    JOINT LeftHandIndex3
                    {
                      OFFSET 1.200000 0.000000 0.000000
                      CHANNELS 3 Zrotation Xrotation Yrotation
                      End Site
                      {
                        OFFSET 1.000000 0.000000 0.000000
                      }
                    }
                  }
                }
                JOINT LeftHandMiddle1
                {
                  OFFSET 7.200000 0.000000 0.300000
                  CHANNELS 3 Zrotation Xrotation Yrotation
                  JOINT LeftHandMiddle2
                  {
                    OFFSET 3.000000 0.000000 0.000000
                    CHANNELS 3 Zrotation Xrotation Yrotation
                    JOINT LeftHandMiddle3
                    {
                      OFFSET 2.000000 0.000000 0.000000
                      CHANNELS 3 Zrotation Xrotation Yrotation
                      End Site
                      {
                        OFFSET 1.600000 0.000000 0.000000
                      }
                    }
                  }
                }
                JOINT LeftHandRing1
                {
                  OFFSET 7.100000 -1.000000 0.400000
                  CHANNELS 3 Zrotation Xrotation Yrotation
                  JOINT LeftHandRing2
                  {
                    OFFSET 2.600000 0.000000 0.000000
                    CHANNELS 3 Zrotation Xrotation Yrotation
                    JOINT LeftHandRing3
                    {
                      OFFSET 1.600000 0.000000 0.000000
                      CHANNELS 3 Zrotation Xrotation Yrotation
                      End Site
                      {
                        OFFSET 1.300000 0.000000 0.000000
                      }
                    }
                  }
                }
                JOINT LeftHandPinky1
                {
                  OFFSET 6.500000 -2.000000 0.500000
                  CHANNELS 3 Zrotation Xrotation Yrotation
                  JOINT LeftHandPinky2
                  {
                    OFFSET 1.900000 0.000000 0.000000
                    CHANNELS 3 Zrotation Xrotation Yrotation
                    JOINT LeftHandPinky3
                    {
                      OFFSET 1.400000 0.000000 0.000000
                      CHANNELS 3 Zrotation Xrotation Yrotation
                      End Site
                      {
                        OFFSET 1.300000 0.000000 0.000000
                      }
                    }
                  }
                }
              }
            }
          }
        }
        JOINT RightShoulder
        {
          OFFSET -6.000000 8.000000 0.000000
          CHANNELS 3 Zrotation Xrotation Yrotation
          JOINT RightArm
          {
            OFFSET -12.000000 0.000000 0.000000
            CHANNELS 3 Zrotation Xrotation Yrotation
            JOINT RightForeArm
            {
              OFFSET -24.000000 0.000000 0.000000
              CHANNELS 3 Zrotation Xrotation Yrotation
              JOINT RightHand
              {
                OFFSET -22.000000 0.000000 0.000000
                CHANNELS 3 Zrotation Xrotation Yrotation
                JOINT RightHandThumb1
                {
                  OFFSET -1.800000 -1.400000 0.500000
                  CHANNELS 3 Zrotation Xrotation Yrotation
                  JOINT RightHandThumb2
                  {
                    OFFSET -2.400000 0.000000 0.000000
                    CHANNELS 3 Zrotation Xrotation Yrotation
                    JOINT RightHandThumb3
                    {
                      OFFSET -1.900000 0.000000 0.000000
                      CHANNELS 3 Zrotation Xrotation Yrotation
                      End Site
                      {
                        OFFSET -1.600000 0.000000 0.000000
                      }
                    }
                  }
                }
                JOINT RightHandIndex1
                {
                  OFFSET -6.600000 1.200000 0.300000
                  CHANNELS 3 Zrotation Xrotation Yrotation
                  JOINT RightHandIndex2
                  {
                    OFFSET -2.000000 0.000000 0.000000
                    CHANNELS 3 Zrotation Xrotation Yrotation
                    JOINT RightHandIndex3
                    {
                      OFFSET -1.200000 0.000000 0.000000
                      CHANNELS 3 Zrotation Xrotation Yrotation
                      End Site
                      {
                        OFFSET -1.000000 0.000000 0.000000
                      }
                    }
                  }
                }
                JOINT RightHandMiddle1
                {
                  OFFSET -7.200000 0.000000 0.300000
                  CHANNELS 3 Zrotation Xrotation Yrotation
                  JOINT RightHandMiddle2
                  {
                    OFFSET -3.000000 0.000000 0.000000
                    CHANNELS 3 Zrotation Xrotation Yrotation
                    JOINT RightHandMiddle3
                    {
                      OFFSET -2.000000 0.000000 0.000000
                      CHANNELS 3 Zrotation Xrotation Yrotation
                      End Site
                      {
                        OFFSET -1.600000 0.000000 0.000000
                      }
                    }
                  }
                }
                JOINT RightHandRing1
                {
                  OFFSET -7.100000 -1.000000 0.400000
                  CHANNELS 3 Zrotation Xrotation Yrotation
                  JOINT RightHandRing2
                  {
                    OFFSET -2.600000 0.000000 0.000000
                    CHANNELS 3 Zrotation Xrotation Yrotation
                    JOINT RightHandRing3
                    {
                      OFFSET -1.600000 0.000000 0.000000
                      CHANNELS 3 Zrotation Xrotation Yrotation
                      End Site
                      {
                        OFFSET -1.300000 0.000000 0.000000
                      }
                    }
                  }
                }
                JOINT RightHandPinky1
                {
                  OFFSET -6.500000 -2.000000 0.500000
                  CHANNELS 3 Zrotation Xrotation Yrotation
                  JOINT RightHandPinky2
                  {
                    OFFSET -1.900000 0.000000 0.000000
                    CHANNELS 3 Zrotation Xrotation Yrotation
                    JOINT RightHandPinky3
                    {
                      OFFSET -1.400000 0.000000 0.000000
                      CHANNELS 3 Zrotation Xrotation Yrotation
                      End Site
                      {
                        OFFSET -1.300000 0.000000 0.000000
                      }
                    }
                  }
                }
              }
            }
          }
        }
      }
    }
  }
  JOINT LeftUpLeg
  {
    OFFSET 10.000000 -5.000000 0.000000
    CHANNELS 3 Zrotation Xrotation Yrotation
    JOINT LeftLeg
    {
      OFFSET 0.000000 -42.000000 0.000000
      CHANNELS 3 Zrotation Xrotation Yrotation
      JOINT LeftFoot
      {
        OFFSET 0.000000 -42.000000 4.000000
        CHANNELS 3 Zrotation Xrotation Yrotation
        End Site
        {
          OFFSET 0.000000 0.000000 12.000000
        }
      }
    }
  }
  JOINT RightUpLeg
  {
    OFFSET -10.000000 -5.000000 0.000000
    CHANNELS 3 Zrotation Xrotation Yrotation
    JOINT RightLeg
    {
      OFFSET 0.000000 -42.000000 0.000000
      CHANNELS 3 Zrotation Xrotation Yrotation
      JOINT RightFoot
      {
        OFFSET 0.000000 -42.000000 4.000000
        CHANNELS 3 Zrotation Xrotation Yrotation
        End Site
        {
          OFFSET 0.000000 0.000000 12.000000
        }
      }
    }
  }
}
MOTION
Frames: 35
Frame Time: 0.040000
0.0705 0.1748 -0.0697 -5.2312 12.6878 13.3335 5.2822 1.2478 -13.2542 0.0000 0.0000 0.0000 0.0000 0.0000 0.0000 5.7015 50.2680 4.3651 0.0000 0.0000 0.0000 0.0000 0.0000 0.0000 -79.9118 2.2598 17.9335 -10.5976 10.5364 -11.5221 -174.4404 17.1155 174.9826 48.3590 -9.4102 5.1180 -46.9077 -4.2739 -9.8313 -0.2520 -0.0062 -2.8259 -2.6212 0.2674 -0.9403 17.5549 1.2021 -7.7735 0.1238 0.0020 -1.8084 11.0962 -0.0830 -3.9179 20.8358 3.3671 -18.1655 16.9368 1.5864 -10.6250 17.1603 -0.9076 -4.5015 22.8424 5.1079 -24.9013 32.4400 5.4919 -18.7246 21.3261 -2.0403 -4.2261 8.3976 1.8715 -25.0857 38.6546 9.6358 -27.0259 0.0000 0.0000 0.0000 83.5374 -22.4012 10.8414 55.6910 46.3975 116.5145 23.3424 38.5371 41.1992 -64.5340 -13.1330 -3.7456 87.0513 -5.5912 5.8861 10.0610 0.2796 -3.1755 1.1782 -0.8672 -5.3626 -6.7501 0.2462 4.1724 -5.3571 0.0738 1.5779 -11.3609 -0.7763 -3.0204 -3.2226 0.1529 5.4297 -1.6778 0.0373 2.5467 0.2733 0.1731 -1.0997 -1.5965 0.1751 12.5150 0.4414 -0.0124 3.2225 -5.7328 -0.0619 -1.4694 4.0077 -0.6211 17.6122 -1.4862 0.0421 3.2444 7.1897 -14.0651 -15.1208 0.0000 0.0000 0.0000 0.0000 0.0000 0.0000 15.5466 -5.6004 -13.5491 0.0000 0.0000 0.0000 0.0000 0.0000 0.0000
0.0613 0.1875 -0.0869 -5.0606 12.9801 13.0119 4.7052 1.0882 -12.9935 0.0000 0.0000 0.0000 0.0000 0.0000 0.0000 6.6870 50.1803 5.0961 0.0000 0.0000 0.0000 0.0000 0.0000 0.0000 -80.0082 0.9418 16.6379 -9.7537 9.8269 -10.7252 -173.3497 12.8667 176.3783 48.3216 -9.1164 6.3643 -48.0906 -4.2921 -9.6018 -0.7783 -0.0166 -2.4498 -5.0214 0.1362 0.6609 17.4105 1.1337 -7.3944 2.1727 0.0383 -2.0215 8.7181 -0.2279 -1.7830 26.2060 4.3903 -18.7031 20.7590 2.2738 -12.3674 15.9879 -0.8890 -1.8089 27.5961 5.6935 -22.8927 28.3910 3.9635 -15.5784 21.6145 -1.7697 -1.6530 12.0509 2.4052 -22.4963 39.0039 7.8372 -21.8933 0.0000 0.0000 0.0000 80.6858 -26.1149 15.4631 60.9569 69.9988 138.2667 -8.5393 10.8596 43.2511 -58.0037 -11.6597 -4.6156 91.8967 -8.6206 8.3408 12.3126 0.2757 -2.5559 4.6101 -0.6959 -6.4136 -7.2747 0.2615 4.1126 -5.8462 0.0773 1.5142 -9.6149 -0.8267 -5.0334 -2.0296 0.0941 5.3071 -1.0310 0.0293 3.2538 1.6039 0.5801 -3.1486 -1.7245 0.1962 12.9777 0.3600 -0.0153 4.8705 -4.8722 0.5454 -3.4924 3.4242 -0.5730 18.9942 -2.2909 0.0849 4.2465 7.3894 -13.1260 -14.6239 0.0000 0.0000 0.0000 0.0000 0.0000 0.0000 15.4136 -5.6510 -13.1795 0.0000 0.0000 0.0000 0.0000 0.0000 0.0000
0.0564 0.1934 -0.1067 -4.9725 11.3931 12.7466 4.2458 0.9643 -12.7726 0.0000 0.0000 0.0000 0.0000 0.0000 0.0000 7.8427 51.3790 5.7784 0.0000 0.0000 0.0000 0.0000 0.0000 0.0000 -80.0019 1.8463 15.7647 -8.5441 9.6742 -10.6872 -172.5431 11.9248 176.8174 48.1635 -9.1303 6.1375 -48.5835 -4.2788 -9.4629 0.5949 0.0138 -2.6631 -6.4499 0.1571 1.0751 17.7579 1.2654 -8.0869 1.9033 0.0456 -2.7457 6.5306 -0.1543 -2.0683 27.1102 5.5805 -22.8565 20.6471 3.0890 -16.8400 13.9919 -0.8171 -2.2005 28.2473 7.5726 -29.4717 28.9201 5.8536 -22.4285 20.2852 -1.7508 -2.1185 13.0176 3.0884 -26.5881 37.5744 9.5483 -27.5879 0.0000 0.0000 0.0000 78.8268 -27.6366 19.7388 163.3954 76.2347 254.7213 -44.3169 -18.8791 47.2769 -47.6025 -9.0134 -6.0596 89.0704 -14.5269 14.7620 15.4472 0.0022 -0.0166 8.8682 -0.3396 -7.1576 -8.9887 0.2858 3.6344 -4.3553 0.0518 1.3629 -6.1956 -0.6485 -7.1673 -0.2391 0.0100 4.7772 -0.8526 0.0253 3.4052 -3.7140 0.5758 -7.2371 1.6364 -0.1654 11.5400 -1.2966 0.0624 5.5086 -10.6049 0.7661 -7.4460 6.5104 -0.9963 17.3826 -2.8971 0.1151 4.5487 7.0048 -12.0936 -14.1708 0.0000 0.0000 0.0000 0.0000 0.0000 0.0000 15.3593 -2.4135 -12.3644 0.0000 0.0000 0.0000 0.0000 0.0000 0.0000
0.0572 0.2062 -0.1030 -4.7927 12.4431 12.3497 4.3959 0.9640 -12.3446 0.0000 0.0000 0.0000 0.0000 0.0000 0.0000 8.2278 49.3836 5.7496 0.0000 0.0000 0.0000 0.0000 0.0000 0.0000 -80.8188 -0.8772 13.5675 -8.2224 9.2446 -10.3497 -172.7670 7.8146 176.4735 48.8794 -9.0551 7.2400 -49.5425 -4.6440 -10.0434 0.8826 0.0143 -1.8510 -6.3159 0.1447 1.1157 17.9524 0.9709 -6.1408 2.2939 0.0326 -1.6263 6.9270 -0.2404 -0.8006 29.1320 3.8826 -14.8638 21.0113 1.4967 -8.0582 13.7683 -0.7884 -1.1371 33.8364 6.3153 -20.5600 36.8563 4.5481 -13.5927 20.1958 -1.6471 -1.3051 17.4388 3.3233 -21.4218 49.6674 9.2884 -19.9121 0.0000 0.0000 0.0000 74.6293 -31.6697 25.3532 193.2347 54.4102 292.7925 -74.6315 -44.0013 58.8548 -41.0864 -7.1879 -6.8213 75.5054 -16.0208 20.6002 16.4726 -0.4599 3.1766 10.3196 -0.2167 -7.5285 -10.4488 0.2759 3.0172 -2.0345 0.0218 1.2284 -3.8338 -0.4465 -8.5080 0.7953 -0.0271 3.9045 -1.2835 0.0307 2.7370 -9.6170 0.0463 -10.3683 5.3654 -0.3768 8.0287 -2.9224 0.1027 4.0242 -16.2976 0.4212 -10.3003 10.5285 -1.1469 12.3994 -2.6288 0.0899 3.9180 7.4254 -11.5451 -13.6609 0.0000 0.0000 0.0000 0.0000 0.0000 0.0000 15.6886 -3.2893 -11.9929 0.0000 0.0000 0.0000 0.0000 0.0000 0.0000
0.0629 0.1964 -0.1092 -5.1281 11.1591 12.0408 3.8046 0.8193 -12.1344 0.0000 0.0000 0.0000 0.0000 0.0000 0.0000 11.5217 49.7901 7.7690 0.0000 0.0000 0.0000 0.0000 0.0000 0.0000 -80.3101 -0.2450 12.7895 -6.8459 7.8157 -8.5466 -349.2557 23.5774 186.1089 52.7612 -8.0039 17.6885 -36.2460 -1.4068 -4.2965 -4.8580 0.2726 6.4185 -15.8370 0.6346 1.7379 6.1151 0.0506 -0.9466 -0.0043 -0.0000 -0.4410 -7.5013 0.2618 -0.7799 -3.6319 -0.0196 -0.6193 -0.2237 0.0016 0.7943 1.0523 0.0445 0.7885 -9.9597 -0.3512 -4.0288 -0.9511 -0.0018 -0.2201 12.1276 -0.1244 4.0101 -15.4060 -1.1386 -8.4028 -0.8870 -0.0058 -0.7523 0.0000 0.0000 0.0000 73.0095 -32.0991 28.0726 199.8960 42.3563 301.6546 -100.4081 -55.6372 76.6466 -39.1039 -6.3904 -7.7019 62.4041 -11.8501 19.4464 13.0648 -0.3549 3.0988 9.4897 -0.3387 -7.8320 -10.8912 0.2579 2.7052 -0.5393 0.0051 1.0895 -3.4383 -0.4163 -9.0328 1.1002 -0.0287 2.9898 -1.6062 0.0275 1.9617 -11.8276 -0.2518 -11.0917 6.9785 -0.3081 5.0496 -3.1000 0.0763 2.8205 -18.1985 0.2021 -10.9628 12.7594 -0.9275 8.2811 -1.9459 0.0556 3.2705 7.8090 -10.1048 -13.2238 0.0000 0.0000 0.0000 0.0000 0.0000 0.0000 15.8838 -2.1472 -11.5968 0.0000 0.0000 0.0000 0.0000 0.0000 0.0000
0.0643 0.2160 -0.1201 -5.0986 10.5486 12.6528 3.1026 0.7062 -12.8107 0.0000 0.0000 0.0000 0.0000 0.0000 0.0000 15.3009 50.1079 10.1038 0.0000 0.0000 0.0000 0.0000 0.0000 0.0000 -79.4258 -0.8438 11.3389 -6.8709 7.1417 -7.8492 -172.6215 5.7012 175.6781 48.9750 -9.2261 6.5825 -49.8686 -4.7078 -10.1057 -0.6472 -0.0064 -1.1337 -7.4910 0.2807 0.4896 17.8609 1.0082 -6.4093 1.7346 0.0243 -1.6067 5.2275 -0.1154 -2.2451 33.8368 6.0935 -19.8508 28.5570 3.5985 -14.0730 12.4723 -0.7711 -2.4845 37.9418 9.4137 -26.9389 44.1045 8.5051 -20.8029 18.7085 -1.6619 -2.0738 21.2451 4.8484 -25.4402 52.0941 12.3687 -25.0012 0.0000 0.0000 0.0000 67.6455 -33.5817 33.5824 207.0730 38.1622 304.7348 -123.3419 -57.4873 94.9905 -39.0456 -6.0450 -8.7142 55.1612 -8.5145 16.2211 9.3682 -0.1448 1.7667 7.9733 -0.5124 -7.8387 -10.8666 0.2520 2.6491 0.2189 -0.0016 0.8214 -4.1528 -0.5018 -9.0026 1.0405 -0.0200 2.2064 -1.7321 0.0227 1.5035 -12.8647 -0.4250 -10.5849 7.4088 -0.2023 3.1245 -2.7572 0.0569 2.3625 -18.9705 0.0331 -10.6886 13.7120 -0.6997 5.8142 -1.2708 0.0316 2.8485 7.7978 -8.9508 -13.6898 0.0000 0.0000 0.0000 0.0000 0.0000 0.0000 16.7427 -2.3296 -12.2562 0.0000 0.0000 0.0000 0.0000 0.0000 0.0000
0.0678 0.2240 -0.1350 -4.8385 9.4837 13.0627 2.2874 0.5393 -13.2584 0.0000 0.0000 0.0000 0.0000 0.0000 0.0000 19.4165 50.6518 12.5207 0.0000 0.0000 0.0000 0.0000 0.0000 0.0000 -78.9515 -0.9158 9.8629 -6.6459 5.7958 -6.2602 -172.7501 6.6857 175.6357 48.7834 -9.2555 6.2439 -48.7296 -4.6676 -10.2844 -1.5134 -0.0137 -1.0371 -6.9671 0.2288 0.7096 19.0620 1.2270 -7.2983 1.3338 0.0315 -2.7016 5.7416 -0.1461 -1.8589 37.3913 7.9465 -23.1984 33.8011 6.6559 -21.6689 12.5541 -0.7553 -1.8652 36.6312 9.8160 -29.0854 41.9632 9.8496 -25.3265 18.3473 -1.6061 -1.8086 18.3935 4.4151 -26.7843 49.0298 13.8424 -29.8107 0.0000 0.0000 0.0000 61.2320 -34.3560 40.1750 216.0091 37.8669 306.3620 -123.6917 -57.2347 99.1322 -38.2588 -5.4624 -9.7911 58.5279 -7.6354 13.5824 23.0519 -0.0369 0.1809 0.6767 -1.9166 -11.0010 -10.5147 0.1481 1.6095 -0.3895 0.0011 0.3286 -5.7245 -0.6457 -8.0895 1.4865 -0.0101 0.7808 -2.2706 0.0117 0.5896 -13.0266 -0.4968 -8.7708 5.1490 -0.1033 2.2973 -3.7477 0.0255 0.7798 -17.1022 -0.3009 -6.4252 12.7184 -0.7739 6.9361 -3.5413 0.0050 0.1633 6.7188 -7.7794 -13.9163 0.0000 0.0000 0.0000 0.0000 0.0000 0.0000 16.6568 -1.7689 -12.6297 0.0000 0.0000 0.0000 0.0000 0.0000 0.0000
0.0663 0.2368 -0.1355 -4.8270 8.7909 13.1309 1.8808 0.4464 -13.3461 0.0000 0.0000 0.0000 0.0000 0.0000 0.0000 22.6909 50.7710 14.3655 0.0000 0.0000 0.0000 0.0000 0.0000 0.0000 -78.7425 -1.7699 7.8073 -6.1985 4.5874 -4.9381 -173.0173 3.4052 173.9901 51.0447 -9.7740 6.3627 -50.2776 -5.0178 -10.6689 0.9527 0.0055 -0.6596 -6.1903 0.1853 0.7404 18.5057 0.8222 -5.0435 1.7414 0.0319 -2.1001 7.7827 -0.2631 -0.9055 29.2707 3.1748 -12.1151 30.5082 2.1372 -7.8255 14.1419 -0.8136 -1.6493 32.5235 5.6793 -19.3013 49.3389 6.6247 -14.3638 20.6604 -1.8111 -2.4647 15.9857 3.0295 -21.3309 53.3058 9.8254 -19.4354 0.0000 0.0000 0.0000 55.4623 -35.3125 47.0512 221.4342 35.2107 305.7031 -120.6232 -56.8420 99.7526 -39.4342 -5.6604 -10.2369 59.0951 -7.8398 13.7848 26.4792 -0.3467 1.4733 3.0439 -1.5781 -11.0272 -17.7878 -0.4095 -2.6165 -2.6361 -0.0042 -0.1809 -4.9842 -0.5599 -8.0390 -4.4750 -0.1009 -2.5813 -4.0059 -0.0106 -0.3030 -13.6802 -0.5823 -8.8260 -0.0502 -0.0000 -0.0777 -4.9072 -0.0174 -0.4067 -18.4538 -0.5455 -5.9246 7.1326 -0.3118 4.9997 -4.1104 -0.0305 -0.8510 6.4476 -7.5798 -13.9588 0.0000 0.0000 0.0000 0.0000 0.0000 0.0000 16.3983 -1.4224 -12.7086 0.0000 0.0000 0.0000 0.0000 0.0000 0.0000
0.0674 0.2409 -0.1355 -4.5497 8.6617 13.4308 1.7079 0.4145 -13.6361 0.0000 0.0000 0.0000 0.0000 0.0000 0.0000 22.5101 51.1049 14.2980 0.0000 0.0000 0.0000 0.0000 0.0000 0.0000 -78.8753 -2.5064 6.6492 -5.8797 4.1375 -4.4911 -173.0668 8.2146 176.6567 51.2096 -9.9166 5.8510 -50.5699 -4.5861 -9.6907 0.0059 0.0001 -1.1683 -6.0660 0.1801 0.7311 18.8443 1.0269 -6.1825 3.5822 0.0890 -2.8442 7.6850 -0.1968 -1.8422 33.6044 5.4455 -17.9005 41.1576 6.6234 -17.5230 14.3066 -0.8302 -2.3181 34.3080 7.6502 -24.4435 50.0578 10.2503 -21.7467 19.8512 -1.7649 -2.4144 16.1444 3.6339 -25.2156 52.3435 13.5427 -27.1651 0.0000 0.0000 0.0000 52.1658 -36.1271 51.6326 222.6102 33.5283 303.5564 -117.3329 -56.3868 99.6128 -40.7787 -5.8920 -10.7625 59.8982 -7.9360 13.7298 30.7504 -0.7617 2.7695 8.1830 -0.7114 -9.8627 -29.0648 -2.6435 -10.1728 -5.9266 -0.0457 -0.8822 -2.2796 -0.2337 -6.9315 -13.9940 -1.0174 -8.2752 -6.3926 -0.0856 -1.5319 -13.2508 -0.5454 -7.9935 -8.3816 -0.2788 -3.8031 -6.3654 -0.1155 -2.0767 -19.1509 -0.8214 -4.4974 -1.6654 0.0336 2.3083 -4.6990 -0.0948 -2.3111 6.2568 -8.4193 -14.3141 0.0000 0.0000 0.0000 0.0000 0.0000 0.0000 16.3626 -1.6381 -13.0381 0.0000 0.0000 0.0000 0.0000 0.0000 0.0000
0.0663 0.2470 -0.1294 -4.3231 9.0502 13.6230 1.7065 0.4199 -13.8198 0.0000 0.0000 0.0000 0.0000 0.0000 0.0000 21.7873 50.6143 13.7755 0.0000 0.0000 0.0000 0.0000 0.0000 0.0000 -78.8642 -3.1924 6.2764 -5.7173 3.5931 -3.8576 -172.9855 8.3100 176.3600 51.4402 -10.0540 5.4319 -51.2546 -4.5419 -9.4516 0.8573 0.0109 -1.4545 -5.6451 0.1993 0.4208 18.4648 0.9838 -6.0469 2.7782 0.0559 -2.3063 7.4991 -0.1756 -2.0931 32.7657 5.2998 -17.8930 41.8839 6.4332 -16.7081 13.8707 -0.8177 -2.4714 29.0959 5.8866 -22.4134 50.0982 9.5456 -20.2585 19.9738 -1.8161 -2.7792 16.6135 3.8393 -25.8580 56.4805 15.4035 -28.2655 0.0000 0.0000 0.0000 50.3646 -37.2305 54.7979 220.2848 31.9627 300.2698 -115.7564 -56.4270 100.8819 -42.3144 -6.1878 -11.3029 60.9696 -7.8789 13.3443 35.8746 -1.2417 3.8347 18.7596 0.7348 -6.3286 -46.6272 -11.1680 -25.5646 -10.4070 -0.1100 -1.2080 4.8011 0.3527 -3.6274 -30.9724 -5.1567 -18.4629 -9.3284 -0.2368 -2.9018 -10.1574 -0.2980 -5.2454 -23.7827 -2.0256 -9.5981 -7.8453 -0.3032 -4.4200 -18.2052 -1.1835 -1.1618 -17.4868 -0.1057 -0.6876 -4.9184 -0.1979 -4.6064 6.7029 -9.0333 -14.5476 0.0000 0.0000 0.0000 0.0000 0.0000 0.0000 16.4764 -2.1998 -13.2736 0.0000 0.0000 0.0000 0.0000 0.0000 0.0000
0.0604 0.2414 -0.1300 -4.2747 8.4216 13.7764 1.6457 0.4092 -13.9604 0.0000 0.0000 0.0000 0.0000 0.0000 0.0000 21.5068 51.2442 13.6498 0.0000 0.0000 0.0000 0.0000 0.0000 0.0000 -78.7794 -2.1596 6.8360 -5.5596 3.6762 -3.9291 -172.1226 2.9320 174.8313 49.6710 -9.2782 7.1252 -49.7371 -5.0126 -10.7891 1.4038 0.0111 -0.9079 -7.1509 0.2395 0.6985 18.5252 0.8014 -4.9113 2.1124 0.0214 -1.1616 5.9218 -0.2029 -0.8507 32.3019 3.5249 -12.1301 26.5427 1.3198 -5.5914 13.1493 -0.7645 -1.3035 36.6381 5.7468 -17.2407 41.3417 3.4592 -9.1519 20.5698 -1.6750 -1.3516 18.8330 3.1167 -18.6313 50.2594 6.3473 -13.4830 0.0000 0.0000 0.0000 52.5721 -36.9912 53.2434 214.4005 32.5726 297.5068 -113.7502 -56.8883 100.9503 -44.0595 -6.5787 -11.7762 62.3047 -7.6412 12.6086 41.6465 -1.6752 4.4028 37.6923 1.5163 1.0456 -40.4943 -37.8445 -85.8071 -16.0402 0.5434 3.8554 21.1484 0.1639 3.8939 -63.1185 -24.2140 -38.5020 -8.3448 -0.0776 -1.0639 -0.0753 -0.2464 1.7290 -58.9709 -9.1294 -16.0738 -5.8003 -0.3620 -7.1366 -13.0751 -2.0868 5.9963 -50.0570 0.2354 0.5042 -2.9311 -0.2276 -8.8765 6.7241 -7.6259 -14.5346 0.0000 0.0000 0.0000 0.0000 0.0000 0.0000 16.3880 -1.6171 -13.3743 0.0000 0.0000 0.0000 0.0000 0.0000 0.0000
0.0575 0.2373 -0.1302 -4.3333 7.8714 14.1374 1.7236 0.4397 -14.3066 0.0000 0.0000 0.0000 0.0000 0.0000 0.0000 22.0289 51.8808 13.9794 0.0000 0.0000 0.0000 0.0000 0.0000 0.0000 -78.6633 -1.2737 7.2951 -5.5979 3.9543 -4.2508 -171.2374 5.6137 176.1248 48.6783 -9.0965 6.8347 -50.2132 -4.7341 -10.0828 1.8342 0.0261 -1.6302 -7.7851 0.2166 1.1887 18.0771 0.8938 -5.6145 1.9017 0.0267 -1.6112 5.5617 -0.1843 -0.9781 31.4322 4.5753 -16.1602 24.3239 2.0415 -9.4522 13.5280 -0.7899 -1.7124 35.6119 7.6032 -23.3777 39.9469 5.9500 -16.2754 20.5924 -1.7609 -2.0679 20.9473 4.5467 -24.2398 50.8228 10.4141 -21.7176 0.0000 0.0000 0.0000 55.2826 -36.7466 51.1926 209.1995 33.5555 295.1099 -110.5151 -56.3443 100.6349 -46.0112 -7.0814 -12.1072 63.8607 -7.2234 11.5672 47.5852 -1.8958 4.2983 59.9401 -0.8346 9.9262 118.3072 26.7527 -16.1658 28.5715 6.3566 -24.6042 47.5301 -4.3241 14.5728 30.9681 71.9383 -138.2139 -12.6139 -2.4092 -21.5441 24.9351 -4.3292 15.5337 -143.0533 22.2648 7.5224 2.3207 0.3918 -19.1621 1.8145 -6.1606 19.4611 -94.6529 29.2646 27.0670 -5.4770 -0.8118 -16.8490 7.0017 -8.2402 -14.9856 0.0000 0.0000 0.0000 0.0000 0.0000 0.0000 16.4643 -1.7512 -13.8272 0.0000 0.0000 0.0000 0.0000 0.0000 0.0000
0.0540 0.2276 -0.1310 -4.4662 7.0994 13.9657 1.8310 0.4607 -14.1183 0.0000 0.0000 0.0000 0.0000 0.0000 0.0000 21.1000 52.6898 13.4925 0.0000 0.0000 0.0000 0.0000 0.0000 0.0000 -78.4849 0.6902 8.9297 -5.9947 4.4306 -4.6965 -171.3846 5.3998 175.4642 48.8892 -9.0271 7.3752 -49.5250 -4.7653 -10.3089 1.6109 0.0230 -1.6373 -6.7345 0.1822 0.9949 18.0431 0.9014 -5.6731 0.7609 0.0067 -1.0094 6.6478 -0.2644 -0.2213 31.7807 4.2435 -14.8300 23.6046 1.6466 -7.8684 13.7684 -0.7828 -0.8448 31.2091 5.7268 -20.3068 37.1307 4.2181 -12.5145 20.8861 -1.7202 -1.5804 15.8230 3.0342 -21.5801 46.7153 7.9752 -18.3387 0.0000 0.0000 0.0000 58.5375 -35.8684 48.1152 203.0116 31.8791 293.5477 -111.8875 -56.0000 106.1274 -48.1336 -7.6878 -12.2500 65.5754 -6.6534 10.3126 53.0379 -1.7676 3.5414 74.8638 -4.1802 14.9517 88.0126 -7.2220 7.4762 33.9196 -0.0479 0.1571 68.5446 -10.5193 20.1590 103.5520 -21.5583 17.0555 32.0084 -1.4267 4.9711 54.6294 -14.4448 25.4140 -287.9747 -49.4100 64.6608 20.7602 -3.5352 19.1261 27.6343 -17.2342 32.6988 3.4566 -6.7766 125.9894 -11.2388 1.5657 15.8132 6.8376 -7.7936 -14.7792 0.0000 0.0000 0.0000 0.0000 0.0000 0.0000 16.2220 -0.4534 -13.4984 0.0000 0.0000 0.0000 0.0000 0.0000 0.0000
0.0546 0.2189 -0.1354 -4.5011 6.2307 14.7600 1.8870 0.5020 -14.8905 0.0000 0.0000 0.0000 0.0000 0.0000 0.0000 19.9453 54.0797 13.0141 0.0000 0.0000 0.0000 0.0000 0.0000 0.0000 -78.5051 3.1276 10.9484 -5.7618 5.5470 -5.9409 -170.2589 2.0344 174.9159 47.6566 -8.6516 7.6440 -49.4317 -4.8819 -10.5824 1.7288 0.0254 -1.6855 -8.5517 0.2592 1.1845 19.1437 0.9825 -5.8216 1.5993 0.0150 -1.0777 3.8149 -0.1582 -0.0237 37.1449 5.1152 -15.1450 28.6212 2.6629 -10.4119 11.6668 -0.6767 -0.7000 35.3658 6.3425 -19.7175 37.8201 4.4494 -12.9394 18.9842 -1.5423 -1.0608 17.5379 3.1325 -20.1036 47.9450 8.3606 -18.6691 0.0000 0.0000 0.0000 61.2141 -34.8989 45.7451 200.1748 32.7709 292.6819 -112.4759 -60.9616 100.2517 -42.5473 -6.1296 -11.7378 69.6873 -8.5755 12.2941 48.1951 -2.0990 4.6909 71.2223 -3.6649 14.6935 52.4644 -4.3877 8.8909 27.0434 -0.5341 2.2208 63.8401 -8.2848 18.0353 64.8805 -9.5969 15.0471 28.5838 -0.6127 2.4049 54.6254 -10.2460 19.5263 -287.0922 -20.5189 27.5347 27.6246 -1.7147 6.9663 49.0957 -15.6732 23.0080 68.4644 -26.7599 38.5376 18.5538 -2.3034 14.0332 6.4530 -6.8918 -15.4806 0.0000 0.0000 0.0000 0.0000 0.0000 0.0000 16.7543 0.4065 -14.2008 0.0000 0.0000 0.0000 0.0000 0.0000 0.0000
0.0526 0.2146 -0.1316 -4.5538 6.9702 13.8410 2.1904 0.5452 -13.9705 0.0000 0.0000 0.0000 0.0000 0.0000 0.0000 17.8401 53.9604 11.8157 0.0000 0.0000 0.0000 0.0000 0.0000 0.0000 -78.3340 2.5257 11.2475 -6.1957 5.3247 -5.6335 -170.2365 2.2556 175.2364 47.2900 -8.4080 8.2631 -49.1146 -4.8052 -10.4928 2.6797 0.0494 -2.1106 -8.1058 0.2085 1.4242 18.8882 1.0169 -6.1077 1.6635 0.0162 -1.1189 5.0550 -0.2207 0.2251 36.6476 5.3037 -15.9227 30.2156 3.4968 -12.9020 12.8489 -0.7278 -0.4471 34.8148 6.6610 -21.0303 38.3130 5.4138 -15.5008 19.6372 -1.5648 -0.9190 16.4823 3.0341 -20.7246 46.7351 8.9188 -20.4636 0.0000 0.0000 0.0000 63.1634 -35.2483 43.8229 199.0337 31.4637 293.3625 -114.0823 -64.2640 98.0721 -37.5586 -4.9796 -10.5949 73.0736 -10.6429 14.3300 43.6926 -2.2516 5.6126 68.7209 -3.7613 15.4762 31.0621 -3.3836 12.1332 18.0214 -0.7215 4.5475 61.5794 -8.0551 18.2497 48.4671 -7.3540 16.2505 19.0393 -0.5115 3.0494 55.4997 -9.6715 18.5213 -300.3149 -12.4447 21.5213 19.7153 -0.7476 4.3004 60.2000 -15.1153 19.8650 53.2883 -9.6056 19.0135 11.8447 -0.4338 4.1803 7.0457 -6.2774 -14.4933 0.0000 0.0000 0.0000 0.0000 0.0000 0.0000 16.9820 0.5582 -13.1513 0.0000 0.0000 0.0000 0.0000 0.0000 0.0000
0.0600 0.2143 -0.1137 -4.8614 8.4923 14.5560 2.9030 0.7609 -14.6749 0.0000 0.0000 0.0000 0.0000 0.0000 0.0000 17.0805 52.6263 11.2712 0.0000 0.0000 0.0000 0.0000 0.0000 0.0000 -78.8439 0.5739 10.5714 -5.5272 5.5753 -6.0503 -327.9893 -61.0636 141.0934 51.1510 -12.4050 -6.8888 -37.6114 -6.1357 -17.8882 -3.8081 -0.0667 -2.0053 2.4568 2.7320 -13.9459 32.5035 17.8462 -56.6148 8.7874 2.2522 -28.7005 9.4146 0.6537 -12.6984 34.3752 16.7291 -50.8487 14.1735 2.9817 -23.6480 16.8043 -0.8772 -7.9596 23.9820 10.8398 -48.1417 17.3733 4.1268 -26.5374 24.9934 -2.2021 -4.7140 1.5868 0.5533 -38.4420 13.5148 3.5729 -29.4942 0.0000 0.0000 0.0000 62.7990 -37.0378 44.8154 200.7674 29.8427 293.8924 -138.5387 -53.4653 117.3310 -28.2787 -2.2069 -10.3061 53.8447 -6.9549 13.6476 11.7880 -0.3828 3.7072 55.5725 1.6027 2.8577 41.1700 -2.0495 5.4534 15.7052 -0.3413 2.4745 28.9180 0.8528 1.4654 34.3437 -0.7330 2.3718 9.1473 0.4928 -6.1550 29.3370 0.7587 2.3798 -291.1744 -7.3218 10.6717 23.2302 -0.3843 1.8695 33.0590 -0.6581 5.3171 56.6632 -7.8634 14.5292 4.0994 -0.0926 2.5879 7.9707 -8.4044 -15.5266 0.0000 0.0000 0.0000 0.0000 0.0000 0.0000 17.0778 -0.6392 -13.9932 0.0000 0.0000 0.0000 0.0000 0.0000 0.0000
0.0660 0.2192 -0.1008 -5.0439 9.9299 14.5056 3.3960 0.8865 -14.6126 0.0000 0.0000 0.0000 0.0000 0.0000 0.0000 16.2127 51.2253 10.6628 0.0000 0.0000 0.0000 0.0000 0.0000 0.0000 -79.3588 -1.1272 10.1590 -4.7694 5.4961 -6.0021 -169.5107 8.9337 178.2132 47.4247 -8.5586 7.7838 -48.0373 -4.5347 -10.1549 0.2760 0.0056 -2.3234 -7.1832 0.1692 1.3097 18.8497 1.0306 -6.2027 1.0568 0.0061 -0.6576 6.4562 -0.2529 -0.2907 30.3714 4.0332 -14.7830 21.4832 1.4238 -7.4948 13.6458 -0.7759 -0.7955 30.1413 4.9549 -18.2565 31.8064 2.8160 -9.8612 20.3267 -1.6469 -1.2385 11.2144 1.8658 -18.8347 39.0816 5.7721 -16.1687 0.0000 0.0000 0.0000 62.1459 -38.4531 45.5871 202.4868 28.8915 294.6818 -150.0021 40.0160 165.0711 -38.3636 1.6924 -29.7808 40.9976 -3.3612 8.9746 3.6848 -0.3005 9.3205 8.1590 -3.1063 -30.7352 -11.7284 -5.7040 -51.7507 1.7722 0.2276 -14.6360 -2.7371 -0.3123 -8.2427 -5.5268 -0.3492 -7.2260 -1.5970 0.0226 1.6222 -11.8236 0.0450 -18.9614 -358.0617 0.5232 -30.2095 -0.0734 -0.0038 -6.0047 -20.1150 2.2760 -29.3992 17.9194 3.6459 -22.8258 1.3997 0.0036 -0.2938 8.6541 -10.7694 -15.8391 0.0000 0.0000 0.0000 0.0000 0.0000 0.0000 17.3038 -2.2399 -14.1511 0.0000 0.0000 0.0000 0.0000 0.0000 0.0000
0.0606 0.2280 -0.1164 -4.8272 9.6836 14.7479 3.3617 0.8915 -14.8360 0.0000 0.0000 0.0000 0.0000 0.0000 0.0000 15.1572 51.3070 9.9823 0.0000 0.0000 0.0000 0.0000 0.0000 0.0000 -79.0659 -0.3172 10.9673 -5.1627 5.8665 -6.4344 -169.5677 6.8947 176.7059 47.2902 -8.4813 7.9604 -48.7455 -4.6228 -10.1825 1.7692 0.0371 -2.3995 -6.9352 0.1145 1.6492 19.7129 0.9885 -5.6848 2.4552 0.0267 -1.2455 6.5939 -0.2942 0.3321 28.7263 2.9773 -11.5899 18.4332 0.7357 -4.5318 14.3900 -0.8031 -0.1662 30.2455 4.1479 -15.2644 29.6678 1.8675 -7.0432 21.5936 -1.6546 -0.6114 14.4292 2.2302 -17.4828 40.7223 4.7423 -12.7328 0.0000 0.0000 0.0000 61.1478 -38.1298 46.3206 206.4363 31.8230 295.7058 -22.4367 -13.2615 324.3714 -46.5313 -10.9901 3.1896 37.5692 -6.5342 19.0544 -2.2637 0.0457 2.3107 3.7206 3.5209 22.5095 -22.5916 9.3828 44.6702 -9.1939 1.0224 12.6638 -2.7929 0.1266 9.9597 -3.0975 0.5784 21.1483 -3.2238 0.1333 4.7331 -4.0403 -0.3372 1.0546 -355.6500 -0.6602 17.2508 -3.3192 0.1438 4.9616 -10.4422 0.2438 -4.8757 12.4328 -1.2288 11.2458 -2.6354 0.0898 3.9009 8.0367 -8.4492 -15.7154 0.0000 0.0000 0.0000 0.0000 0.0000 0.0000 17.0018 -0.7072 -14.0810 0.0000 0.0000 0.0000 0.0000 0.0000 0.0000
0.0696 0.2295 -0.1023 -5.2149 10.4871 14.5958 3.6920 0.9695 -14.6928 0.0000 0.0000 0.0000 0.0000 0.0000 0.0000 15.1825 50.4083 10.0026 0.0000 0.0000 0.0000 0.0000 0.0000 0.0000 -79.6880 -1.2805 10.6156 -3.7307 5.7194 -6.2941 -169.4303 10.0328 178.8673 47.0361 -8.2723 8.5449 -47.3308 -4.4949 -10.2345 0.4768 0.0114 -2.7468 -5.8282 0.0182 1.8850 20.9913 1.1452 -6.1757 1.0111 0.0079 -0.8957 8.5846 -0.3796 0.2831 27.2506 2.8122 -11.5648 15.8466 0.5798 -4.1639 15.8758 -0.8834 -0.6105 27.6376 3.9407 -15.9239 28.1574 1.7226 -6.8609 21.7977 -1.7418 -1.2972 10.5223 1.6421 -17.6917 32.8547 3.6308 -12.2716 0.0000 0.0000 0.0000 60.8472 -38.9086 46.5868 208.9409 33.0977 296.6366 -23.9823 17.9009 312.2641 -56.8827 -12.0046 -0.5613 38.5987 -4.4797 12.7461 -1.8390 -0.0025 -0.1578 -14.6393 4.8767 17.4891 -33.0523 6.8314 22.7477 -8.1308 0.1495 2.1035 -0.2662 -0.0081 1.2645 -7.2873 0.9120 14.2489 0.8786 -0.0033 0.4279 3.5960 0.7066 -2.9012 -358.4944 -0.1604 12.1642 -0.5578 0.0024 0.4923 -0.6015 1.5544 -5.2791 11.3746 -0.7152 7.1721 -2.1229 0.0060 0.3242 8.3092 -11.5341 -16.0680 0.0000 0.0000 0.0000 0.0000 0.0000 0.0000 17.2935 -1.2637 -13.9975 0.0000 0.0000 0.0000 0.0000 0.0000 0.0000
0.0707 0.2325 -0.1007 -5.4015 10.3540 13.9044 3.5048 0.8775 -14.0396 0.0000 0.0000 0.0000 0.0000 0.0000 0.0000 15.4253 50.6683 10.2763 0.0000 0.0000 0.0000 0.0000 0.0000 0.0000 -79.5615 -1.2329 10.5029 -3.5942 5.9078 -6.5272 -169.7814 8.6590 178.7167 46.3190 -8.1797 8.1534 -47.7712 -4.5132 -10.1701 2.1514 0.0606 -3.2249 -6.9958 0.1733 1.1865 20.2771 1.3350 -7.4556 0.9491 0.0106 -1.2850 7.0369 -0.2721 -0.3490 25.5893 3.2622 -14.2941 16.0846 0.9494 -6.7114 14.3569 -0.8215 -1.5834 25.5289 4.2495 -18.6018 26.1543 2.0998 -9.0220 20.7909 -1.8429 -2.6823 9.0884 1.6221 -20.1985 33.7969 5.0959 -16.6666 0.0000 0.0000 0.0000 62.1690 -38.3615 44.7162 209.3833 34.3317 297.8100 -35.0162 30.5509 300.1471 -59.4778 -11.9919 -4.5142 43.6236 -4.2881 10.6884 8.5957 0.1310 -1.7427 -9.7823 0.1292 2.1427 -24.1285 2.4754 11.5444 -4.2764 0.1395 3.7340 -0.3685 -0.0128 0.7909 -6.3262 0.9634 17.3008 -4.7632 0.1282 3.0809 -3.7708 -0.5090 2.7753 -355.1030 -0.6252 14.5421 -3.9395 0.0927 2.6960 2.1111 -0.7955 2.9276 15.0892 -1.2961 9.7629 -7.4901 0.0557 0.8513 7.9879 -13.4348 -15.6594 0.0000 0.0000 0.0000 0.0000 0.0000 0.0000 16.8304 -1.2087 -13.3499 0.0000 0.0000 0.0000 0.0000 0.0000 0.0000
0.0666 0.2464 -0.1059 -5.4878 10.7844 13.4846 3.4810 0.8457 -13.6388 0.0000 0.0000 0.0000 0.0000 0.0000 0.0000 16.1628 50.2757 10.7093 0.0000 0.0000 0.0000 0.0000 0.0000 0.0000 -79.5697 -1.8399 10.2697 -3.3188 5.7565 -6.3627 -170.2996 10.3438 177.9589 48.0634 -8.8522 7.2304 -48.4304 -4.4355 -9.8430 -0.1787 -0.0034 -2.1958 -5.8594 0.1252 1.0736 20.6237 1.2182 -6.6880 1.0664 0.0124 -1.3349 8.4148 -0.2851 -0.8976 28.6177 3.5173 -13.7283 19.3426 1.0289 -6.0319 15.4828 -0.8702 -2.0758 27.7270 4.5557 -18.3113 30.8017 2.3055 -8.3557 22.0360 -1.9276 -2.9270 11.6264 2.0583 -20.0133 34.2662 4.4023 -14.2142 0.0000 0.0000 0.0000 61.1372 -38.0429 44.3535 210.2337 36.2568 298.8569 -32.0633 35.2245 299.6636 -63.1575 -12.6713 -5.7439 46.5064 -4.2646 9.9045 0.3900 0.0017 -0.4988 -14.9724 1.0651 5.5077 -35.2037 4.0618 12.7555 -6.8195 -0.0263 -0.4416 0.7274 0.0324 -0.3220 -8.5180 1.0018 13.3915 1.0587 -0.0180 1.9525 2.4902 -0.0717 1.3028 -357.2964 -0.2851 12.0366 -1.0080 0.0066 0.7450 4.2861 -0.5394 2.5031 14.9719 -0.8902 6.7667 -3.8372 -0.0311 -0.9292 7.7676 -13.5789 -15.2634 0.0000 0.0000 0.0000 0.0000 0.0000 0.0000 16.2290 -1.6765 -13.0350 0.0000 0.0000 0.0000 0.0000 0.0000 0.0000
0.0702 0.2471 -0.1048 -5.6298 10.6844 12.7342 3.4706 0.7961 -12.9036 0.0000 0.0000 0.0000 0.0000 0.0000 0.0000 15.8425 50.1161 10.4981 0.0000 0.0000 0.0000 0.0000 0.0000 0.0000 -79.8234 -1.9342 10.0036 -2.6242 5.5236 -6.1058 -170.3854 12.2962 177.4663 49.2118 -9.3845 6.1274 -48.7909 -4.3899 -9.6612 -2.3115 -0.0326 -1.6174 -5.3604 0.0956 1.0919 21.3214 1.2676 -6.7263 1.7350 0.0334 -2.2029 9.2350 -0.3069 -0.9733 24.5263 2.8041 -12.8491 16.8410 0.8943 -6.0360 16.2774 -0.8995 -2.1548 23.6817 3.8689 -18.3036 29.1460 2.5735 -9.8762 23.0528 -2.0187 -3.3970 7.9941 1.3714 -19.4389 29.5381 3.6818 -13.9017 0.0000 0.0000 0.0000 61.5298 -37.6480 43.5311 210.5133 36.8103 299.5413 -33.3527 36.6804 301.8501 -60.4936 -12.0615 -5.8266 45.8438 -4.1649 9.8293 -0.1825 -0.0000 -0.0113 -12.7530 1.6035 7.3400 -41.0175 6.0083 15.9729 -12.9869 -0.0016 -0.0144 -0.2071 -0.0061 1.3921 -7.5818 0.7886 11.8596 0.7833 0.0027 -0.3882 4.0359 -0.2984 2.9799 -355.3617 -0.3788 9.3318 -0.1343 -0.0017 -1.4366 5.0835 -1.0064 3.9370 14.8807 -0.6006 4.5969 -3.2822 -0.0823 -2.8729 7.6579 -14.2464 -14.6125 0.0000 0.0000 0.0000 0.0000 0.0000 0.0000 15.5592 -1.8404 -12.3767 0.0000 0.0000 0.0000 0.0000 0.0000 0.0000
0.0687 0.2538 -0.1117 -5.4251 10.6553 12.8661 3.2857 0.7616 -13.0357 0.0000 0.0000 0.0000 0.0000 0.0000 0.0000 15.4161 50.0056 10.2411 0.0000 0.0000 0.0000 0.0000 0.0000 0.0000 -79.7924 -1.8921 10.0196 -2.4805 5.6207 -6.2340 -171.6985 4.1981 177.0052 49.9610 -9.2210 7.7271 -49.6239 -4.7471 -10.2465 0.7318 0.0129 -2.0259 -4.3402 -0.0186 1.5016 23.5891 1.0370 -4.9631 1.9508 0.0237 -1.3942 9.2247 -0.3678 -0.2153 29.3135 2.3590 -9.0026 19.7430 0.4977 -2.8597 15.3697 -0.8622 -1.3716 24.2196 2.8997 -13.4553 30.7667 1.1928 -4.3333 21.5310 -1.8360 -2.2998 8.8671 1.3164 -16.8566 31.6806 2.9722 -10.4487 0.0000 0.0000 0.0000 60.6177 -37.7798 44.4844 212.7220 38.2750 299.9463 -35.9369 36.3609 299.7447 -61.4294 -12.4525 -4.1210 44.6151 -4.1933 10.1981 4.8141 0.0244 -0.5796 -16.2709 2.3908 9.4701 -43.6242 7.6521 18.9729 -21.1451 0.7175 3.8428 0.4538 0.0129 1.5207 -7.2144 0.7155 11.3133 -0.5510 0.0027 0.5577 0.0954 -0.3393 2.4348 -357.8522 -0.2203 11.7094 -0.1048 0.0001 0.1413 3.3783 -0.5736 2.4592 12.6065 -0.5755 5.2062 -3.5221 -0.0547 -1.7782 7.3964 -14.5250 -14.7259 0.0000 0.0000 0.0000 0.0000 0.0000 0.0000 15.4464 -1.3143 -12.3850 0.0000 0.0000 0.0000 0.0000 0.0000 0.0000
0.0733 0.2542 -0.1018 -5.5849 11.1624 12.8848 3.4487 0.8010 -13.0605 0.0000 0.0000 0.0000 0.0000 0.0000 0.0000 14.7428 49.5533 9.8845 0.0000 0.0000 0.0000 0.0000 0.0000 0.0000 -80.0663 -2.5911 9.7074 -1.7666 5.3732 -5.9604 -170.9888 5.9632 177.7607 49.1944 -9.0758 7.5020 -48.5215 -4.6640 -10.3263 0.7706 0.0183 -2.7237 -5.4373 0.0306 1.6111 22.7116 1.1988 -5.9640 1.9527 0.0330 -1.9378 8.3770 -0.3273 -0.3051 28.7951 3.2651 -12.6705 20.3097 1.2442 -6.9380 14.4311 -0.8199 -1.2406 23.7886 3.7709 -17.7660 30.5318 2.6594 -9.7221 20.2654 -1.7797 -2.3663 9.2761 1.6387 -19.9953 34.0358 5.1144 -16.6036 0.0000 0.0000 0.0000 60.2419 -38.3524 44.9404 213.1735 37.7946 300.0638 -35.3741 38.0288 301.9012 -61.9913 -12.3975 -5.8583 40.3918 -4.0726 11.0417 4.8588 0.0448 -1.0569 -21.0254 2.8728 10.1931 -47.6788 9.7275 21.8003 -27.7019 1.5452 6.2609 -1.1751 -0.0250 2.3313 -6.6352 0.4280 7.3725 -0.8300 -0.0009 -0.1269 1.5177 -0.4906 3.7374 -358.7464 -0.1291 11.7564 -1.5767 -0.0147 -1.0647 3.1718 -0.6525 2.6597 12.4700 -0.3327 3.0446 -3.4063 -0.0919 -3.0898 7.6326 -15.1994 -14.8978 0.0000 0.0000 0.0000 0.0000 0.0000 0.0000 15.5935 -1.7946 -12.4727 0.0000 0.0000 0.0000 0.0000 0.0000 0.0000
0.0718 0.2535 -0.1066 -5.7579 10.5965 11.6320 3.3503 0.7024 -11.8281 0.0000 0.0000 0.0000 0.0000 0.0000 0.0000 14.9462 49.8486 9.9778 0.0000 0.0000 0.0000 0.0000 0.0000 0.0000 -79.9479 -2.2431 9.5171 -1.8511 5.1485 -5.7051 -170.2842 3.9541 175.5594 50.3895 -9.4822 7.0037 -50.2085 -4.8075 -10.2397 0.1807 0.0024 -1.5442 -6.5001 0.0992 1.5642 22.1733 1.0613 -5.4123 2.2123 0.0451 -2.3337 7.2875 -0.3124 0.1312 28.9211 2.8945 -11.1906 23.4299 1.3322 -6.4179 13.8195 -0.7886 -1.0219 25.3194 3.7273 -16.4848 35.6923 3.1335 -9.7118 20.4278 -1.7922 -2.4026 9.6397 1.5760 -18.5280 36.1520 4.8279 -14.7191 0.0000 0.0000 0.0000 61.8914 -37.5118 43.0789 212.0182 38.2285 300.2998 -39.6236 42.1655 297.9723 -65.0696 -13.1267 -5.3690 43.1347 -3.9412 9.9498 7.5319 0.0739 -1.1226 -16.9792 1.3848 6.4217 -55.5912 9.8042 18.4823 -32.4396 1.9354 6.6463 0.1114 0.0038 0.8213 -6.5455 0.4405 7.6910 -0.6359 0.0070 1.2625 -1.4345 -0.3946 2.4536 -362.0706 0.1706 9.4182 -2.3142 0.0450 2.2299 1.9235 -1.0898 3.8046 10.4804 -0.3330 3.6292 -2.3012 -0.0481 -2.3969 7.5125 -14.1607 -13.4878 0.0000 0.0000 0.0000 0.0000 0.0000 0.0000 15.1455 -0.3221 -10.9960 0.0000 0.0000 0.0000 0.0000 0.0000 0.0000
0.0723 0.2493 -0.1083 -5.7514 10.1437 11.9964 3.1971 0.6918 -12.1973 0.0000 0.0000 0.0000 0.0000 0.0000 0.0000 15.2946 50.2141 10.2428 0.0000 0.0000 0.0000 0.0000 0.0000 0.0000 -79.7716 -1.5586 9.8041 -1.7321 5.3749 -5.9714 -169.7751 8.0445 176.7480 47.7806 -8.8814 6.8042 -48.1010 -4.6243 -10.3393 0.7473 0.0143 -2.1863 -6.2461 0.2099 0.5678 22.3835 1.4659 -7.3989 1.1952 0.0183 -1.7501 7.7691 -0.2526 -1.0532 33.1514 4.6625 -15.5762 27.9178 2.4163 -9.6991 14.8245 -0.8500 -2.4855 28.2353 5.0043 -19.7128 37.6042 4.0775 -11.9380 20.7649 -1.9402 -3.5288 12.5694 2.3241 -20.8719 38.8629 6.1462 -17.3066 0.0000 0.0000 0.0000 62.6680 -37.1286 42.4658 212.1301 38.8227 300.4067 -34.9427 35.1282 303.8925 -61.9818 -12.4412 -5.4007 43.1952 -4.0490 10.2051 5.4014 0.0770 -1.6324 -20.8356 3.1852 11.0443 -51.4976 13.1223 26.8253 -22.2393 1.3359 6.7890 -0.3492 -0.0152 -0.1978 -5.5116 0.4845 10.0403 -0.0040 0.0000 1.3141 1.0482 0.1322 -0.4864 -359.1057 -0.0783 10.0020 -0.9981 0.0132 1.5117 3.5925 0.6216 -0.9990 11.6713 -0.4464 4.3660 -2.1496 -0.0150 -0.7970 7.6328 -13.9408 -13.8302 0.0000 0.0000 0.0000 0.0000 0.0000 0.0000 15.5632 0.0290 -11.2990 0.0000 0.0000 0.0000 0.0000 0.0000 0.0000
0.0699 0.2451 -0.1073 -5.9497 10.0365 11.2235 3.3399 0.6759 -11.4270 0.0000 0.0000 0.0000 0.0000 0.0000 0.0000 14.9025 50.4712 10.0339 0.0000 0.0000 0.0000 0.0000 0.0000 0.0000 -79.8589 -1.4001 9.9109 -1.9024 5.4785 -6.0785 -169.5252 4.3464 177.0620 48.7589 -8.8255 8.1192 -49.2650 -4.7374 -10.3099 0.7938 0.0124 -1.7879 -5.9368 0.0785 1.4691 21.5370 0.9916 -5.2105 0.9744 0.0092 -1.0797 7.9916 -0.3552 0.3104 28.5213 2.3900 -9.3835 18.7877 0.5188 -3.1354 14.7682 -0.8292 -0.7058 23.7693 2.5161 -11.9146 27.6485 0.8642 -3.5109 20.7318 -1.7140 -1.6037 9.7943 1.3804 -16.0073 35.8483 3.3685 -10.3886 0.0000 0.0000 0.0000 64.3331 -36.9267 41.0995 210.2039 37.9758 299.9663 -33.1058 33.0303 306.9557 -60.7984 -12.3047 -4.2547 39.2892 -4.1598 11.6186 5.1003 0.0717 -1.6098 -16.3275 3.6918 13.3545 -51.2653 15.2617 31.2019 -17.0646 0.7111 4.7372 0.9026 0.0231 1.8440 -6.3031 0.6009 10.8804 0.0202 -0.0001 0.3669 2.9577 0.1599 0.0439 -359.5041 -0.0408 9.4178 -0.2792 0.0008 0.3219 6.2257 0.8383 -0.9511 11.4879 -0.3627 3.6046 -3.2345 -0.0353 -1.2517 7.8996 -12.0243 -12.8199 0.0000 0.0000 0.0000 0.0000 0.0000 0.0000 16.0756 1.9639 -10.0960 0.0000 0.0000 0.0000 0.0000 0.0000 0.0000
0.0760 0.2359 -0.0870 -6.1221 10.9508 11.2129 3.7033 0.7487 -11.4134 0.0000 0.0000 0.0000 0.0000 0.0000 0.0000 14.3066 49.7503 9.6488 0.0000 0.0000 0.0000 0.0000 0.0000 0.0000 -80.6143 -2.4540 9.6025 -1.2147 5.5314 -6.1220 -168.4982 4.5003 177.4214 48.6601 -8.6629 8.7180 -50.4765 -4.7444 -10.0449 1.4115 0.0212 -1.7219 -7.0540 0.1043 1.7945 19.8415 0.9000 -5.1422 2.5951 0.0323 -1.4281 6.3308 -0.2778 0.2487 26.4814 2.5331 -10.7357 19.8820 0.7938 -4.5270 13.6004 -0.7610 -0.1856 26.8313 3.5326 -14.7334 32.5582 2.1560 -7.3737 20.2018 -1.5859 -0.7990 13.9908 2.2921 -18.5193 44.5526 6.0772 -14.7669 0.0000 0.0000 0.0000 65.5923 -37.9083 40.5212 208.4053 35.2675 299.5603 -30.3938 33.1448 310.5655 -61.4772 -12.4729 -4.0215 39.9401 -4.1114 11.2825 2.9780 0.0183 -0.7035 -15.5745 3.6769 13.4939 -52.1536 16.9740 33.9137 -22.0613 1.9446 9.9513 -0.4964 -0.0165 0.9621 -5.5281 0.4733 9.7789 0.2455 -0.0010 0.4853 1.2405 0.1389 -0.4537 -357.4620 -0.1954 8.8035 -0.4888 0.0007 0.1710 4.5685 0.7639 -1.1575 11.7547 -0.2947 2.8620 -2.8324 -0.0406 -1.6404 8.3942 -11.6352 -12.8058 0.0000 0.0000 0.0000 0.0000 0.0000 0.0000 16.5753 1.2756 -10.1176 0.0000 0.0000 0.0000 0.0000 0.0000 0.0000
0.0767 0.2321 -0.0864 -6.2230 10.6744 10.8586 3.5738 0.7006 -11.0779 0.0000 0.0000 0.0000 0.0000 0.0000 0.0000 14.8690 50.0347 10.0358 0.0000 0.0000 0.0000 0.0000 0.0000 0.0000 -80.7363 -1.8720 9.9652 -0.9208 5.6515 -6.2423 -168.0288 2.0223 175.6978 48.9849 -8.8798 8.1384 -51.0605 -4.8850 -10.2069 2.3326 0.0275 -1.3494 -8.6570 0.2408 1.4157 20.6364 0.9939 -5.4551 2.8261 0.0432 -1.7508 5.0701 -0.2055 -0.1339 33.2912 3.7039 -12.3446 24.3167 1.3219 -6.1299 11.7303 -0.7094 -1.4957 31.1453 5.0592 -18.0154 36.5385 2.9095 -8.7979 18.6558 -1.7481 -2.7320 17.0433 3.2876 -21.6845 44.4484 7.2125 -17.5375 0.0000 0.0000 0.0000 67.3246 -37.4114 38.8796 207.1572 35.5196 299.5378 -28.9007 27.1105 312.6235 -60.1186 -12.5363 -1.0061 36.9120 -4.3341 12.9375 2.5558 0.0092 -0.4112 -21.0431 6.3032 19.1700 -45.0722 16.3643 38.2232 -19.4924 1.9269 11.1840 -1.6534 -0.0563 0.8741 -3.9349 0.3812 11.0619 1.2069 -0.0091 0.8607 0.4663 0.3393 -2.1560 -356.7721 -0.2767 9.7967 0.4208 -0.0032 0.8832 3.6222 1.7828 -4.3644 10.9757 -0.4321 4.4948 -2.8939 -0.0164 -0.6506 8.2457 -12.3684 -12.5674 0.0000 0.0000 0.0000 0.0000 0.0000 0.0000 16.5044 0.3583 -9.9998 0.0000 0.0000 0.0000 0.0000 0.0000 0.0000
0.0753 0.2216 -0.0898 -6.1389 10.5702 11.3316 3.7186 0.7593 -11.5238 0.0000 0.0000 0.0000 0.0000 0.0000 0.0000 14.1086 50.1850 9.5633 0.0000 0.0000 0.0000 0.0000 0.0000 0.0000 -80.4356 -0.7303 11.3306 -1.5958 6.1658 -6.8263 -168.2926 1.8994 174.9446 49.2029 -8.9620 8.0233 -51.6059 -4.8518 -10.0155 3.3308 0.0455 -1.5646 -7.7398 0.1799 1.4922 20.5739 0.9749 -5.3679 1.7519 0.0246 -1.6082 6.2160 -0.2555 -0.0694 31.5269 3.3523 -11.8367 22.6037 1.2237 -6.1174 13.3615 -0.7669 -0.9998 27.4647 4.1096 -16.7047 35.2972 3.0327 -9.5126 19.5411 -1.6568 -1.6881 13.2346 2.1668 -18.5172 41.4440 5.7978 -15.2480 0.0000 0.0000 0.0000 68.6135 -37.1555 37.9070 205.9791 35.6621 299.0670 -27.1031 19.3728 316.4198 -59.2367 -12.7758 2.2764 35.7606 -4.8005 14.8058 9.7980 0.4288 -4.9998 -17.3147 7.9640 25.4100 -36.8412 15.3846 44.1494 -18.2063 3.0849 19.0793 -1.2172 -0.0406 0.9532 -3.5661 0.3644 11.6640 -0.3863 -0.0000 -0.0121 1.1588 0.5686 -3.3219 -357.2623 -0.2448 10.2180 -1.7081 0.0157 1.0512 3.6712 2.2329 -5.6472 10.3277 -0.3855 4.2638 -3.9912 -0.0014 -0.0398 8.3365 -11.6405 -12.9295 0.0000 0.0000 0.0000 0.0000 0.0000 0.0000 17.1196 0.3062 -10.4403 0.0000 0.0000 0.0000 0.0000 0.0000 0.0000
0.0731 0.2179 -0.0807 -5.6950 11.6854 11.3834 4.0842 0.8331 -11.5099 0.0000 0.0000 0.0000 0.0000 0.0000 0.0000 12.4030 48.7825 8.2469 0.0000 0.0000 0.0000 0.0000 0.0000 0.0000 -80.9907 -1.7733 11.3932 -2.3281 6.4016 -7.0787 -167.7284 3.5773 175.4400 49.3621 -9.0952 7.6064 -51.8101 -4.7504 -9.7628 3.4720 0.0552 -1.8202 -8.7089 0.2056 1.7816 19.8842 0.9471 -5.3995 3.1961 0.0565 -2.0258 5.4211 -0.1864 -0.8371 36.7369 5.2730 -15.7909 28.1751 2.4136 -9.5966 13.0994 -0.7706 -1.6308 32.8586 6.5245 -21.8807 37.6433 4.8433 -14.1458 19.3229 -1.6638 -1.8370 19.7500 4.1355 -23.4344 46.2315 8.6808 -20.1646 0.0000 0.0000 0.0000 68.7385 -37.6242 37.4213 203.3455 35.4492 298.0344 -23.1434 14.9262 319.0918 -57.0957 -12.6734 3.9050 32.7338 -6.2829 21.1703 3.9444 -0.1439 4.1759 1.8026 3.2803 19.2875 -26.4861 18.8556 70.4107 -10.8645 2.2179 23.0109 -2.8585 -0.0349 3.3741 -3.3481 0.3135 10.6951 -0.9340 -0.0057 -0.6940 -3.6491 -0.1773 -0.2530 -353.6758 -0.4027 7.2797 -1.9666 -0.0176 -1.0259 -4.0794 0.5072 -3.0340 15.7049 -0.0592 0.4293 -2.2777 -0.0284 -1.4305 8.6377 -10.9016 -12.7826 0.0000 0.0000 0.0000 0.0000 0.0000 0.0000 17.0365 -0.0801 -10.4209 0.0000 0.0000 0.0000 0.0000 0.0000 0.0000
0.0636 0.2156 -0.1008 -5.3533 10.7418 11.0684 3.6958 0.7324 -11.1939 0.0000 0.0000 0.0000 0.0000 0.0000 0.0000 11.8799 49.6171 7.9448 0.0000 0.0000 0.0000 0.0000 0.0000 0.0000 -80.5647 -0.2022 12.2817 -3.5712 6.7157 -7.3812 -169.9552 2.2173 174.5106 49.0789 -9.0270 7.5894 -49.7158 -4.8689 -10.4863 0.0105 0.0001 -1.0019 -6.8148 0.1703 1.1289 20.5855 0.8735 -4.8074 1.3496 0.0088 -0.7503 6.9477 -0.2704 -0.3205 40.2098 4.4186 -12.0329 33.5730 1.7697 -5.8618 13.5597 -0.7773 -1.0559 34.8377 5.1286 -16.2477 45.0197 3.5517 -8.5573 19.8492 -1.6465 -1.4658 16.1995 2.5095 -17.4989 46.4089 5.4351 -12.6365 0.0000 0.0000 0.0000 70.8483 -35.4144 34.2242 201.7386 42.1916 296.7251 -33.0436 10.7989 311.3621 -51.1334 -10.3365 -3.6702 42.0517 -5.4862 14.2105 10.3642 0.1108 -1.2217 21.2606 0.9615 -2.6721 113.5731 -13.9014 9.1271 -1.9017 -0.2618 -15.6783 28.9254 5.0611 -14.6748 79.9223 -0.1202 0.1434 15.2093 1.4438 -10.7827 20.9174 3.9095 -7.9832 -293.8454 2.2160 -3.4017 29.2352 2.6585 -10.1684 0.7022 0.9957 -2.9876 36.3414 3.2202 -9.7898 14.1214 1.2819 -10.3218 7.9785 -8.9383 -12.1151 0.0000 0.0000 0.0000 0.0000 0.0000 0.0000 16.4454 0.8764 -10.0010 0.0000 0.0000 0.0000 0.0000 0.0000 0.0000
0.0528 0.2123 -0.1145 -4.8210 10.7596 11.8598 3.5193 0.7459 -11.9522 0.0000 0.0000 0.0000 0.0000 0.0000 0.0000 10.3806 50.0648 7.1082 0.0000 0.0000 0.0000 0.0000 0.0000 0.0000 -80.1272 0.9714 13.8552 -4.9108 7.6943 -8.4848 -169.2666 3.0634 174.4252 48.3548 -8.8017 7.7673 -49.8566 -4.7973 -10.2998 3.5726 0.0543 -1.7398 -7.8669 0.1903 1.4642 19.1122 0.9038 -5.3650 1.7275 0.0205 -1.3598 5.3599 -0.2233 -0.0034 34.4197 4.1830 -13.4489 26.0882 1.8288 -7.8820 12.0377 -0.6915 -0.6005 32.4229 5.1910 -17.7239 36.1098 3.3701 -10.3134 18.6582 -1.4854 -0.7897 13.6534 2.1943 -18.1777 42.8223 6.1224 -15.5327 0.0000 0.0000 0.0000 71.4164 -34.1192 32.1951 201.1968 53.2278 293.6197 -36.2340 -48.2924 410.6873 -60.6747 -12.7431 -0.0497 71.0325 -13.5956 18.9637 17.1970 0.3763 -2.4880 32.4712 0.1453 12.4130 6.1904 -0.6291 11.5947 7.9659 -0.4703 6.7469 28.7286 -2.7270 15.3917 9.8096 -1.1783 13.6658 4.1820 -0.1005 2.7522 36.7255 -5.3898 15.4014 -352.9442 -0.9552 15.4001 7.7007 -0.3029 4.4986 27.1629 -7.6413 16.8103 18.6922 -2.5316 15.2928 -2.2187 0.0603 3.1109 7.4109 -7.1421 -12.5973 0.0000 0.0000 0.0000 0.0000 0.0000 0.0000 16.2895 -0.0888 -10.9547 0.0000 0.0000 0.0000 0.0000 0.0000 0.0000
0.0523 0.2011 -0.1248 -4.2971 10.6856 12.8509 3.3472 0.7681 -12.9092 0.0000 0.0000 0.0000 0.0000 0.0000 0.0000 9.0523 50.4570 6.3485 0.0000 0.0000 0.0000 0.0000 0.0000 0.0000 -79.8149 1.8506 14.9251 -6.1535 8.0042 -8.7438 -171.2277 12.3353 175.0617 48.8421 -9.4751 5.3258 -47.7085 -4.3994 -9.9293 -1.1889 -0.0153 -1.4716 -5.2231 0.1528 0.6136 20.0716 1.2126 -6.8439 0.6797 0.0119 -2.0128 9.0803 -0.1893 -2.3883 29.7677 4.9830 -18.5955 24.2640 2.4985 -11.5848 15.2912 -0.8722 -3.5686 26.4084 5.6673 -23.8251 37.1627 5.7838 -17.0916 20.9972 -2.0091 -4.0501 8.2614 1.6228 -22.1907 35.4824 6.6582 -20.6095 0.0000 0.0000 0.0000 72.8004 -32.5777 29.5276 208.5123 72.7465 292.8416 -1.9048 -27.1127 402.1077 -68.7088 -14.3886 6.6983 76.6635 -10.1314 12.7940 10.2644 0.4024 -4.4777 26.9429 0.6651 9.5244 -0.5668 0.0408 8.2377 4.5508 -0.2199 5.5288 19.7372 -1.3906 12.7532 7.8693 -0.7543 10.9338 2.3359 -0.0408 2.0004 23.7840 -2.8499 11.7447 -353.2707 -0.8226 13.9232 5.2359 -0.1533 3.3513 14.1067 -4.6677 12.9802 19.0768 -2.3750 14.0655 -2.1160 0.0623 3.3705 7.1765 -8.1713 -13.6483 0.0000 0.0000 0.0000 0.0000 0.0000 0.0000 16.6368 -2.3509 -12.3386 0.0000 0.0000 0.0000 0.0000 0.0000 0.0000
0.0514 0.1965 -0.1222 -4.3463 10.1342 13.9468 3.3292 0.8313 -14.0037 0.0000 0.0000 0.0000 0.0000 0.0000 0.0000 9.4989 50.9332 6.6688 0.0000 0.0000 0.0000 0.0000 0.0000 0.0000 -79.8660 3.0192 15.6250 -6.4138 8.0763 -8.6728 -183.4229 -26.4380 161.3580 51.7892 -10.5321 3.3841 -39.0364 -4.1670 -11.7194 0.5266 -0.0199 4.3189 5.1272 -0.5641 1.4385 10.7373 0.3587 -3.8152 -0.2928 -0.0028 -1.1101 8.3178 -0.1973 -2.0588 1.0543 0.0171 -1.8613 -2.2287 0.0081 0.4185 -1.6696 -0.3371 -2.7721 -20.3805 0.3700 2.0583 -3.1433 -0.0109 -0.3990 -39.4075 6.8953 4.4516 -33.1340 -2.0380 -6.8433 -1.0766 -0.0388 -4.1227 0.0000 0.0000 0.0000 76.0505 -28.8151 23.7371 359.0605 78.0352 430.2176 39.0578 6.5408 402.9244 -68.1037 -14.3489 7.3684 64.2232 -6.1930 9.8533 1.4050 0.0335 -2.7305 13.0335 0.8298 3.7467 -9.4845 0.4955 5.9675 0.7437 -0.0332 5.1057 2.6572 -0.0603 7.3717 3.2814 -0.2436 8.4893 -0.0857 0.0014 1.8678 1.3339 -0.8955 6.3678 -354.3166 -0.5902 11.8475 1.8857 -0.0529 3.2154 -8.1446 -2.3002 7.3247 18.2246 -2.0146 12.5119 -2.2098 0.0646 3.3497 7.3163 -6.4789 -14.5660 0.0000 0.0000 0.0000 0.0000 0.0000 0.0000 16.8827 -3.4043 -13.7255 0.0000 0.0000 0.0000 0.0000 0.0000 0.0000
