HIERARCHY
ROOT Hips
{
  OFFSET 0.000000 95.000000 0.000000
  CHANNELS 6 Xposition Yposition Zposition Zrotation Xrotation Yrotation
  JOINT Spine
  {
    OFFSET 0.000000 10.000000 0.000000
    CHANNELS 3 Zrotation Xrotation Yrotation
    JOINT Spine1
    {
      OFFSET 0.000000 12.000000 0.000000
      CHANNELS 3 Zrotation Xrotation Yrotation
      JOINT Spine2
      {
        OFFSET 0.000000 12.000000 0.000000
        CHANNELS 3 Zrotation Xrotation Yrotation
        JOINT Neck
        {
          OFFSET 0.000000 10.000000 0.000000
          CHANNELS 3 Zrotation Xrotation Yrotation
          JOINT Head
          {
            OFFSET 0.000000 8.000000 0.000000
            CHANNELS 3 Zrotation Xrotation Yrotation
            End Site
            {
              OFFSET 0.000000 10.000000 0.000000
            }
          }
        }
        JOINT LeftShoulder
        {
          OFFSET 6.000000 8.000000 0.000000
          CHANNELS 3 Zrotation Xrotation Yrotation
          JOINT LeftArm
          {
            OFFSET 12.000000 0.000000 0.000000
            CHANNELS 3 Zrotation Xrotation Yrotation
            JOINT LeftForeArm
            {
              OFFSET 24.000000 0.000000 0.000000
              CHANNELS 3 Zrotation Xrotation Yrotation
              JOINT LeftHand
              {
                OFFSET 22.000000 0.000000 0.000000
                CHANNELS 3 Zrotation Xrotation Yrotation
                JOINT LeftHandThumb1
                {
                  OFFSET 1.800000 -1.400000 0.500000
                  CHANNELS 3 Zrotation Xrotation Yrotation
                  JOINT LeftHandThumb2
                  {
                    OFFSET 2.400000 0.000000 0.000000
                    CHANNELS 3 Zrotation Xrotation Yrotation
                    JOINT LeftHandThumb3
                    {
                      OFFSET 1.900000 0.000000 0.000000
                      CHANNELS 3 Zrotation Xrotation Yrotation
                      End Site
                      {
                        OFFSET 1.600000 0.000000 0.000000
                      }
                    }
                  }
                }
                JOINT LeftHandIndex1
                {
                  OFFSET 6.600000 1.200000 0.300000
                  CHANNELS 3 Zrotation Xrotation Yrotation
                  JOINT LeftHandIndex2
                  {
                    OFFSET 2.000000 0.000000 0.000000
                    CHANNELS 3 Zrotation Xrotation Yrotation
                    JOINT LeftHandIndex3
                    {
                      OFFSET 1.200000 0.000000 0.000000
                      CHANNELS 3 Zrotation Xrotation Yrotation
                      End Site
                      {
                        OFFSET 1.000000 0.000000 0.000000
                      }
                    }
                  }
                }
                JOINT LeftHandMiddle1
                {
                  OFFSET 7.200000 0.000000 0.300000
                  CHANNELS 3 Zrotation Xrotation Yrotation
                  JOINT LeftHandMiddle2
                  {
                    OFFSET 3.000000 0.000000 0.000000
                    CHANNELS 3 Zrotation Xrotation Yrotation
                    JOINT LeftHandMiddle3
                    {
                      OFFSET 2.000000 0.000000 0.000000
                      CHANNELS 3 Zrotation Xrotation Yrotation
                      End Site
                      {
                        OFFSET 1.600000 0.000000 0.000000
                      }
                    }
                  }
                }
                JOINT LeftHandRing1
                {
                  OFFSET 7.100000 -1.000000 0.400000
                  CHANNELS 3 Zrotation Xrotation Yrotation
                  JOINT LeftHandRing2
                  {
                    OFFSET 2.600000 0.000000 0.000000
                    CHANNELS 3 Zrotation Xrotation Yrotation
                    JOINT LeftHandRing3
                    {
                      OFFSET 1.600000 0.000000 0.000000
                      CHANNELS 3 Zrotation Xrotation Yrotation
                      End Site
                      {
                        OFFSET 1.300000 0.000000 0.000000
                      }
                    }
                  }
                }
                JOINT LeftHandPinky1
                {
                  OFFSET 6.500000 -2.000000 0.500000
                  CHANNELS 3 Zrotation Xrotation Yrotation
                  JOINT LeftHandPinky2
                  {
                    OFFSET 1.900000 0.000000 0.000000
                    CHANNELS 3 Zrotation Xrotation Yrotation
                    JOINT LeftHandPinky3
                    {
                      OFFSET 1.400000 0.000000 0.000000
                      CHANNELS 3 Zrotation Xrotation Yrotation
                      End Site
                      {
                        OFFSET 1.300000 0.000000 0.000000
                      }
                    }
                  }
                }
              }
            }
          }
        }
        JOINT RightShoulder
        {
          OFFSET -6.000000 8.000000 0.000000
          CHANNELS 3 Zrotation Xrotation Yrotation
          JOINT RightArm
          {
            OFFSET -12.000000 0.000000 0.000000
            CHANNELS 3 Zrotation Xrotation Yrotation
            JOINT RightForeArm
            {
              OFFSET -24.000000 0.000000 0.000000
              CHANNELS 3 Zrotation Xrotation Yrotation
              JOINT RightHand
              {
                OFFSET -22.000000 0.000000 0.000000
                CHANNELS 3 Zrotation Xrotation Yrotation
                JOINT RightHandThumb1
                {
                  OFFSET -1.800000 -1.400000 0.500000
                  CHANNELS 3 Zrotation Xrotation Yrotation
                  JOINT RightHandThumb2
                  {
                    OFFSET -2.400000 0.000000 0.000000
                    CHANNELS 3 Zrotation Xrotation Yrotation
                    JOINT RightHandThumb3
                    {
                      OFFSET -1.900000 0.000000 0.000000
                      CHANNELS 3 Zrotation Xrotation Yrotation
                      End Site
                      {
                        OFFSET -1.600000 0.000000 0.000000
                      }
                    }
                  }
                }
                JOINT RightHandIndex1
                {
                  OFFSET -6.600000 1.200000 0.300000
                  CHANNELS 3 Zrotation Xrotation Yrotation
                  JOINT RightHandIndex2
                  {
                    OFFSET -2.000000 0.000000 0.000000
                    CHANNELS 3 Zrotation Xrotation Yrotation
                    JOINT RightHandIndex3
                    {
                      OFFSET -1.200000 0.000000 0.000000
                      CHANNELS 3 Zrotation Xrotation Yrotation
                      End Site
                      {
                        OFFSET -1.000000 0.000000 0.000000
                      }
                    }
                  }
                }
                JOINT RightHandMiddle1
                {
                  OFFSET -7.200000 0.000000 0.300000
                  CHANNELS 3 Zrotation Xrotation Yrotation
                  JOINT RightHandMiddle2
                  {
                    OFFSET -3.000000 0.000000 0.000000
                    CHANNELS 3 Zrotation Xrotation Yrotation
                    JOINT RightHandMiddle3
                    {
                      OFFSET -2.000000 0.000000 0.000000
                      CHANNELS 3 Zrotation Xrotation Yrotation
                      End Site
                      {
                        OFFSET -1.600000 0.000000 0.000000
                      }
                    }
                  }
                }
                JOINT RightHandRing1
                {
                  OFFSET -7.100000 -1.000000 0.400000
                  CHANNELS 3 Zrotation Xrotation Yrotation
                  JOINT RightHandRing2
                  {
                    OFFSET -2.600000 0.000000 0.000000
                    CHANNELS 3 Zrotation Xrotation Yrotation
                    JOINT RightHandRing3
                    {
                      OFFSET -1.600000 0.000000 0.000000
                      CHANNELS 3 Zrotation Xrotation Yrotation
                      End Site
                      {
                        OFFSET -1.300000 0.000000 0.000000
                      }
                    }
                  }
                }
                JOINT RightHandPinky1
                {
                  OFFSET -6.500000 -2.000000 0.500000
                  CHANNELS 3 Zrotation Xrotation Yrotation
                  JOINT RightHandPinky2
                  {
                    OFFSET -1.900000 0.000000 0.000000
                    CHANNELS 3 Zrotation Xrotation Yrotation
                    JOINT RightHandPinky3
                    {
                      OFFSET -1.400000 0.000000 0.000000
                      CHANNELS 3 Zrotation Xrotation Yrotation
                      End Site
                      {
                        OFFSET -1.300000 0.000000 0.000000
                      }
                    }
                  }
                }
              }
            }
          }
        }
      }
    }
  }
  JOINT LeftUpLeg
  {
    OFFSET 10.000000 -5.000000 0.000000
    CHANNELS 3 Zrotation Xrotation Yrotation
    JOINT LeftLeg
    {
      OFFSET 0.000000 -42.000000 0.000000
      CHANNELS 3 Zrotation Xrotation Yrotation
      JOINT LeftFoot
      {
        OFFSET 0.000000 -42.000000 4.000000
        CHANNELS 3 Zrotation Xrotation Yrotation
        End Site
        {
          OFFSET 0.000000 0.000000 12.000000
        }
      }
    }
  }
  JOINT RightUpLeg
  {
    OFFSET -10.000000 -5.000000 0.000000
    CHANNELS 3 Zrotation Xrotation Yrotation
    JOINT RightLeg
    {
      OFFSET 0.000000 -42.000000 0.000000
      CHANNELS 3 Zrotation Xrotation Yrotation
      JOINT RightFoot
      {
        OFFSET 0.000000 -42.000000 4.000000
        CHANNELS 3 Zrotation Xrotation Yrotation
        End Site
        {
          OFFSET 0.000000 0.000000 12.000000
        }
      }
    }
  }
}
MOTION
Frames: 60
Frame Time: 0.033333
0.0000 95.0000 0.0000 0.0000 0.0000 0.0000 0.0000 0.0000 0.0000 0.0000 0.0000 0.0000 0.0000 0.0000 0.0000 0.0000 0.0000 0.0000 0.0000 0.0000 0.0000 0.0000 0.0000 0.0000 -82.8840 9.8568 11.1561 -6.0388 6.0280 -6.2863 -173.3408 17.5778 177.1175 49.3841 -9.5520 5.5498 11.4350 0.0000 0.0000 4.1340 0.0000 0.0000 -1.8668 0.1318 -0.2858 7.9791 0.0000 0.0000 1.3113 0.0000 0.0000 12.2349 -0.1818 -3.0755 36.6647 0.0000 0.0000 29.6645 0.0000 0.0000 18.2413 -0.9545 -2.9924 45.4976 0.0000 0.0000 45.6486 0.0000 0.0000 22.2319 -1.8591 -2.1803 38.2717 0.0000 0.0000 56.6897 0.0000 0.0000 0.0000 0.0000 0.0000 85.5472 -0.8340 0.9014 1.3558 9.5687 10.5921 149.4053 66.0788 140.7076 -45.3443 -8.5808 -5.6175 5.6334 0.0000 0.0000 7.3292 0.0000 0.0000 0.7625 1.3020 7.2564 10.4464 0.0000 0.0000 0.8519 0.0000 0.0000 -8.9143 0.3947 9.8328 9.9838 0.0000 0.0000 6.9891 0.0000 0.0000 -18.3673 -0.8684 7.3062 9.4042 0.0000 0.0000 6.4893 0.0000 0.0000 -26.5012 -2.2318 4.4964 8.8668 0.0000 0.0000 6.6979 0.0000 0.0000 0.0000 0.0000 0.0000 0.0000 0.0000 0.0000 0.0000 0.0000 0.0000 0.0000 0.0000 0.0000 0.0000 0.0000 0.0000 0.0000 0.0000 0.0000
0.0000 95.0000 0.0000 0.0000 0.0000 0.0000 0.0000 0.0000 0.0000 0.0000 0.0000 0.0000 0.0000 0.0000 0.0000 0.0000 0.0000 0.0000 0.0000 0.0000 0.0000 0.0000 0.0000 0.0000 -83.0711 9.7234 10.9693 -5.8286 5.7378 -5.9390 -172.5179 16.6107 175.7815 49.1697 -9.6716 4.7783 12.1563 0.0000 0.0000 2.6643 0.0000 0.0000 -3.5703 0.2262 -0.4324 7.3431 0.0000 0.0000 1.5400 0.0000 0.0000 10.8483 -0.1319 -3.3827 33.0325 0.0000 0.0000 30.2204 0.0000 0.0000 17.2775 -0.9214 -3.4388 42.1183 0.0000 0.0000 44.8149 0.0000 0.0000 21.7378 -1.8597 -2.4225 35.8561 0.0000 0.0000 53.4430 0.0000 0.0000 0.0000 0.0000 0.0000 85.6265 -1.0190 1.0999 1.2006 9.4444 10.4107 155.8088 60.8109 148.2354 -45.6742 -8.6102 -5.8114 5.1045 0.0000 0.0000 6.9828 0.0000 0.0000 -0.9109 1.1865 6.4711 9.5987 0.0000 0.0000 0.9695 0.0000 0.0000 -10.4490 0.3445 8.5384 10.2885 0.0000 0.0000 6.1091 0.0000 0.0000 -19.1873 -0.9153 5.3774 10.8264 0.0000 0.0000 7.5396 0.0000 0.0000 -26.8963 -2.1487 2.9681 10.5646 0.0000 0.0000 8.0300 0.0000 0.0000 0.0000 0.0000 0.0000 0.0000 0.0000 0.0000 0.0000 0.0000 0.0000 0.0000 0.0000 0.0000 0.0000 0.0000 0.0000 0.0000 0.0000 0.0000
0.0000 95.0000 0.0000 0.0000 0.0000 0.0000 0.0000 0.0000 0.0000 0.0000 0.0000 0.0000 0.0000 0.0000 0.0000 0.0000 0.0000 0.0000 0.0000 0.0000 0.0000 0.0000 0.0000 0.0000 -83.2287 9.5688 10.7655 -5.9186 5.6296 -5.8011 -173.0127 18.3367 177.8941 49.3466 -9.6099 5.2444 11.5995 0.0000 0.0000 4.0729 0.0000 0.0000 -2.4266 0.1666 -0.3544 8.3745 0.0000 0.0000 1.3537 0.0000 0.0000 11.7925 -0.1201 -3.6090 28.3158 0.0000 0.0000 22.6543 0.0000 0.0000 18.3635 -0.9426 -3.7341 37.7516 0.0000 0.0000 34.9985 0.0000 0.0000 22.4328 -1.9222 -2.6982 31.5791 0.0000 0.0000 43.1012 0.0000 0.0000 0.0000 0.0000 0.0000 85.5944 -1.0276 1.1098 1.2957 9.7201 10.7387 156.6208 59.9573 148.0818 -46.1128 -8.7001 -5.8735 5.3403 0.0000 0.0000 7.6358 0.0000 0.0000 -0.2756 1.1687 6.4187 9.8554 0.0000 0.0000 0.9505 0.0000 0.0000 -10.2988 0.4085 9.3028 10.9468 0.0000 0.0000 6.7679 0.0000 0.0000 -19.3205 -0.9001 5.9365 10.9578 0.0000 0.0000 7.7463 0.0000 0.0000 -26.6510 -2.1451 3.0807 10.1262 0.0000 0.0000 8.4461 0.0000 0.0000 0.0000 0.0000 0.0000 0.0000 0.0000 0.0000 0.0000 0.0000 0.0000 0.0000 0.0000 0.0000 0.0000 0.0000 0.0000 0.0000 0.0000 0.0000
0.0000 95.0000 0.0000 0.0000 0.0000 0.0000 0.0000 0.0000 0.0000 0.0000 0.0000 0.0000 0.0000 0.0000 0.0000 0.0000 0.0000 0.0000 0.0000 0.0000 0.0000 0.0000 0.0000 0.0000 -83.3071 9.3739 10.5321 -6.1073 5.3895 -5.5033 -173.1725 24.7866 177.9418 47.1999 -9.2915 4.4916 10.5237 0.0000 0.0000 5.1955 0.0000 0.0000 -3.5923 0.3397 -1.1863 9.9310 0.0000 0.0000 2.4817 0.0000 0.0000 9.7607 -0.0367 -4.3415 30.9815 0.0000 0.0000 25.0177 0.0000 0.0000 15.9175 -0.8881 -5.0545 42.4708 0.0000 0.0000 39.8211 0.0000 0.0000 20.2022 -2.0686 -4.7718 34.7189 0.0000 0.0000 52.9751 0.0000 0.0000 0.0000 0.0000 0.0000 85.6841 -1.1911 1.2844 1.2017 9.7815 10.7701 164.6321 40.4368 159.3073 -49.1295 -9.1749 -6.9832 7.0461 0.0000 0.0000 6.7679 0.0000 0.0000 -0.9664 0.2236 1.4052 6.4934 0.0000 0.0000 2.0911 0.0000 0.0000 -12.3574 -0.1692 3.2090 8.8325 0.0000 0.0000 3.3875 0.0000 0.0000 -20.4678 -1.1188 0.4527 6.4975 0.0000 0.0000 6.3693 0.0000 0.0000 -28.0351 -1.9941 -0.9369 6.8379 0.0000 0.0000 5.8109 0.0000 0.0000 0.0000 0.0000 0.0000 0.0000 0.0000 0.0000 0.0000 0.0000 0.0000 0.0000 0.0000 0.0000 0.0000 0.0000 0.0000 0.0000 0.0000 0.0000
0.0000 95.0000 0.0000 0.0000 0.0000 0.0000 0.0000 0.0000 0.0000 0.0000 0.0000 0.0000 0.0000 0.0000 0.0000 0.0000 0.0000 0.0000 0.0000 0.0000 0.0000 0.0000 0.0000 0.0000 -82.8901 9.4818 10.7310 -7.2341 5.5963 -5.6876 -173.5041 20.3309 178.3396 48.1282 -9.2412 5.6205 10.2366 0.0000 0.0000 3.3351 0.0000 0.0000 -3.6687 0.1764 -0.0707 10.1092 0.0000 0.0000 3.3803 0.0000 0.0000 10.2768 -0.1835 -2.7317 37.3392 0.0000 0.0000 25.4781 0.0000 0.0000 17.2859 -0.9315 -2.5677 43.9299 0.0000 0.0000 31.2199 0.0000 0.0000 22.0286 -1.8012 -1.7304 35.1862 0.0000 0.0000 45.6599 0.0000 0.0000 0.0000 0.0000 0.0000 85.2247 -0.8353 0.9080 2.9038 10.7013 12.2570 158.7722 20.3016 169.1736 -59.9335 -11.7251 -7.5771 13.5170 0.0000 0.0000 0.8694 0.0000 0.0000 -0.2449 -0.7084 -3.7818 5.6080 0.0000 0.0000 0.9977 0.0000 0.0000 -12.4038 -0.7552 -2.1693 8.2119 0.0000 0.0000 2.6046 0.0000 0.0000 -16.0228 -0.8923 -4.1566 8.0865 0.0000 0.0000 6.4814 0.0000 0.0000 -22.7236 -1.2530 -4.1590 9.4580 0.0000 0.0000 5.0789 0.0000 0.0000 0.0000 0.0000 0.0000 0.0000 0.0000 0.0000 0.0000 0.0000 0.0000 0.0000 0.0000 0.0000 0.0000 0.0000 0.0000 0.0000 0.0000 0.0000
0.0000 95.0000 0.0000 0.0000 0.0000 0.0000 0.0000 0.0000 0.0000 0.0000 0.0000 0.0000 0.0000 0.0000 0.0000 0.0000 0.0000 0.0000 0.0000 0.0000 0.0000 0.0000 0.0000 0.0000 -82.9849 9.0018 10.1716 -7.7428 5.2607 -5.2833 -173.8582 17.6168 176.5745 47.8931 -9.1812 5.6399 10.6070 0.0000 0.0000 2.7409 0.0000 0.0000 -5.1169 0.1850 0.3375 9.5086 0.0000 0.0000 3.3983 0.0000 0.0000 8.8437 -0.2133 -2.0135 33.7371 0.0000 0.0000 26.5214 0.0000 0.0000 15.9411 -0.8872 -2.0789 43.1774 0.0000 0.0000 35.5843 0.0000 0.0000 21.1812 -1.7231 -1.4569 34.9945 0.0000 0.0000 48.0322 0.0000 0.0000 0.0000 0.0000 0.0000 84.6240 -1.1490 1.2622 4.7367 12.2924 14.7234 146.6741 20.7789 169.8431 -63.3685 -12.6384 -6.6586 23.5180 0.0000 0.0000 2.4132 0.0000 0.0000 -1.2967 -1.0091 -4.8960 5.5109 0.0000 0.0000 1.5619 0.0000 0.0000 -14.2482 -0.9793 -3.0514 10.0113 0.0000 0.0000 3.2974 0.0000 0.0000 -14.4020 -0.7458 -4.0032 11.0296 0.0000 0.0000 4.9244 0.0000 0.0000 -20.5953 -1.0487 -3.9426 13.6253 0.0000 0.0000 4.7460 0.0000 0.0000 0.0000 0.0000 0.0000 0.0000 0.0000 0.0000 0.0000 0.0000 0.0000 0.0000 0.0000 0.0000 0.0000 0.0000 0.0000 0.0000 0.0000 0.0000
0.0000 95.0000 0.0000 0.0000 0.0000 0.0000 0.0000 0.0000 0.0000 0.0000 0.0000 0.0000 0.0000 0.0000 0.0000 0.0000 0.0000 0.0000 0.0000 0.0000 0.0000 0.0000 0.0000 0.0000 -82.8178 9.3571 10.6036 -8.3470 5.8841 -5.9963 -174.7235 18.5393 175.8831 48.9605 -9.6727 4.5591 10.8338 0.0000 0.0000 2.4823 0.0000 0.0000 -3.7389 0.1835 -0.0979 9.8308 0.0000 0.0000 3.1286 0.0000 0.0000 10.5574 -0.2507 -2.0591 31.0275 0.0000 0.0000 25.5967 0.0000 0.0000 17.8663 -0.9501 -2.5943 39.6325 0.0000 0.0000 35.0762 0.0000 0.0000 22.7469 -1.9128 -2.4535 30.7567 0.0000 0.0000 40.6622 0.0000 0.0000 0.0000 0.0000 0.0000 83.9221 -1.5197 1.6901 6.5060 15.9250 19.9073 126.6660 27.5064 166.7071 -65.9054 -13.3727 -4.4019 37.2723 0.0000 0.0000 5.8781 0.0000 0.0000 -1.2007 -1.0879 -5.3471 2.1488 0.0000 0.0000 3.4149 0.0000 0.0000 -14.4089 -1.0061 -3.1750 8.3408 0.0000 0.0000 3.2718 0.0000 0.0000 -8.7220 -0.3097 -2.7818 12.9284 0.0000 0.0000 3.3251 0.0000 0.0000 -14.5887 -0.5885 -2.8807 16.9515 0.0000 0.0000 3.9994 0.0000 0.0000 0.0000 0.0000 0.0000 0.0000 0.0000 0.0000 0.0000 0.0000 0.0000 0.0000 0.0000 0.0000 0.0000 0.0000 0.0000 0.0000 0.0000 0.0000
0.0000 95.0000 0.0000 0.0000 0.0000 0.0000 0.0000 0.0000 0.0000 0.0000 0.0000 0.0000 0.0000 0.0000 0.0000 0.0000 0.0000 0.0000 0.0000 0.0000 0.0000 0.0000 0.0000 0.0000 -81.8250 11.0157 12.6984 -8.8803 7.2545 -7.5492 -175.3714 18.1133 175.6777 48.3590 -9.4102 5.1180 9.9257 0.0000 0.0000 2.8372 0.0000 0.0000 -2.6212 0.2674 -0.9403 9.0356 0.0000 0.0000 1.8126 0.0000 0.0000 11.0962 -0.0830 -3.9179 26.6577 0.0000 0.0000 20.1593 0.0000 0.0000 17.1603 -0.9076 -4.5015 38.5948 0.0000 0.0000 38.4819 0.0000 0.0000 21.3261 -2.0403 -4.2261 32.8206 0.0000 0.0000 49.5984 0.0000 0.0000 0.0000 0.0000 0.0000 83.9593 -3.7030 4.1152 17.5417 23.4994 35.9560 105.0139 44.7741 153.3471 -64.5340 -13.1330 -3.7456 49.4832 0.0000 0.0000 10.5601 0.0000 0.0000 1.1782 -0.8672 -5.3626 3.8811 0.0000 0.0000 5.5860 0.0000 0.0000 -11.3609 -0.7763 -3.0204 4.4376 0.0000 0.0000 3.0503 0.0000 0.0000 0.2733 0.1731 -1.0997 13.3458 0.0000 0.0000 3.2527 0.0000 0.0000 -5.7328 -0.0619 -1.4694 18.4197 0.0000 0.0000 3.5692 0.0000 0.0000 0.0000 0.0000 0.0000 0.0000 0.0000 0.0000 0.0000 0.0000 0.0000 0.0000 0.0000 0.0000 0.0000 0.0000 0.0000 0.0000 0.0000 0.0000
0.0000 95.0000 0.0000 0.0000 0.0000 0.0000 0.0000 0.0000 0.0000 0.0000 0.0000 0.0000 0.0000 0.0000 0.0000 0.0000 0.0000 0.0000 0.0000 0.0000 0.0000 0.0000 0.0000 0.0000 -81.5829 11.1451 12.9017 -8.6500 7.4838 -7.8856 -174.0583 13.5564 176.8833 48.3216 -9.1164 6.3643 11.0964 0.0000 0.0000 2.5706 0.0000 0.0000 -5.0214 0.1362 0.6609 8.6906 0.0000 0.0000 2.9683 0.0000 0.0000 8.7181 -0.2279 -1.7830 31.6165 0.0000 0.0000 24.4437 0.0000 0.0000 15.9879 -0.8890 -1.8089 41.6780 0.0000 0.0000 33.0096 0.0000 0.0000 21.6145 -1.7697 -1.6530 34.4198 0.0000 0.0000 46.4445 0.0000 0.0000 0.0000 0.0000 0.0000 82.5408 -8.6570 9.8587 19.2168 59.1094 80.1020 5.6822 37.5831 67.6452 -58.0037 -11.6597 -4.6156 54.4574 0.0000 0.0000 12.5831 0.0000 0.0000 4.6101 -0.6959 -6.4136 3.3830 0.0000 0.0000 6.0404 0.0000 0.0000 -9.6149 -0.8267 -5.0334 3.5593 0.0000 0.0000 3.4136 0.0000 0.0000 1.6039 0.5801 -3.1486 13.7614 0.0000 0.0000 4.8839 0.0000 0.0000 -4.8722 0.5454 -3.4924 19.7981 0.0000 0.0000 4.8271 0.0000 0.0000 0.0000 0.0000 0.0000 0.0000 0.0000 0.0000 0.0000 0.0000 0.0000 0.0000 0.0000 0.0000 0.0000 0.0000 0.0000 0.0000 0.0000 0.0000
0.0000 95.0000 0.0000 0.0000 0.0000 0.0000 0.0000 0.0000 0.0000 0.0000 0.0000 0.0000 0.0000 0.0000 0.0000 0.0000 0.0000 0.0000 0.0000 0.0000 0.0000 0.0000 0.0000 0.0000 -81.4038 11.5665 13.4304 -7.9638 8.3125 -9.0044 -173.1348 12.4011 177.1605 48.1635 -9.1303 6.1375 11.5896 0.0000 0.0000 2.7288 0.0000 0.0000 -6.4499 0.1571 1.0751 9.3931 0.0000 0.0000 3.3417 0.0000 0.0000 6.5306 -0.1543 -2.0683 35.0727 0.0000 0.0000 27.1095 0.0000 0.0000 13.9919 -0.8171 -2.2005 46.3902 0.0000 0.0000 37.7895 0.0000 0.0000 20.2852 -1.7508 -2.1185 37.6159 0.0000 0.0000 49.0345 0.0000 0.0000 0.0000 0.0000 0.0000 81.1298 -13.2046 15.4005 188.4165 81.8058 -82.0113 -43.8985 -10.3859 54.5794 -47.6025 -9.0134 -6.0596 53.4091 0.0000 0.0000 15.4472 0.0000 0.0000 8.8682 -0.3396 -7.1576 1.6830 0.0000 0.0000 4.5644 0.0000 0.0000 -6.1956 -0.6485 -7.1673 2.4032 0.0000 0.0000 3.5106 0.0000 0.0000 -3.7140 0.5758 -7.2371 10.4507 0.0000 0.0000 5.6601 0.0000 0.0000 -10.6049 0.7661 -7.4460 16.5848 0.0000 0.0000 5.3963 0.0000 0.0000 0.0000 0.0000 0.0000 0.0000 0.0000 0.0000 0.0000 0.0000 0.0000 0.0000 0.0000 0.0000 0.0000 0.0000 0.0000 0.0000 0.0000 0.0000
0.0000 95.0000 0.0000 0.0000 0.0000 0.0000 0.0000 0.0000 0.0000 0.0000 0.0000 0.0000 0.0000 0.0000 0.0000 0.0000 0.0000 0.0000 0.0000 0.0000 0.0000 0.0000 0.0000 0.0000 -81.6869 10.5593 12.2026 -7.7751 7.9738 -8.7221 -173.1222 7.5362 176.1513 48.8794 -9.0551 7.2400 12.4745 0.0000 0.0000 2.0507 0.0000 0.0000 -6.3159 0.1447 1.1157 8.5170 0.0000 0.0000 2.8124 0.0000 0.0000 6.9270 -0.2404 -0.8006 32.2481 0.0000 0.0000 22.6344 0.0000 0.0000 13.7683 -0.7884 -1.1371 46.3672 0.0000 0.0000 39.9546 0.0000 0.0000 20.1958 -1.6471 -1.3051 38.7844 0.0000 0.0000 55.4847 0.0000 0.0000 0.0000 0.0000 0.0000 78.7604 -17.3229 21.0271 198.2577 54.5678 -60.7535 -76.0683 -40.7023 63.9884 -41.0864 -7.1879 -6.8213 42.3842 0.0000 0.0000 16.7928 0.0000 0.0000 10.3196 -0.2167 -7.5285 0.4832 0.0000 0.0000 2.3769 0.0000 0.0000 -3.8338 -0.4465 -8.5080 1.7145 0.0000 0.0000 3.0234 0.0000 0.0000 -9.6170 0.0463 -10.3683 5.4832 0.0000 0.0000 4.9763 0.0000 0.0000 -16.2976 0.4212 -10.3003 10.3041 0.0000 0.0000 4.7205 0.0000 0.0000 0.0000 0.0000 0.0000 0.0000 0.0000 0.0000 0.0000 0.0000 0.0000 0.0000 0.0000 0.0000 0.0000 0.0000 0.0000 0.0000 0.0000 0.0000
0.0000 95.0000 0.0000 0.0000 0.0000 0.0000 0.0000 0.0000 0.0000 0.0000 0.0000 0.0000 0.0000 0.0000 0.0000 0.0000 0.0000 0.0000 0.0000 0.0000 0.0000 0.0000 0.0000 0.0000 -81.8916 10.3691 11.9404 -6.7365 7.1457 -7.7044 -349.6254 23.5180 185.8438 52.7612 -8.0039 17.6885 8.2112 0.0000 0.0000 8.0619 0.0000 0.0000 -15.8370 0.6346 1.7379 4.4871 0.0000 0.0000 0.4410 0.0000 0.0000 -7.5013 0.2618 -0.7799 4.0377 0.0000 0.0000 0.8252 0.0000 0.0000 1.0523 0.0445 0.7885 2.1338 0.0000 0.0000 0.9763 0.0000 0.0000 12.1276 -0.1244 4.0101 4.4626 0.0000 0.0000 1.1631 0.0000 0.0000 0.0000 0.0000 0.0000 76.3951 -19.5016 24.6395 201.1902 41.5629 -54.9243 -101.9457 -53.9979 80.5395 -39.1039 -6.3904 -7.7019 28.3569 0.0000 0.0000 13.4397 0.0000 0.0000 9.4897 -0.3387 -7.8320 0.6151 0.0000 0.0000 1.2157 0.0000 0.0000 -3.4383 -0.4163 -9.0328 1.2553 0.0000 0.0000 2.5358 0.0000 0.0000 -11.8276 -0.2518 -11.0917 2.1128 0.0000 0.0000 4.1929 0.0000 0.0000 -18.1985 0.2021 -10.9628 5.8394 0.0000 0.0000 3.8067 0.0000 0.0000 0.0000 0.0000 0.0000 0.0000 0.0000 0.0000 0.0000 0.0000 0.0000 0.0000 0.0000 0.0000 0.0000 0.0000 0.0000 0.0000 0.0000 0.0000
0.0000 95.0000 0.0000 0.0000 0.0000 0.0000 0.0000 0.0000 0.0000 0.0000 0.0000 0.0000 0.0000 0.0000 0.0000 0.0000 0.0000 0.0000 0.0000 0.0000 0.0000 0.0000 0.0000 0.0000 -82.1705 9.0625 10.3871 -6.5434 5.9316 -6.3202 -172.8850 6.0904 175.0190 48.7834 -9.2555 6.2439 11.6657 0.0000 0.0000 1.8348 0.0000 0.0000 -6.9671 0.2288 0.7096 10.0628 0.0000 0.0000 3.0133 0.0000 0.0000 5.7416 -0.1461 -1.8589 44.5340 0.0000 0.0000 41.5443 0.0000 0.0000 12.5541 -0.7553 -1.8652 53.8938 0.0000 0.0000 51.4516 0.0000 0.0000 18.3473 -1.6061 -1.8086 42.4640 0.0000 0.0000 61.3735 0.0000 0.0000 0.0000 0.0000 0.0000 69.7117 -22.9342 32.4778 209.9110 37.1843 -53.1893 -123.7598 -56.4043 100.2090 -38.2588 -5.4624 -9.7911 21.9424 0.0000 0.0000 23.0527 0.0000 0.0000 0.6767 -1.9166 -11.0010 0.9749 0.0000 0.0000 0.5096 0.0000 0.0000 -5.7245 -0.6457 -8.0895 2.1874 0.0000 0.0000 2.3459 0.0000 0.0000 -13.0266 -0.4968 -8.7708 2.9976 0.0000 0.0000 3.8282 0.0000 0.0000 -17.1022 -0.3009 -6.4252 5.0680 0.0000 0.0000 3.5451 0.0000 0.0000 0.0000 0.0000 0.0000 0.0000 0.0000 0.0000 0.0000 0.0000 0.0000 0.0000 0.0000 0.0000 0.0000 0.0000 0.0000 0.0000 0.0000 0.0000
0.0000 95.0000 0.0000 0.0000 0.0000 0.0000 0.0000 0.0000 0.0000 0.0000 0.0000 0.0000 0.0000 0.0000 0.0000 0.0000 0.0000 0.0000 0.0000 0.0000 0.0000 0.0000 0.0000 0.0000 -82.5904 7.2827 8.2878 -6.1297 4.7642 -5.0743 -173.0982 2.9470 173.5249 51.0447 -9.7740 6.3627 13.1923 0.0000 0.0000 1.1588 0.0000 0.0000 -6.1903 0.1853 0.7404 8.6197 0.0000 0.0000 2.7287 0.0000 0.0000 7.7827 -0.2631 -0.9055 31.2185 0.0000 0.0000 31.6842 0.0000 0.0000 14.1419 -0.8136 -1.6493 44.5032 0.0000 0.0000 52.4463 0.0000 0.0000 20.6604 -1.8111 -2.4647 37.3920 0.0000 0.0000 58.8042 0.0000 0.0000 0.0000 0.0000 0.0000 63.2722 -25.6610 40.5774 216.2770 33.4554 -54.1144 -122.3329 -56.5314 102.4766 -39.4342 -5.6604 -10.2369 22.5712 0.0000 0.0000 26.5261 0.0000 0.0000 3.0439 -1.5781 -11.0272 9.1125 0.0000 0.0000 2.6423 0.0000 0.0000 -4.9842 -0.5599 -8.0390 6.6878 0.0000 0.0000 4.0174 0.0000 0.0000 -13.6802 -0.5823 -8.8260 8.7014 0.0000 0.0000 4.9241 0.0000 0.0000 -18.4538 -0.5455 -5.9246 9.9424 0.0000 0.0000 4.1979 0.0000 0.0000 0.0000 0.0000 0.0000 0.0000 0.0000 0.0000 0.0000 0.0000 0.0000 0.0000 0.0000 0.0000 0.0000 0.0000 0.0000 0.0000 0.0000 0.0000
0.0000 95.0000 0.0000 0.0000 0.0000 0.0000 0.0000 0.0000 0.0000 0.0000 0.0000 0.0000 0.0000 0.0000 0.0000 0.0000 0.0000 0.0000 0.0000 0.0000 0.0000 0.0000 0.0000 0.0000 -82.7952 6.2029 7.0344 -5.8203 4.1958 -4.5001 -173.1426 7.7781 176.2022 51.2096 -9.9166 5.8510 13.5008 0.0000 0.0000 1.1683 0.0000 0.0000 -6.0660 0.1801 0.7311 9.3533 0.0000 0.0000 4.5763 0.0000 0.0000 7.6850 -0.1968 -1.8422 37.9561 0.0000 0.0000 45.9642 0.0000 0.0000 14.3066 -0.8302 -2.3181 48.8651 0.0000 0.0000 56.9224 0.0000 0.0000 19.8512 -1.7649 -2.4144 39.5565 0.0000 0.0000 62.6840 0.0000 0.0000 0.0000 0.0000 0.0000 59.2978 -27.2618 46.1504 218.6307 32.0834 -56.4751 -119.0154 -56.4312 101.8724 -40.7787 -5.8920 -10.7625 23.3661 0.0000 0.0000 30.8993 0.0000 0.0000 8.1830 -0.7114 -9.8627 22.9921 0.0000 0.0000 5.9923 0.0000 0.0000 -2.2796 -0.2337 -6.9315 17.6781 0.0000 0.0000 6.5751 0.0000 0.0000 -13.2508 -0.5454 -7.9935 17.8361 0.0000 0.0000 6.6983 0.0000 0.0000 -19.1509 -0.8214 -4.4974 18.8338 0.0000 0.0000 5.2389 0.0000 0.0000 0.0000 0.0000 0.0000 0.0000 0.0000 0.0000 0.0000 0.0000 0.0000 0.0000 0.0000 0.0000 0.0000 0.0000 0.0000 0.0000 0.0000 0.0000
0.0000 95.0000 0.0000 0.0000 0.0000 0.0000 0.0000 0.0000 0.0000 0.0000 0.0000 0.0000 0.0000 0.0000 0.0000 0.0000 0.0000 0.0000 0.0000 0.0000 0.0000 0.0000 0.0000 0.0000 -82.6792 5.7898 6.5796 -5.6641 3.6334 -3.8608 -173.0497 7.9732 176.0069 51.4402 -10.0540 5.4319 14.1863 0.0000 0.0000 1.6885 0.0000 0.0000 -5.6451 0.1993 0.4208 8.9463 0.0000 0.0000 3.6119 0.0000 0.0000 7.4991 -0.1756 -2.0931 37.1635 0.0000 0.0000 46.2461 0.0000 0.0000 13.8707 -0.8177 -2.4714 42.8086 0.0000 0.0000 56.1002 0.0000 0.0000 19.9738 -1.8161 -2.7792 40.3377 0.0000 0.0000 67.5728 0.0000 0.0000 0.0000 0.0000 0.0000 57.3438 -28.4597 49.7579 217.3886 30.9875 -59.7304 -117.1200 -56.6305 102.4764 -42.3144 -6.1878 -11.3029 24.3426 0.0000 0.0000 36.1342 0.0000 0.0000 18.7596 0.7348 -6.3286 48.8737 0.0000 0.0000 10.4784 0.0000 0.0000 4.8011 0.3527 -3.6274 38.2967 0.0000 0.0000 9.7769 0.0000 0.0000 -10.1574 -0.2980 -5.2454 34.4810 0.0000 0.0000 9.0182 0.0000 0.0000 -18.2052 -1.1835 -1.1618 34.9079 0.0000 0.0000 6.7464 0.0000 0.0000 0.0000 0.0000 0.0000 0.0000 0.0000 0.0000 0.0000 0.0000 0.0000 0.0000 0.0000 0.0000 0.0000 0.0000 0.0000 0.0000 0.0000 0.0000
0.0000 95.0000 0.0000 0.0000 0.0000 0.0000 0.0000 0.0000 0.0000 0.0000 0.0000 0.0000 0.0000 0.0000 0.0000 0.0000 0.0000 0.0000 0.0000 0.0000 0.0000 0.0000 0.0000 0.0000 -82.4565 6.1156 6.9768 -5.5296 3.7261 -3.9587 -172.1839 2.7238 174.6164 49.6710 -9.2782 7.1252 12.6587 0.0000 0.0000 1.6719 0.0000 0.0000 -7.1509 0.2395 0.6985 8.5984 0.0000 0.0000 2.4109 0.0000 0.0000 5.9218 -0.2029 -0.8507 34.1583 0.0000 0.0000 27.2093 0.0000 0.0000 13.1493 -0.7645 -1.3035 47.6287 0.0000 0.0000 42.7023 0.0000 0.0000 20.5698 -1.6750 -1.3516 38.8855 0.0000 0.0000 52.9960 0.0000 0.0000 0.0000 0.0000 0.0000 57.9631 -28.6145 49.4464 212.3310 31.5990 -62.4707 -115.2296 -57.1207 102.6097 -44.0595 -6.5787 -11.7762 25.5106 0.0000 0.0000 41.9642 0.0000 0.0000 37.6923 1.5163 1.0456 106.2264 0.0000 0.0000 16.5207 0.0000 0.0000 21.1484 0.1639 3.8939 84.1252 0.0000 0.0000 8.4133 0.0000 0.0000 -0.0753 -0.2464 1.7290 71.3698 0.0000 0.0000 9.2154 0.0000 0.0000 -13.0751 -2.0868 5.9963 67.1876 0.0000 0.0000 9.3553 0.0000 0.0000 0.0000 0.0000 0.0000 0.0000 0.0000 0.0000 0.0000 0.0000 0.0000 0.0000 0.0000 0.0000 0.0000 0.0000 0.0000 0.0000 0.0000 0.0000
0.0000 95.0000 0.0000 0.0000 0.0000 0.0000 0.0000 0.0000 0.0000 0.0000 0.0000 0.0000 0.0000 0.0000 0.0000 0.0000 0.0000 0.0000 0.0000 0.0000 0.0000 0.0000 0.0000 0.0000 -82.2339 6.3791 7.3058 -5.5690 3.9894 -4.2720 -171.2959 5.4851 175.9874 48.6783 -9.0965 6.8347 13.1320 0.0000 0.0000 2.4543 0.0000 0.0000 -7.7851 0.2166 1.1887 8.4128 0.0000 0.0000 2.4929 0.0000 0.0000 5.5617 -0.1843 -0.9781 35.0337 0.0000 0.0000 26.3046 0.0000 0.0000 13.5280 -0.7899 -1.7124 49.5254 0.0000 0.0000 44.1709 0.0000 0.0000 20.5924 -1.7609 -2.0679 43.4383 0.0000 0.0000 57.6541 0.0000 0.0000 0.0000 0.0000 0.0000 59.3551 -28.7128 48.3725 207.8516 32.9577 -64.8369 -111.4417 -56.5119 101.6336 -46.0112 -7.0814 -12.1072 26.8711 0.0000 0.0000 47.8738 0.0000 0.0000 59.9401 -0.8346 9.9262 135.0488 0.0000 0.0000 39.0644 0.0000 0.0000 47.5301 -4.3241 14.5728 166.6795 0.0000 0.0000 25.2690 0.0000 0.0000 24.9351 -4.3292 15.5337 152.0729 0.0000 0.0000 19.3127 0.0000 0.0000 1.8145 -6.1606 19.4611 120.4043 0.0000 0.0000 17.7660 0.0000 0.0000 0.0000 0.0000 0.0000 0.0000 0.0000 0.0000 0.0000 0.0000 0.0000 0.0000 0.0000 0.0000 0.0000 0.0000 0.0000 0.0000 0.0000 0.0000
0.0000 95.0000 0.0000 0.0000 0.0000 0.0000 0.0000 0.0000 0.0000 0.0000 0.0000 0.0000 0.0000 0.0000 0.0000 0.0000 0.0000 0.0000 0.0000 0.0000 0.0000 0.0000 0.0000 0.0000 -81.8029 7.5471 8.7080 -5.9363 4.4491 -4.7134 -171.4274 5.4007 175.4619 48.8892 -9.0271 7.3752 12.4480 0.0000 0.0000 2.2972 0.0000 0.0000 -6.7345 0.1822 0.9949 8.4039 0.0000 0.0000 1.2641 0.0000 0.0000 6.6478 -0.2644 -0.2213 34.7445 0.0000 0.0000 25.0244 0.0000 0.0000 13.7684 -0.7828 -0.8448 43.7180 0.0000 0.0000 39.7629 0.0000 0.0000 20.8861 -1.7202 -1.5804 37.3622 0.0000 0.0000 51.7550 0.0000 0.0000 0.0000 0.0000 0.0000 60.9912 -28.4315 46.5495 203.1188 32.6294 -66.3355 -110.4241 -55.7362 104.6545 -48.1336 -7.6878 -12.2500 28.4132 0.0000 0.0000 53.2292 0.0000 0.0000 74.8638 -4.1802 14.9517 98.8407 0.0000 0.0000 33.9201 0.0000 0.0000 68.5446 -10.5193 20.1590 108.4908 0.0000 0.0000 32.4738 0.0000 0.0000 54.6294 -14.4448 25.4140 113.3239 0.0000 0.0000 28.8014 0.0000 0.0000 27.6343 -17.2342 32.6988 119.2179 0.0000 0.0000 19.5665 0.0000 0.0000 0.0000 0.0000 0.0000 0.0000 0.0000 0.0000 0.0000 0.0000 0.0000 0.0000 0.0000 0.0000 0.0000 0.0000 0.0000 0.0000 0.0000 0.0000
0.0000 95.0000 0.0000 0.0000 0.0000 0.0000 0.0000 0.0000 0.0000 0.0000 0.0000 0.0000 0.0000 0.0000 0.0000 0.0000 0.0000 0.0000 0.0000 0.0000 0.0000 0.0000 0.0000 0.0000 -81.2655 8.2571 9.6167 -6.2776 4.5629 -4.7746 -170.4956 2.6626 175.6488 47.2900 -8.4080 8.2631 12.0399 0.0000 0.0000 3.4120 0.0000 0.0000 -8.1058 0.2085 1.4242 9.3633 0.0000 0.0000 2.0050 0.0000 0.0000 5.0550 -0.2207 0.2251 39.9041 0.0000 0.0000 33.3355 0.0000 0.0000 12.8489 -0.7278 -0.4471 47.5428 0.0000 0.0000 42.2290 0.0000 0.0000 19.6372 -1.5648 -0.9190 37.5671 0.0000 0.0000 52.9400 0.0000 0.0000 0.0000 0.0000 0.0000 63.7601 -28.2324 44.0308 201.2499 31.9555 -66.1153 -112.8859 -63.4999 97.3104 -37.5586 -4.9796 -10.5949 36.8964 0.0000 0.0000 44.1979 0.0000 0.0000 68.7209 -3.7613 15.4762 42.7621 0.0000 0.0000 18.6233 0.0000 0.0000 61.5794 -8.0551 18.2497 51.6275 0.0000 0.0000 19.2998 0.0000 0.0000 55.4997 -9.6715 18.5213 57.7158 0.0000 0.0000 20.2155 0.0000 0.0000 60.2000 -15.1153 19.8650 41.1870 0.0000 0.0000 12.5806 0.0000 0.0000 0.0000 0.0000 0.0000 0.0000 0.0000 0.0000 0.0000 0.0000 0.0000 0.0000 0.0000 0.0000 0.0000 0.0000 0.0000 0.0000 0.0000 0.0000
0.0000 95.0000 0.0000 0.0000 0.0000 0.0000 0.0000 0.0000 0.0000 0.0000 0.0000 0.0000 0.0000 0.0000 0.0000 0.0000 0.0000 0.0000 0.0000 0.0000 0.0000 0.0000 0.0000 0.0000 -81.4838 8.0993 9.3970 -5.6506 4.9783 -5.3661 -328.6378 -60.9960 141.9068 51.1510 -12.4050 -6.8888 5.6617 0.0000 0.0000 4.3052 0.0000 0.0000 2.4568 2.7320 -13.9459 63.3913 0.0000 0.0000 30.2355 0.0000 0.0000 9.4146 0.6537 -12.6984 64.8082 0.0000 0.0000 27.9896 0.0000 0.0000 16.8043 -0.8772 -7.9596 57.8824 0.0000 0.0000 32.4106 0.0000 0.0000 24.9934 -2.2021 -4.7140 38.4081 0.0000 0.0000 32.9513 0.0000 0.0000 0.0000 0.0000 0.0000 64.4779 -28.9014 44.4503 202.8090 30.7547 -65.8900 -137.1240 -53.2085 116.1004 -28.2787 -2.2069 -10.3061 17.2409 0.0000 0.0000 12.3730 0.0000 0.0000 55.5725 1.6027 2.8577 51.6103 0.0000 0.0000 15.9086 0.0000 0.0000 28.9180 0.8528 1.4654 34.3436 0.0000 0.0000 11.0545 0.0000 0.0000 29.3370 0.7587 2.3798 62.0818 0.0000 0.0000 23.3136 0.0000 0.0000 33.0590 -0.6581 5.3171 42.2081 0.0000 0.0000 4.8503 0.0000 0.0000 0.0000 0.0000 0.0000 0.0000 0.0000 0.0000 0.0000 0.0000 0.0000 0.0000 0.0000 0.0000 0.0000 0.0000 0.0000 0.0000 0.0000 0.0000
0.0000 95.0000 0.0000 0.0000 0.0000 0.0000 0.0000 0.0000 0.0000 0.0000 0.0000 0.0000 0.0000 0.0000 0.0000 0.0000 0.0000 0.0000 0.0000 0.0000 0.0000 0.0000 0.0000 0.0000 -81.7336 8.0986 9.3550 -4.9480 5.0688 -5.5079 -169.7132 9.0708 178.3198 47.4247 -8.5586 7.7838 10.9931 0.0000 0.0000 2.3397 0.0000 0.0000 -7.1832 0.1692 1.3097 9.3667 0.0000 0.0000 1.2448 0.0000 0.0000 6.4562 -0.2529 -0.2907 33.3826 0.0000 0.0000 22.8701 0.0000 0.0000 13.6458 -0.7759 -0.7955 41.7326 0.0000 0.0000 33.6080 0.0000 0.0000 20.3267 -1.6469 -1.2385 31.8274 0.0000 0.0000 43.2903 0.0000 0.0000 0.0000 0.0000 0.0000 65.1146 -29.2470 44.4555 204.2312 29.8162 -65.2760 -149.3049 39.5387 165.2610 -38.3636 1.6924 -29.7808 4.9497 0.0000 0.0000 10.0344 0.0000 0.0000 8.1590 -3.1063 -30.7352 54.4491 0.0000 0.0000 14.7476 0.0000 0.0000 -2.7371 -0.3123 -8.2427 11.1038 0.0000 0.0000 2.2766 0.0000 0.0000 -11.8236 0.0450 -18.9614 33.8541 0.0000 0.0000 6.0052 0.0000 0.0000 -20.1150 2.2760 -29.3992 27.0794 0.0000 0.0000 1.4302 0.0000 0.0000 0.0000 0.0000 0.0000 0.0000 0.0000 0.0000 0.0000 0.0000 0.0000 0.0000 0.0000 0.0000 0.0000 0.0000 0.0000 0.0000 0.0000 0.0000
0.0000 95.0000 0.0000 0.0000 0.0000 0.0000 0.0000 0.0000 0.0000 0.0000 0.0000 0.0000 0.0000 0.0000 0.0000 0.0000 0.0000 0.0000 0.0000 0.0000 0.0000 0.0000 0.0000 0.0000 -81.1849 8.8402 10.3094 -5.2560 5.5335 -6.0406 -169.7363 6.9799 176.7741 47.2902 -8.4813 7.9604 11.6856 0.0000 0.0000 2.9818 0.0000 0.0000 -6.9352 0.1145 1.6492 9.9818 0.0000 0.0000 2.7534 0.0000 0.0000 6.5939 -0.2942 0.3321 30.4985 0.0000 0.0000 19.0197 0.0000 0.0000 14.3900 -0.8031 -0.1662 40.6101 0.0000 0.0000 30.6412 0.0000 0.0000 21.5936 -1.6546 -0.6114 34.2386 0.0000 0.0000 43.3348 0.0000 0.0000 0.0000 0.0000 0.0000 64.6572 -29.2017 44.7451 207.3670 32.1936 -64.2985 -22.5268 -13.1453 324.2427 -46.5313 -10.9901 3.1896 6.8205 0.0000 0.0000 3.2357 0.0000 0.0000 3.7206 3.5209 22.5095 45.5084 0.0000 0.0000 15.7375 0.0000 0.0000 -2.7929 0.1266 9.9597 19.0380 0.0000 0.0000 5.7308 0.0000 0.0000 -4.0403 -0.3372 1.0546 14.4614 0.0000 0.0000 5.9741 0.0000 0.0000 -10.4422 0.2438 -4.8757 8.2912 0.0000 0.0000 4.7100 0.0000 0.0000 0.0000 0.0000 0.0000 0.0000 0.0000 0.0000 0.0000 0.0000 0.0000 0.0000 0.0000 0.0000 0.0000 0.0000 0.0000 0.0000 0.0000 0.0000
0.0000 95.0000 0.0000 0.0000 0.0000 0.0000 0.0000 0.0000 0.0000 0.0000 0.0000 0.0000 0.0000 0.0000 0.0000 0.0000 0.0000 0.0000 0.0000 0.0000 0.0000 0.0000 0.0000 0.0000 -81.8104 8.8174 10.1706 -3.9647 5.5084 -6.0431 -169.6218 10.0815 178.8771 47.0361 -8.2723 8.5449 10.2969 0.0000 0.0000 2.7879 0.0000 0.0000 -5.8282 0.0182 1.8850 11.3668 0.0000 0.0000 1.3509 0.0000 0.0000 8.5846 -0.3796 0.2831 29.0678 0.0000 0.0000 16.4117 0.0000 0.0000 15.8758 -0.8834 -0.6105 38.3326 0.0000 0.0000 29.1148 0.0000 0.0000 21.7977 -1.7418 -1.2972 30.6752 0.0000 0.0000 35.5555 0.0000 0.0000 0.0000 0.0000 0.0000 65.0106 -29.2614 44.5565 209.3143 33.1616 -63.5130 -23.6207 18.0391 312.2380 -56.8827 -12.0046 -0.5613 1.7281 0.0000 0.0000 1.8457 0.0000 0.0000 -14.6393 4.8767 17.4891 31.8946 0.0000 0.0000 8.4020 0.0000 0.0000 -0.2662 -0.0081 1.2645 13.9937 0.0000 0.0000 0.9773 0.0000 0.0000 3.5960 0.7066 -2.9012 11.0269 0.0000 0.0000 0.7440 0.0000 0.0000 -0.6015 1.5544 -5.2791 6.3459 0.0000 0.0000 2.1475 0.0000 0.0000 0.0000 0.0000 0.0000 0.0000 0.0000 0.0000 0.0000 0.0000 0.0000 0.0000 0.0000 0.0000 0.0000 0.0000 0.0000 0.0000 0.0000 0.0000
0.0000 95.0000 0.0000 0.0000 0.0000 0.0000 0.0000 0.0000 0.0000 0.0000 0.0000 0.0000 0.0000 0.0000 0.0000 0.0000 0.0000 0.0000 0.0000 0.0000 0.0000 0.0000 0.0000 0.0000 -81.9486 8.8070 10.1339 -3.7744 5.7142 -6.2977 -169.9140 8.6418 178.6733 46.3190 -8.1797 8.1534 10.7318 0.0000 0.0000 3.8779 0.0000 0.0000 -6.9958 0.1733 1.1865 11.2272 0.0000 0.0000 1.5976 0.0000 0.0000 7.0369 -0.2721 -0.3490 28.6659 0.0000 0.0000 17.4970 0.0000 0.0000 14.3569 -0.8215 -1.5834 37.5000 0.0000 0.0000 27.8746 0.0000 0.0000 20.7909 -1.8429 -2.6823 30.5844 0.0000 0.0000 38.5621 0.0000 0.0000 0.0000 0.0000 0.0000 65.8152 -28.6188 43.0253 209.4325 34.1744 -62.4770 -34.4583 30.7978 300.3179 -59.4778 -11.9919 -4.5142 6.6483 0.0000 0.0000 8.7732 0.0000 0.0000 -9.7823 0.1292 2.1427 16.8016 0.0000 0.0000 5.6818 0.0000 0.0000 -0.3685 -0.0128 0.7909 16.2708 0.0000 0.0000 5.6766 0.0000 0.0000 -3.7708 -0.5090 2.7753 11.7172 0.0000 0.0000 4.7761 0.0000 0.0000 2.1111 -0.7955 2.9276 5.8326 0.0000 0.0000 7.5389 0.0000 0.0000 0.0000 0.0000 0.0000 0.0000 0.0000 0.0000 0.0000 0.0000 0.0000 0.0000 0.0000 0.0000 0.0000 0.0000 0.0000 0.0000 0.0000 0.0000
0.0000 95.0000 0.0000 0.0000 0.0000 0.0000 0.0000 0.0000 0.0000 0.0000 0.0000 0.0000 0.0000 0.0000 0.0000 0.0000 0.0000 0.0000 0.0000 0.0000 0.0000 0.0000 0.0000 0.0000 -82.0535 8.7154 10.0103 -3.4864 5.6450 -6.2289 -170.4148 10.3221 177.9122 48.0634 -8.8522 7.2304 11.4007 0.0000 0.0000 2.2031 0.0000 0.0000 -5.8594 0.1252 1.0736 11.2120 0.0000 0.0000 1.7087 0.0000 0.0000 8.4148 -0.2851 -0.8976 31.2501 0.0000 0.0000 20.3302 0.0000 0.0000 15.4828 -0.8702 -2.0758 39.4454 0.0000 0.0000 32.1310 0.0000 0.0000 22.0360 -1.9276 -2.9270 32.7630 0.0000 0.0000 37.7661 0.0000 0.0000 0.0000 0.0000 0.0000 65.1769 -27.9319 42.5170 210.1510 35.8712 -61.4961 -31.4806 35.3927 299.9952 -63.1575 -12.6713 -5.7439 9.5292 0.0000 0.0000 0.6331 0.0000 0.0000 -14.9724 1.0651 5.5077 27.4956 0.0000 0.0000 6.8339 0.0000 0.0000 0.7274 0.0324 -0.3220 14.0022 0.0000 0.0000 2.2212 0.0000 0.0000 2.4902 -0.0717 1.3028 10.2594 0.0000 0.0000 1.2534 0.0000 0.0000 4.2861 -0.5394 2.5031 3.2591 0.0000 0.0000 3.9485 0.0000 0.0000 0.0000 0.0000 0.0000 0.0000 0.0000 0.0000 0.0000 0.0000 0.0000 0.0000 0.0000 0.0000 0.0000 0.0000 0.0000 0.0000 0.0000 0.0000
0.0000 95.0000 0.0000 0.0000 0.0000 0.0000 0.0000 0.0000 0.0000 0.0000 0.0000 0.0000 0.0000 0.0000 0.0000 0.0000 0.0000 0.0000 0.0000 0.0000 0.0000 0.0000 0.0000 0.0000 -82.1212 8.7003 9.9812 -3.1358 5.6960 -6.3084 -172.0861 4.1754 176.9510 49.9610 -9.2210 7.7271 12.5470 0.0000 0.0000 2.1541 0.0000 0.0000 -4.3402 -0.0186 1.5016 13.5587 0.0000 0.0000 2.3981 0.0000 0.0000 9.2247 -0.3678 -0.2153 30.2513 0.0000 0.0000 19.9655 0.0000 0.0000 15.3697 -0.8622 -1.3716 34.1029 0.0000 0.0000 31.1300 0.0000 0.0000 21.5310 -1.8360 -2.2998 28.7856 0.0000 0.0000 33.7016 0.0000 0.0000 0.0000 0.0000 0.0000 64.6226 -27.9666 42.9828 212.2546 37.4860 -60.8778 -34.8957 36.6618 300.3344 -61.4294 -12.4525 -4.1210 7.6699 0.0000 0.0000 4.8490 0.0000 0.0000 -16.2709 2.3908 9.4701 38.7326 0.0000 0.0000 21.5230 0.0000 0.0000 0.4538 0.0129 1.5207 11.5296 0.0000 0.0000 0.7840 0.0000 0.0000 0.0954 -0.3393 2.4348 10.2862 0.0000 0.0000 0.1759 0.0000 0.0000 3.3783 -0.5736 2.4592 4.5405 0.0000 0.0000 3.9465 0.0000 0.0000 0.0000 0.0000 0.0000 0.0000 0.0000 0.0000 0.0000 0.0000 0.0000 0.0000 0.0000 0.0000 0.0000 0.0000 0.0000 0.0000 0.0000 0.0000
0.0000 95.0000 0.0000 0.0000 0.0000 0.0000 0.0000 0.0000 0.0000 0.0000 0.0000 0.0000 0.0000 0.0000 0.0000 0.0000 0.0000 0.0000 0.0000 0.0000 0.0000 0.0000 0.0000 0.0000 -82.4990 8.5159 9.7054 -2.3355 5.4729 -6.0639 -171.3156 5.9520 177.7088 49.1944 -9.0758 7.5020 11.4594 0.0000 0.0000 2.8308 0.0000 0.0000 -5.4373 0.0306 1.6111 12.9501 0.0000 0.0000 2.7515 0.0000 0.0000 8.3770 -0.3273 -0.3051 30.9775 0.0000 0.0000 21.5569 0.0000 0.0000 14.4311 -0.8199 -1.2406 35.4665 0.0000 0.0000 32.3284 0.0000 0.0000 20.2654 -1.7797 -2.3663 30.6456 0.0000 0.0000 38.7506 0.0000 0.0000 0.0000 0.0000 0.0000 64.7056 -28.0045 42.9752 212.8013 37.2679 -60.5587 -34.5881 38.2565 302.3238 -61.9913 -12.3975 -5.8583 3.5133 0.0000 0.0000 4.9730 0.0000 0.0000 -21.0254 2.8728 10.1931 44.3221 0.0000 0.0000 28.5104 0.0000 0.0000 -1.1751 -0.0250 2.3313 8.3231 0.0000 0.0000 0.8396 0.0000 0.0000 1.5177 -0.4906 3.7374 10.8561 0.0000 0.0000 1.9026 0.0000 0.0000 3.1718 -0.6525 2.6597 4.7497 0.0000 0.0000 4.6013 0.0000 0.0000 0.0000 0.0000 0.0000 0.0000 0.0000 0.0000 0.0000 0.0000 0.0000 0.0000 0.0000 0.0000 0.0000 0.0000 0.0000 0.0000 0.0000 0.0000
0.0000 95.0000 0.0000 0.0000 0.0000 0.0000 0.0000 0.0000 0.0000 0.0000 0.0000 0.0000 0.0000 0.0000 0.0000 0.0000 0.0000 0.0000 0.0000 0.0000 0.0000 0.0000 0.0000 0.0000 -82.5126 8.3346 9.4967 -2.2747 5.2504 -5.8124 -170.5297 3.9427 175.5358 50.3895 -9.4822 7.0037 13.1234 0.0000 0.0000 1.5547 0.0000 0.0000 -6.5001 0.0992 1.5642 12.2743 0.0000 0.0000 3.2165 0.0000 0.0000 7.2875 -0.3124 0.1312 30.5446 0.0000 0.0000 24.3889 0.0000 0.0000 13.8195 -0.7886 -1.0219 36.3392 0.0000 0.0000 37.3312 0.0000 0.0000 20.4278 -1.7922 -2.4026 30.2494 0.0000 0.0000 39.7948 0.0000 0.0000 0.0000 0.0000 0.0000 65.6155 -27.4658 41.5228 211.7659 37.6809 -60.2035 -38.8713 42.3667 298.4894 -65.0696 -13.1267 -5.3690 6.3275 0.0000 0.0000 7.6161 0.0000 0.0000 -16.9792 1.3848 6.4217 50.0408 0.0000 0.0000 33.2602 0.0000 0.0000 0.1114 0.0038 0.8213 8.4498 0.0000 0.0000 1.4136 0.0000 0.0000 -1.4345 -0.3946 2.4536 11.8214 0.0000 0.0000 3.2145 0.0000 0.0000 1.9235 -1.0898 3.8046 6.6108 0.0000 0.0000 3.3237 0.0000 0.0000 0.0000 0.0000 0.0000 0.0000 0.0000 0.0000 0.0000 0.0000 0.0000 0.0000 0.0000 0.0000 0.0000 0.0000 0.0000 0.0000 0.0000 0.0000
0.0000 95.0000 0.0000 0.0000 0.0000 0.0000 0.0000 0.0000 0.0000 0.0000 0.0000 0.0000 0.0000 0.0000 0.0000 0.0000 0.0000 0.0000 0.0000 0.0000 0.0000 0.0000 0.0000 0.0000 -82.5348 8.5027 9.6842 -2.0520 5.4176 -6.0135 -169.9675 8.0387 176.7149 47.7806 -8.8814 6.8042 11.0456 0.0000 0.0000 2.3106 0.0000 0.0000 -6.2461 0.2099 0.5678 13.1409 0.0000 0.0000 2.1195 0.0000 0.0000 7.7691 -0.2526 -1.0532 36.3900 0.0000 0.0000 29.8116 0.0000 0.0000 14.8245 -0.8500 -2.4855 40.5952 0.0000 0.0000 39.9919 0.0000 0.0000 20.7649 -1.9402 -3.5288 34.0407 0.0000 0.0000 43.6631 0.0000 0.0000 0.0000 0.0000 0.0000 65.8249 -27.3066 41.1426 211.9125 38.3004 -59.9866 -34.2836 35.2306 304.3295 -61.9818 -12.4412 -5.4007 6.3219 0.0000 0.0000 5.6441 0.0000 0.0000 -20.8356 3.1852 11.0443 51.4589 0.0000 0.0000 23.3534 0.0000 0.0000 -0.3492 -0.0152 -0.1978 9.4603 0.0000 0.0000 1.3141 0.0000 0.0000 1.0482 0.1322 -0.4864 9.8067 0.0000 0.0000 1.8115 0.0000 0.0000 3.5925 0.6216 -0.9990 5.3846 0.0000 0.0000 2.2927 0.0000 0.0000 0.0000 0.0000 0.0000 0.0000 0.0000 0.0000 0.0000 0.0000 0.0000 0.0000 0.0000 0.0000 0.0000 0.0000 0.0000 0.0000 0.0000 0.0000
0.0000 95.0000 0.0000 0.0000 0.0000 0.0000 0.0000 0.0000 0.0000 0.0000 0.0000 0.0000 0.0000 0.0000 0.0000 0.0000 0.0000 0.0000 0.0000 0.0000 0.0000 0.0000 0.0000 0.0000 -82.5584 8.5753 9.7628 -2.1382 5.4971 -6.0956 -169.6613 4.3424 177.0466 48.7589 -8.8255 8.1192 12.1918 0.0000 0.0000 1.9563 0.0000 0.0000 -5.9368 0.0785 1.4691 11.6019 0.0000 0.0000 1.4545 0.0000 0.0000 7.9916 -0.3552 0.3104 29.5798 0.0000 0.0000 19.0662 0.0000 0.0000 14.7682 -0.8292 -0.7058 33.1611 0.0000 0.0000 27.9056 0.0000 0.0000 20.7318 -1.7140 -1.6037 29.2904 0.0000 0.0000 37.7136 0.0000 0.0000 0.0000 0.0000 0.0000 67.1396 -27.1137 39.9365 210.2952 37.7122 -60.2674 -32.7514 33.0941 307.1459 -60.7984 -12.3047 -4.2547 2.3522 0.0000 0.0000 5.3496 0.0000 0.0000 -16.3275 3.6918 13.3545 54.6685 0.0000 0.0000 17.7477 0.0000 0.0000 0.9026 0.0231 1.8440 10.6168 0.0000 0.0000 0.3674 0.0000 0.0000 2.9577 0.1599 0.0439 9.7198 0.0000 0.0000 0.4261 0.0000 0.0000 6.2257 0.8383 -0.9511 5.6112 0.0000 0.0000 3.4687 0.0000 0.0000 0.0000 0.0000 0.0000 0.0000 0.0000 0.0000 0.0000 0.0000 0.0000 0.0000 0.0000 0.0000 0.0000 0.0000 0.0000 0.0000 0.0000 0.0000
0.0000 95.0000 0.0000 0.0000 0.0000 0.0000 0.0000 0.0000 0.0000 0.0000 0.0000 0.0000 0.0000 0.0000 0.0000 0.0000 0.0000 0.0000 0.0000 0.0000 0.0000 0.0000 0.0000 0.0000 -83.1331 8.4470 9.5206 -1.4923 5.5437 -6.1357 -168.6223 4.4688 177.3763 48.6601 -8.6629 8.7180 13.3923 0.0000 0.0000 2.2268 0.0000 0.0000 -7.0540 0.1043 1.7945 9.9361 0.0000 0.0000 2.9625 0.0000 0.0000 6.3308 -0.2778 0.2487 28.0266 0.0000 0.0000 20.4317 0.0000 0.0000 13.6004 -0.7610 -0.1856 37.0937 0.0000 0.0000 33.5632 0.0000 0.0000 20.2018 -1.5859 -0.7990 34.2566 0.0000 0.0000 47.9223 0.0000 0.0000 0.0000 0.0000 0.0000 68.8662 -27.2645 38.9630 208.6301 35.3803 -60.5788 -30.2832 33.2639 310.4670 -61.4772 -12.4729 -4.0215 3.0353 0.0000 0.0000 3.0601 0.0000 0.0000 -15.5745 3.6769 13.4939 57.8021 0.0000 0.0000 24.4065 0.0000 0.0000 -0.4964 -0.0165 0.9621 9.2585 0.0000 0.0000 0.5438 0.0000 0.0000 1.2405 0.1389 -0.4537 7.7985 0.0000 0.0000 0.5178 0.0000 0.0000 4.5685 0.7639 -1.1575 5.4898 0.0000 0.0000 3.2738 0.0000 0.0000 0.0000 0.0000 0.0000 0.0000 0.0000 0.0000 0.0000 0.0000 0.0000 0.0000 0.0000 0.0000 0.0000 0.0000 0.0000 0.0000 0.0000 0.0000
0.0000 95.0000 0.0000 0.0000 0.0000 0.0000 0.0000 0.0000 0.0000 0.0000 0.0000 0.0000 0.0000 0.0000 0.0000 0.0000 0.0000 0.0000 0.0000 0.0000 0.0000 0.0000 0.0000 0.0000 -83.3676 8.7309 9.7999 -1.1672 5.6451 -6.2362 -168.1280 2.0198 175.6937 48.9849 -8.8798 8.1384 13.9645 0.0000 0.0000 2.6951 0.0000 0.0000 -8.6570 0.2408 1.4157 10.7948 0.0000 0.0000 3.3252 0.0000 0.0000 5.0701 -0.2055 -0.1339 35.1980 0.0000 0.0000 25.1688 0.0000 0.0000 11.7303 -0.7094 -1.4957 42.5943 0.0000 0.0000 37.8722 0.0000 0.0000 18.6558 -1.7481 -2.7320 38.5413 0.0000 0.0000 49.1403 0.0000 0.0000 0.0000 0.0000 0.0000 69.9451 -26.8695 37.7096 207.4486 35.5919 -60.5713 -28.8166 27.1941 312.5473 -60.1186 -12.5363 -1.0061 0.5335 0.0000 0.0000 2.5887 0.0000 0.0000 -21.0431 6.3032 19.1700 55.1154 0.0000 0.0000 22.6897 0.0000 0.0000 -1.6534 -0.0563 0.8741 9.5442 0.0000 0.0000 1.4825 0.0000 0.0000 0.4663 0.3393 -2.1560 8.1102 0.0000 0.0000 0.9783 0.0000 0.0000 3.6222 1.7828 -4.3644 6.0824 0.0000 0.0000 2.9662 0.0000 0.0000 0.0000 0.0000 0.0000 0.0000 0.0000 0.0000 0.0000 0.0000 0.0000 0.0000 0.0000 0.0000 0.0000 0.0000 0.0000 0.0000 0.0000 0.0000
0.0000 95.0000 0.0000 0.0000 0.0000 0.0000 0.0000 0.0000 0.0000 0.0000 0.0000 0.0000 0.0000 0.0000 0.0000 0.0000 0.0000 0.0000 0.0000 0.0000 0.0000 0.0000 0.0000 0.0000 -82.7964 9.6701 10.9618 -1.6921 6.0882 -6.7384 -168.3565 1.9787 175.0307 49.2029 -8.9620 8.0233 14.5055 0.0000 0.0000 3.6807 0.0000 0.0000 -7.7398 0.1799 1.4922 10.7090 0.0000 0.0000 2.3785 0.0000 0.0000 6.2160 -0.2555 -0.0694 33.3003 0.0000 0.0000 23.5009 0.0000 0.0000 13.3615 -0.7669 -0.9998 38.4864 0.0000 0.0000 36.8803 0.0000 0.0000 19.5411 -1.6568 -1.6881 33.5501 0.0000 0.0000 45.1196 0.0000 0.0000 0.0000 0.0000 0.0000 71.1247 -26.7206 36.7529 206.2866 35.7004 -60.9593 -26.9953 19.4118 316.4030 -59.2367 -12.7758 2.2764 2.5236 0.0000 0.0000 11.0221 0.0000 0.0000 -17.3147 7.9640 25.4100 53.9264 0.0000 0.0000 26.8415 0.0000 0.0000 -1.2172 -0.0406 0.9532 9.9554 0.0000 0.0000 0.3865 0.0000 0.0000 1.1588 0.5686 -3.3219 8.7377 0.0000 0.0000 2.0058 0.0000 0.0000 3.6712 2.2329 -5.6472 6.7281 0.0000 0.0000 3.9914 0.0000 0.0000 0.0000 0.0000 0.0000 0.0000 0.0000 0.0000 0.0000 0.0000 0.0000 0.0000 0.0000 0.0000 0.0000 0.0000 0.0000 0.0000 0.0000 0.0000
0.0000 95.0000 0.0000 0.0000 0.0000 0.0000 0.0000 0.0000 0.0000 0.0000 0.0000 0.0000 0.0000 0.0000 0.0000 0.0000 0.0000 0.0000 0.0000 0.0000 0.0000 0.0000 0.0000 0.0000 -82.2071 10.3744 11.8808 -2.9204 6.4939 -7.1497 -169.5426 2.2497 174.5513 49.0789 -9.0270 7.5894 12.6341 0.0000 0.0000 1.0020 0.0000 0.0000 -6.8148 0.1703 1.1289 10.5734 0.0000 0.0000 1.5442 0.0000 0.0000 6.9477 -0.2704 -0.3205 41.8794 0.0000 0.0000 34.2000 0.0000 0.0000 13.5597 -0.7773 -1.0559 45.4729 0.0000 0.0000 46.1737 0.0000 0.0000 19.8492 -1.6465 -1.4658 35.9256 0.0000 0.0000 48.8679 0.0000 0.0000 0.0000 0.0000 0.0000 72.6405 -25.2967 33.9522 204.2600 41.7949 -62.1144 -33.0834 10.3230 312.1483 -51.1334 -10.3365 -3.6702 5.6991 0.0000 0.0000 10.4375 0.0000 0.0000 21.2606 0.9615 -2.6721 125.0680 0.0000 0.0000 15.7990 0.0000 0.0000 28.9254 5.0611 -14.6748 79.9254 0.0000 0.0000 18.7911 0.0000 0.0000 20.9174 3.9095 -7.9832 58.6083 0.0000 0.0000 31.2495 0.0000 0.0000 0.7022 0.9957 -2.9876 24.1728 0.0000 0.0000 17.6155 0.0000 0.0000 0.0000 0.0000 0.0000 0.0000 0.0000 0.0000 0.0000 0.0000 0.0000 0.0000 0.0000 0.0000 0.0000 0.0000 0.0000 0.0000 0.0000 0.0000
0.0000 95.0000 0.0000 0.0000 0.0000 0.0000 0.0000 0.0000 0.0000 0.0000 0.0000 0.0000 0.0000 0.0000 0.0000 0.0000 0.0000 0.0000 0.0000 0.0000 0.0000 0.0000 0.0000 0.0000 -81.3194 11.4861 13.3570 -4.2516 7.4116 -8.1751 -168.8955 3.1286 174.5076 48.3548 -8.8017 7.7673 12.7751 0.0000 0.0000 3.9747 0.0000 0.0000 -7.8669 0.1903 1.4642 9.3026 0.0000 0.0000 2.1987 0.0000 0.0000 5.3599 -0.2233 -0.0034 36.7094 0.0000 0.0000 27.4133 0.0000 0.0000 12.0377 -0.6915 -0.6005 43.7069 0.0000 0.0000 37.9420 0.0000 0.0000 18.6582 -1.4854 -0.7897 33.7950 0.0000 0.0000 46.5860 0.0000 0.0000 0.0000 0.0000 0.0000 73.4050 -24.0057 31.8374 203.5704 52.1431 -64.7454 -37.1813 -48.7686 412.4930 -60.6747 -12.7431 -0.0497 36.8508 0.0000 0.0000 17.3869 0.0000 0.0000 32.4712 0.1453 12.4130 18.7924 0.0000 0.0000 10.4673 0.0000 0.0000 28.7286 -2.7270 15.3917 15.0587 0.0000 0.0000 5.0091 0.0000 0.0000 36.7255 -5.3898 15.4014 12.2242 0.0000 0.0000 8.9321 0.0000 0.0000 27.1629 -7.6413 16.8103 11.2978 0.0000 0.0000 3.8223 0.0000 0.0000 0.0000 0.0000 0.0000 0.0000 0.0000 0.0000 0.0000 0.0000 0.0000 0.0000 0.0000 0.0000 0.0000 0.0000 0.0000 0.0000 0.0000 0.0000
0.0000 95.0000 0.0000 0.0000 0.0000 0.0000 0.0000 0.0000 0.0000 0.0000 0.0000 0.0000 0.0000 0.0000 0.0000 0.0000 0.0000 0.0000 0.0000 0.0000 0.0000 0.0000 0.0000 0.0000 -80.6380 12.2588 14.4241 -5.5238 7.7494 -8.4757 -170.8747 12.4570 175.2674 48.8421 -9.4751 5.3258 10.6905 0.0000 0.0000 1.8920 0.0000 0.0000 -5.2231 0.1528 0.6136 10.7647 0.0000 0.0000 2.1245 0.0000 0.0000 9.0803 -0.1893 -2.3883 34.7648 0.0000 0.0000 27.1905 0.0000 0.0000 15.2912 -0.8722 -3.5686 41.1254 0.0000 0.0000 41.9408 0.0000 0.0000 20.9972 -2.0091 -4.0501 30.9589 0.0000 0.0000 42.3970 0.0000 0.0000 0.0000 0.0000 0.0000 74.5853 -22.5369 29.3222 210.8728 70.8081 -64.7841 -2.4534 -28.7516 403.5305 -68.7088 -14.3886 6.6983 40.0640 0.0000 0.0000 11.2178 0.0000 0.0000 26.9429 0.6651 9.5244 11.2261 0.0000 0.0000 7.1698 0.0000 0.0000 19.7372 -1.3906 12.7532 11.6748 0.0000 0.0000 3.0761 0.0000 0.0000 23.7840 -2.8499 11.7447 10.7819 0.0000 0.0000 6.2216 0.0000 0.0000 14.1067 -4.6677 12.9802 10.1688 0.0000 0.0000 3.9810 0.0000 0.0000 0.0000 0.0000 0.0000 0.0000 0.0000 0.0000 0.0000 0.0000 0.0000 0.0000 0.0000 0.0000 0.0000 0.0000 0.0000 0.0000 0.0000 0.0000
0.0000 95.0000 0.0000 0.0000 0.0000 0.0000 0.0000 0.0000 0.0000 0.0000 0.0000 0.0000 0.0000 0.0000 0.0000 0.0000 0.0000 0.0000 0.0000 0.0000 0.0000 0.0000 0.0000 0.0000 -80.7460 12.8630 15.1042 -5.9208 7.8486 -8.4497 -183.1337 -26.2152 161.3958 51.7892 -10.5321 3.3841 2.0938 0.0000 0.0000 4.3510 0.0000 0.0000 5.1272 -0.5641 1.4385 1.3347 0.0000 0.0000 1.1481 0.0000 0.0000 8.3178 -0.1973 -2.0588 1.1775 0.0000 0.0000 2.2677 0.0000 0.0000 -1.6696 -0.3371 -2.7721 13.4401 0.0000 0.0000 3.1685 0.0000 0.0000 -39.4075 6.8953 4.4516 16.4111 0.0000 0.0000 4.2614 0.0000 0.0000 0.0000 0.0000 0.0000 76.3641 -19.3955 24.5202 349.4260 79.7416 61.2537 38.6760 3.7520 403.4973 -68.1037 -14.3489 7.3684 27.0208 0.0000 0.0000 3.0713 0.0000 0.0000 13.0335 0.8298 3.7467 3.4918 0.0000 0.0000 5.1598 0.0000 0.0000 2.6572 -0.0603 7.3717 6.9389 0.0000 0.0000 1.8698 0.0000 0.0000 1.3339 -0.8955 6.3678 8.9262 0.0000 0.0000 3.7285 0.0000 0.0000 -8.1446 -2.3002 7.3247 8.4428 0.0000 0.0000 4.0143 0.0000 0.0000 0.0000 0.0000 0.0000 0.0000 0.0000 0.0000 0.0000 0.0000 0.0000 0.0000 0.0000 0.0000 0.0000 0.0000 0.0000 0.0000 0.0000 0.0000
0.0000 95.0000 0.0000 0.0000 0.0000 0.0000 0.0000 0.0000 0.0000 0.0000 0.0000 0.0000 0.0000 0.0000 0.0000 0.0000 0.0000 0.0000 0.0000 0.0000 0.0000 0.0000 0.0000 0.0000 -81.6991 12.2663 14.1676 -6.1160 7.8331 -8.3679 -173.0902 15.8333 176.3472 48.6119 -9.3226 5.7644 10.1308 0.0000 0.0000 2.8617 0.0000 0.0000 -4.1354 0.1284 0.4036 12.0840 0.0000 0.0000 2.2857 0.0000 0.0000 9.7100 -0.1352 -3.1803 30.8060 0.0000 0.0000 21.1334 0.0000 0.0000 15.5725 -0.8814 -4.2407 38.8482 0.0000 0.0000 37.5770 0.0000 0.0000 20.2404 -1.9934 -4.1415 32.4306 0.0000 0.0000 44.4212 0.0000 0.0000 0.0000 0.0000 0.0000 79.7460 -14.5919 17.4278 374.5402 43.8599 59.1169 87.0754 49.5262 431.3738 -59.1463 -12.2712 -1.7049 11.7123 0.0000 0.0000 3.5192 0.0000 0.0000 6.9008 0.1398 -1.4215 5.0772 0.0000 0.0000 5.2073 0.0000 0.0000 -4.6852 -0.1198 1.8438 4.1366 0.0000 0.0000 2.8378 0.0000 0.0000 -9.8445 -0.6052 1.0390 7.0177 0.0000 0.0000 3.6082 0.0000 0.0000 -18.9362 -1.5720 1.3060 6.5974 0.0000 0.0000 3.9029 0.0000 0.0000 0.0000 0.0000 0.0000 0.0000 0.0000 0.0000 0.0000 0.0000 0.0000 0.0000 0.0000 0.0000 0.0000 0.0000 0.0000 0.0000 0.0000 0.0000
0.0000 95.0000 0.0000 0.0000 0.0000 0.0000 0.0000 0.0000 0.0000 0.0000 0.0000 0.0000 0.0000 0.0000 0.0000 0.0000 0.0000 0.0000 0.0000 0.0000 0.0000 0.0000 0.0000 0.0000 -81.9791 12.0759 13.8802 -6.0029 7.7710 -8.2899 -293.4404 -82.4867 282.6646 45.4008 -6.6541 13.0120 4.6985 0.0000 0.0000 2.0468 0.0000 0.0000 -7.8817 0.0822 2.4405 1.0434 0.0000 0.0000 1.6907 0.0000 0.0000 2.5559 -0.1949 3.9499 2.5640 0.0000 0.0000 1.9218 0.0000 0.0000 11.0840 -0.3953 5.1715 3.1217 0.0000 0.0000 2.5398 0.0000 0.0000 16.4038 -1.6686 -2.9064 2.5875 0.0000 0.0000 4.6505 0.0000 0.0000 0.0000 0.0000 0.0000 81.8120 -10.2058 11.7691 374.3937 22.3233 34.0064 154.4339 48.5804 497.3804 -54.2119 -10.3187 -7.5754 5.9628 0.0000 0.0000 5.6966 0.0000 0.0000 6.9705 -0.2115 -4.3870 6.9903 0.0000 0.0000 5.7497 0.0000 0.0000 -4.3660 -0.2426 -1.5861 3.9793 0.0000 0.0000 3.8694 0.0000 0.0000 -11.2650 -0.5201 -2.6057 5.3604 0.0000 0.0000 4.9340 0.0000 0.0000 -19.7124 -1.0691 -3.0407 5.0025 0.0000 0.0000 3.6976 0.0000 0.0000 0.0000 0.0000 0.0000 0.0000 0.0000 0.0000 0.0000 0.0000 0.0000 0.0000 0.0000 0.0000 0.0000 0.0000 0.0000 0.0000 0.0000 0.0000
0.0000 95.0000 0.0000 0.0000 0.0000 0.0000 0.0000 0.0000 0.0000 0.0000 0.0000 0.0000 0.0000 0.0000 0.0000 0.0000 0.0000 0.0000 0.0000 0.0000 0.0000 0.0000 0.0000 0.0000 -82.2259 11.5349 13.2028 -6.1557 7.3434 -7.7764 -174.0789 12.0446 175.9756 49.0187 -9.3005 6.2966 10.3424 0.0000 0.0000 2.7024 0.0000 0.0000 -3.1750 0.0605 0.5424 11.3465 0.0000 0.0000 1.5514 0.0000 0.0000 10.8784 -0.2843 -1.7864 28.7747 0.0000 0.0000 19.1348 0.0000 0.0000 16.6508 -0.9129 -2.1840 37.6941 0.0000 0.0000 33.5588 0.0000 0.0000 21.9610 -1.8445 -2.1740 30.6669 0.0000 0.0000 41.7319 0.0000 0.0000 0.0000 0.0000 0.0000 83.0117 -7.5997 8.5847 370.7632 14.9673 21.4891 169.4431 36.2432 514.0196 -51.8678 -9.2692 -9.9265 4.4195 0.0000 0.0000 6.5168 0.0000 0.0000 8.2623 -0.2416 -5.6569 7.4759 0.0000 0.0000 5.9925 0.0000 0.0000 -2.2768 -0.1560 -3.0669 4.4434 0.0000 0.0000 4.4642 0.0000 0.0000 -9.6543 -0.2990 -4.3116 4.1364 0.0000 0.0000 6.0035 0.0000 0.0000 -17.4369 -0.5153 -5.2701 3.7866 0.0000 0.0000 3.4672 0.0000 0.0000 0.0000 0.0000 0.0000 0.0000 0.0000 0.0000 0.0000 0.0000 0.0000 0.0000 0.0000 0.0000 0.0000 0.0000 0.0000 0.0000 0.0000 0.0000
0.0000 95.0000 0.0000 0.0000 0.0000 0.0000 0.0000 0.0000 0.0000 0.0000 0.0000 0.0000 0.0000 0.0000 0.0000 0.0000 0.0000 0.0000 0.0000 0.0000 0.0000 0.0000 0.0000 0.0000 -82.6291 10.9381 12.4331 -5.8200 6.6787 -7.0011 -173.2717 11.5438 176.4181 47.8114 -8.7229 7.5097 10.8224 0.0000 0.0000 3.5995 0.0000 0.0000 -5.5381 0.0787 1.2931 12.6438 0.0000 0.0000 2.5053 0.0000 0.0000 7.7887 -0.3024 -0.3321 29.2473 0.0000 0.0000 19.7198 0.0000 0.0000 14.2422 -0.8076 -0.9885 35.4129 0.0000 0.0000 28.6233 0.0000 0.0000 20.2805 -1.6814 -1.5462 29.3486 0.0000 0.0000 39.0445 0.0000 0.0000 0.0000 0.0000 0.0000 84.2179 -5.9741 6.6083 366.9182 10.8799 14.1790 168.1097 45.2087 513.1624 -50.5836 -9.3251 -7.9854 5.9075 0.0000 0.0000 15.0097 0.0000 0.0000 5.1799 0.0988 -0.9961 6.1806 0.0000 0.0000 1.5093 0.0000 0.0000 -6.6774 -0.2367 0.7156 5.9986 0.0000 0.0000 1.8132 0.0000 0.0000 -12.1117 -0.6058 -2.0331 4.9634 0.0000 0.0000 6.2334 0.0000 0.0000 -16.8517 -0.7600 -3.2121 4.7677 0.0000 0.0000 3.6330 0.0000 0.0000 0.0000 0.0000 0.0000 0.0000 0.0000 0.0000 0.0000 0.0000 0.0000 0.0000 0.0000 0.0000 0.0000 0.0000 0.0000 0.0000 0.0000 0.0000
0.0000 95.0000 0.0000 0.0000 0.0000 0.0000 0.0000 0.0000 0.0000 0.0000 0.0000 0.0000 0.0000 0.0000 0.0000 0.0000 0.0000 0.0000 0.0000 0.0000 0.0000 0.0000 0.0000 0.0000 -83.0819 10.2633 11.5754 -5.3636 5.9903 -6.2234 -173.1745 9.6892 177.5073 46.6084 -8.2412 8.2120 9.5711 0.0000 0.0000 3.1037 0.0000 0.0000 -5.4296 0.0548 1.4267 13.2735 0.0000 0.0000 1.3678 0.0000 0.0000 8.9614 -0.2920 -1.0473 31.8781 0.0000 0.0000 19.4352 0.0000 0.0000 15.0477 -0.8533 -1.9762 36.9046 0.0000 0.0000 31.8079 0.0000 0.0000 19.8788 -1.7195 -2.0389 30.4877 0.0000 0.0000 39.3373 0.0000 0.0000 0.0000 0.0000 0.0000 84.9506 -4.6621 5.0917 364.3205 9.0505 10.9370 160.6003 55.2884 507.4923 -49.4396 -9.2612 -6.9401 4.5376 0.0000 0.0000 10.8019 0.0000 0.0000 4.8709 0.3296 0.7952 8.7031 0.0000 0.0000 2.7508 0.0000 0.0000 -5.8369 -0.0568 3.6573 12.3939 0.0000 0.0000 7.0367 0.0000 0.0000 -13.4565 -0.7799 1.3919 12.2966 0.0000 0.0000 8.8040 0.0000 0.0000 -20.9140 -1.4942 -0.3905 10.6598 0.0000 0.0000 10.1011 0.0000 0.0000 0.0000 0.0000 0.0000 0.0000 0.0000 0.0000 0.0000 0.0000 0.0000 0.0000 0.0000 0.0000 0.0000 0.0000 0.0000 0.0000 0.0000 0.0000
0.0000 95.0000 0.0000 0.0000 0.0000 0.0000 0.0000 0.0000 0.0000 0.0000 0.0000 0.0000 0.0000 0.0000 0.0000 0.0000 0.0000 0.0000 0.0000 0.0000 0.0000 0.0000 0.0000 0.0000 -83.1821 9.6734 10.8919 -5.5206 5.6582 -5.8628 -173.5082 12.5739 178.6111 46.3915 -8.1401 8.3872 8.6939 0.0000 0.0000 2.9679 0.0000 0.0000 -4.2459 0.0191 1.2010 12.9392 0.0000 0.0000 1.5738 0.0000 0.0000 9.7984 -0.3125 -1.1277 31.2610 0.0000 0.0000 19.3930 0.0000 0.0000 15.9219 -0.8863 -1.6586 38.5714 0.0000 0.0000 32.7312 0.0000 0.0000 20.2418 -1.6463 -1.2752 31.0114 0.0000 0.0000 42.3668 0.0000 0.0000 0.0000 0.0000 0.0000 85.2541 -3.6080 3.9197 362.9378 9.4778 10.9531 159.0867 53.6976 508.9996 -48.3235 -8.8441 -7.5490 3.2235 0.0000 0.0000 7.6252 0.0000 0.0000 1.3739 0.1661 0.6127 9.6835 0.0000 0.0000 1.3210 0.0000 0.0000 -9.4847 -0.1131 3.4090 11.1029 0.0000 0.0000 3.9223 0.0000 0.0000 -17.8703 -0.9581 2.1194 7.5499 0.0000 0.0000 4.9451 0.0000 0.0000 -25.5213 -1.9305 0.8626 7.5741 0.0000 0.0000 5.8936 0.0000 0.0000 0.0000 0.0000 0.0000 0.0000 0.0000 0.0000 0.0000 0.0000 0.0000 0.0000 0.0000 0.0000 0.0000 0.0000 0.0000 0.0000 0.0000 0.0000
0.0000 95.0000 0.0000 0.0000 0.0000 0.0000 0.0000 0.0000 0.0000 0.0000 0.0000 0.0000 0.0000 0.0000 0.0000 0.0000 0.0000 0.0000 0.0000 0.0000 0.0000 0.0000 0.0000 0.0000 -83.4428 9.4131 10.5510 -5.1568 5.4620 -5.6593 -173.6629 17.4346 178.3705 47.6978 -8.9693 6.3443 9.8664 0.0000 0.0000 2.9526 0.0000 0.0000 -3.5835 0.1775 -0.1033 13.5131 0.0000 0.0000 1.8736 0.0000 0.0000 10.2813 -0.1292 -3.3361 37.2815 0.0000 0.0000 22.5168 0.0000 0.0000 15.8911 -0.8872 -4.2962 41.5802 0.0000 0.0000 36.3492 0.0000 0.0000 20.4024 -2.0025 -4.1707 32.5980 0.0000 0.0000 42.2003 0.0000 0.0000 0.0000 0.0000 0.0000 85.6502 -3.0857 3.3291 361.9040 9.0658 10.1571 155.5569 57.6516 508.1311 -45.9823 -8.4365 -6.7932 2.1690 0.0000 0.0000 6.3660 0.0000 0.0000 1.1526 0.1149 0.3651 8.6223 0.0000 0.0000 3.9312 0.0000 0.0000 -9.2124 -0.1619 2.7628 9.2997 0.0000 0.0000 6.8971 0.0000 0.0000 -17.3671 -0.9513 1.1538 7.9938 0.0000 0.0000 5.0018 0.0000 0.0000 -24.5799 -1.7503 -0.5930 7.1884 0.0000 0.0000 4.7267 0.0000 0.0000 0.0000 0.0000 0.0000 0.0000 0.0000 0.0000 0.0000 0.0000 0.0000 0.0000 0.0000 0.0000 0.0000 0.0000 0.0000 0.0000 0.0000 0.0000
0.0000 95.0000 0.0000 0.0000 0.0000 0.0000 0.0000 0.0000 0.0000 0.0000 0.0000 0.0000 0.0000 0.0000 0.0000 0.0000 0.0000 0.0000 0.0000 0.0000 0.0000 0.0000 0.0000 0.0000 -83.4576 9.4272 10.5641 -5.0033 5.6218 -5.8657 -173.0212 16.4375 177.8338 47.7886 -8.9113 6.6856 9.2612 0.0000 0.0000 3.6347 0.0000 0.0000 -2.6593 0.0679 0.3325 11.9910 0.0000 0.0000 1.4348 0.0000 0.0000 10.9128 -0.1861 -2.8240 31.6943 0.0000 0.0000 17.6791 0.0000 0.0000 16.8752 -0.9107 -3.5065 39.2855 0.0000 0.0000 31.4891 0.0000 0.0000 22.1578 -1.9989 -3.5590 30.8614 0.0000 0.0000 36.6000 0.0000 0.0000 0.0000 0.0000 0.0000 85.7364 -2.5004 2.6937 361.9051 9.3178 10.4132 142.8439 69.7857 494.2470 -45.1663 -8.6232 -5.2898 2.6213 0.0000 0.0000 5.9290 0.0000 0.0000 0.8031 0.7173 3.9045 8.0478 0.0000 0.0000 3.1313 0.0000 0.0000 -8.8394 0.0380 5.2641 8.1889 0.0000 0.0000 6.5897 0.0000 0.0000 -17.1736 -0.9196 3.3604 6.7856 0.0000 0.0000 5.1811 0.0000 0.0000 -24.3852 -1.8538 0.8029 7.6117 0.0000 0.0000 5.4851 0.0000 0.0000 0.0000 0.0000 0.0000 0.0000 0.0000 0.0000 0.0000 0.0000 0.0000 0.0000 0.0000 0.0000 0.0000 0.0000 0.0000 0.0000 0.0000 0.0000
0.0000 95.0000 0.0000 0.0000 0.0000 0.0000 0.0000 0.0000 0.0000 0.0000 0.0000 0.0000 0.0000 0.0000 0.0000 0.0000 0.0000 0.0000 0.0000 0.0000 0.0000 0.0000 0.0000 0.0000 -83.5871 9.0488 10.1175 -4.8490 4.9953 -5.1442 -173.3938 13.3462 176.7212 48.0144 -8.7921 7.4349 10.8074 0.0000 0.0000 7.8941 0.0000 0.0000 -1.3613 -0.1196 1.0689 11.5414 0.0000 0.0000 1.6277 0.0000 0.0000 13.2526 -0.3486 -1.7716 26.1079 0.0000 0.0000 14.5177 0.0000 0.0000 19.8427 -1.0245 -2.2971 35.3360 0.0000 0.0000 33.1386 0.0000 0.0000 24.1235 -1.9549 -2.1581 31.1973 0.0000 0.0000 38.5277 0.0000 0.0000 0.0000 0.0000 0.0000 85.8952 -2.1952 2.3584 361.4305 9.3843 10.3486 103.4561 76.4639 453.9559 -44.1340 -8.7313 -3.9772 3.9434 0.0000 0.0000 5.7411 0.0000 0.0000 3.8344 0.9572 5.3266 7.7711 0.0000 0.0000 2.2225 0.0000 0.0000 -6.4585 0.1270 7.0228 6.5774 0.0000 0.0000 6.0319 0.0000 0.0000 -15.0957 -0.8805 5.2424 5.4454 0.0000 0.0000 4.8274 0.0000 0.0000 -23.0866 -1.8907 2.0488 6.0199 0.0000 0.0000 4.5210 0.0000 0.0000 0.0000 0.0000 0.0000 0.0000 0.0000 0.0000 0.0000 0.0000 0.0000 0.0000 0.0000 0.0000 0.0000 0.0000 0.0000 0.0000 0.0000 0.0000
0.0000 95.0000 0.0000 0.0000 0.0000 0.0000 0.0000 0.0000 0.0000 0.0000 0.0000 0.0000 0.0000 0.0000 0.0000 0.0000 0.0000 0.0000 0.0000 0.0000 0.0000 0.0000 0.0000 0.0000 -83.7889 9.1451 10.1891 -4.6662 4.9070 -5.0249 -173.1204 21.3763 177.8932 47.6528 -9.1100 5.7009 10.2908 0.0000 0.0000 5.3785 0.0000 0.0000 -1.4814 0.2757 -1.2386 10.8507 0.0000 0.0000 1.0354 0.0000 0.0000 12.8176 0.0044 -4.8109 26.4304 0.0000 0.0000 17.9286 0.0000 0.0000 19.6436 -0.9341 -4.9081 33.5728 0.0000 0.0000 29.2565 0.0000 0.0000 24.3114 -2.1028 -3.7811 29.3881 0.0000 0.0000 36.3542 0.0000 0.0000 0.0000 0.0000 0.0000 85.9742 -2.0118 2.1584 361.4300 9.4289 10.3823 121.6692 75.3067 472.9389 -44.1927 -8.6735 -4.2426 3.8024 0.0000 0.0000 6.6441 0.0000 0.0000 2.4670 1.0069 5.6165 7.2475 0.0000 0.0000 2.1910 0.0000 0.0000 -7.4845 0.1817 7.5488 6.5634 0.0000 0.0000 6.4554 0.0000 0.0000 -16.5747 -0.8892 6.2538 5.2763 0.0000 0.0000 5.0284 0.0000 0.0000 -24.5420 -2.0907 3.5308 6.1711 0.0000 0.0000 4.9221 0.0000 0.0000 0.0000 0.0000 0.0000 0.0000 0.0000 0.0000 0.0000 0.0000 0.0000 0.0000 0.0000 0.0000 0.0000 0.0000 0.0000 0.0000 0.0000 0.0000
0.0000 95.0000 0.0000 0.0000 0.0000 0.0000 0.0000 0.0000 0.0000 0.0000 0.0000 0.0000 0.0000 0.0000 0.0000 0.0000 0.0000 0.0000 0.0000 0.0000 0.0000 0.0000 0.0000 0.0000 -83.1636 9.4450 10.6385 -5.8290 5.2373 -5.3418 -172.7894 6.3950 174.6526 50.1605 -9.3424 7.3952 12.3353 0.0000 0.0000 3.9691 0.0000 0.0000 -4.3027 -0.0882 1.9715 9.4644 0.0000 0.0000 1.8702 0.0000 0.0000 10.3554 -0.4532 0.2264 29.8938 0.0000 0.0000 21.6686 0.0000 0.0000 16.8480 -0.9342 -0.3048 37.7377 0.0000 0.0000 33.3544 0.0000 0.0000 23.0120 -1.7692 -0.8336 29.4806 0.0000 0.0000 36.8538 0.0000 0.0000 0.0000 0.0000 0.0000 86.1839 -1.7597 1.8810 361.3109 9.9925 10.9299 119.8177 76.2468 468.7811 -44.7262 -9.0646 -3.2101 3.8618 0.0000 0.0000 7.9052 0.0000 0.0000 2.5297 1.3235 7.6128 8.2353 0.0000 0.0000 1.7016 0.0000 0.0000 -7.0653 0.2895 9.4584 8.7717 0.0000 0.0000 5.8782 0.0000 0.0000 -16.4842 -0.8807 8.1969 6.9183 0.0000 0.0000 4.5442 0.0000 0.0000 -24.7500 -2.2172 4.9875 7.4424 0.0000 0.0000 5.1359 0.0000 0.0000 0.0000 0.0000 0.0000 0.0000 0.0000 0.0000 0.0000 0.0000 0.0000 0.0000 0.0000 0.0000 0.0000 0.0000 0.0000 0.0000 0.0000 0.0000
0.0000 95.0000 0.0000 0.0000 0.0000 0.0000 0.0000 0.0000 0.0000 0.0000 0.0000 0.0000 0.0000 0.0000 0.0000 0.0000 0.0000 0.0000 0.0000 0.0000 0.0000 0.0000 0.0000 0.0000 -83.2755 9.5569 10.7433 -5.7178 5.1903 -5.2684 -173.2072 10.0661 176.2129 50.6441 -9.7673 5.9303 12.8897 0.0000 0.0000 4.5222 0.0000 0.0000 -3.2534 0.0111 0.8912 9.8305 0.0000 0.0000 2.1737 0.0000 0.0000 11.6383 -0.2777 -2.0480 31.6070 0.0000 0.0000 24.6709 0.0000 0.0000 17.9545 -0.9512 -2.6993 39.0304 0.0000 0.0000 36.6644 0.0000 0.0000 22.7018 -1.9782 -3.1341 31.1443 0.0000 0.0000 41.6563 0.0000 0.0000 0.0000 0.0000 0.0000 86.0830 -1.5891 1.7016 361.3604 9.7630 10.7100 134.3247 73.9120 484.4228 -44.8098 -9.0136 -3.4751 3.5427 0.0000 0.0000 8.1477 0.0000 0.0000 1.6647 1.2814 7.2401 8.8572 0.0000 0.0000 1.5662 0.0000 0.0000 -8.5424 0.3550 9.5222 8.3719 0.0000 0.0000 7.1341 0.0000 0.0000 -17.8961 -0.8673 7.6197 6.4544 0.0000 0.0000 6.7186 0.0000 0.0000 -25.9449 -2.2208 4.5858 7.4274 0.0000 0.0000 6.7780 0.0000 0.0000 0.0000 0.0000 0.0000 0.0000 0.0000 0.0000 0.0000 0.0000 0.0000 0.0000 0.0000 0.0000 0.0000 0.0000 0.0000 0.0000 0.0000 0.0000
0.0000 95.0000 0.0000 0.0000 0.0000 0.0000 0.0000 0.0000 0.0000 0.0000 0.0000 0.0000 0.0000 0.0000 0.0000 0.0000 0.0000 0.0000 0.0000 0.0000 0.0000 0.0000 0.0000 0.0000 -83.4577 9.5596 10.7122 -5.2877 4.9344 -4.9784 -172.8565 7.3260 174.3424 51.7358 -10.1101 5.4931 14.9632 0.0000 0.0000 3.9337 0.0000 0.0000 -4.0043 0.0430 0.9451 9.0171 0.0000 0.0000 2.5488 0.0000 0.0000 10.3485 -0.2980 -1.4820 31.5914 0.0000 0.0000 28.1150 0.0000 0.0000 16.2700 -0.8994 -2.0949 41.3009 0.0000 0.0000 43.2514 0.0000 0.0000 21.6218 -1.9006 -2.8504 35.0160 0.0000 0.0000 47.3165 0.0000 0.0000 0.0000 0.0000 0.0000 86.1388 -1.5345 1.6415 361.4220 9.4969 10.4228 141.4096 71.7153 492.4223 -46.0063 -9.2157 -3.7112 4.1382 0.0000 0.0000 8.5825 0.0000 0.0000 1.7152 1.2133 6.8365 8.3924 0.0000 0.0000 0.4639 0.0000 0.0000 -8.3562 0.3117 9.0368 8.0068 0.0000 0.0000 6.1779 0.0000 0.0000 -17.9268 -0.8747 7.1588 6.3036 0.0000 0.0000 5.4391 0.0000 0.0000 -25.9041 -2.1967 4.2640 7.8842 0.0000 0.0000 5.8492 0.0000 0.0000 0.0000 0.0000 0.0000 0.0000 0.0000 0.0000 0.0000 0.0000 0.0000 0.0000 0.0000 0.0000 0.0000 0.0000 0.0000 0.0000 0.0000 0.0000
0.0000 95.0000 0.0000 0.0000 0.0000 0.0000 0.0000 0.0000 0.0000 0.0000 0.0000 0.0000 0.0000 0.0000 0.0000 0.0000 0.0000 0.0000 0.0000 0.0000 0.0000 0.0000 0.0000 0.0000 -83.3325 9.5213 10.6927 -5.5776 4.8059 -4.8049 -173.5519 4.8193 174.1008 51.9649 -9.9460 6.6117 14.2994 0.0000 0.0000 4.1040 0.0000 0.0000 -3.4457 -0.0897 1.6261 7.8704 0.0000 0.0000 1.8099 0.0000 0.0000 11.6312 -0.3719 -1.1216 27.5880 0.0000 0.0000 25.3819 0.0000 0.0000 18.2196 -0.9727 -2.0251 38.0110 0.0000 0.0000 45.3044 0.0000 0.0000 23.4519 -1.9539 -2.5217 35.2011 0.0000 0.0000 50.4281 0.0000 0.0000 0.0000 0.0000 0.0000 86.1738 -1.2531 1.3397 361.2768 9.4885 10.3761 149.6031 68.2361 500.5682 -46.4051 -9.3291 -3.6058 3.7543 0.0000 0.0000 9.6892 0.0000 0.0000 0.8675 1.2264 6.8328 8.4853 0.0000 0.0000 0.5186 0.0000 0.0000 -9.5157 0.3954 9.5198 8.4368 0.0000 0.0000 4.7008 0.0000 0.0000 -19.1846 -0.8496 7.7291 5.8530 0.0000 0.0000 5.3747 0.0000 0.0000 -26.9297 -2.2717 4.9240 7.1128 0.0000 0.0000 5.9620 0.0000 0.0000 0.0000 0.0000 0.0000 0.0000 0.0000 0.0000 0.0000 0.0000 0.0000 0.0000 0.0000 0.0000 0.0000 0.0000 0.0000 0.0000 0.0000 0.0000
0.0000 95.0000 0.0000 0.0000 0.0000 0.0000 0.0000 0.0000 0.0000 0.0000 0.0000 0.0000 0.0000 0.0000 0.0000 0.0000 0.0000 0.0000 0.0000 0.0000 0.0000 0.0000 0.0000 0.0000 -83.3572 9.5690 10.7415 -5.5686 4.7657 -4.7478 -172.8051 1.7924 173.9268 52.5160 -9.8842 7.6378 15.3642 0.0000 0.0000 3.6394 0.0000 0.0000 -3.8775 -0.2029 2.5695 8.7230 0.0000 0.0000 2.0218 0.0000 0.0000 10.7493 -0.5658 1.2365 30.7655 0.0000 0.0000 24.0096 0.0000 0.0000 17.4305 -0.9759 0.5722 39.4962 0.0000 0.0000 39.2004 0.0000 0.0000 23.8308 -1.7652 -0.2090 32.5829 0.0000 0.0000 42.3211 0.0000 0.0000 0.0000 0.0000 0.0000 86.0804 -1.2727 1.3629 361.5460 9.5519 10.5175 146.3806 69.9400 496.5930 -46.6938 -9.3941 -3.5971 3.9386 0.0000 0.0000 9.2777 0.0000 0.0000 1.6512 1.1420 6.4020 9.8207 0.0000 0.0000 1.1796 0.0000 0.0000 -8.3941 0.3357 9.3438 9.8182 0.0000 0.0000 6.4905 0.0000 0.0000 -17.8770 -0.8680 7.5877 7.8537 0.0000 0.0000 5.5469 0.0000 0.0000 -25.8709 -2.2097 4.4615 7.7657 0.0000 0.0000 6.2767 0.0000 0.0000 0.0000 0.0000 0.0000 0.0000 0.0000 0.0000 0.0000 0.0000 0.0000 0.0000 0.0000 0.0000 0.0000 0.0000 0.0000 0.0000 0.0000 0.0000
0.0000 95.0000 0.0000 0.0000 0.0000 0.0000 0.0000 0.0000 0.0000 0.0000 0.0000 0.0000 0.0000 0.0000 0.0000 0.0000 0.0000 0.0000 0.0000 0.0000 0.0000 0.0000 0.0000 0.0000 -83.2724 9.5756 10.7650 -5.7386 4.7597 -4.7281 -172.6976 3.0315 174.6278 52.1276 -9.6722 8.2276 13.9875 0.0000 0.0000 3.0725 0.0000 0.0000 -3.4896 -0.2887 2.9636 8.6079 0.0000 0.0000 2.0672 0.0000 0.0000 11.6251 -0.5927 1.0459 26.8870 0.0000 0.0000 19.9142 0.0000 0.0000 18.0846 -1.0143 0.5134 33.8259 0.0000 0.0000 34.9563 0.0000 0.0000 23.0649 -1.6824 0.1015 31.6819 0.0000 0.0000 42.0096 0.0000 0.0000 0.0000 0.0000 0.0000 86.1330 -1.2839 1.3736 361.6563 9.8642 10.8728 148.3009 69.9747 498.4776 -46.9371 -9.3297 -4.0858 3.5303 0.0000 0.0000 10.7454 0.0000 0.0000 1.2002 1.0473 5.8149 12.1680 0.0000 0.0000 2.8698 0.0000 0.0000 -9.1759 0.3720 9.4045 11.3101 0.0000 0.0000 7.5530 0.0000 0.0000 -17.9365 -0.8586 8.0984 8.9141 0.0000 0.0000 6.9565 0.0000 0.0000 -25.4340 -2.2804 5.5848 8.6836 0.0000 0.0000 7.2672 0.0000 0.0000 0.0000 0.0000 0.0000 0.0000 0.0000 0.0000 0.0000 0.0000 0.0000 0.0000 0.0000 0.0000 0.0000 0.0000 0.0000 0.0000 0.0000 0.0000
0.0000 95.0000 0.0000 0.0000 0.0000 0.0000 0.0000 0.0000 0.0000 0.0000 0.0000 0.0000 0.0000 0.0000 0.0000 0.0000 0.0000 0.0000 0.0000 0.0000 0.0000 0.0000 0.0000 0.0000 -83.1949 9.4084 10.5915 -6.1469 4.9337 -4.9326 -173.1710 4.5853 173.9581 52.4104 -9.9816 6.9889 15.1104 0.0000 0.0000 3.7997 0.0000 0.0000 -4.2500 -0.0983 2.0189 9.0103 0.0000 0.0000 3.2793 0.0000 0.0000 10.5197 -0.4536 0.1522 28.5684 0.0000 0.0000 24.7834 0.0000 0.0000 16.6979 -0.9259 -0.3775 34.8863 0.0000 0.0000 38.1880 0.0000 0.0000 21.4404 -1.6312 -0.4904 31.6067 0.0000 0.0000 44.3227 0.0000 0.0000 0.0000 0.0000 0.0000 86.2007 -1.1890 1.2706 361.7968 9.9192 10.9491 134.8960 75.0841 484.2287 -45.5823 -9.3402 -2.8498 4.0294 0.0000 0.0000 8.5918 0.0000 0.0000 2.2835 1.4410 8.3078 10.0031 0.0000 0.0000 1.1194 0.0000 0.0000 -7.4534 0.3997 10.9022 10.2236 0.0000 0.0000 8.5360 0.0000 0.0000 -16.6175 -0.8715 9.4728 7.7573 0.0000 0.0000 6.2239 0.0000 0.0000 -24.7357 -2.3071 6.0981 7.3992 0.0000 0.0000 6.2256 0.0000 0.0000 0.0000 0.0000 0.0000 0.0000 0.0000 0.0000 0.0000 0.0000 0.0000 0.0000 0.0000 0.0000 0.0000 0.0000 0.0000 0.0000 0.0000 0.0000
0.0000 95.0000 0.0000 0.0000 0.0000 0.0000 0.0000 0.0000 0.0000 0.0000 0.0000 0.0000 0.0000 0.0000 0.0000 0.0000 0.0000 0.0000 0.0000 0.0000 0.0000 0.0000 0.0000 0.0000 -83.4225 9.3613 10.4967 -6.4584 5.0423 -5.0257 -173.4217 5.3332 175.6715 52.6275 -10.0404 6.9587 15.1918 0.0000 0.0000 4.7972 0.0000 0.0000 -2.9748 -0.2203 2.2866 8.6472 0.0000 0.0000 1.8946 0.0000 0.0000 12.6959 -0.5517 0.1845 30.1793 0.0000 0.0000 21.7738 0.0000 0.0000 19.1508 -1.0433 -0.7390 40.2322 0.0000 0.0000 38.0027 0.0000 0.0000 24.9750 -1.9914 -2.0630 32.4391 0.0000 0.0000 40.2515 0.0000 0.0000 0.0000 0.0000 0.0000 86.2427 -1.0252 1.0948 361.5713 9.8318 10.7965 142.6188 73.0199 491.9445 -46.2908 -9.4508 -3.0091 4.1707 0.0000 0.0000 9.2094 0.0000 0.0000 1.8846 1.4645 8.3792 10.4906 0.0000 0.0000 0.3507 0.0000 0.0000 -8.0523 0.4750 11.5134 10.2432 0.0000 0.0000 6.6056 0.0000 0.0000 -17.4299 -0.8341 10.6637 7.2153 0.0000 0.0000 4.9801 0.0000 0.0000 -25.5252 -2.4106 7.3094 7.2588 0.0000 0.0000 5.9012 0.0000 0.0000 0.0000 0.0000 0.0000 0.0000 0.0000 0.0000 0.0000 0.0000 0.0000 0.0000 0.0000 0.0000 0.0000 0.0000 0.0000 0.0000 0.0000 0.0000
0.0000 95.0000 0.0000 0.0000 0.0000 0.0000 0.0000 0.0000 0.0000 0.0000 0.0000 0.0000 0.0000 0.0000 0.0000 0.0000 0.0000 0.0000 0.0000 0.0000 0.0000 0.0000 0.0000 0.0000 -83.1690 9.1443 10.2991 -7.2048 4.9620 -4.9069 -173.6309 0.8906 174.5150 51.3420 -9.4316 8.4182 14.0784 0.0000 0.0000 4.7121 0.0000 0.0000 -5.0826 -0.0904 2.3443 8.2298 0.0000 0.0000 1.6565 0.0000 0.0000 9.7356 -0.4724 0.7713 35.0014 0.0000 0.0000 25.9566 0.0000 0.0000 16.1454 -0.8982 0.3114 44.2006 0.0000 0.0000 37.9872 0.0000 0.0000 22.4083 -1.6960 -0.4926 36.2709 0.0000 0.0000 46.1527 0.0000 0.0000 0.0000 0.0000 0.0000 86.5832 -1.0173 1.0798 360.8928 9.5802 10.3241 149.3925 69.5845 500.1556 -46.0680 -9.3382 -3.2726 3.5634 0.0000 0.0000 10.0091 0.0000 0.0000 0.5196 1.3804 7.6724 9.6988 0.0000 0.0000 1.2249 0.0000 0.0000 -9.5475 0.4220 9.8213 11.1944 0.0000 0.0000 7.9812 0.0000 0.0000 -18.8409 -0.8373 8.3910 7.9612 0.0000 0.0000 6.4765 0.0000 0.0000 -26.5297 -2.3026 5.5623 8.2698 0.0000 0.0000 6.8002 0.0000 0.0000 0.0000 0.0000 0.0000 0.0000 0.0000 0.0000 0.0000 0.0000 0.0000 0.0000 0.0000 0.0000 0.0000 0.0000 0.0000 0.0000 0.0000 0.0000
0.0000 95.0000 0.0000 0.0000 0.0000 0.0000 0.0000 0.0000 0.0000 0.0000 0.0000 0.0000 0.0000 0.0000 0.0000 0.0000 0.0000 0.0000 0.0000 0.0000 0.0000 0.0000 0.0000 0.0000 -83.2034 8.7366 9.8346 -7.6094 4.7752 -4.6958 -174.3500 8.5752 176.7543 51.5834 -9.9636 6.0570 14.2786 0.0000 0.0000 3.9074 0.0000 0.0000 -4.3525 0.0103 1.3045 7.8238 0.0000 0.0000 2.7359 0.0000 0.0000 10.6287 -0.3347 -1.1747 31.3793 0.0000 0.0000 25.3528 0.0000 0.0000 17.7002 -0.9539 -1.9805 40.6411 0.0000 0.0000 38.0922 0.0000 0.0000 22.8734 -1.9473 -2.7419 35.6399 0.0000 0.0000 46.0230 0.0000 0.0000 0.0000 0.0000 0.0000 86.7270 -1.2091 1.2802 360.5081 9.2763 9.8976 147.6938 69.8833 498.4684 -46.8080 -9.3457 -3.9008 3.8541 0.0000 0.0000 9.6123 0.0000 0.0000 0.7600 1.2455 6.9326 11.2638 0.0000 0.0000 1.6950 0.0000 0.0000 -9.3686 0.4253 9.9586 11.1389 0.0000 0.0000 6.8174 0.0000 0.0000 -18.5129 -0.8326 8.8721 8.2597 0.0000 0.0000 5.4763 0.0000 0.0000 -25.8711 -2.3294 6.1396 8.5771 0.0000 0.0000 6.1699 0.0000 0.0000 0.0000 0.0000 0.0000 0.0000 0.0000 0.0000 0.0000 0.0000 0.0000 0.0000 0.0000 0.0000 0.0000 0.0000 0.0000 0.0000 0.0000 0.0000
0.0000 95.0000 0.0000 0.0000 0.0000 0.0000 0.0000 0.0000 0.0000 0.0000 0.0000 0.0000 0.0000 0.0000 0.0000 0.0000 0.0000 0.0000 0.0000 0.0000 0.0000 0.0000 0.0000 0.0000 -83.2821 8.1449 9.1565 -8.0278 4.8709 -4.8844 -174.9686 6.8357 175.3242 52.4010 -10.0603 6.5636 14.7020 0.0000 0.0000 3.3599 0.0000 0.0000 -4.5449 -0.0028 1.4737 8.5929 0.0000 0.0000 3.0269 0.0000 0.0000 10.9492 -0.3686 -0.9272 30.0417 0.0000 0.0000 28.7937 0.0000 0.0000 17.5034 -0.9513 -1.6155 37.2083 0.0000 0.0000 41.7845 0.0000 0.0000 22.7947 -1.8820 -2.1175 35.3183 0.0000 0.0000 49.4323 0.0000 0.0000 0.0000 0.0000 0.0000 86.9248 -1.1186 1.1803 360.0039 9.3118 9.8054 146.2972 70.7600 497.0829 -45.9197 -9.3040 -3.2814 3.9165 0.0000 0.0000 9.9462 0.0000 0.0000 1.1544 1.5198 8.5745 10.3492 0.0000 0.0000 0.4744 0.0000 0.0000 -9.1809 0.5077 11.0894 10.5074 0.0000 0.0000 7.1603 0.0000 0.0000 -18.5052 -0.8045 10.1566 7.3849 0.0000 0.0000 5.5845 0.0000 0.0000 -26.2479 -2.3936 6.9917 7.7443 0.0000 0.0000 5.8579 0.0000 0.0000 0.0000 0.0000 0.0000 0.0000 0.0000 0.0000 0.0000 0.0000 0.0000 0.0000 0.0000 0.0000 0.0000 0.0000 0.0000 0.0000 0.0000 0.0000
0.0000 95.0000 0.0000 0.0000 0.0000 0.0000 0.0000 0.0000 0.0000 0.0000 0.0000 0.0000 0.0000 0.0000 0.0000 0.0000 0.0000 0.0000 0.0000 0.0000 0.0000 0.0000 0.0000 0.0000 -83.2184 7.9851 8.9871 -8.1310 4.7058 -4.6964 -175.0877 8.5737 175.7208 51.0037 -9.7666 6.3511 13.1311 0.0000 0.0000 2.6883 0.0000 0.0000 -4.0692 -0.0374 1.5218 7.8578 0.0000 0.0000 2.4233 0.0000 0.0000 11.1201 -0.3515 -1.1627 26.5446 0.0000 0.0000 25.1718 0.0000 0.0000 17.2289 -0.9373 -1.8630 36.3320 0.0000 0.0000 43.6994 0.0000 0.0000 22.2444 -1.8740 -2.3179 37.7296 0.0000 0.0000 57.6171 0.0000 0.0000 0.0000 0.0000 0.0000 87.1272 -1.1858 1.2468 359.4562 8.9883 9.3300 137.0957 74.3797 487.8457 -45.9623 -9.6458 -1.9415 4.4020 0.0000 0.0000 8.8630 0.0000 0.0000 1.3684 1.8243 10.4129 9.7891 0.0000 0.0000 0.7870 0.0000 0.0000 -8.5883 0.6164 12.9667 10.0365 0.0000 0.0000 7.7876 0.0000 0.0000 -17.8494 -0.8009 11.7287 7.0880 0.0000 0.0000 5.6344 0.0000 0.0000 -25.6429 -2.4586 7.9536 7.8241 0.0000 0.0000 5.4170 0.0000 0.0000 0.0000 0.0000 0.0000 0.0000 0.0000 0.0000 0.0000 0.0000 0.0000 0.0000 0.0000 0.0000 0.0000 0.0000 0.0000 0.0000 0.0000 0.0000
