HIERARCHY
ROOT Hips
{
  OFFSET 0.000000 95.000000 0.000000
  CHANNELS 6 Xposition Yposition Zposition Zrotation Xrotation Yrotation
  JOINT Spine
  {
    OFFSET 0.000000 10.000000 0.000000
    CHANNELS 3 Zrotation Xrotation Yrotation
    JOINT Spine1
    {
      OFFSET 0.000000 12.000000 0.000000
      CHANNELS 3 Zrotation Xrotation Yrotation
      JOINT Spine2
      {
        OFFSET 0.000000 12.000000 0.000000
        CHANNELS 3 Zrotation Xrotation Yrotation
        JOINT Neck
        {
          OFFSET 0.000000 10.000000 0.000000
          CHANNELS 3 Zrotation Xrotation Yrotation
          JOINT Head
          {
            OFFSET 0.000000 8.000000 0.000000
            CHANNELS 3 Zrotation Xrotation Yrotation
            End Site
            {
              OFFSET 0.000000 10.000000 0.000000
            }
          }
        }
        JOINT LeftShoulder
        {
          OFFSET 6.000000 8.000000 0.000000
          CHANNELS 3 Zrotation Xrotation Yrotation
          JOINT LeftArm
          {
            OFFSET 12.000000 0.000000 0.000000
            CHANNELS 3 Zrotation Xrotation Yrotation
            JOINT LeftForeArm
            {
              OFFSET 24.000000 0.000000 0.000000
              CHANNELS 3 Zrotation Xrotation Yrotation
              JOINT LeftHand
              {
                OFFSET 22.000000 0.000000 0.000000
                CHANNELS 3 Zrotation Xrotation Yrotation
                JOINT LeftHandThumb1
                {
                  OFFSET 1.800000 -1.400000 0.500000
                  CHANNELS 3 Zrotation Xrotation Yrotation
                  JOINT LeftHandThumb2
                  {
                    OFFSET 2.400000 0.000000 0.000000
                    CHANNELS 3 Zrotation Xrotation Yrotation
                    JOINT LeftHandThumb3
                    {
                      OFFSET 1.900000 0.000000 0.000000
                      CHANNELS 3 Zrotation Xrotation Yrotation
                      End Site
                      {
                        OFFSET 1.600000 0.000000 0.000000
                      }
                    }
                  }
                }
                JOINT LeftHandIndex1
                {
                  OFFSET 6.600000 1.200000 0.300000
                  CHANNELS 3 Zrotation Xrotation Yrotation
                  JOINT LeftHandIndex2
                  {
                    OFFSET 2.000000 0.000000 0.000000
                    CHANNELS 3 Zrotation Xrotation Yrotation
                    JOINT LeftHandIndex3
                    {
                      OFFSET 1.200000 0.000000 0.000000
                      CHANNELS 3 Zrotation Xrotation Yrotation
                      End Site
                      {
                        OFFSET 1.000000 0.000000 0.000000
                      }
                    }
                  }
                }
                JOINT LeftHandMiddle1
                {
                  OFFSET 7.200000 0.000000 0.300000
                  CHANNELS 3 Zrotation Xrotation Yrotation
                  JOINT LeftHandMiddle2
                  {
                    OFFSET 3.000000 0.000000 0.000000
                    CHANNELS 3 Zrotation Xrotation Yrotation
                    JOINT LeftHandMiddle3
                    {
                      OFFSET 2.000000 0.000000 0.000000
                      CHANNELS 3 Zrotation Xrotation Yrotation
                      End Site
                      {
                        OFFSET 1.600000 0.000000 0.000000
                      }
                    }
                  }
                }
                JOINT LeftHandRing1
                {
                  OFFSET 7.100000 -1.000000 0.400000
                  CHANNELS 3 Zrotation Xrotation Yrotation
                  JOINT LeftHandRing2
                  {
                    OFFSET 2.600000 0.000000 0.000000
                    CHANNELS 3 Zrotation Xrotation Yrotation
                    JOINT LeftHandRing3
                    {
                      OFFSET 1.600000 0.000000 0.000000
                      CHANNELS 3 Zrotation Xrotation Yrotation
                      End Site
                      {
                        OFFSET 1.300000 0.000000 0.000000
                      }
                    }
                  }
                }
                JOINT LeftHandPinky1
                {
                  OFFSET 6.500000 -2.000000 0.500000
                  CHANNELS 3 Zrotation Xrotation Yrotation
                  JOINT LeftHandPinky2
                  {
                    OFFSET 1.900000 0.000000 0.000000
                    CHANNELS 3 Zrotation Xrotation Yrotation
                    JOINT LeftHandPinky3
                    {
                      OFFSET 1.400000 0.000000 0.000000
                      CHANNELS 3 Zrotation Xrotation Yrotation
                      End Site
                      {
                        OFFSET 1.300000 0.000000 0.000000
                      }
                    }
                  }
                }
              }
            }
          }
        }
        JOINT RightShoulder
        {
          OFFSET -6.000000 8.000000 0.000000
          CHANNELS 3 Zrotation Xrotation Yrotation
          JOINT RightArm
          {
            OFFSET -12.000000 0.000000 0.000000
            CHANNELS 3 Zrotation Xrotation Yrotation
            JOINT RightForeArm
            {
              OFFSET -24.000000 0.000000 0.000000
              CHANNELS 3 Zrotation Xrotation Yrotation
              JOINT RightHand
              {
                OFFSET -22.000000 0.000000 0.000000
                CHANNELS 3 Zrotation Xrotation Yrotation
                JOINT RightHandThumb1
                {
                  OFFSET -1.800000 -1.400000 0.500000
                  CHANNELS 3 Zrotation Xrotation Yrotation
                  JOINT RightHandThumb2
                  {
                    OFFSET -2.400000 0.000000 0.000000
                    CHANNELS 3 Zrotation Xrotation Yrotation
                    JOINT RightHandThumb3
                    {
                      OFFSET -1.900000 0.000000 0.000000
                      CHANNELS 3 Zrotation Xrotation Yrotation
                      End Site
                      {
                        OFFSET -1.600000 0.000000 0.000000
                      }
                    }
                  }
                }
                JOINT RightHandIndex1
                {
                  OFFSET -6.600000 1.200000 0.300000
                  CHANNELS 3 Zrotation Xrotation Yrotation
                  JOINT RightHandIndex2
                  {
                    OFFSET -2.000000 0.000000 0.000000
                    CHANNELS 3 Zrotation Xrotation Yrotation
                    JOINT RightHandIndex3
                    {
                      OFFSET -1.200000 0.000000 0.000000
                      CHANNELS 3 Zrotation Xrotation Yrotation
                      End Site
                      {
                        OFFSET -1.000000 0.000000 0.000000
                      }
                    }
                  }
                }
                JOINT RightHandMiddle1
                {
                  OFFSET -7.200000 0.000000 0.300000
                  CHANNELS 3 Zrotation Xrotation Yrotation
                  JOINT RightHandMiddle2
                  {
                    OFFSET -3.000000 0.000000 0.000000
                    CHANNELS 3 Zrotation Xrotation Yrotation
                    JOINT RightHandMiddle3
                    {
                      OFFSET -2.000000 0.000000 0.000000
                      CHANNELS 3 Zrotation Xrotation Yrotation
                      End Site
                      {
                        OFFSET -1.600000 0.000000 0.000000
                      }
                    }
                  }
                }
                JOINT RightHandRing1
                {
                  OFFSET -7.100000 -1.000000 0.400000
                  CHANNELS 3 Zrotation Xrotation Yrotation
                  JOINT RightHandRing2
                  {
                    OFFSET -2.600000 0.000000 0.000000
                    CHANNELS 3 Zrotation Xrotation Yrotation
                    JOINT RightHandRing3
                    {
                      OFFSET -1.600000 0.000000 0.000000
                      CHANNELS 3 Zrotation Xrotation Yrotation
                      End Site
                      {
                        OFFSET -1.300000 0.000000 0.000000
                      }
                    }
                  }
                }
                JOINT RightHandPinky1
                {
                  OFFSET -6.500000 -2.000000 0.500000
                  CHANNELS 3 Zrotation Xrotation Yrotation
                  JOINT RightHandPinky2
                  {
                    OFFSET -1.900000 0.000000 0.000000
                    CHANNELS 3 Zrotation Xrotation Yrotation
                    JOINT RightHandPinky3
                    {
                      OFFSET -1.400000 0.000000 0.000000
                      CHANNELS 3 Zrotation Xrotation Yrotation
                      End Site
                      {
                        OFFSET -1.300000 0.000000 0.000000
                      }
                    }
                  }
                }
              }
            }
          }
        }
      }
    }
  }
  JOINT LeftUpLeg
  {
    OFFSET 10.000000 -5.000000 0.000000
    CHANNELS 3 Zrotation Xrotation Yrotation
    JOINT LeftLeg
    {
      OFFSET 0.000000 -42.000000 0.000000
      CHANNELS 3 Zrotation Xrotation Yrotation
      JOINT LeftFoot
      {
        OFFSET 0.000000 -42.000000 4.000000
        CHANNELS 3 Zrotation Xrotation Yrotation
        End Site
        {
          OFFSET 0.000000 0.000000 12.000000
        }
      }
    }
  }
  JOINT RightUpLeg
  {
    OFFSET -10.000000 -5.000000 0.000000
    CHANNELS 3 Zrotation Xrotation Yrotation
    JOINT RightLeg
    {
      OFFSET 0.000000 -42.000000 0.000000
      CHANNELS 3 Zrotation Xrotation Yrotation
      JOINT RightFoot
      {
        OFFSET 0.000000 -42.000000 4.000000
        CHANNELS 3 Zrotation Xrotation Yrotation
        End Site
        {
          OFFSET 0.000000 0.000000 12.000000
        }
      }
    }
  }
}
MOTION
Frames: 60
Frame Time: 0.033333
0.0000 95.0000 0.0000 0.0000 0.0000 0.0000 0.0000 0.0000 0.0000 0.0000 0.0000 0.0000 0.0000 0.0000 0.0000 0.0000 0.0000 0.0000 0.0000 0.0000 0.0000 0.0000 0.0000 0.0000 -77.9172 -1.7481 -2.1618 -7.0882 -7.7361 10.5930 0.0000 0.0000 0.0000 0.0000 0.0000 0.0000 0.0000 0.0000 0.0000 0.0000 0.0000 0.0000 0.0000 0.0000 0.0000 0.0000 0.0000 0.0000 0.0000 0.0000 0.0000 0.0000 0.0000 0.0000 0.0000 0.0000 0.0000 0.0000 0.0000 0.0000 0.0000 0.0000 0.0000 0.0000 0.0000 0.0000 0.0000 0.0000 0.0000 0.0000 0.0000 0.0000 0.0000 0.0000 0.0000 0.0000 0.0000 0.0000 0.0000 0.0000 0.0000 81.8559 -7.3448 8.4668 0.7774 7.6261 8.8547 46.3898 35.0810 178.7753 -20.7127 -1.8783 -6.2118 15.6654 0.0000 0.0000 12.5247 0.0000 0.0000 64.8281 1.8361 2.7735 68.8116 0.0000 0.0000 25.5266 0.0000 0.0000 66.4075 -4.8543 12.1830 61.8401 0.0000 0.0000 24.3917 0.0000 0.0000 65.6605 -7.9083 14.4551 56.6059 0.0000 0.0000 25.7793 0.0000 0.0000 57.5017 -12.6912 18.0478 48.1110 0.0000 0.0000 32.2428 0.0000 0.0000 0.0000 0.0000 0.0000 0.0000 0.0000 0.0000 0.0000 0.0000 0.0000 0.0000 0.0000 0.0000 0.0000 0.0000 0.0000 0.0000 0.0000 0.0000
0.0000 95.0000 0.0000 0.0000 0.0000 0.0000 0.0000 0.0000 0.0000 0.0000 0.0000 0.0000 0.0000 0.0000 0.0000 0.0000 0.0000 0.0000 0.0000 0.0000 0.0000 0.0000 0.0000 0.0000 -78.0159 -1.7108 -2.1120 -7.1243 -7.6955 10.5284 0.0000 0.0000 0.0000 0.0000 0.0000 0.0000 0.0000 0.0000 0.0000 0.0000 0.0000 0.0000 0.0000 0.0000 0.0000 0.0000 0.0000 0.0000 0.0000 0.0000 0.0000 0.0000 0.0000 0.0000 0.0000 0.0000 0.0000 0.0000 0.0000 0.0000 0.0000 0.0000 0.0000 0.0000 0.0000 0.0000 0.0000 0.0000 0.0000 0.0000 0.0000 0.0000 0.0000 0.0000 0.0000 0.0000 0.0000 0.0000 0.0000 0.0000 0.0000 82.0123 -7.2772 8.3661 0.4090 7.7582 8.8707 46.1048 35.0969 178.6588 -20.7127 -1.8783 -6.2118 15.6654 0.0000 0.0000 12.5247 0.0000 0.0000 64.8281 1.8361 2.7735 68.8116 0.0000 0.0000 25.5266 0.0000 0.0000 66.4075 -4.8543 12.1830 61.8401 0.0000 0.0000 24.3917 0.0000 0.0000 65.6605 -7.9083 14.4551 56.6059 0.0000 0.0000 25.7793 0.0000 0.0000 57.5017 -12.6912 18.0478 48.1110 0.0000 0.0000 32.2428 0.0000 0.0000 0.0000 0.0000 0.0000 0.0000 0.0000 0.0000 0.0000 0.0000 0.0000 0.0000 0.0000 0.0000 0.0000 0.0000 0.0000 0.0000 0.0000 0.0000
0.0000 95.0000 0.0000 0.0000 0.0000 0.0000 0.0000 0.0000 0.0000 0.0000 0.0000 0.0000 0.0000 0.0000 0.0000 0.0000 0.0000 0.0000 0.0000 0.0000 0.0000 0.0000 0.0000 0.0000 -77.8845 -1.4459 -1.7892 -7.0880 -7.6215 10.4859 0.0000 0.0000 0.0000 0.0000 0.0000 0.0000 0.0000 0.0000 0.0000 0.0000 0.0000 0.0000 0.0000 0.0000 0.0000 0.0000 0.0000 0.0000 0.0000 0.0000 0.0000 0.0000 0.0000 0.0000 0.0000 0.0000 0.0000 0.0000 0.0000 0.0000 0.0000 0.0000 0.0000 0.0000 0.0000 0.0000 0.0000 0.0000 0.0000 0.0000 0.0000 0.0000 0.0000 0.0000 0.0000 0.0000 0.0000 0.0000 0.0000 0.0000 0.0000 82.0858 -7.6212 8.7498 0.3368 7.6281 8.6826 46.1860 35.2766 178.4803 -20.7127 -1.8783 -6.2118 15.6654 0.0000 0.0000 12.5247 0.0000 0.0000 64.8281 1.8361 2.7735 68.8116 0.0000 0.0000 25.5266 0.0000 0.0000 66.4075 -4.8543 12.1830 61.8401 0.0000 0.0000 24.3917 0.0000 0.0000 65.6605 -7.9083 14.4551 56.6059 0.0000 0.0000 25.7793 0.0000 0.0000 57.5017 -12.6912 18.0478 48.1110 0.0000 0.0000 32.2428 0.0000 0.0000 0.0000 0.0000 0.0000 0.0000 0.0000 0.0000 0.0000 0.0000 0.0000 0.0000 0.0000 0.0000 0.0000 0.0000 0.0000 0.0000 0.0000 0.0000
0.0000 95.0000 0.0000 0.0000 0.0000 0.0000 0.0000 0.0000 0.0000 0.0000 0.0000 0.0000 0.0000 0.0000 0.0000 0.0000 0.0000 0.0000 0.0000 0.0000 0.0000 0.0000 0.0000 0.0000 -77.9071 -1.0586 -1.3094 -6.9094 -7.5557 10.4200 0.0000 0.0000 0.0000 0.0000 0.0000 0.0000 0.0000 0.0000 0.0000 0.0000 0.0000 0.0000 0.0000 0.0000 0.0000 0.0000 0.0000 0.0000 0.0000 0.0000 0.0000 0.0000 0.0000 0.0000 0.0000 0.0000 0.0000 0.0000 0.0000 0.0000 0.0000 0.0000 0.0000 0.0000 0.0000 0.0000 0.0000 0.0000 0.0000 0.0000 0.0000 0.0000 0.0000 0.0000 0.0000 0.0000 0.0000 0.0000 0.0000 0.0000 0.0000 82.1720 -7.8473 8.9955 0.2288 7.6527 8.6577 46.1900 35.4924 178.2335 -20.7127 -1.8783 -6.2118 15.6654 0.0000 0.0000 12.5247 0.0000 0.0000 64.8281 1.8361 2.7735 68.8116 0.0000 0.0000 25.5266 0.0000 0.0000 66.4075 -4.8543 12.1830 61.8401 0.0000 0.0000 24.3917 0.0000 0.0000 65.6605 -7.9083 14.4551 56.6059 0.0000 0.0000 25.7793 0.0000 0.0000 57.5017 -12.6912 18.0478 48.1110 0.0000 0.0000 32.2428 0.0000 0.0000 0.0000 0.0000 0.0000 0.0000 0.0000 0.0000 0.0000 0.0000 0.0000 0.0000 0.0000 0.0000 0.0000 0.0000 0.0000 0.0000 0.0000 0.0000
0.0000 95.0000 0.0000 0.0000 0.0000 0.0000 0.0000 0.0000 0.0000 0.0000 0.0000 0.0000 0.0000 0.0000 0.0000 0.0000 0.0000 0.0000 0.0000 0.0000 0.0000 0.0000 0.0000 0.0000 -78.0794 -0.8134 -1.0030 -6.8328 -7.7060 10.6205 0.0000 0.0000 0.0000 0.0000 0.0000 0.0000 0.0000 0.0000 0.0000 0.0000 0.0000 0.0000 0.0000 0.0000 0.0000 0.0000 0.0000 0.0000 0.0000 0.0000 0.0000 0.0000 0.0000 0.0000 0.0000 0.0000 0.0000 0.0000 0.0000 0.0000 0.0000 0.0000 0.0000 0.0000 0.0000 0.0000 0.0000 0.0000 0.0000 0.0000 0.0000 0.0000 0.0000 0.0000 0.0000 0.0000 0.0000 0.0000 0.0000 0.0000 0.0000 82.1266 -8.1251 9.3211 0.0895 7.5643 8.5142 46.0333 35.6787 177.9631 -20.7127 -1.8783 -6.2118 15.6654 0.0000 0.0000 12.5247 0.0000 0.0000 64.8281 1.8361 2.7735 68.8116 0.0000 0.0000 25.5266 0.0000 0.0000 66.4075 -4.8543 12.1830 61.8401 0.0000 0.0000 24.3917 0.0000 0.0000 65.6605 -7.9083 14.4551 56.6059 0.0000 0.0000 25.7793 0.0000 0.0000 57.5017 -12.6912 18.0478 48.1110 0.0000 0.0000 32.2428 0.0000 0.0000 0.0000 0.0000 0.0000 0.0000 0.0000 0.0000 0.0000 0.0000 0.0000 0.0000 0.0000 0.0000 0.0000 0.0000 0.0000 0.0000 0.0000 0.0000
0.0000 95.0000 0.0000 0.0000 0.0000 0.0000 0.0000 0.0000 0.0000 0.0000 0.0000 0.0000 0.0000 0.0000 0.0000 0.0000 0.0000 0.0000 0.0000 0.0000 0.0000 0.0000 0.0000 0.0000 -78.1429 -0.6131 -0.7552 -6.6192 -7.8359 10.7789 0.0000 0.0000 0.0000 0.0000 0.0000 0.0000 0.0000 0.0000 0.0000 0.0000 0.0000 0.0000 0.0000 0.0000 0.0000 0.0000 0.0000 0.0000 0.0000 0.0000 0.0000 0.0000 0.0000 0.0000 0.0000 0.0000 0.0000 0.0000 0.0000 0.0000 0.0000 0.0000 0.0000 0.0000 0.0000 0.0000 0.0000 0.0000 0.0000 0.0000 0.0000 0.0000 0.0000 0.0000 0.0000 0.0000 0.0000 0.0000 0.0000 0.0000 0.0000 82.1422 -8.3885 9.6203 -0.0005 7.4235 8.3188 46.0173 35.7835 177.8362 -20.7127 -1.8783 -6.2118 15.6654 0.0000 0.0000 12.5247 0.0000 0.0000 64.8281 1.8361 2.7735 68.8116 0.0000 0.0000 25.5266 0.0000 0.0000 66.4075 -4.8543 12.1830 61.8401 0.0000 0.0000 24.3917 0.0000 0.0000 65.6605 -7.9083 14.4551 56.6059 0.0000 0.0000 25.7793 0.0000 0.0000 57.5017 -12.6912 18.0478 48.1110 0.0000 0.0000 32.2428 0.0000 0.0000 0.0000 0.0000 0.0000 0.0000 0.0000 0.0000 0.0000 0.0000 0.0000 0.0000 0.0000 0.0000 0.0000 0.0000 0.0000 0.0000 0.0000 0.0000
0.0000 95.0000 0.0000 0.0000 0.0000 0.0000 0.0000 0.0000 0.0000 0.0000 0.0000 0.0000 0.0000 0.0000 0.0000 0.0000 0.0000 0.0000 0.0000 0.0000 0.0000 0.0000 0.0000 0.0000 -78.2198 -0.4328 -0.5324 -6.6236 -7.7421 10.6601 0.0000 0.0000 0.0000 0.0000 0.0000 0.0000 0.0000 0.0000 0.0000 0.0000 0.0000 0.0000 0.0000 0.0000 0.0000 0.0000 0.0000 0.0000 0.0000 0.0000 0.0000 0.0000 0.0000 0.0000 0.0000 0.0000 0.0000 0.0000 0.0000 0.0000 0.0000 0.0000 0.0000 0.0000 0.0000 0.0000 0.0000 0.0000 0.0000 0.0000 0.0000 0.0000 0.0000 0.0000 0.0000 0.0000 0.0000 0.0000 0.0000 0.0000 0.0000 82.1473 -8.6168 9.8810 -0.2478 7.2864 8.0812 45.7970 35.8551 177.6739 -20.7127 -1.8783 -6.2118 15.6654 0.0000 0.0000 12.5247 0.0000 0.0000 64.8281 1.8361 2.7735 68.8116 0.0000 0.0000 25.5266 0.0000 0.0000 66.4075 -4.8543 12.1830 61.8401 0.0000 0.0000 24.3917 0.0000 0.0000 65.6605 -7.9083 14.4551 56.6059 0.0000 0.0000 25.7793 0.0000 0.0000 57.5017 -12.6912 18.0478 48.1110 0.0000 0.0000 32.2428 0.0000 0.0000 0.0000 0.0000 0.0000 0.0000 0.0000 0.0000 0.0000 0.0000 0.0000 0.0000 0.0000 0.0000 0.0000 0.0000 0.0000 0.0000 0.0000 0.0000
0.0000 95.0000 0.0000 0.0000 0.0000 0.0000 0.0000 0.0000 0.0000 0.0000 0.0000 0.0000 0.0000 0.0000 0.0000 0.0000 0.0000 0.0000 0.0000 0.0000 0.0000 0.0000 0.0000 0.0000 -78.1106 -0.3305 -0.4074 -6.7415 -7.6078 10.5317 0.0000 0.0000 0.0000 0.0000 0.0000 0.0000 0.0000 0.0000 0.0000 0.0000 0.0000 0.0000 0.0000 0.0000 0.0000 0.0000 0.0000 0.0000 0.0000 0.0000 0.0000 0.0000 0.0000 0.0000 0.0000 0.0000 0.0000 0.0000 0.0000 0.0000 0.0000 0.0000 0.0000 0.0000 0.0000 0.0000 0.0000 0.0000 0.0000 0.0000 0.0000 0.0000 0.0000 0.0000 0.0000 0.0000 0.0000 0.0000 0.0000 0.0000 0.0000 82.1046 -8.6614 9.9394 -0.3493 7.4003 8.1789 45.6069 36.0172 177.4163 -20.7127 -1.8783 -6.2118 15.6654 0.0000 0.0000 12.5247 0.0000 0.0000 64.8281 1.8361 2.7735 68.8116 0.0000 0.0000 25.5266 0.0000 0.0000 66.4075 -4.8543 12.1830 61.8401 0.0000 0.0000 24.3917 0.0000 0.0000 65.6605 -7.9083 14.4551 56.6059 0.0000 0.0000 25.7793 0.0000 0.0000 57.5017 -12.6912 18.0478 48.1110 0.0000 0.0000 32.2428 0.0000 0.0000 0.0000 0.0000 0.0000 0.0000 0.0000 0.0000 0.0000 0.0000 0.0000 0.0000 0.0000 0.0000 0.0000 0.0000 0.0000 0.0000 0.0000 0.0000
0.0000 95.0000 0.0000 0.0000 0.0000 0.0000 0.0000 0.0000 0.0000 0.0000 0.0000 0.0000 0.0000 0.0000 0.0000 0.0000 0.0000 0.0000 0.0000 0.0000 0.0000 0.0000 0.0000 0.0000 -77.9399 -0.6538 -0.8083 -7.3410 -7.6756 10.7209 0.0000 0.0000 0.0000 0.0000 0.0000 0.0000 0.0000 0.0000 0.0000 0.0000 0.0000 0.0000 0.0000 0.0000 0.0000 0.0000 0.0000 0.0000 0.0000 0.0000 0.0000 0.0000 0.0000 0.0000 0.0000 0.0000 0.0000 0.0000 0.0000 0.0000 0.0000 0.0000 0.0000 0.0000 0.0000 0.0000 0.0000 0.0000 0.0000 0.0000 0.0000 0.0000 0.0000 0.0000 0.0000 0.0000 0.0000 0.0000 0.0000 0.0000 0.0000 82.0109 -8.3791 9.6316 -0.5226 7.4007 8.1509 45.2473 35.7674 177.5766 -20.7127 -1.8783 -6.2118 15.6654 0.0000 0.0000 12.5247 0.0000 0.0000 64.8281 1.8361 2.7735 68.8116 0.0000 0.0000 25.5266 0.0000 0.0000 66.4075 -4.8543 12.1830 61.8401 0.0000 0.0000 24.3917 0.0000 0.0000 65.6605 -7.9083 14.4551 56.6059 0.0000 0.0000 25.7793 0.0000 0.0000 57.5017 -12.6912 18.0478 48.1110 0.0000 0.0000 32.2428 0.0000 0.0000 0.0000 0.0000 0.0000 0.0000 0.0000 0.0000 0.0000 0.0000 0.0000 0.0000 0.0000 0.0000 0.0000 0.0000 0.0000 0.0000 0.0000 0.0000
0.0000 95.0000 0.0000 0.0000 0.0000 0.0000 0.0000 0.0000 0.0000 0.0000 0.0000 0.0000 0.0000 0.0000 0.0000 0.0000 0.0000 0.0000 0.0000 0.0000 0.0000 0.0000 0.0000 0.0000 -77.8461 -0.7191 -0.8905 -7.5604 -7.3352 10.2861 0.0000 0.0000 0.0000 0.0000 0.0000 0.0000 0.0000 0.0000 0.0000 0.0000 0.0000 0.0000 0.0000 0.0000 0.0000 0.0000 0.0000 0.0000 0.0000 0.0000 0.0000 0.0000 0.0000 0.0000 0.0000 0.0000 0.0000 0.0000 0.0000 0.0000 0.0000 0.0000 0.0000 0.0000 0.0000 0.0000 0.0000 0.0000 0.0000 0.0000 0.0000 0.0000 0.0000 0.0000 0.0000 0.0000 0.0000 0.0000 0.0000 0.0000 0.0000 81.9225 -8.4212 9.6951 -0.5248 7.4078 8.1684 45.1439 35.8373 177.4570 -20.7127 -1.8783 -6.2118 15.6654 0.0000 0.0000 12.5247 0.0000 0.0000 64.8281 1.8361 2.7735 68.8116 0.0000 0.0000 25.5266 0.0000 0.0000 66.4075 -4.8543 12.1830 61.8401 0.0000 0.0000 24.3917 0.0000 0.0000 65.6605 -7.9083 14.4551 56.6059 0.0000 0.0000 25.7793 0.0000 0.0000 57.5017 -12.6912 18.0478 48.1110 0.0000 0.0000 32.2428 0.0000 0.0000 0.0000 0.0000 0.0000 0.0000 0.0000 0.0000 0.0000 0.0000 0.0000 0.0000 0.0000 0.0000 0.0000 0.0000 0.0000 0.0000 0.0000 0.0000
0.0000 95.0000 0.0000 0.0000 0.0000 0.0000 0.0000 0.0000 0.0000 0.0000 0.0000 0.0000 0.0000 0.0000 0.0000 0.0000 0.0000 0.0000 0.0000 0.0000 0.0000 0.0000 0.0000 0.0000 -77.7139 -0.6349 -0.7881 -7.9655 -7.2324 10.2499 0.0000 0.0000 0.0000 0.0000 0.0000 0.0000 0.0000 0.0000 0.0000 0.0000 0.0000 0.0000 0.0000 0.0000 0.0000 0.0000 0.0000 0.0000 0.0000 0.0000 0.0000 0.0000 0.0000 0.0000 0.0000 0.0000 0.0000 0.0000 0.0000 0.0000 0.0000 0.0000 0.0000 0.0000 0.0000 0.0000 0.0000 0.0000 0.0000 0.0000 0.0000 0.0000 0.0000 0.0000 0.0000 0.0000 0.0000 0.0000 0.0000 0.0000 0.0000 81.7186 -8.5034 9.8246 -0.3729 7.2614 8.0784 45.1263 35.8305 177.4586 -20.7127 -1.8783 -6.2118 15.6654 0.0000 0.0000 12.5247 0.0000 0.0000 64.8281 1.8361 2.7735 68.8116 0.0000 0.0000 25.5266 0.0000 0.0000 66.4075 -4.8543 12.1830 61.8401 0.0000 0.0000 24.3917 0.0000 0.0000 65.6605 -7.9083 14.4551 56.6059 0.0000 0.0000 25.7793 0.0000 0.0000 57.5017 -12.6912 18.0478 48.1110 0.0000 0.0000 32.2428 0.0000 0.0000 0.0000 0.0000 0.0000 0.0000 0.0000 0.0000 0.0000 0.0000 0.0000 0.0000 0.0000 0.0000 0.0000 0.0000 0.0000 0.0000 0.0000 0.0000
0.0000 95.0000 0.0000 0.0000 0.0000 0.0000 0.0000 0.0000 0.0000 0.0000 0.0000 0.0000 0.0000 0.0000 0.0000 0.0000 0.0000 0.0000 0.0000 0.0000 0.0000 0.0000 0.0000 0.0000 -77.5037 -0.7259 -0.9044 -8.1722 -7.0409 10.0330 0.0000 0.0000 0.0000 0.0000 0.0000 0.0000 0.0000 0.0000 0.0000 0.0000 0.0000 0.0000 0.0000 0.0000 0.0000 0.0000 0.0000 0.0000 0.0000 0.0000 0.0000 0.0000 0.0000 0.0000 0.0000 0.0000 0.0000 0.0000 0.0000 0.0000 0.0000 0.0000 0.0000 0.0000 0.0000 0.0000 0.0000 0.0000 0.0000 0.0000 0.0000 0.0000 0.0000 0.0000 0.0000 0.0000 0.0000 0.0000 0.0000 0.0000 0.0000 81.7705 -8.3333 9.6196 -0.5322 7.2506 8.0175 44.9765 35.6386 177.6292 -20.7127 -1.8783 -6.2118 15.6654 0.0000 0.0000 12.5247 0.0000 0.0000 64.8281 1.8361 2.7735 68.8116 0.0000 0.0000 25.5266 0.0000 0.0000 66.4075 -4.8543 12.1830 61.8401 0.0000 0.0000 24.3917 0.0000 0.0000 65.6605 -7.9083 14.4551 56.6059 0.0000 0.0000 25.7793 0.0000 0.0000 57.5017 -12.6912 18.0478 48.1110 0.0000 0.0000 32.2428 0.0000 0.0000 0.0000 0.0000 0.0000 0.0000 0.0000 0.0000 0.0000 0.0000 0.0000 0.0000 0.0000 0.0000 0.0000 0.0000 0.0000 0.0000 0.0000 0.0000
0.0000 95.0000 0.0000 0.0000 0.0000 0.0000 0.0000 0.0000 0.0000 0.0000 0.0000 0.0000 0.0000 0.0000 0.0000 0.0000 0.0000 0.0000 0.0000 0.0000 0.0000 0.0000 0.0000 0.0000 -77.5072 -0.5225 -0.6510 -8.0833 -7.0839 10.1166 0.0000 0.0000 0.0000 0.0000 0.0000 0.0000 0.0000 0.0000 0.0000 0.0000 0.0000 0.0000 0.0000 0.0000 0.0000 0.0000 0.0000 0.0000 0.0000 0.0000 0.0000 0.0000 0.0000 0.0000 0.0000 0.0000 0.0000 0.0000 0.0000 0.0000 0.0000 0.0000 0.0000 0.0000 0.0000 0.0000 0.0000 0.0000 0.0000 0.0000 0.0000 0.0000 0.0000 0.0000 0.0000 0.0000 0.0000 0.0000 0.0000 0.0000 0.0000 81.6383 -8.3563 9.6685 -0.2361 7.0574 7.9106 45.2150 35.5151 177.8601 -20.7127 -1.8783 -6.2118 15.6654 0.0000 0.0000 12.5247 0.0000 0.0000 64.8281 1.8361 2.7735 68.8116 0.0000 0.0000 25.5266 0.0000 0.0000 66.4075 -4.8543 12.1830 61.8401 0.0000 0.0000 24.3917 0.0000 0.0000 65.6605 -7.9083 14.4551 56.6059 0.0000 0.0000 25.7793 0.0000 0.0000 57.5017 -12.6912 18.0478 48.1110 0.0000 0.0000 32.2428 0.0000 0.0000 0.0000 0.0000 0.0000 0.0000 0.0000 0.0000 0.0000 0.0000 0.0000 0.0000 0.0000 0.0000 0.0000 0.0000 0.0000 0.0000 0.0000 0.0000
0.0000 95.0000 0.0000 0.0000 0.0000 0.0000 0.0000 0.0000 0.0000 0.0000 0.0000 0.0000 0.0000 0.0000 0.0000 0.0000 0.0000 0.0000 0.0000 0.0000 0.0000 0.0000 0.0000 0.0000 -77.3956 -1.1945 -1.4910 -8.0628 -6.9679 9.8422 0.0000 0.0000 0.0000 0.0000 0.0000 0.0000 0.0000 0.0000 0.0000 0.0000 0.0000 0.0000 0.0000 0.0000 0.0000 0.0000 0.0000 0.0000 0.0000 0.0000 0.0000 0.0000 0.0000 0.0000 0.0000 0.0000 0.0000 0.0000 0.0000 0.0000 0.0000 0.0000 0.0000 0.0000 0.0000 0.0000 0.0000 0.0000 0.0000 0.0000 0.0000 0.0000 0.0000 0.0000 0.0000 0.0000 0.0000 0.0000 0.0000 0.0000 0.0000 81.2636 -8.1717 9.5176 -0.0242 7.2297 8.2271 44.9540 35.6157 177.6481 -20.7127 -1.8783 -6.2118 15.6654 0.0000 0.0000 12.5247 0.0000 0.0000 64.8281 1.8361 2.7735 68.8116 0.0000 0.0000 25.5266 0.0000 0.0000 66.4075 -4.8543 12.1830 61.8401 0.0000 0.0000 24.3917 0.0000 0.0000 65.6605 -7.9083 14.4551 56.6059 0.0000 0.0000 25.7793 0.0000 0.0000 57.5017 -12.6912 18.0478 48.1110 0.0000 0.0000 32.2428 0.0000 0.0000 0.0000 0.0000 0.0000 0.0000 0.0000 0.0000 0.0000 0.0000 0.0000 0.0000 0.0000 0.0000 0.0000 0.0000 0.0000 0.0000 0.0000 0.0000
0.0000 95.0000 0.0000 0.0000 0.0000 0.0000 0.0000 0.0000 0.0000 0.0000 0.0000 0.0000 0.0000 0.0000 0.0000 0.0000 0.0000 0.0000 0.0000 0.0000 0.0000 0.0000 0.0000 0.0000 -77.3823 -0.8956 -1.1182 -8.3227 -6.6826 9.5287 0.0000 0.0000 0.0000 0.0000 0.0000 0.0000 0.0000 0.0000 0.0000 0.0000 0.0000 0.0000 0.0000 0.0000 0.0000 0.0000 0.0000 0.0000 0.0000 0.0000 0.0000 0.0000 0.0000 0.0000 0.0000 0.0000 0.0000 0.0000 0.0000 0.0000 0.0000 0.0000 0.0000 0.0000 0.0000 0.0000 0.0000 0.0000 0.0000 0.0000 0.0000 0.0000 0.0000 0.0000 0.0000 0.0000 0.0000 0.0000 0.0000 0.0000 0.0000 80.5898 -7.9094 9.3224 0.7485 7.4023 8.7707 44.9850 35.7462 177.5060 -20.7127 -1.8783 -6.2118 15.6654 0.0000 0.0000 12.5247 0.0000 0.0000 64.8281 1.8361 2.7735 68.8116 0.0000 0.0000 25.5266 0.0000 0.0000 66.4075 -4.8543 12.1830 61.8401 0.0000 0.0000 24.3917 0.0000 0.0000 65.6605 -7.9083 14.4551 56.6059 0.0000 0.0000 25.7793 0.0000 0.0000 57.5017 -12.6912 18.0478 48.1110 0.0000 0.0000 32.2428 0.0000 0.0000 0.0000 0.0000 0.0000 0.0000 0.0000 0.0000 0.0000 0.0000 0.0000 0.0000 0.0000 0.0000 0.0000 0.0000 0.0000 0.0000 0.0000 0.0000
0.0000 95.0000 0.0000 0.0000 0.0000 0.0000 0.0000 0.0000 0.0000 0.0000 0.0000 0.0000 0.0000 0.0000 0.0000 0.0000 0.0000 0.0000 0.0000 0.0000 0.0000 0.0000 0.0000 0.0000 -76.8798 1.3227 1.6664 -7.9196 -5.1707 7.7675 0.0000 0.0000 0.0000 0.0000 0.0000 0.0000 0.0000 0.0000 0.0000 0.0000 0.0000 0.0000 0.0000 0.0000 0.0000 0.0000 0.0000 0.0000 0.0000 0.0000 0.0000 0.0000 0.0000 0.0000 0.0000 0.0000 0.0000 0.0000 0.0000 0.0000 0.0000 0.0000 0.0000 0.0000 0.0000 0.0000 0.0000 0.0000 0.0000 0.0000 0.0000 0.0000 0.0000 0.0000 0.0000 0.0000 0.0000 0.0000 0.0000 0.0000 0.0000 77.1631 -9.9545 12.4601 3.2691 15.4685 20.1913 38.8318 46.8421 160.4566 -20.7127 -1.8783 -6.2118 15.6654 0.0000 0.0000 12.5247 0.0000 0.0000 64.8281 1.8361 2.7735 68.8116 0.0000 0.0000 25.5266 0.0000 0.0000 66.4075 -4.8543 12.1830 61.8401 0.0000 0.0000 24.3917 0.0000 0.0000 65.6605 -7.9083 14.4551 56.6059 0.0000 0.0000 25.7793 0.0000 0.0000 57.5017 -12.6912 18.0478 48.1110 0.0000 0.0000 32.2428 0.0000 0.0000 0.0000 0.0000 0.0000 0.0000 0.0000 0.0000 0.0000 0.0000 0.0000 0.0000 0.0000 0.0000 0.0000 0.0000 0.0000 0.0000 0.0000 0.0000
0.0000 95.0000 0.0000 0.0000 0.0000 0.0000 0.0000 0.0000 0.0000 0.0000 0.0000 0.0000 0.0000 0.0000 0.0000 0.0000 0.0000 0.0000 0.0000 0.0000 0.0000 0.0000 0.0000 0.0000 -76.2485 6.4414 8.2025 -6.0797 -3.6644 6.0959 0.0000 0.0000 0.0000 0.0000 0.0000 0.0000 0.0000 0.0000 0.0000 0.0000 0.0000 0.0000 0.0000 0.0000 0.0000 0.0000 0.0000 0.0000 0.0000 0.0000 0.0000 0.0000 0.0000 0.0000 0.0000 0.0000 0.0000 0.0000 0.0000 0.0000 0.0000 0.0000 0.0000 0.0000 0.0000 0.0000 0.0000 0.0000 0.0000 0.0000 0.0000 0.0000 0.0000 0.0000 0.0000 0.0000 0.0000 0.0000 0.0000 0.0000 0.0000 69.1662 -12.6957 18.3328 2.9195 35.3863 46.6470 -11.8920 51.7062 95.0822 -20.7127 -1.8783 -6.2118 15.6654 0.0000 0.0000 12.5247 0.0000 0.0000 64.8281 1.8361 2.7735 68.8116 0.0000 0.0000 25.5266 0.0000 0.0000 66.4075 -4.8543 12.1830 61.8401 0.0000 0.0000 24.3917 0.0000 0.0000 65.6605 -7.9083 14.4551 56.6059 0.0000 0.0000 25.7793 0.0000 0.0000 57.5017 -12.6912 18.0478 48.1110 0.0000 0.0000 32.2428 0.0000 0.0000 0.0000 0.0000 0.0000 0.0000 0.0000 0.0000 0.0000 0.0000 0.0000 0.0000 0.0000 0.0000 0.0000 0.0000 0.0000 0.0000 0.0000 0.0000
0.0000 95.0000 0.0000 0.0000 0.0000 0.0000 0.0000 0.0000 0.0000 0.0000 0.0000 0.0000 0.0000 0.0000 0.0000 0.0000 0.0000 0.0000 0.0000 0.0000 0.0000 0.0000 0.0000 0.0000 -76.2346 7.9400 10.1098 -4.4064 -4.0068 6.2532 0.0000 0.0000 0.0000 0.0000 0.0000 0.0000 0.0000 0.0000 0.0000 0.0000 0.0000 0.0000 0.0000 0.0000 0.0000 0.0000 0.0000 0.0000 0.0000 0.0000 0.0000 0.0000 0.0000 0.0000 0.0000 0.0000 0.0000 0.0000 0.0000 0.0000 0.0000 0.0000 0.0000 0.0000 0.0000 0.0000 0.0000 0.0000 0.0000 0.0000 0.0000 0.0000 0.0000 0.0000 0.0000 0.0000 0.0000 0.0000 0.0000 0.0000 0.0000 57.1212 -14.1503 25.6897 -30.5201 67.5695 49.0080 -53.4851 6.3991 30.8303 -23.9494 -9.9305 8.9312 35.7751 0.0000 0.0000 8.0197 0.0000 0.0000 18.4965 0.8173 -0.3571 8.9940 0.0000 0.0000 8.0282 0.0000 0.0000 74.3036 -29.8261 43.5032 74.0568 0.0000 0.0000 78.3487 0.0000 0.0000 62.4940 -32.1641 44.3173 98.2424 0.0000 0.0000 62.0310 0.0000 0.0000 46.8198 -35.8607 47.3442 103.7630 0.0000 0.0000 53.8158 0.0000 0.0000 0.0000 0.0000 0.0000 0.0000 0.0000 0.0000 0.0000 0.0000 0.0000 0.0000 0.0000 0.0000 0.0000 0.0000 0.0000 0.0000 0.0000 0.0000
0.0000 95.0000 0.0000 0.0000 0.0000 0.0000 0.0000 0.0000 0.0000 0.0000 0.0000 0.0000 0.0000 0.0000 0.0000 0.0000 0.0000 0.0000 0.0000 0.0000 0.0000 0.0000 0.0000 0.0000 -77.5248 6.1602 7.6679 -2.4076 -5.7107 7.6504 0.0000 0.0000 0.0000 0.0000 0.0000 0.0000 0.0000 0.0000 0.0000 0.0000 0.0000 0.0000 0.0000 0.0000 0.0000 0.0000 0.0000 0.0000 0.0000 0.0000 0.0000 0.0000 0.0000 0.0000 0.0000 0.0000 0.0000 0.0000 0.0000 0.0000 0.0000 0.0000 0.0000 0.0000 0.0000 0.0000 0.0000 0.0000 0.0000 0.0000 0.0000 0.0000 0.0000 0.0000 0.0000 0.0000 0.0000 0.0000 0.0000 0.0000 0.0000 42.5467 -14.0296 35.0765 -99.6074 63.2468 -8.5791 -51.8987 -32.0675 42.9689 -15.9708 -9.3221 9.5683 26.9235 0.0000 0.0000 13.0819 0.0000 0.0000 13.4003 0.4230 -2.8028 2.7043 0.0000 0.0000 4.1065 0.0000 0.0000 80.8250 -30.4645 40.2414 53.1076 0.0000 0.0000 90.0000 0.0000 0.0000 74.9174 -33.1270 38.2236 66.0560 0.0000 0.0000 90.0000 0.0000 0.0000 65.0347 -38.1678 39.2058 72.2380 0.0000 0.0000 82.8094 0.0000 0.0000 0.0000 0.0000 0.0000 0.0000 0.0000 0.0000 0.0000 0.0000 0.0000 0.0000 0.0000 0.0000 0.0000 0.0000 0.0000 0.0000 0.0000 0.0000
0.0000 95.0000 0.0000 0.0000 0.0000 0.0000 0.0000 0.0000 0.0000 0.0000 0.0000 0.0000 0.0000 0.0000 0.0000 0.0000 0.0000 0.0000 0.0000 0.0000 0.0000 0.0000 0.0000 0.0000 -77.9251 4.3743 5.4077 -2.4526 -6.4074 8.4379 0.0000 0.0000 0.0000 0.0000 0.0000 0.0000 0.0000 0.0000 0.0000 0.0000 0.0000 0.0000 0.0000 0.0000 0.0000 0.0000 0.0000 0.0000 0.0000 0.0000 0.0000 0.0000 0.0000 0.0000 0.0000 0.0000 0.0000 0.0000 0.0000 0.0000 0.0000 0.0000 0.0000 0.0000 0.0000 0.0000 0.0000 0.0000 0.0000 0.0000 0.0000 0.0000 0.0000 0.0000 0.0000 0.0000 0.0000 0.0000 0.0000 0.0000 0.0000 30.8952 -11.7562 40.8671 -98.5617 55.8374 -9.2317 -54.5771 -44.3378 50.5262 -11.5475 -8.8862 9.7246 27.4775 0.0000 0.0000 8.3232 0.0000 0.0000 12.5829 0.3429 -3.1425 4.3475 0.0000 0.0000 4.7595 0.0000 0.0000 84.1483 -27.3665 34.9580 53.8452 0.0000 0.0000 78.8565 0.0000 0.0000 79.0926 -29.2458 32.4608 61.3397 0.0000 0.0000 77.3825 0.0000 0.0000 70.2478 -33.9514 33.0801 63.3080 0.0000 0.0000 64.7955 0.0000 0.0000 0.0000 0.0000 0.0000 0.0000 0.0000 0.0000 0.0000 0.0000 0.0000 0.0000 0.0000 0.0000 0.0000 0.0000 0.0000 0.0000 0.0000 0.0000
0.0000 95.0000 0.0000 0.0000 0.0000 0.0000 0.0000 0.0000 0.0000 0.0000 0.0000 0.0000 0.0000 0.0000 0.0000 0.0000 0.0000 0.0000 0.0000 0.0000 0.0000 0.0000 0.0000 0.0000 -78.7571 3.0923 3.7671 -1.8184 -7.9007 9.9927 0.0000 0.0000 0.0000 0.0000 0.0000 0.0000 0.0000 0.0000 0.0000 0.0000 0.0000 0.0000 0.0000 0.0000 0.0000 0.0000 0.0000 0.0000 0.0000 0.0000 0.0000 0.0000 0.0000 0.0000 0.0000 0.0000 0.0000 0.0000 0.0000 0.0000 0.0000 0.0000 0.0000 0.0000 0.0000 0.0000 0.0000 0.0000 0.0000 0.0000 0.0000 0.0000 0.0000 0.0000 0.0000 0.0000 0.0000 0.0000 0.0000 0.0000 0.0000 23.5493 -9.6469 44.0784 -95.0242 53.0841 -7.2597 -54.8537 -45.6064 52.8229 -9.9717 -8.2628 9.0224 24.0738 0.0000 0.0000 8.2520 0.0000 0.0000 15.3211 0.5724 -2.4251 11.2337 0.0000 0.0000 2.7273 0.0000 0.0000 84.1504 -28.9905 36.7321 56.8432 0.0000 0.0000 90.0000 0.0000 0.0000 78.2561 -32.8883 36.2746 69.9166 0.0000 0.0000 80.2777 0.0000 0.0000 72.4847 -37.0154 34.5490 65.9727 0.0000 0.0000 69.4892 0.0000 0.0000 0.0000 0.0000 0.0000 0.0000 0.0000 0.0000 0.0000 0.0000 0.0000 0.0000 0.0000 0.0000 0.0000 0.0000 0.0000 0.0000 0.0000 0.0000
0.0000 95.0000 0.0000 0.0000 0.0000 0.0000 0.0000 0.0000 0.0000 0.0000 0.0000 0.0000 0.0000 0.0000 0.0000 0.0000 0.0000 0.0000 0.0000 0.0000 0.0000 0.0000 0.0000 0.0000 -78.8598 3.7838 4.6008 -1.7108 -7.8536 9.8968 0.0000 0.0000 0.0000 0.0000 0.0000 0.0000 0.0000 0.0000 0.0000 0.0000 0.0000 0.0000 0.0000 0.0000 0.0000 0.0000 0.0000 0.0000 0.0000 0.0000 0.0000 0.0000 0.0000 0.0000 0.0000 0.0000 0.0000 0.0000 0.0000 0.0000 0.0000 0.0000 0.0000 0.0000 0.0000 0.0000 0.0000 0.0000 0.0000 0.0000 0.0000 0.0000 0.0000 0.0000 0.0000 0.0000 0.0000 0.0000 0.0000 0.0000 0.0000 19.9208 -8.3971 45.3718 -81.2809 55.5976 5.4400 -46.2754 -36.3286 52.7499 -2.9589 -8.7729 11.1121 19.6689 0.0000 0.0000 6.8537 0.0000 0.0000 21.9735 0.9261 4.1305 16.8653 0.0000 0.0000 6.6168 0.0000 0.0000 79.9861 -27.5484 37.3513 50.7324 0.0000 0.0000 81.2311 0.0000 0.0000 77.6349 -30.6774 34.4767 58.3193 0.0000 0.0000 75.8978 0.0000 0.0000 71.4018 -33.7394 32.4090 48.8102 0.0000 0.0000 54.1724 0.0000 0.0000 0.0000 0.0000 0.0000 0.0000 0.0000 0.0000 0.0000 0.0000 0.0000 0.0000 0.0000 0.0000 0.0000 0.0000 0.0000 0.0000 0.0000 0.0000
0.0000 95.0000 0.0000 0.0000 0.0000 0.0000 0.0000 0.0000 0.0000 0.0000 0.0000 0.0000 0.0000 0.0000 0.0000 0.0000 0.0000 0.0000 0.0000 0.0000 0.0000 0.0000 0.0000 0.0000 -79.2702 4.1796 5.0449 -0.4330 -8.0409 9.7207 0.0000 0.0000 0.0000 0.0000 0.0000 0.0000 0.0000 0.0000 0.0000 0.0000 0.0000 0.0000 0.0000 0.0000 0.0000 0.0000 0.0000 0.0000 0.0000 0.0000 0.0000 0.0000 0.0000 0.0000 0.0000 0.0000 0.0000 0.0000 0.0000 0.0000 0.0000 0.0000 0.0000 0.0000 0.0000 0.0000 0.0000 0.0000 0.0000 0.0000 0.0000 0.0000 0.0000 0.0000 0.0000 0.0000 0.0000 0.0000 0.0000 0.0000 0.0000 19.1774 -8.0525 45.2383 -78.1732 56.6967 9.4101 -57.7287 -44.0540 62.6614 2.0290 -3.8098 5.4933 30.5539 0.0000 0.0000 6.8529 0.0000 0.0000 63.9380 -5.9648 22.2176 13.1144 0.0000 0.0000 13.6479 0.0000 0.0000 94.7985 -18.9881 22.2574 53.3348 0.0000 0.0000 71.2904 0.0000 0.0000 92.3695 -20.5820 20.6463 61.1437 0.0000 0.0000 65.3974 0.0000 0.0000 87.3999 -24.7359 20.7596 54.7945 0.0000 0.0000 57.0828 0.0000 0.0000 0.0000 0.0000 0.0000 0.0000 0.0000 0.0000 0.0000 0.0000 0.0000 0.0000 0.0000 0.0000 0.0000 0.0000 0.0000 0.0000 0.0000 0.0000
0.0000 95.0000 0.0000 0.0000 0.0000 0.0000 0.0000 0.0000 0.0000 0.0000 0.0000 0.0000 0.0000 0.0000 0.0000 0.0000 0.0000 0.0000 0.0000 0.0000 0.0000 0.0000 0.0000 0.0000 -78.6776 5.5170 6.7286 -0.7687 -6.9071 8.5192 0.0000 0.0000 0.0000 0.0000 0.0000 0.0000 0.0000 0.0000 0.0000 0.0000 0.0000 0.0000 0.0000 0.0000 0.0000 0.0000 0.0000 0.0000 0.0000 0.0000 0.0000 0.0000 0.0000 0.0000 0.0000 0.0000 0.0000 0.0000 0.0000 0.0000 0.0000 0.0000 0.0000 0.0000 0.0000 0.0000 0.0000 0.0000 0.0000 0.0000 0.0000 0.0000 0.0000 0.0000 0.0000 0.0000 0.0000 0.0000 0.0000 0.0000 0.0000 18.9834 -7.9171 44.9684 -73.7414 56.5489 13.3626 -57.7733 -46.9070 55.5470 -2.7442 -4.5651 5.2338 26.9630 0.0000 0.0000 6.7966 0.0000 0.0000 41.0091 -0.3501 12.0473 15.5648 0.0000 0.0000 6.5093 0.0000 0.0000 98.0376 -19.6611 21.8927 53.0626 0.0000 0.0000 90.0000 0.0000 0.0000 94.1103 -21.2322 20.6615 63.3226 0.0000 0.0000 77.3822 0.0000 0.0000 87.7357 -24.9749 20.8122 57.9087 0.0000 0.0000 62.0741 0.0000 0.0000 0.0000 0.0000 0.0000 0.0000 0.0000 0.0000 0.0000 0.0000 0.0000 0.0000 0.0000 0.0000 0.0000 0.0000 0.0000 0.0000 0.0000 0.0000
0.0000 95.0000 0.0000 0.0000 0.0000 0.0000 0.0000 0.0000 0.0000 0.0000 0.0000 0.0000 0.0000 0.0000 0.0000 0.0000 0.0000 0.0000 0.0000 0.0000 0.0000 0.0000 0.0000 0.0000 -78.9295 5.2000 6.3139 -1.2776 -6.5536 8.1885 0.0000 0.0000 0.0000 0.0000 0.0000 0.0000 0.0000 0.0000 0.0000 0.0000 0.0000 0.0000 0.0000 0.0000 0.0000 0.0000 0.0000 0.0000 0.0000 0.0000 0.0000 0.0000 0.0000 0.0000 0.0000 0.0000 0.0000 0.0000 0.0000 0.0000 0.0000 0.0000 0.0000 0.0000 0.0000 0.0000 0.0000 0.0000 0.0000 0.0000 0.0000 0.0000 0.0000 0.0000 0.0000 0.0000 0.0000 0.0000 0.0000 0.0000 0.0000 17.3254 -7.2370 45.0839 -68.7536 55.0572 17.3394 -49.4488 -43.5697 44.3390 -10.4666 -7.5586 7.7644 28.4297 0.0000 0.0000 4.5223 0.0000 0.0000 17.1620 0.8086 1.4663 7.7535 0.0000 0.0000 5.8888 0.0000 0.0000 84.8579 -22.9507 29.8153 55.7295 0.0000 0.0000 85.0538 0.0000 0.0000 78.8355 -24.5751 28.2169 64.4818 0.0000 0.0000 77.0966 0.0000 0.0000 67.7056 -29.4992 30.4211 65.7876 0.0000 0.0000 58.8346 0.0000 0.0000 0.0000 0.0000 0.0000 0.0000 0.0000 0.0000 0.0000 0.0000 0.0000 0.0000 0.0000 0.0000 0.0000 0.0000 0.0000 0.0000 0.0000 0.0000
0.0000 95.0000 0.0000 0.0000 0.0000 0.0000 0.0000 0.0000 0.0000 0.0000 0.0000 0.0000 0.0000 0.0000 0.0000 0.0000 0.0000 0.0000 0.0000 0.0000 0.0000 0.0000 0.0000 0.0000 -78.6703 4.8825 5.9560 -1.5447 -6.4211 8.1295 0.0000 0.0000 0.0000 0.0000 0.0000 0.0000 0.0000 0.0000 0.0000 0.0000 0.0000 0.0000 0.0000 0.0000 0.0000 0.0000 0.0000 0.0000 0.0000 0.0000 0.0000 0.0000 0.0000 0.0000 0.0000 0.0000 0.0000 0.0000 0.0000 0.0000 0.0000 0.0000 0.0000 0.0000 0.0000 0.0000 0.0000 0.0000 0.0000 0.0000 0.0000 0.0000 0.0000 0.0000 0.0000 0.0000 0.0000 0.0000 0.0000 0.0000 0.0000 16.2306 -6.9570 46.1761 -66.9114 53.7956 17.5311 -47.0458 -42.1790 41.9499 -9.4789 -8.6297 9.7176 27.3110 0.0000 0.0000 5.0080 0.0000 0.0000 12.1072 0.5447 0.0368 5.2441 0.0000 0.0000 3.8689 0.0000 0.0000 81.7406 -24.4869 32.9280 57.4182 0.0000 0.0000 71.0240 0.0000 0.0000 77.7309 -26.9683 30.9044 64.4051 0.0000 0.0000 72.0303 0.0000 0.0000 66.9595 -31.8081 32.6956 63.3105 0.0000 0.0000 58.5759 0.0000 0.0000 0.0000 0.0000 0.0000 0.0000 0.0000 0.0000 0.0000 0.0000 0.0000 0.0000 0.0000 0.0000 0.0000 0.0000 0.0000 0.0000 0.0000 0.0000
0.0000 95.0000 0.0000 0.0000 0.0000 0.0000 0.0000 0.0000 0.0000 0.0000 0.0000 0.0000 0.0000 0.0000 0.0000 0.0000 0.0000 0.0000 0.0000 0.0000 0.0000 0.0000 0.0000 0.0000 -78.7667 3.5050 4.2690 -1.8739 -6.6646 8.4758 0.0000 0.0000 0.0000 0.0000 0.0000 0.0000 0.0000 0.0000 0.0000 0.0000 0.0000 0.0000 0.0000 0.0000 0.0000 0.0000 0.0000 0.0000 0.0000 0.0000 0.0000 0.0000 0.0000 0.0000 0.0000 0.0000 0.0000 0.0000 0.0000 0.0000 0.0000 0.0000 0.0000 0.0000 0.0000 0.0000 0.0000 0.0000 0.0000 0.0000 0.0000 0.0000 0.0000 0.0000 0.0000 0.0000 0.0000 0.0000 0.0000 0.0000 0.0000 15.3179 -6.6360 46.6436 -64.6065 54.1133 20.1417 -43.2713 -40.6298 46.5359 -6.3757 -7.3992 8.4458 28.6549 0.0000 0.0000 10.5667 0.0000 0.0000 19.5554 0.8853 1.6947 13.4662 0.0000 0.0000 5.9074 0.0000 0.0000 87.4066 -22.2427 28.0175 56.0980 0.0000 0.0000 90.0000 0.0000 0.0000 83.9863 -23.9346 25.8114 77.8766 0.0000 0.0000 79.0377 0.0000 0.0000 77.1868 -27.6413 25.6056 67.3472 0.0000 0.0000 67.6501 0.0000 0.0000 0.0000 0.0000 0.0000 0.0000 0.0000 0.0000 0.0000 0.0000 0.0000 0.0000 0.0000 0.0000 0.0000 0.0000 0.0000 0.0000 0.0000 0.0000
0.0000 95.0000 0.0000 0.0000 0.0000 0.0000 0.0000 0.0000 0.0000 0.0000 0.0000 0.0000 0.0000 0.0000 0.0000 0.0000 0.0000 0.0000 0.0000 0.0000 0.0000 0.0000 0.0000 0.0000 -79.1697 3.5784 4.3272 -0.8508 -7.0051 8.6004 0.0000 0.0000 0.0000 0.0000 0.0000 0.0000 0.0000 0.0000 0.0000 0.0000 0.0000 0.0000 0.0000 0.0000 0.0000 0.0000 0.0000 0.0000 0.0000 0.0000 0.0000 0.0000 0.0000 0.0000 0.0000 0.0000 0.0000 0.0000 0.0000 0.0000 0.0000 0.0000 0.0000 0.0000 0.0000 0.0000 0.0000 0.0000 0.0000 0.0000 0.0000 0.0000 0.0000 0.0000 0.0000 0.0000 0.0000 0.0000 0.0000 0.0000 0.0000 15.8063 -6.8124 46.4155 -68.3502 55.8302 18.2332 -51.2353 -39.1407 60.4428 1.7151 -4.4640 6.2485 24.2508 0.0000 0.0000 5.0837 0.0000 0.0000 33.8008 0.6397 7.4117 20.3499 0.0000 0.0000 13.6281 0.0000 0.0000 87.2436 -18.3164 23.9749 52.1188 0.0000 0.0000 67.7197 0.0000 0.0000 85.4449 -20.5906 22.5389 56.9960 0.0000 0.0000 63.7802 0.0000 0.0000 82.3977 -24.2497 21.7680 48.0188 0.0000 0.0000 51.6107 0.0000 0.0000 0.0000 0.0000 0.0000 0.0000 0.0000 0.0000 0.0000 0.0000 0.0000 0.0000 0.0000 0.0000 0.0000 0.0000 0.0000 0.0000 0.0000 0.0000
0.0000 95.0000 0.0000 0.0000 0.0000 0.0000 0.0000 0.0000 0.0000 0.0000 0.0000 0.0000 0.0000 0.0000 0.0000 0.0000 0.0000 0.0000 0.0000 0.0000 0.0000 0.0000 0.0000 0.0000 -79.1869 4.2892 5.1848 -0.1966 -7.0743 8.5184 0.0000 0.0000 0.0000 0.0000 0.0000 0.0000 0.0000 0.0000 0.0000 0.0000 0.0000 0.0000 0.0000 0.0000 0.0000 0.0000 0.0000 0.0000 0.0000 0.0000 0.0000 0.0000 0.0000 0.0000 0.0000 0.0000 0.0000 0.0000 0.0000 0.0000 0.0000 0.0000 0.0000 0.0000 0.0000 0.0000 0.0000 0.0000 0.0000 0.0000 0.0000 0.0000 0.0000 0.0000 0.0000 0.0000 0.0000 0.0000 0.0000 0.0000 0.0000 16.2719 -6.9603 46.0893 -70.3382 56.0873 16.6719 -57.7741 -45.7432 66.2160 -4.8452 -1.8279 0.7408 35.4878 0.0000 0.0000 15.4482 0.0000 0.0000 54.9766 -2.0472 14.5834 12.9064 0.0000 0.0000 14.8403 0.0000 0.0000 93.8707 -12.2926 16.2664 55.4400 0.0000 0.0000 90.0000 0.0000 0.0000 93.4143 -14.2652 15.8352 64.6684 0.0000 0.0000 81.4529 0.0000 0.0000 89.1760 -19.1038 17.1483 58.0008 0.0000 0.0000 70.9008 0.0000 0.0000 0.0000 0.0000 0.0000 0.0000 0.0000 0.0000 0.0000 0.0000 0.0000 0.0000 0.0000 0.0000 0.0000 0.0000 0.0000 0.0000 0.0000 0.0000
0.0000 95.0000 0.0000 0.0000 0.0000 0.0000 0.0000 0.0000 0.0000 0.0000 0.0000 0.0000 0.0000 0.0000 0.0000 0.0000 0.0000 0.0000 0.0000 0.0000 0.0000 0.0000 0.0000 0.0000 -79.8467 3.4767 4.1541 0.1805 -7.3812 8.7134 0.0000 0.0000 0.0000 0.0000 0.0000 0.0000 0.0000 0.0000 0.0000 0.0000 0.0000 0.0000 0.0000 0.0000 0.0000 0.0000 0.0000 0.0000 0.0000 0.0000 0.0000 0.0000 0.0000 0.0000 0.0000 0.0000 0.0000 0.0000 0.0000 0.0000 0.0000 0.0000 0.0000 0.0000 0.0000 0.0000 0.0000 0.0000 0.0000 0.0000 0.0000 0.0000 0.0000 0.0000 0.0000 0.0000 0.0000 0.0000 0.0000 0.0000 0.0000 15.6642 -6.6528 45.8122 -75.7424 55.7744 12.3328 -57.7768 -52.9502 54.6836 -6.0589 -5.0627 5.0347 28.1778 0.0000 0.0000 10.2021 0.0000 0.0000 25.8561 0.9173 4.9872 7.0807 0.0000 0.0000 6.3570 0.0000 0.0000 95.9965 -17.0291 20.1272 51.7895 0.0000 0.0000 86.7955 0.0000 0.0000 92.7334 -18.3758 18.9412 60.5426 0.0000 0.0000 82.8103 0.0000 0.0000 89.8258 -21.2850 18.2261 57.4220 0.0000 0.0000 75.7178 0.0000 0.0000 0.0000 0.0000 0.0000 0.0000 0.0000 0.0000 0.0000 0.0000 0.0000 0.0000 0.0000 0.0000 0.0000 0.0000 0.0000 0.0000 0.0000 0.0000
0.0000 95.0000 0.0000 0.0000 0.0000 0.0000 0.0000 0.0000 0.0000 0.0000 0.0000 0.0000 0.0000 0.0000 0.0000 0.0000 0.0000 0.0000 0.0000 0.0000 0.0000 0.0000 0.0000 0.0000 -79.2630 3.4779 4.1988 -0.7115 -6.7078 8.1964 0.0000 0.0000 0.0000 0.0000 0.0000 0.0000 0.0000 0.0000 0.0000 0.0000 0.0000 0.0000 0.0000 0.0000 0.0000 0.0000 0.0000 0.0000 0.0000 0.0000 0.0000 0.0000 0.0000 0.0000 0.0000 0.0000 0.0000 0.0000 0.0000 0.0000 0.0000 0.0000 0.0000 0.0000 0.0000 0.0000 0.0000 0.0000 0.0000 0.0000 0.0000 0.0000 0.0000 0.0000 0.0000 0.0000 0.0000 0.0000 0.0000 0.0000 0.0000 14.6689 -6.2381 45.8909 -73.2931 54.8769 14.1749 -52.7507 -52.5953 49.2995 -7.7412 -6.1185 6.1685 24.6527 0.0000 0.0000 4.7224 0.0000 0.0000 18.4471 0.8781 3.0504 4.9391 0.0000 0.0000 4.6919 0.0000 0.0000 92.8316 -17.9484 21.8676 53.7966 0.0000 0.0000 89.2277 0.0000 0.0000 89.5171 -19.7684 20.7735 64.3110 0.0000 0.0000 83.5152 0.0000 0.0000 83.6398 -22.9102 20.5992 62.2907 0.0000 0.0000 68.5946 0.0000 0.0000 0.0000 0.0000 0.0000 0.0000 0.0000 0.0000 0.0000 0.0000 0.0000 0.0000 0.0000 0.0000 0.0000 0.0000 0.0000 0.0000 0.0000 0.0000
0.0000 95.0000 0.0000 0.0000 0.0000 0.0000 0.0000 0.0000 0.0000 0.0000 0.0000 0.0000 0.0000 0.0000 0.0000 0.0000 0.0000 0.0000 0.0000 0.0000 0.0000 0.0000 0.0000 0.0000 -79.0043 2.7163 3.2946 -0.9988 -6.8114 8.4229 0.0000 0.0000 0.0000 0.0000 0.0000 0.0000 0.0000 0.0000 0.0000 0.0000 0.0000 0.0000 0.0000 0.0000 0.0000 0.0000 0.0000 0.0000 0.0000 0.0000 0.0000 0.0000 0.0000 0.0000 0.0000 0.0000 0.0000 0.0000 0.0000 0.0000 0.0000 0.0000 0.0000 0.0000 0.0000 0.0000 0.0000 0.0000 0.0000 0.0000 0.0000 0.0000 0.0000 0.0000 0.0000 0.0000 0.0000 0.0000 0.0000 0.0000 0.0000 14.4777 -6.2398 46.4506 -71.7074 55.5269 15.7830 -47.2639 -45.1573 48.0077 -3.6702 -7.1926 8.7183 27.0506 0.0000 0.0000 9.6281 0.0000 0.0000 27.6113 0.7909 7.0546 12.2657 0.0000 0.0000 5.1942 0.0000 0.0000 90.6378 -23.9166 28.4312 52.0863 0.0000 0.0000 83.7390 0.0000 0.0000 88.0036 -25.7261 25.9196 65.6927 0.0000 0.0000 76.5958 0.0000 0.0000 82.3179 -29.2973 25.0723 52.8428 0.0000 0.0000 60.6096 0.0000 0.0000 0.0000 0.0000 0.0000 0.0000 0.0000 0.0000 0.0000 0.0000 0.0000 0.0000 0.0000 0.0000 0.0000 0.0000 0.0000 0.0000 0.0000 0.0000
0.0000 95.0000 0.0000 0.0000 0.0000 0.0000 0.0000 0.0000 0.0000 0.0000 0.0000 0.0000 0.0000 0.0000 0.0000 0.0000 0.0000 0.0000 0.0000 0.0000 0.0000 0.0000 0.0000 0.0000 -78.5720 3.7925 4.6351 -1.2890 -6.3228 7.9532 0.0000 0.0000 0.0000 0.0000 0.0000 0.0000 0.0000 0.0000 0.0000 0.0000 0.0000 0.0000 0.0000 0.0000 0.0000 0.0000 0.0000 0.0000 0.0000 0.0000 0.0000 0.0000 0.0000 0.0000 0.0000 0.0000 0.0000 0.0000 0.0000 0.0000 0.0000 0.0000 0.0000 0.0000 0.0000 0.0000 0.0000 0.0000 0.0000 0.0000 0.0000 0.0000 0.0000 0.0000 0.0000 0.0000 0.0000 0.0000 0.0000 0.0000 0.0000 15.6287 -6.5545 45.2960 -67.3678 56.7072 21.1139 -54.5776 -42.1817 72.7307 -20.6666 -3.0206 -4.0009 51.3227 0.0000 0.0000 20.5994 0.0000 0.0000 49.8125 -0.4315 10.1967 14.7428 0.0000 0.0000 12.9482 0.0000 0.0000 92.5256 -8.9918 13.3773 56.6412 0.0000 0.0000 81.9800 0.0000 0.0000 88.5757 -10.4236 13.7160 69.0801 0.0000 0.0000 72.1955 0.0000 0.0000 84.9601 -13.1944 14.4075 62.2446 0.0000 0.0000 63.7700 0.0000 0.0000 0.0000 0.0000 0.0000 0.0000 0.0000 0.0000 0.0000 0.0000 0.0000 0.0000 0.0000 0.0000 0.0000 0.0000 0.0000 0.0000 0.0000 0.0000
0.0000 95.0000 0.0000 0.0000 0.0000 0.0000 0.0000 0.0000 0.0000 0.0000 0.0000 0.0000 0.0000 0.0000 0.0000 0.0000 0.0000 0.0000 0.0000 0.0000 0.0000 0.0000 0.0000 0.0000 -78.4613 4.6604 5.7064 -0.4730 -6.0685 7.4687 0.0000 0.0000 0.0000 0.0000 0.0000 0.0000 0.0000 0.0000 0.0000 0.0000 0.0000 0.0000 0.0000 0.0000 0.0000 0.0000 0.0000 0.0000 0.0000 0.0000 0.0000 0.0000 0.0000 0.0000 0.0000 0.0000 0.0000 0.0000 0.0000 0.0000 0.0000 0.0000 0.0000 0.0000 0.0000 0.0000 0.0000 0.0000 0.0000 0.0000 0.0000 0.0000 0.0000 0.0000 0.0000 0.0000 0.0000 0.0000 0.0000 0.0000 0.0000 16.1378 -6.7754 45.3261 -66.1109 56.5961 21.7872 -49.0514 -41.8015 68.8650 -26.4393 -4.1491 -4.8171 52.9172 0.0000 0.0000 23.9652 0.0000 0.0000 38.0681 0.7194 6.3095 12.4709 0.0000 0.0000 9.0121 0.0000 0.0000 92.1107 -8.4267 12.8948 57.1423 0.0000 0.0000 77.9951 0.0000 0.0000 89.5000 -10.1820 13.4091 72.5264 0.0000 0.0000 69.2521 0.0000 0.0000 84.9365 -13.2555 14.4471 71.5813 0.0000 0.0000 64.1987 0.0000 0.0000 0.0000 0.0000 0.0000 0.0000 0.0000 0.0000 0.0000 0.0000 0.0000 0.0000 0.0000 0.0000 0.0000 0.0000 0.0000 0.0000 0.0000 0.0000
0.0000 95.0000 0.0000 0.0000 0.0000 0.0000 0.0000 0.0000 0.0000 0.0000 0.0000 0.0000 0.0000 0.0000 0.0000 0.0000 0.0000 0.0000 0.0000 0.0000 0.0000 0.0000 0.0000 0.0000 -78.4692 5.2609 6.4403 0.5476 -6.6885 7.9500 0.0000 0.0000 0.0000 0.0000 0.0000 0.0000 0.0000 0.0000 0.0000 0.0000 0.0000 0.0000 0.0000 0.0000 0.0000 0.0000 0.0000 0.0000 0.0000 0.0000 0.0000 0.0000 0.0000 0.0000 0.0000 0.0000 0.0000 0.0000 0.0000 0.0000 0.0000 0.0000 0.0000 0.0000 0.0000 0.0000 0.0000 0.0000 0.0000 0.0000 0.0000 0.0000 0.0000 0.0000 0.0000 0.0000 0.0000 0.0000 0.0000 0.0000 0.0000 16.3717 -6.8839 45.3808 -70.0559 57.3186 18.6475 -48.7516 -43.9779 64.6391 -7.8573 -2.2328 0.2364 40.9243 0.0000 0.0000 13.9080 0.0000 0.0000 35.7538 0.6219 7.2379 12.6648 0.0000 0.0000 6.8066 0.0000 0.0000 92.5581 -10.4266 14.7454 53.6154 0.0000 0.0000 74.2068 0.0000 0.0000 90.5612 -12.4280 14.9611 68.4694 0.0000 0.0000 70.0724 0.0000 0.0000 85.2110 -16.5080 16.3534 65.9698 0.0000 0.0000 63.5072 0.0000 0.0000 0.0000 0.0000 0.0000 0.0000 0.0000 0.0000 0.0000 0.0000 0.0000 0.0000 0.0000 0.0000 0.0000 0.0000 0.0000 0.0000 0.0000 0.0000
0.0000 95.0000 0.0000 0.0000 0.0000 0.0000 0.0000 0.0000 0.0000 0.0000 0.0000 0.0000 0.0000 0.0000 0.0000 0.0000 0.0000 0.0000 0.0000 0.0000 0.0000 0.0000 0.0000 0.0000 -77.9795 5.5449 6.8470 -0.1916 -6.2126 7.6245 0.0000 0.0000 0.0000 0.0000 0.0000 0.0000 0.0000 0.0000 0.0000 0.0000 0.0000 0.0000 0.0000 0.0000 0.0000 0.0000 0.0000 0.0000 0.0000 0.0000 0.0000 0.0000 0.0000 0.0000 0.0000 0.0000 0.0000 0.0000 0.0000 0.0000 0.0000 0.0000 0.0000 0.0000 0.0000 0.0000 0.0000 0.0000 0.0000 0.0000 0.0000 0.0000 0.0000 0.0000 0.0000 0.0000 0.0000 0.0000 0.0000 0.0000 0.0000 16.2900 -6.8783 45.5551 -67.9111 56.7651 19.9730 -48.9990 -42.7348 65.0580 -6.7526 -2.1336 0.4958 38.6546 0.0000 0.0000 14.1264 0.0000 0.0000 36.0721 0.5631 7.6240 10.6215 0.0000 0.0000 7.6894 0.0000 0.0000 93.0565 -10.6146 14.8377 55.1535 0.0000 0.0000 80.8523 0.0000 0.0000 90.9083 -12.4128 14.8955 71.9637 0.0000 0.0000 72.0175 0.0000 0.0000 84.9543 -16.8441 16.5983 68.7180 0.0000 0.0000 65.2532 0.0000 0.0000 0.0000 0.0000 0.0000 0.0000 0.0000 0.0000 0.0000 0.0000 0.0000 0.0000 0.0000 0.0000 0.0000 0.0000 0.0000 0.0000 0.0000 0.0000
0.0000 95.0000 0.0000 0.0000 0.0000 0.0000 0.0000 0.0000 0.0000 0.0000 0.0000 0.0000 0.0000 0.0000 0.0000 0.0000 0.0000 0.0000 0.0000 0.0000 0.0000 0.0000 0.0000 0.0000 -77.9631 5.4055 6.6771 -0.3913 -6.1628 7.6196 0.0000 0.0000 0.0000 0.0000 0.0000 0.0000 0.0000 0.0000 0.0000 0.0000 0.0000 0.0000 0.0000 0.0000 0.0000 0.0000 0.0000 0.0000 0.0000 0.0000 0.0000 0.0000 0.0000 0.0000 0.0000 0.0000 0.0000 0.0000 0.0000 0.0000 0.0000 0.0000 0.0000 0.0000 0.0000 0.0000 0.0000 0.0000 0.0000 0.0000 0.0000 0.0000 0.0000 0.0000 0.0000 0.0000 0.0000 0.0000 0.0000 0.0000 0.0000 16.4579 -6.8750 45.1117 -65.5353 56.4073 22.1113 -48.5740 -42.7721 65.8524 -4.7413 -1.7297 0.6388 34.4271 0.0000 0.0000 13.7012 0.0000 0.0000 41.5609 0.0978 9.4475 9.3105 0.0000 0.0000 9.3886 0.0000 0.0000 93.0902 -9.1148 13.4097 52.5064 0.0000 0.0000 79.8876 0.0000 0.0000 91.6389 -10.7710 13.5726 64.9980 0.0000 0.0000 71.2845 0.0000 0.0000 85.5411 -15.1111 15.4689 61.6718 0.0000 0.0000 62.4777 0.0000 0.0000 0.0000 0.0000 0.0000 0.0000 0.0000 0.0000 0.0000 0.0000 0.0000 0.0000 0.0000 0.0000 0.0000 0.0000 0.0000 0.0000 0.0000 0.0000
0.0000 95.0000 0.0000 0.0000 0.0000 0.0000 0.0000 0.0000 0.0000 0.0000 0.0000 0.0000 0.0000 0.0000 0.0000 0.0000 0.0000 0.0000 0.0000 0.0000 0.0000 0.0000 0.0000 0.0000 -78.2334 6.0926 7.4889 1.0678 -6.6065 7.7131 0.0000 0.0000 0.0000 0.0000 0.0000 0.0000 0.0000 0.0000 0.0000 0.0000 0.0000 0.0000 0.0000 0.0000 0.0000 0.0000 0.0000 0.0000 0.0000 0.0000 0.0000 0.0000 0.0000 0.0000 0.0000 0.0000 0.0000 0.0000 0.0000 0.0000 0.0000 0.0000 0.0000 0.0000 0.0000 0.0000 0.0000 0.0000 0.0000 0.0000 0.0000 0.0000 0.0000 0.0000 0.0000 0.0000 0.0000 0.0000 0.0000 0.0000 0.0000 17.7115 -7.3172 44.6260 -68.5400 57.4213 19.8742 -60.8128 -45.4300 67.9990 -27.9915 -4.3790 -5.2162 55.5227 0.0000 0.0000 30.9064 0.0000 0.0000 45.6123 -0.3169 10.5813 3.3142 0.0000 0.0000 5.7307 0.0000 0.0000 94.3163 -10.6607 14.6622 56.9894 0.0000 0.0000 79.2795 0.0000 0.0000 92.0743 -12.9624 15.1174 63.6488 0.0000 0.0000 75.7669 0.0000 0.0000 86.1975 -17.1729 16.5815 56.7922 0.0000 0.0000 63.9269 0.0000 0.0000 0.0000 0.0000 0.0000 0.0000 0.0000 0.0000 0.0000 0.0000 0.0000 0.0000 0.0000 0.0000 0.0000 0.0000 0.0000 0.0000 0.0000 0.0000
0.0000 95.0000 0.0000 0.0000 0.0000 0.0000 0.0000 0.0000 0.0000 0.0000 0.0000 0.0000 0.0000 0.0000 0.0000 0.0000 0.0000 0.0000 0.0000 0.0000 0.0000 0.0000 0.0000 0.0000 -78.4065 6.7803 8.3077 1.0387 -6.1328 7.1075 0.0000 0.0000 0.0000 0.0000 0.0000 0.0000 0.0000 0.0000 0.0000 0.0000 0.0000 0.0000 0.0000 0.0000 0.0000 0.0000 0.0000 0.0000 0.0000 0.0000 0.0000 0.0000 0.0000 0.0000 0.0000 0.0000 0.0000 0.0000 0.0000 0.0000 0.0000 0.0000 0.0000 0.0000 0.0000 0.0000 0.0000 0.0000 0.0000 0.0000 0.0000 0.0000 0.0000 0.0000 0.0000 0.0000 0.0000 0.0000 0.0000 0.0000 0.0000 21.6972 -8.9022 44.2134 -71.4651 58.6334 15.9890 -75.2138 -45.5632 73.3948 -32.1419 -4.7295 -7.0538 45.1127 0.0000 0.0000 44.2662 0.0000 0.0000 24.2893 1.1362 -1.7659 12.9820 0.0000 0.0000 6.0442 0.0000 0.0000 85.2114 -3.4773 8.5525 73.4240 0.0000 0.0000 68.2238 0.0000 0.0000 88.7083 -7.8634 11.7141 81.8026 0.0000 0.0000 76.8884 0.0000 0.0000 85.6171 -15.8534 15.8977 83.8755 0.0000 0.0000 69.6701 0.0000 0.0000 0.0000 0.0000 0.0000 0.0000 0.0000 0.0000 0.0000 0.0000 0.0000 0.0000 0.0000 0.0000 0.0000 0.0000 0.0000 0.0000 0.0000 0.0000
0.0000 95.0000 0.0000 0.0000 0.0000 0.0000 0.0000 0.0000 0.0000 0.0000 0.0000 0.0000 0.0000 0.0000 0.0000 0.0000 0.0000 0.0000 0.0000 0.0000 0.0000 0.0000 0.0000 0.0000 -77.5032 9.3773 11.6688 0.5695 -4.9818 5.8687 0.0000 0.0000 0.0000 0.0000 0.0000 0.0000 0.0000 0.0000 0.0000 0.0000 0.0000 0.0000 0.0000 0.0000 0.0000 0.0000 0.0000 0.0000 0.0000 0.0000 0.0000 0.0000 0.0000 0.0000 0.0000 0.0000 0.0000 0.0000 0.0000 0.0000 0.0000 0.0000 0.0000 0.0000 0.0000 0.0000 0.0000 0.0000 0.0000 0.0000 0.0000 0.0000 0.0000 0.0000 0.0000 0.0000 0.0000 0.0000 0.0000 0.0000 0.0000 31.2730 -11.9030 40.8566 -60.2783 63.5198 26.0972 -60.7951 -45.1650 61.0834 -46.6248 -9.4693 -3.2253 36.9839 0.0000 0.0000 32.3525 0.0000 0.0000 5.6440 0.4754 1.6840 3.4611 0.0000 0.0000 3.7165 0.0000 0.0000 33.6402 -0.2942 5.7450 110.0000 0.0000 0.0000 29.6199 0.0000 0.0000 21.1202 -0.8431 6.1879 110.0000 0.0000 0.0000 17.9464 0.0000 0.0000 -1.8943 -2.3525 7.6516 110.0000 0.0000 0.0000 7.5535 0.0000 0.0000 0.0000 0.0000 0.0000 0.0000 0.0000 0.0000 0.0000 0.0000 0.0000 0.0000 0.0000 0.0000 0.0000 0.0000 0.0000 0.0000 0.0000 0.0000
0.0000 95.0000 0.0000 0.0000 0.0000 0.0000 0.0000 0.0000 0.0000 0.0000 0.0000 0.0000 0.0000 0.0000 0.0000 0.0000 0.0000 0.0000 0.0000 0.0000 0.0000 0.0000 0.0000 0.0000 -76.3215 10.3349 13.1299 -0.6066 -3.8813 4.9892 0.0000 0.0000 0.0000 0.0000 0.0000 0.0000 0.0000 0.0000 0.0000 0.0000 0.0000 0.0000 0.0000 0.0000 0.0000 0.0000 0.0000 0.0000 0.0000 0.0000 0.0000 0.0000 0.0000 0.0000 0.0000 0.0000 0.0000 0.0000 0.0000 0.0000 0.0000 0.0000 0.0000 0.0000 0.0000 0.0000 0.0000 0.0000 0.0000 0.0000 0.0000 0.0000 0.0000 0.0000 0.0000 0.0000 0.0000 0.0000 0.0000 0.0000 0.0000 42.1387 -14.5430 36.6501 -18.1056 56.2215 57.1083 2.5544 -16.6355 28.1641 -85.8714 -14.4099 24.3742 29.6563 0.0000 0.0000 29.4408 0.0000 0.0000 3.1826 3.6844 23.0151 7.4961 0.0000 0.0000 13.3144 0.0000 0.0000 3.1393 -0.6297 27.4522 79.6075 0.0000 0.0000 43.9212 0.0000 0.0000 -8.5003 -2.4404 29.7231 104.7191 0.0000 0.0000 31.3735 0.0000 0.0000 -25.5801 -4.1601 30.7184 110.0000 0.0000 0.0000 17.6115 0.0000 0.0000 0.0000 0.0000 0.0000 0.0000 0.0000 0.0000 0.0000 0.0000 0.0000 0.0000 0.0000 0.0000 0.0000 0.0000 0.0000 0.0000 0.0000 0.0000
0.0000 95.0000 0.0000 0.0000 0.0000 0.0000 0.0000 0.0000 0.0000 0.0000 0.0000 0.0000 0.0000 0.0000 0.0000 0.0000 0.0000 0.0000 0.0000 0.0000 0.0000 0.0000 0.0000 0.0000 -75.8566 9.4160 12.0656 -2.8411 -2.9793 4.5571 0.0000 0.0000 0.0000 0.0000 0.0000 0.0000 0.0000 0.0000 0.0000 0.0000 0.0000 0.0000 0.0000 0.0000 0.0000 0.0000 0.0000 0.0000 0.0000 0.0000 0.0000 0.0000 0.0000 0.0000 0.0000 0.0000 0.0000 0.0000 0.0000 0.0000 0.0000 0.0000 0.0000 0.0000 0.0000 0.0000 0.0000 0.0000 0.0000 0.0000 0.0000 0.0000 0.0000 0.0000 0.0000 0.0000 0.0000 0.0000 0.0000 0.0000 0.0000 49.7286 -15.4157 32.5611 0.3760 38.5729 57.9211 63.5128 19.7051 35.6250 -105.5198 -8.0136 43.7485 28.5914 0.0000 0.0000 21.8314 0.0000 0.0000 -14.2513 3.1601 12.1936 8.6921 0.0000 0.0000 10.8771 0.0000 0.0000 -21.4014 2.6834 18.9031 31.2954 0.0000 0.0000 18.4793 0.0000 0.0000 -29.4056 0.7987 20.5930 42.2631 0.0000 0.0000 17.4070 0.0000 0.0000 -35.9691 -2.2787 19.0421 46.8599 0.0000 0.0000 11.6613 0.0000 0.0000 0.0000 0.0000 0.0000 0.0000 0.0000 0.0000 0.0000 0.0000 0.0000 0.0000 0.0000 0.0000 0.0000 0.0000 0.0000 0.0000 0.0000 0.0000
0.0000 95.0000 0.0000 0.0000 0.0000 0.0000 0.0000 0.0000 0.0000 0.0000 0.0000 0.0000 0.0000 0.0000 0.0000 0.0000 0.0000 0.0000 0.0000 0.0000 0.0000 0.0000 0.0000 0.0000 -76.2088 7.8691 10.0244 -4.7616 -3.1474 5.1926 0.0000 0.0000 0.0000 0.0000 0.0000 0.0000 0.0000 0.0000 0.0000 0.0000 0.0000 0.0000 0.0000 0.0000 0.0000 0.0000 0.0000 0.0000 0.0000 0.0000 0.0000 0.0000 0.0000 0.0000 0.0000 0.0000 0.0000 0.0000 0.0000 0.0000 0.0000 0.0000 0.0000 0.0000 0.0000 0.0000 0.0000 0.0000 0.0000 0.0000 0.0000 0.0000 0.0000 0.0000 0.0000 0.0000 0.0000 0.0000 0.0000 0.0000 0.0000 59.4398 -13.6394 23.6644 14.0069 17.0398 40.9354 126.6922 50.3273 100.8948 -74.9885 -15.3039 -6.0634 9.8405 0.0000 0.0000 8.7576 0.0000 0.0000 1.1944 -0.8084 -5.0298 13.3863 0.0000 0.0000 5.8125 0.0000 0.0000 -8.1307 -0.3349 0.0624 11.2969 0.0000 0.0000 5.1550 0.0000 0.0000 -15.0961 -0.8311 -1.1077 13.2735 0.0000 0.0000 1.8721 0.0000 0.0000 -21.7284 -1.2569 -3.1366 9.1747 0.0000 0.0000 3.7602 0.0000 0.0000 0.0000 0.0000 0.0000 0.0000 0.0000 0.0000 0.0000 0.0000 0.0000 0.0000 0.0000 0.0000 0.0000 0.0000 0.0000 0.0000 0.0000 0.0000
0.0000 95.0000 0.0000 0.0000 0.0000 0.0000 0.0000 0.0000 0.0000 0.0000 0.0000 0.0000 0.0000 0.0000 0.0000 0.0000 0.0000 0.0000 0.0000 0.0000 0.0000 0.0000 0.0000 0.0000 -77.1902 4.6776 5.8587 -5.5686 -3.8398 5.8944 0.0000 0.0000 0.0000 0.0000 0.0000 0.0000 0.0000 0.0000 0.0000 0.0000 0.0000 0.0000 0.0000 0.0000 0.0000 0.0000 0.0000 0.0000 0.0000 0.0000 0.0000 0.0000 0.0000 0.0000 0.0000 0.0000 0.0000 0.0000 0.0000 0.0000 0.0000 0.0000 0.0000 0.0000 0.0000 0.0000 0.0000 0.0000 0.0000 0.0000 0.0000 0.0000 0.0000 0.0000 0.0000 0.0000 0.0000 0.0000 0.0000 0.0000 0.0000 66.9902 -12.4133 18.6649 12.7958 9.3924 21.9233 156.6857 46.9759 140.8851 -74.9885 -15.3039 -6.0634 9.8405 0.0000 0.0000 8.7576 0.0000 0.0000 1.1944 -0.8084 -5.0298 13.3863 0.0000 0.0000 5.8125 0.0000 0.0000 -8.1307 -0.3349 0.0624 11.2969 0.0000 0.0000 5.1550 0.0000 0.0000 -15.0961 -0.8311 -1.1077 13.2735 0.0000 0.0000 1.8721 0.0000 0.0000 -21.7284 -1.2569 -3.1366 9.1747 0.0000 0.0000 3.7602 0.0000 0.0000 0.0000 0.0000 0.0000 0.0000 0.0000 0.0000 0.0000 0.0000 0.0000 0.0000 0.0000 0.0000 0.0000 0.0000 0.0000 0.0000 0.0000 0.0000
0.0000 95.0000 0.0000 0.0000 0.0000 0.0000 0.0000 0.0000 0.0000 0.0000 0.0000 0.0000 0.0000 0.0000 0.0000 0.0000 0.0000 0.0000 0.0000 0.0000 0.0000 0.0000 0.0000 0.0000 -77.2770 2.9942 3.7452 -6.3759 -4.3285 6.5059 0.0000 0.0000 0.0000 0.0000 0.0000 0.0000 0.0000 0.0000 0.0000 0.0000 0.0000 0.0000 0.0000 0.0000 0.0000 0.0000 0.0000 0.0000 0.0000 0.0000 0.0000 0.0000 0.0000 0.0000 0.0000 0.0000 0.0000 0.0000 0.0000 0.0000 0.0000 0.0000 0.0000 0.0000 0.0000 0.0000 0.0000 0.0000 0.0000 0.0000 0.0000 0.0000 0.0000 0.0000 0.0000 0.0000 0.0000 0.0000 0.0000 0.0000 0.0000 72.0846 -11.2367 15.3983 8.5623 7.3715 13.8893 163.0941 40.9966 153.7482 -74.9885 -15.3039 -6.0634 9.8405 0.0000 0.0000 8.7576 0.0000 0.0000 1.1944 -0.8084 -5.0298 13.3863 0.0000 0.0000 5.8125 0.0000 0.0000 -8.1307 -0.3349 0.0624 11.2969 0.0000 0.0000 5.1550 0.0000 0.0000 -15.0961 -0.8311 -1.1077 13.2735 0.0000 0.0000 1.8721 0.0000 0.0000 -21.7284 -1.2569 -3.1366 9.1747 0.0000 0.0000 3.7602 0.0000 0.0000 0.0000 0.0000 0.0000 0.0000 0.0000 0.0000 0.0000 0.0000 0.0000 0.0000 0.0000 0.0000 0.0000 0.0000 0.0000 0.0000 0.0000 0.0000
0.0000 95.0000 0.0000 0.0000 0.0000 0.0000 0.0000 0.0000 0.0000 0.0000 0.0000 0.0000 0.0000 0.0000 0.0000 0.0000 0.0000 0.0000 0.0000 0.0000 0.0000 0.0000 0.0000 0.0000 -77.4288 2.0229 2.5235 -6.6626 -5.1763 7.5839 0.0000 0.0000 0.0000 0.0000 0.0000 0.0000 0.0000 0.0000 0.0000 0.0000 0.0000 0.0000 0.0000 0.0000 0.0000 0.0000 0.0000 0.0000 0.0000 0.0000 0.0000 0.0000 0.0000 0.0000 0.0000 0.0000 0.0000 0.0000 0.0000 0.0000 0.0000 0.0000 0.0000 0.0000 0.0000 0.0000 0.0000 0.0000 0.0000 0.0000 0.0000 0.0000 0.0000 0.0000 0.0000 0.0000 0.0000 0.0000 0.0000 0.0000 0.0000 75.2389 -10.2103 13.2251 5.9092 6.2651 10.1998 165.4650 37.4339 159.7430 -74.9885 -15.3039 -6.0634 9.8405 0.0000 0.0000 8.7576 0.0000 0.0000 1.1944 -0.8084 -5.0298 13.3863 0.0000 0.0000 5.8125 0.0000 0.0000 -8.1307 -0.3349 0.0624 11.2969 0.0000 0.0000 5.1550 0.0000 0.0000 -15.0961 -0.8311 -1.1077 13.2735 0.0000 0.0000 1.8721 0.0000 0.0000 -21.7284 -1.2569 -3.1366 9.1747 0.0000 0.0000 3.7602 0.0000 0.0000 0.0000 0.0000 0.0000 0.0000 0.0000 0.0000 0.0000 0.0000 0.0000 0.0000 0.0000 0.0000 0.0000 0.0000 0.0000 0.0000 0.0000 0.0000
0.0000 95.0000 0.0000 0.0000 0.0000 0.0000 0.0000 0.0000 0.0000 0.0000 0.0000 0.0000 0.0000 0.0000 0.0000 0.0000 0.0000 0.0000 0.0000 0.0000 0.0000 0.0000 0.0000 0.0000 -77.4040 1.6308 2.0353 -6.8123 -5.7567 8.3709 0.0000 0.0000 0.0000 0.0000 0.0000 0.0000 0.0000 0.0000 0.0000 0.0000 0.0000 0.0000 0.0000 0.0000 0.0000 0.0000 0.0000 0.0000 0.0000 0.0000 0.0000 0.0000 0.0000 0.0000 0.0000 0.0000 0.0000 0.0000 0.0000 0.0000 0.0000 0.0000 0.0000 0.0000 0.0000 0.0000 0.0000 0.0000 0.0000 0.0000 0.0000 0.0000 0.0000 0.0000 0.0000 0.0000 0.0000 0.0000 0.0000 0.0000 0.0000 77.2789 -9.8349 12.2857 4.2570 5.6156 8.3124 166.6207 35.6953 162.5477 -74.9885 -15.3039 -6.0634 9.8405 0.0000 0.0000 8.7576 0.0000 0.0000 1.1944 -0.8084 -5.0298 13.3863 0.0000 0.0000 5.8125 0.0000 0.0000 -8.1307 -0.3349 0.0624 11.2969 0.0000 0.0000 5.1550 0.0000 0.0000 -15.0961 -0.8311 -1.1077 13.2735 0.0000 0.0000 1.8721 0.0000 0.0000 -21.7284 -1.2569 -3.1366 9.1747 0.0000 0.0000 3.7602 0.0000 0.0000 0.0000 0.0000 0.0000 0.0000 0.0000 0.0000 0.0000 0.0000 0.0000 0.0000 0.0000 0.0000 0.0000 0.0000 0.0000 0.0000 0.0000 0.0000
0.0000 95.0000 0.0000 0.0000 0.0000 0.0000 0.0000 0.0000 0.0000 0.0000 0.0000 0.0000 0.0000 0.0000 0.0000 0.0000 0.0000 0.0000 0.0000 0.0000 0.0000 0.0000 0.0000 0.0000 -77.5447 1.8772 2.3370 -6.6067 -5.8612 8.4902 0.0000 0.0000 0.0000 0.0000 0.0000 0.0000 0.0000 0.0000 0.0000 0.0000 0.0000 0.0000 0.0000 0.0000 0.0000 0.0000 0.0000 0.0000 0.0000 0.0000 0.0000 0.0000 0.0000 0.0000 0.0000 0.0000 0.0000 0.0000 0.0000 0.0000 0.0000 0.0000 0.0000 0.0000 0.0000 0.0000 0.0000 0.0000 0.0000 0.0000 0.0000 0.0000 0.0000 0.0000 0.0000 0.0000 0.0000 0.0000 0.0000 0.0000 0.0000 78.5305 -9.5263 11.6400 3.1578 5.4026 7.4642 167.0604 34.7630 163.9153 -74.9885 -15.3039 -6.0634 9.8405 0.0000 0.0000 8.7576 0.0000 0.0000 1.1944 -0.8084 -5.0298 13.3863 0.0000 0.0000 5.8125 0.0000 0.0000 -8.1307 -0.3349 0.0624 11.2969 0.0000 0.0000 5.1550 0.0000 0.0000 -15.0961 -0.8311 -1.1077 13.2735 0.0000 0.0000 1.8721 0.0000 0.0000 -21.7284 -1.2569 -3.1366 9.1747 0.0000 0.0000 3.7602 0.0000 0.0000 0.0000 0.0000 0.0000 0.0000 0.0000 0.0000 0.0000 0.0000 0.0000 0.0000 0.0000 0.0000 0.0000 0.0000 0.0000 0.0000 0.0000 0.0000
0.0000 95.0000 0.0000 0.0000 0.0000 0.0000 0.0000 0.0000 0.0000 0.0000 0.0000 0.0000 0.0000 0.0000 0.0000 0.0000 0.0000 0.0000 0.0000 0.0000 0.0000 0.0000 0.0000 0.0000 -77.6287 1.8050 2.2438 -6.6004 -6.0720 8.7587 0.0000 0.0000 0.0000 0.0000 0.0000 0.0000 0.0000 0.0000 0.0000 0.0000 0.0000 0.0000 0.0000 0.0000 0.0000 0.0000 0.0000 0.0000 0.0000 0.0000 0.0000 0.0000 0.0000 0.0000 0.0000 0.0000 0.0000 0.0000 0.0000 0.0000 0.0000 0.0000 0.0000 0.0000 0.0000 0.0000 0.0000 0.0000 0.0000 0.0000 0.0000 0.0000 0.0000 0.0000 0.0000 0.0000 0.0000 0.0000 0.0000 0.0000 0.0000 79.4080 -9.1404 10.9976 2.8125 5.5605 7.4163 167.6952 34.3796 164.7286 -74.9885 -15.3039 -6.0634 9.8405 0.0000 0.0000 8.7576 0.0000 0.0000 1.1944 -0.8084 -5.0298 13.3863 0.0000 0.0000 5.8125 0.0000 0.0000 -8.1307 -0.3349 0.0624 11.2969 0.0000 0.0000 5.1550 0.0000 0.0000 -15.0961 -0.8311 -1.1077 13.2735 0.0000 0.0000 1.8721 0.0000 0.0000 -21.7284 -1.2569 -3.1366 9.1747 0.0000 0.0000 3.7602 0.0000 0.0000 0.0000 0.0000 0.0000 0.0000 0.0000 0.0000 0.0000 0.0000 0.0000 0.0000 0.0000 0.0000 0.0000 0.0000 0.0000 0.0000 0.0000 0.0000
0.0000 95.0000 0.0000 0.0000 0.0000 0.0000 0.0000 0.0000 0.0000 0.0000 0.0000 0.0000 0.0000 0.0000 0.0000 0.0000 0.0000 0.0000 0.0000 0.0000 0.0000 0.0000 0.0000 0.0000 -77.6393 2.0214 2.5122 -6.6618 -6.3119 9.1331 0.0000 0.0000 0.0000 0.0000 0.0000 0.0000 0.0000 0.0000 0.0000 0.0000 0.0000 0.0000 0.0000 0.0000 0.0000 0.0000 0.0000 0.0000 0.0000 0.0000 0.0000 0.0000 0.0000 0.0000 0.0000 0.0000 0.0000 0.0000 0.0000 0.0000 0.0000 0.0000 0.0000 0.0000 0.0000 0.0000 0.0000 0.0000 0.0000 0.0000 0.0000 0.0000 0.0000 0.0000 0.0000 0.0000 0.0000 0.0000 0.0000 0.0000 0.0000 79.9754 -8.8718 10.5687 2.5330 5.9185 7.6777 167.9218 34.3531 164.8866 -74.9885 -15.3039 -6.0634 9.8405 0.0000 0.0000 8.7576 0.0000 0.0000 1.1944 -0.8084 -5.0298 13.3863 0.0000 0.0000 5.8125 0.0000 0.0000 -8.1307 -0.3349 0.0624 11.2969 0.0000 0.0000 5.1550 0.0000 0.0000 -15.0961 -0.8311 -1.1077 13.2735 0.0000 0.0000 1.8721 0.0000 0.0000 -21.7284 -1.2569 -3.1366 9.1747 0.0000 0.0000 3.7602 0.0000 0.0000 0.0000 0.0000 0.0000 0.0000 0.0000 0.0000 0.0000 0.0000 0.0000 0.0000 0.0000 0.0000 0.0000 0.0000 0.0000 0.0000 0.0000 0.0000
0.0000 95.0000 0.0000 0.0000 0.0000 0.0000 0.0000 0.0000 0.0000 0.0000 0.0000 0.0000 0.0000 0.0000 0.0000 0.0000 0.0000 0.0000 0.0000 0.0000 0.0000 0.0000 0.0000 0.0000 -77.6699 1.6394 2.0364 -6.2659 -6.7402 9.5853 0.0000 0.0000 0.0000 0.0000 0.0000 0.0000 0.0000 0.0000 0.0000 0.0000 0.0000 0.0000 0.0000 0.0000 0.0000 0.0000 0.0000 0.0000 0.0000 0.0000 0.0000 0.0000 0.0000 0.0000 0.0000 0.0000 0.0000 0.0000 0.0000 0.0000 0.0000 0.0000 0.0000 0.0000 0.0000 0.0000 0.0000 0.0000 0.0000 0.0000 0.0000 0.0000 0.0000 0.0000 0.0000 0.0000 0.0000 0.0000 0.0000 0.0000 0.0000 80.2714 -8.7149 10.3281 2.2374 6.1666 7.8371 167.8445 34.3432 164.8550 -74.9885 -15.3039 -6.0634 9.8405 0.0000 0.0000 8.7576 0.0000 0.0000 1.1944 -0.8084 -5.0298 13.3863 0.0000 0.0000 5.8125 0.0000 0.0000 -8.1307 -0.3349 0.0624 11.2969 0.0000 0.0000 5.1550 0.0000 0.0000 -15.0961 -0.8311 -1.1077 13.2735 0.0000 0.0000 1.8721 0.0000 0.0000 -21.7284 -1.2569 -3.1366 9.1747 0.0000 0.0000 3.7602 0.0000 0.0000 0.0000 0.0000 0.0000 0.0000 0.0000 0.0000 0.0000 0.0000 0.0000 0.0000 0.0000 0.0000 0.0000 0.0000 0.0000 0.0000 0.0000 0.0000
0.0000 95.0000 0.0000 0.0000 0.0000 0.0000 0.0000 0.0000 0.0000 0.0000 0.0000 0.0000 0.0000 0.0000 0.0000 0.0000 0.0000 0.0000 0.0000 0.0000 0.0000 0.0000 0.0000 0.0000 -77.4964 1.1319 1.4104 -6.1121 -6.7792 9.5731 0.0000 0.0000 0.0000 0.0000 0.0000 0.0000 0.0000 0.0000 0.0000 0.0000 0.0000 0.0000 0.0000 0.0000 0.0000 0.0000 0.0000 0.0000 0.0000 0.0000 0.0000 0.0000 0.0000 0.0000 0.0000 0.0000 0.0000 0.0000 0.0000 0.0000 0.0000 0.0000 0.0000 0.0000 0.0000 0.0000 0.0000 0.0000 0.0000 0.0000 0.0000 0.0000 0.0000 0.0000 0.0000 0.0000 0.0000 0.0000 0.0000 0.0000 0.0000 80.5345 -8.8190 10.4030 1.9237 6.3750 7.9482 167.6985 34.5539 164.5254 -74.9885 -15.3039 -6.0634 9.8405 0.0000 0.0000 8.7576 0.0000 0.0000 1.1944 -0.8084 -5.0298 13.3863 0.0000 0.0000 5.8125 0.0000 0.0000 -8.1307 -0.3349 0.0624 11.2969 0.0000 0.0000 5.1550 0.0000 0.0000 -15.0961 -0.8311 -1.1077 13.2735 0.0000 0.0000 1.8721 0.0000 0.0000 -21.7284 -1.2569 -3.1366 9.1747 0.0000 0.0000 3.7602 0.0000 0.0000 0.0000 0.0000 0.0000 0.0000 0.0000 0.0000 0.0000 0.0000 0.0000 0.0000 0.0000 0.0000 0.0000 0.0000 0.0000 0.0000 0.0000 0.0000
0.0000 95.0000 0.0000 0.0000 0.0000 0.0000 0.0000 0.0000 0.0000 0.0000 0.0000 0.0000 0.0000 0.0000 0.0000 0.0000 0.0000 0.0000 0.0000 0.0000 0.0000 0.0000 0.0000 0.0000 -77.5172 0.6395 0.7965 -5.8786 -7.1998 10.0422 0.0000 0.0000 0.0000 0.0000 0.0000 0.0000 0.0000 0.0000 0.0000 0.0000 0.0000 0.0000 0.0000 0.0000 0.0000 0.0000 0.0000 0.0000 0.0000 0.0000 0.0000 0.0000 0.0000 0.0000 0.0000 0.0000 0.0000 0.0000 0.0000 0.0000 0.0000 0.0000 0.0000 0.0000 0.0000 0.0000 0.0000 0.0000 0.0000 0.0000 0.0000 0.0000 0.0000 0.0000 0.0000 0.0000 0.0000 0.0000 0.0000 0.0000 0.0000 80.4750 -9.1263 10.7762 1.4430 6.3346 7.7542 167.0719 34.6939 164.0040 -74.9885 -15.3039 -6.0634 9.8405 0.0000 0.0000 8.7576 0.0000 0.0000 1.1944 -0.8084 -5.0298 13.3863 0.0000 0.0000 5.8125 0.0000 0.0000 -8.1307 -0.3349 0.0624 11.2969 0.0000 0.0000 5.1550 0.0000 0.0000 -15.0961 -0.8311 -1.1077 13.2735 0.0000 0.0000 1.8721 0.0000 0.0000 -21.7284 -1.2569 -3.1366 9.1747 0.0000 0.0000 3.7602 0.0000 0.0000 0.0000 0.0000 0.0000 0.0000 0.0000 0.0000 0.0000 0.0000 0.0000 0.0000 0.0000 0.0000 0.0000 0.0000 0.0000 0.0000 0.0000 0.0000
0.0000 95.0000 0.0000 0.0000 0.0000 0.0000 0.0000 0.0000 0.0000 0.0000 0.0000 0.0000 0.0000 0.0000 0.0000 0.0000 0.0000 0.0000 0.0000 0.0000 0.0000 0.0000 0.0000 0.0000 -77.7333 0.2368 0.2938 -5.9977 -7.2692 10.0714 0.0000 0.0000 0.0000 0.0000 0.0000 0.0000 0.0000 0.0000 0.0000 0.0000 0.0000 0.0000 0.0000 0.0000 0.0000 0.0000 0.0000 0.0000 0.0000 0.0000 0.0000 0.0000 0.0000 0.0000 0.0000 0.0000 0.0000 0.0000 0.0000 0.0000 0.0000 0.0000 0.0000 0.0000 0.0000 0.0000 0.0000 0.0000 0.0000 0.0000 0.0000 0.0000 0.0000 0.0000 0.0000 0.0000 0.0000 0.0000 0.0000 0.0000 0.0000 80.5076 -9.0896 10.7268 1.2365 6.5123 7.8899 166.7948 34.7685 163.7562 -74.9885 -15.3039 -6.0634 9.8405 0.0000 0.0000 8.7576 0.0000 0.0000 1.1944 -0.8084 -5.0298 13.3863 0.0000 0.0000 5.8125 0.0000 0.0000 -8.1307 -0.3349 0.0624 11.2969 0.0000 0.0000 5.1550 0.0000 0.0000 -15.0961 -0.8311 -1.1077 13.2735 0.0000 0.0000 1.8721 0.0000 0.0000 -21.7284 -1.2569 -3.1366 9.1747 0.0000 0.0000 3.7602 0.0000 0.0000 0.0000 0.0000 0.0000 0.0000 0.0000 0.0000 0.0000 0.0000 0.0000 0.0000 0.0000 0.0000 0.0000 0.0000 0.0000 0.0000 0.0000 0.0000
0.0000 95.0000 0.0000 0.0000 0.0000 0.0000 0.0000 0.0000 0.0000 0.0000 0.0000 0.0000 0.0000 0.0000 0.0000 0.0000 0.0000 0.0000 0.0000 0.0000 0.0000 0.0000 0.0000 0.0000 -78.0110 0.2145 0.2649 -6.1208 -7.2221 9.9761 0.0000 0.0000 0.0000 0.0000 0.0000 0.0000 0.0000 0.0000 0.0000 0.0000 0.0000 0.0000 0.0000 0.0000 0.0000 0.0000 0.0000 0.0000 0.0000 0.0000 0.0000 0.0000 0.0000 0.0000 0.0000 0.0000 0.0000 0.0000 0.0000 0.0000 0.0000 0.0000 0.0000 0.0000 0.0000 0.0000 0.0000 0.0000 0.0000 0.0000 0.0000 0.0000 0.0000 0.0000 0.0000 0.0000 0.0000 0.0000 0.0000 0.0000 0.0000 80.5981 -8.9945 10.5978 0.9125 6.5810 7.8537 166.5177 34.6474 163.7412 -74.9885 -15.3039 -6.0634 9.8405 0.0000 0.0000 8.7576 0.0000 0.0000 1.1944 -0.8084 -5.0298 13.3863 0.0000 0.0000 5.8125 0.0000 0.0000 -8.1307 -0.3349 0.0624 11.2969 0.0000 0.0000 5.1550 0.0000 0.0000 -15.0961 -0.8311 -1.1077 13.2735 0.0000 0.0000 1.8721 0.0000 0.0000 -21.7284 -1.2569 -3.1366 9.1747 0.0000 0.0000 3.7602 0.0000 0.0000 0.0000 0.0000 0.0000 0.0000 0.0000 0.0000 0.0000 0.0000 0.0000 0.0000 0.0000 0.0000 0.0000 0.0000 0.0000 0.0000 0.0000 0.0000
0.0000 95.0000 0.0000 0.0000 0.0000 0.0000 0.0000 0.0000 0.0000 0.0000 0.0000 0.0000 0.0000 0.0000 0.0000 0.0000 0.0000 0.0000 0.0000 0.0000 0.0000 0.0000 0.0000 0.0000 -78.0500 -0.0685 -0.0846 -6.0836 -7.1712 9.8561 0.0000 0.0000 0.0000 0.0000 0.0000 0.0000 0.0000 0.0000 0.0000 0.0000 0.0000 0.0000 0.0000 0.0000 0.0000 0.0000 0.0000 0.0000 0.0000 0.0000 0.0000 0.0000 0.0000 0.0000 0.0000 0.0000 0.0000 0.0000 0.0000 0.0000 0.0000 0.0000 0.0000 0.0000 0.0000 0.0000 0.0000 0.0000 0.0000 0.0000 0.0000 0.0000 0.0000 0.0000 0.0000 0.0000 0.0000 0.0000 0.0000 0.0000 0.0000 80.7570 -9.0414 10.6232 0.7217 6.9764 8.2233 166.2896 35.0046 163.1803 -74.9885 -15.3039 -6.0634 9.8405 0.0000 0.0000 8.7576 0.0000 0.0000 1.1944 -0.8084 -5.0298 13.3863 0.0000 0.0000 5.8125 0.0000 0.0000 -8.1307 -0.3349 0.0624 11.2969 0.0000 0.0000 5.1550 0.0000 0.0000 -15.0961 -0.8311 -1.1077 13.2735 0.0000 0.0000 1.8721 0.0000 0.0000 -21.7284 -1.2569 -3.1366 9.1747 0.0000 0.0000 3.7602 0.0000 0.0000 0.0000 0.0000 0.0000 0.0000 0.0000 0.0000 0.0000 0.0000 0.0000 0.0000 0.0000 0.0000 0.0000 0.0000 0.0000 0.0000 0.0000 0.0000
0.0000 95.0000 0.0000 0.0000 0.0000 0.0000 0.0000 0.0000 0.0000 0.0000 0.0000 0.0000 0.0000 0.0000 0.0000 0.0000 0.0000 0.0000 0.0000 0.0000 0.0000 0.0000 0.0000 0.0000 -77.7328 0.5148 0.6387 -6.1765 -6.9988 9.7680 0.0000 0.0000 0.0000 0.0000 0.0000 0.0000 0.0000 0.0000 0.0000 0.0000 0.0000 0.0000 0.0000 0.0000 0.0000 0.0000 0.0000 0.0000 0.0000 0.0000 0.0000 0.0000 0.0000 0.0000 0.0000 0.0000 0.0000 0.0000 0.0000 0.0000 0.0000 0.0000 0.0000 0.0000 0.0000 0.0000 0.0000 0.0000 0.0000 0.0000 0.0000 0.0000 0.0000 0.0000 0.0000 0.0000 0.0000 0.0000 0.0000 0.0000 0.0000 80.9445 -9.2011 10.7751 0.3313 7.0504 8.1489 166.0219 35.1118 162.8940 -74.9885 -15.3039 -6.0634 9.8405 0.0000 0.0000 8.7576 0.0000 0.0000 1.1944 -0.8084 -5.0298 13.3863 0.0000 0.0000 5.8125 0.0000 0.0000 -8.1307 -0.3349 0.0624 11.2969 0.0000 0.0000 5.1550 0.0000 0.0000 -15.0961 -0.8311 -1.1077 13.2735 0.0000 0.0000 1.8721 0.0000 0.0000 -21.7284 -1.2569 -3.1366 9.1747 0.0000 0.0000 3.7602 0.0000 0.0000 0.0000 0.0000 0.0000 0.0000 0.0000 0.0000 0.0000 0.0000 0.0000 0.0000 0.0000 0.0000 0.0000 0.0000 0.0000 0.0000 0.0000 0.0000
0.0000 95.0000 0.0000 0.0000 0.0000 0.0000 0.0000 0.0000 0.0000 0.0000 0.0000 0.0000 0.0000 0.0000 0.0000 0.0000 0.0000 0.0000 0.0000 0.0000 0.0000 0.0000 0.0000 0.0000 -77.8923 0.5191 0.6422 -6.0968 -6.6473 9.2417 0.0000 0.0000 0.0000 0.0000 0.0000 0.0000 0.0000 0.0000 0.0000 0.0000 0.0000 0.0000 0.0000 0.0000 0.0000 0.0000 0.0000 0.0000 0.0000 0.0000 0.0000 0.0000 0.0000 0.0000 0.0000 0.0000 0.0000 0.0000 0.0000 0.0000 0.0000 0.0000 0.0000 0.0000 0.0000 0.0000 0.0000 0.0000 0.0000 0.0000 0.0000 0.0000 0.0000 0.0000 0.0000 0.0000 0.0000 0.0000 0.0000 0.0000 0.0000 81.1779 -9.2868 10.8307 -0.0544 7.3247 8.2947 165.7187 35.3287 162.4520 -74.9885 -15.3039 -6.0634 9.8405 0.0000 0.0000 8.7576 0.0000 0.0000 1.1944 -0.8084 -5.0298 13.3863 0.0000 0.0000 5.8125 0.0000 0.0000 -8.1307 -0.3349 0.0624 11.2969 0.0000 0.0000 5.1550 0.0000 0.0000 -15.0961 -0.8311 -1.1077 13.2735 0.0000 0.0000 1.8721 0.0000 0.0000 -21.7284 -1.2569 -3.1366 9.1747 0.0000 0.0000 3.7602 0.0000 0.0000 0.0000 0.0000 0.0000 0.0000 0.0000 0.0000 0.0000 0.0000 0.0000 0.0000 0.0000 0.0000 0.0000 0.0000 0.0000 0.0000 0.0000 0.0000
0.0000 95.0000 0.0000 0.0000 0.0000 0.0000 0.0000 0.0000 0.0000 0.0000 0.0000 0.0000 0.0000 0.0000 0.0000 0.0000 0.0000 0.0000 0.0000 0.0000 0.0000 0.0000 0.0000 0.0000 -77.7235 0.5134 0.6372 -6.4061 -6.4332 9.0288 0.0000 0.0000 0.0000 0.0000 0.0000 0.0000 0.0000 0.0000 0.0000 0.0000 0.0000 0.0000 0.0000 0.0000 0.0000 0.0000 0.0000 0.0000 0.0000 0.0000 0.0000 0.0000 0.0000 0.0000 0.0000 0.0000 0.0000 0.0000 0.0000 0.0000 0.0000 0.0000 0.0000 0.0000 0.0000 0.0000 0.0000 0.0000 0.0000 0.0000 0.0000 0.0000 0.0000 0.0000 0.0000 0.0000 0.0000 0.0000 0.0000 0.0000 0.0000 81.1194 -9.2303 10.7760 0.0520 7.2694 8.2783 165.8035 35.2563 162.5901 -74.9885 -15.3039 -6.0634 9.8405 0.0000 0.0000 8.7576 0.0000 0.0000 1.1944 -0.8084 -5.0298 13.3863 0.0000 0.0000 5.8125 0.0000 0.0000 -8.1307 -0.3349 0.0624 11.2969 0.0000 0.0000 5.1550 0.0000 0.0000 -15.0961 -0.8311 -1.1077 13.2735 0.0000 0.0000 1.8721 0.0000 0.0000 -21.7284 -1.2569 -3.1366 9.1747 0.0000 0.0000 3.7602 0.0000 0.0000 0.0000 0.0000 0.0000 0.0000 0.0000 0.0000 0.0000 0.0000 0.0000 0.0000 0.0000 0.0000 0.0000 0.0000 0.0000 0.0000 0.0000 0.0000
0.0000 95.0000 0.0000 0.0000 0.0000 0.0000 0.0000 0.0000 0.0000 0.0000 0.0000 0.0000 0.0000 0.0000 0.0000 0.0000 0.0000 0.0000 0.0000 0.0000 0.0000 0.0000 0.0000 0.0000 -77.9186 0.3932 0.4863 -6.5312 -6.3080 8.8281 0.0000 0.0000 0.0000 0.0000 0.0000 0.0000 0.0000 0.0000 0.0000 0.0000 0.0000 0.0000 0.0000 0.0000 0.0000 0.0000 0.0000 0.0000 0.0000 0.0000 0.0000 0.0000 0.0000 0.0000 0.0000 0.0000 0.0000 0.0000 0.0000 0.0000 0.0000 0.0000 0.0000 0.0000 0.0000 0.0000 0.0000 0.0000 0.0000 0.0000 0.0000 0.0000 0.0000 0.0000 0.0000 0.0000 0.0000 0.0000 0.0000 0.0000 0.0000 81.0997 -9.1783 10.7191 0.0530 7.5016 8.5441 165.6625 35.4188 162.3092 -74.9885 -15.3039 -6.0634 9.8405 0.0000 0.0000 8.7576 0.0000 0.0000 1.1944 -0.8084 -5.0298 13.3863 0.0000 0.0000 5.8125 0.0000 0.0000 -8.1307 -0.3349 0.0624 11.2969 0.0000 0.0000 5.1550 0.0000 0.0000 -15.0961 -0.8311 -1.1077 13.2735 0.0000 0.0000 1.8721 0.0000 0.0000 -21.7284 -1.2569 -3.1366 9.1747 0.0000 0.0000 3.7602 0.0000 0.0000 0.0000 0.0000 0.0000 0.0000 0.0000 0.0000 0.0000 0.0000 0.0000 0.0000 0.0000 0.0000 0.0000 0.0000 0.0000 0.0000 0.0000 0.0000
