HIERARCHY
ROOT Hips
{
  OFFSET 0.000000 95.000000 0.000000
  CHANNELS 6 Xposition Yposition Zposition Zrotation Xrotation Yrotation
  JOINT Spine
  {
    OFFSET 0.000000 10.000000 0.000000
    CHANNELS 3 Zrotation Xrotation Yrotation
    JOINT Spine1
    {
      OFFSET 0.000000 12.000000 0.000000
      CHANNELS 3 Zrotation Xrotation Yrotation
      JOINT Spine2
      {
        OFFSET 0.000000 12.000000 0.000000
        CHANNELS 3 Zrotation Xrotation Yrotation
        JOINT Neck
        {
          OFFSET 0.000000 10.000000 0.000000
          CHANNELS 3 Zrotation Xrotation Yrotation
          JOINT Head
          {
            OFFSET 0.000000 8.000000 0.000000
            CHANNELS 3 Zrotation Xrotation Yrotation
            End Site
            {
              OFFSET 0.000000 10.000000 0.000000
            }
          }
        }
        JOINT LeftShoulder
        {
          OFFSET 6.000000 8.000000 0.000000
          CHANNELS 3 Zrotation Xrotation Yrotation
          JOINT LeftArm
          {
            OFFSET 12.000000 0.000000 0.000000
            CHANNELS 3 Zrotation Xrotation Yrotation
            JOINT LeftForeArm
            {
              OFFSET 24.000000 0.000000 0.000000
              CHANNELS 3 Zrotation Xrotation Yrotation
              JOINT LeftHand
              {
                OFFSET 22.000000 0.000000 0.000000
                CHANNELS 3 Zrotation Xrotation Yrotation
                JOINT LeftHandThumb1
                {
                  OFFSET 1.800000 -1.400000 0.500000
                  CHANNELS 3 Zrotation Xrotation Yrotation
                  JOINT LeftHandThumb2
                  {
                    OFFSET 2.400000 0.000000 0.000000
                    CHANNELS 3 Zrotation Xrotation Yrotation
                    JOINT LeftHandThumb3
                    {
                      OFFSET 1.900000 0.000000 0.000000
                      CHANNELS 3 Zrotation Xrotation Yrotation
                      End Site
                      {
                        OFFSET 1.600000 0.000000 0.000000
                      }
                    }
                  }
                }
                JOINT LeftHandIndex1
                {
                  OFFSET 6.600000 1.200000 0.300000
                  CHANNELS 3 Zrotation Xrotation Yrotation
                  JOINT LeftHandIndex2
                  {
                    OFFSET 2.000000 0.000000 0.000000
                    CHANNELS 3 Zrotation Xrotation Yrotation
                    JOINT LeftHandIndex3
                    {
                      OFFSET 1.200000 0.000000 0.000000
                      CHANNELS 3 Zrotation Xrotation Yrotation
                      End Site
                      {
                        OFFSET 1.000000 0.000000 0.000000
                      }
                    }
                  }
                }
                JOINT LeftHandMiddle1
                {
                  OFFSET 7.200000 0.000000 0.300000
                  CHANNELS 3 Zrotation Xrotation Yrotation
                  JOINT LeftHandMiddle2
                  {
                    OFFSET 3.000000 0.000000 0.000000
                    CHANNELS 3 Zrotation Xrotation Yrotation
                    JOINT LeftHandMiddle3
                    {
                      OFFSET 2.000000 0.000000 0.000000
                      CHANNELS 3 Zrotation Xrotation Yrotation
                      End Site
                      {
                        OFFSET 1.600000 0.000000 0.000000
                      }
                    }
                  }
                }
                JOINT LeftHandRing1
                {
                  OFFSET 7.100000 -1.000000 0.400000
                  CHANNELS 3 Zrotation Xrotation Yrotation
                  JOINT LeftHandRing2
                  {
                    OFFSET 2.600000 0.000000 0.000000
                    CHANNELS 3 Zrotation Xrotation Yrotation
                    JOINT LeftHandRing3
                    {
                      OFFSET 1.600000 0.000000 0.000000
                      CHANNELS 3 Zrotation Xrotation Yrotation
                      End Site
                      {
                        OFFSET 1.300000 0.000000 0.000000
                      }
                    }
                  }
                }
                JOINT LeftHandPinky1
                {
                  OFFSET 6.500000 -2.000000 0.500000
                  CHANNELS 3 Zrotation Xrotation Yrotation
                  JOINT LeftHandPinky2
                  {
                    OFFSET 1.900000 0.000000 0.000000
                    CHANNELS 3 Zrotation Xrotation Yrotation
                    JOINT LeftHandPinky3
                    {
                      OFFSET 1.400000 0.000000 0.000000
                      CHANNELS 3 Zrotation Xrotation Yrotation
                      End Site
                      {
                        OFFSET 1.300000 0.000000 0.000000
                      }
                    }
                  }
                }
              }
            }
          }
        }
        JOINT RightShoulder
        {
          OFFSET -6.000000 8.000000 0.000000
          CHANNELS 3 Zrotation Xrotation Yrotation
          JOINT RightArm
          {
            OFFSET -12.000000 0.000000 0.000000
            CHANNELS 3 Zrotation Xrotation Yrotation
            JOINT RightForeArm
            {
              OFFSET -24.000000 0.000000 0.000000
              CHANNELS 3 Zrotation Xrotation Yrotation
              JOINT RightHand
              {
                OFFSET -22.000000 0.000000 0.000000
                CHANNELS 3 Zrotation Xrotation Yrotation
                JOINT RightHandThumb1
                {
                  OFFSET -1.800000 -1.400000 0.500000
                  CHANNELS 3 Zrotation Xrotation Yrotation
                  JOINT RightHandThumb2
                  {
                    OFFSET -2.400000 0.000000 0.000000
                    CHANNELS 3 Zrotation Xrotation Yrotation
                    JOINT RightHandThumb3
                    {
                      OFFSET -1.900000 0.000000 0.000000
                      CHANNELS 3 Zrotation Xrotation Yrotation
                      End Site
                      {
                        OFFSET -1.600000 0.000000 0.000000
                      }
                    }
                  }
                }
                JOINT RightHandIndex1
                {
                  OFFSET -6.600000 1.200000 0.300000
                  CHANNELS 3 Zrotation Xrotation Yrotation
                  JOINT RightHandIndex2
                  {
                    OFFSET -2.000000 0.000000 0.000000
                    CHANNELS 3 Zrotation Xrotation Yrotation
                    JOINT RightHandIndex3
                    {
                      OFFSET -1.200000 0.000000 0.000000
                      CHANNELS 3 Zrotation Xrotation Yrotation
                      End Site
                      {
                        OFFSET -1.000000 0.000000 0.000000
                      }
                    }
                  }
                }
                JOINT RightHandMiddle1
                {
                  OFFSET -7.200000 0.000000 0.300000
                  CHANNELS 3 Zrotation Xrotation Yrotation
                  JOINT RightHandMiddle2
                  {
                    OFFSET -3.000000 0.000000 0.000000
                    CHANNELS 3 Zrotation Xrotation Yrotation
                    JOINT RightHandMiddle3
                    {
                      OFFSET -2.000000 0.000000 0.000000
                      CHANNELS 3 Zrotation Xrotation Yrotation
                      End Site
                      {
                        OFFSET -1.600000 0.000000 0.000000
                      }
                    }
                  }
                }
                JOINT RightHandRing1
                {
                  OFFSET -7.100000 -1.000000 0.400000
                  CHANNELS 3 Zrotation Xrotation Yrotation
                  JOINT RightHandRing2
                  {
                    OFFSET -2.600000 0.000000 0.000000
                    CHANNELS 3 Zrotation Xrotation Yrotation
                    JOINT RightHandRing3
                    {
                      OFFSET -1.600000 0.000000 0.000000
                      CHANNELS 3 Zrotation Xrotation Yrotation
                      End Site
                      {
                        OFFSET -1.300000 0.000000 0.000000
                      }
                    }
                  }
                }
                JOINT RightHandPinky1
                {
                  OFFSET -6.500000 -2.000000 0.500000
                  CHANNELS 3 Zrotation Xrotation Yrotation
                  JOINT RightHandPinky2
                  {
                    OFFSET -1.900000 0.000000 0.000000
                    CHANNELS 3 Zrotation Xrotation Yrotation
                    JOINT RightHandPinky3
                    {
                      OFFSET -1.400000 0.000000 0.000000
                      CHANNELS 3 Zrotation Xrotation Yrotation
                      End Site
                      {
                        OFFSET -1.300000 0.000000 0.000000
                      }
                    }
                  }
                }
              }
            }
          }
        }
      }
    }
  }
  JOINT LeftUpLeg
  {
    OFFSET 10.000000 -5.000000 0.000000
    CHANNELS 3 Zrotation Xrotation Yrotation
    JOINT LeftLeg
    {
      OFFSET 0.000000 -42.000000 0.000000
      CHANNELS 3 Zrotation Xrotation Yrotation
      JOINT LeftFoot
      {
        OFFSET 0.000000 -42.000000 4.000000
        CHANNELS 3 Zrotation Xrotation Yrotation
        End Site
        {
          OFFSET 0.000000 0.000000 12.000000
        }
      }
    }
  }
  JOINT RightUpLeg
  {
    OFFSET -10.000000 -5.000000 0.000000
    CHANNELS 3 Zrotation Xrotation Yrotation
    JOINT RightLeg
    {
      OFFSET 0.000000 -42.000000 0.000000
      CHANNELS 3 Zrotation Xrotation Yrotation
      JOINT RightFoot
      {
        OFFSET 0.000000 -42.000000 4.000000
        CHANNELS 3 Zrotation Xrotation Yrotation
        End Site
        {
          OFFSET 0.000000 0.000000 12.000000
        }
      }
    }
  }
}
MOTION
Frames: 60
Frame Time: 0.033333
0.1286 0.3392 0.0138 -4.0508 18.3307 14.1369 6.0860 1.4894 -13.7005 0.0000 0.0000 0.0000 0.0000 0.0000 0.0000 19.6804 44.2918 11.4806 0.0000 0.0000 0.0000 0.0000 0.0000 0.0000 -74.4274 -17.8507 0.2842 -9.3625 -6.0148 9.1462 0.0000 0.0000 0.0000 0.0000 0.0000 0.0000 0.0000 0.0000 0.0000 0.0000 0.0000 0.0000 0.0000 0.0000 0.0000 0.0000 0.0000 0.0000 0.0000 0.0000 0.0000 0.0000 0.0000 0.0000 0.0000 0.0000 0.0000 0.0000 0.0000 0.0000 0.0000 0.0000 0.0000 0.0000 0.0000 0.0000 0.0000 0.0000 0.0000 0.0000 0.0000 0.0000 0.0000 0.0000 0.0000 0.0000 0.0000 0.0000 0.0000 0.0000 0.0000 72.0463 -25.5662 9.8835 10.1631 9.5447 17.1115 45.7089 40.7218 171.9216 -20.7127 -1.8783 -6.2118 15.6654 0.0000 0.0000 12.5247 0.0000 0.0000 64.8281 1.8361 2.7735 68.8116 0.0000 0.0000 25.5266 0.0000 0.0000 66.4075 -4.8543 12.1830 61.8401 0.0000 0.0000 24.3917 0.0000 0.0000 65.6605 -7.9083 14.4551 56.6059 0.0000 0.0000 25.7793 0.0000 0.0000 57.5017 -12.6912 18.0478 48.1110 0.0000 0.0000 32.2428 0.0000 0.0000 7.1709 -24.8815 -17.2936 0.0000 0.0000 0.0000 0.0000 0.0000 0.0000 14.6500 -22.7325 -17.3997 0.0000 0.0000 0.0000 0.0000 0.0000 0.0000
0.1125 0.3428 -0.0077 -3.9611 17.3174 14.2092 6.1055 1.5027 -13.7749 0.0000 0.0000 0.0000 0.0000 0.0000 0.0000 19.0972 45.6462 11.1631 0.0000 0.0000 0.0000 0.0000 0.0000 0.0000 -75.1562 -15.0524 2.9222 -8.7614 -4.6102 7.4043 0.0000 0.0000 0.0000 0.0000 0.0000 0.0000 0.0000 0.0000 0.0000 0.0000 0.0000 0.0000 0.0000 0.0000 0.0000 0.0000 0.0000 0.0000 0.0000 0.0000 0.0000 0.0000 0.0000 0.0000 0.0000 0.0000 0.0000 0.0000 0.0000 0.0000 0.0000 0.0000 0.0000 0.0000 0.0000 0.0000 0.0000 0.0000 0.0000 0.0000 0.0000 0.0000 0.0000 0.0000 0.0000 0.0000 0.0000 0.0000 0.0000 0.0000 0.0000 69.5681 -26.6393 13.4964 9.5025 15.5435 26.4561 37.2314 49.8084 155.3477 -20.7127 -1.8783 -6.2118 15.6654 0.0000 0.0000 12.5247 0.0000 0.0000 64.8281 1.8361 2.7735 68.8116 0.0000 0.0000 25.5266 0.0000 0.0000 66.4075 -4.8543 12.1830 61.8401 0.0000 0.0000 24.3917 0.0000 0.0000 65.6605 -7.9083 14.4551 56.6059 0.0000 0.0000 25.7793 0.0000 0.0000 57.5017 -12.6912 18.0478 48.1110 0.0000 0.0000 32.2428 0.0000 0.0000 7.3871 -23.1006 -17.0491 0.0000 0.0000 0.0000 0.0000 0.0000 0.0000 14.4018 -21.8588 -17.2724 0.0000 0.0000 0.0000 0.0000 0.0000 0.0000
0.0962 0.3498 -0.0353 -3.9328 16.0340 14.1979 5.9919 1.4779 -13.8053 0.0000 0.0000 0.0000 0.0000 0.0000 0.0000 20.1359 48.5101 12.0473 0.0000 0.0000 0.0000 0.0000 0.0000 0.0000 -75.7092 -8.9652 9.4169 -7.3281 -3.2835 6.1802 0.0000 0.0000 0.0000 0.0000 0.0000 0.0000 0.0000 0.0000 0.0000 0.0000 0.0000 0.0000 0.0000 0.0000 0.0000 0.0000 0.0000 0.0000 0.0000 0.0000 0.0000 0.0000 0.0000 0.0000 0.0000 0.0000 0.0000 0.0000 0.0000 0.0000 0.0000 0.0000 0.0000 0.0000 0.0000 0.0000 0.0000 0.0000 0.0000 0.0000 0.0000 0.0000 0.0000 0.0000 0.0000 0.0000 0.0000 0.0000 0.0000 0.0000 0.0000 64.9323 -27.7460 18.6295 5.7320 26.8463 40.1017 4.9735 55.0991 115.0868 -20.7127 -1.8783 -6.2118 15.6654 0.0000 0.0000 12.5247 0.0000 0.0000 64.8281 1.8361 2.7735 68.8116 0.0000 0.0000 25.5266 0.0000 0.0000 66.4075 -4.8543 12.1830 61.8401 0.0000 0.0000 24.3917 0.0000 0.0000 65.6605 -7.9083 14.4551 56.6059 0.0000 0.0000 25.7793 0.0000 0.0000 57.5017 -12.6912 18.0478 48.1110 0.0000 0.0000 32.2428 0.0000 0.0000 7.4487 -23.5956 -17.0669 0.0000 0.0000 0.0000 0.0000 0.0000 0.0000 14.4325 -20.9017 -17.0962 0.0000 0.0000 0.0000 0.0000 0.0000 0.0000
0.0839 0.3551 -0.0563 -3.9130 15.0612 14.1897 5.9083 1.4595 -13.8271 0.0000 0.0000 0.0000 0.0000 0.0000 0.0000 21.0314 50.6793 12.8111 0.0000 0.0000 0.0000 0.0000 0.0000 0.0000 -75.2687 -4.7708 13.7418 -6.4905 -2.1759 4.9564 0.0000 0.0000 0.0000 0.0000 0.0000 0.0000 0.0000 0.0000 0.0000 0.0000 0.0000 0.0000 0.0000 0.0000 0.0000 0.0000 0.0000 0.0000 0.0000 0.0000 0.0000 0.0000 0.0000 0.0000 0.0000 0.0000 0.0000 0.0000 0.0000 0.0000 0.0000 0.0000 0.0000 0.0000 0.0000 0.0000 0.0000 0.0000 0.0000 0.0000 0.0000 0.0000 0.0000 0.0000 0.0000 0.0000 0.0000 0.0000 0.0000 0.0000 0.0000 61.5030 -28.1840 22.3166 1.7334 34.6961 46.3573 -16.1862 49.4295 91.0524 -20.7127 -1.8783 -6.2118 15.6654 0.0000 0.0000 12.5247 0.0000 0.0000 64.8281 1.8361 2.7735 68.8116 0.0000 0.0000 25.5266 0.0000 0.0000 66.4075 -4.8543 12.1830 61.8401 0.0000 0.0000 24.3917 0.0000 0.0000 65.6605 -7.9083 14.4551 56.6059 0.0000 0.0000 25.7793 0.0000 0.0000 57.5017 -12.6912 18.0478 48.1110 0.0000 0.0000 32.2428 0.0000 0.0000 7.5024 -24.0468 -17.0926 0.0000 0.0000 0.0000 0.0000 0.0000 0.0000 14.4709 -20.1800 -16.9716 0.0000 0.0000 0.0000 0.0000 0.0000 0.0000
0.0746 0.3676 -0.0740 -3.8501 13.7035 14.2197 5.6429 1.4027 -13.9146 0.0000 0.0000 0.0000 0.0000 0.0000 0.0000 22.8076 52.9121 14.1250 0.0000 0.0000 0.0000 0.0000 0.0000 0.0000 -75.2026 -1.5148 16.1603 -5.6189 -1.1714 3.4733 0.0000 0.0000 0.0000 0.0000 0.0000 0.0000 0.0000 0.0000 0.0000 0.0000 0.0000 0.0000 0.0000 0.0000 0.0000 0.0000 0.0000 0.0000 0.0000 0.0000 0.0000 0.0000 0.0000 0.0000 0.0000 0.0000 0.0000 0.0000 0.0000 0.0000 0.0000 0.0000 0.0000 0.0000 0.0000 0.0000 0.0000 0.0000 0.0000 0.0000 0.0000 0.0000 0.0000 0.0000 0.0000 0.0000 0.0000 0.0000 0.0000 0.0000 0.0000 56.3663 -27.5585 25.9800 -3.0580 45.7502 55.1124 -34.1660 34.6865 70.3362 -20.7127 -1.8783 -6.2118 15.6654 0.0000 0.0000 12.5247 0.0000 0.0000 64.8281 1.8361 2.7735 68.8116 0.0000 0.0000 25.5266 0.0000 0.0000 66.4075 -4.8543 12.1830 61.8401 0.0000 0.0000 24.3917 0.0000 0.0000 65.6605 -7.9083 14.4551 56.6059 0.0000 0.0000 25.7793 0.0000 0.0000 57.5017 -12.6912 18.0478 48.1110 0.0000 0.0000 32.2428 0.0000 0.0000 6.9143 -24.3964 -17.0444 0.0000 0.0000 0.0000 0.0000 0.0000 0.0000 14.3731 -19.7119 -16.9375 0.0000 0.0000 0.0000 0.0000 0.0000 0.0000
0.0714 0.3832 -0.0878 -3.4497 12.6896 14.8901 5.6535 1.4725 -14.5514 0.0000 0.0000 0.0000 0.0000 0.0000 0.0000 23.3814 54.2600 14.4129 0.0000 0.0000 0.0000 0.0000 0.0000 0.0000 -75.5705 0.3494 17.1784 -4.4376 -0.9202 2.7782 0.0000 0.0000 0.0000 0.0000 0.0000 0.0000 0.0000 0.0000 0.0000 0.0000 0.0000 0.0000 0.0000 0.0000 0.0000 0.0000 0.0000 0.0000 0.0000 0.0000 0.0000 0.0000 0.0000 0.0000 0.0000 0.0000 0.0000 0.0000 0.0000 0.0000 0.0000 0.0000 0.0000 0.0000 0.0000 0.0000 0.0000 0.0000 0.0000 0.0000 0.0000 0.0000 0.0000 0.0000 0.0000 0.0000 0.0000 0.0000 0.0000 0.0000 0.0000 49.6169 -26.5292 29.8286 -17.7792 59.0768 54.5421 -45.5072 12.2936 61.7653 -20.7127 -1.8783 -6.2118 15.6654 0.0000 0.0000 12.5247 0.0000 0.0000 64.8281 1.8361 2.7735 68.8116 0.0000 0.0000 25.5266 0.0000 0.0000 66.4075 -4.8543 12.1830 61.8401 0.0000 0.0000 24.3917 0.0000 0.0000 65.6605 -7.9083 14.4551 56.6059 0.0000 0.0000 25.7793 0.0000 0.0000 57.5017 -12.6912 18.0478 48.1110 0.0000 0.0000 32.2428 0.0000 0.0000 6.6128 -23.6087 -17.4397 0.0000 0.0000 0.0000 0.0000 0.0000 0.0000 14.0332 -20.0836 -17.6020 0.0000 0.0000 0.0000 0.0000 0.0000 0.0000
0.0675 0.3924 -0.0944 -3.5476 12.2776 13.8222 5.4044 1.3059 -13.5442 0.0000 0.0000 0.0000 0.0000 0.0000 0.0000 24.3218 54.6967 15.0451 0.0000 0.0000 0.0000 0.0000 0.0000 0.0000 -76.3642 -0.1639 15.6951 -3.2146 -1.8733 3.4970 0.0000 0.0000 0.0000 0.0000 0.0000 0.0000 0.0000 0.0000 0.0000 0.0000 0.0000 0.0000 0.0000 0.0000 0.0000 0.0000 0.0000 0.0000 0.0000 0.0000 0.0000 0.0000 0.0000 0.0000 0.0000 0.0000 0.0000 0.0000 0.0000 0.0000 0.0000 0.0000 0.0000 0.0000 0.0000 0.0000 0.0000 0.0000 0.0000 0.0000 0.0000 0.0000 0.0000 0.0000 0.0000 0.0000 0.0000 0.0000 0.0000 0.0000 0.0000 41.5401 -25.3858 34.0448 -56.2251 67.5512 27.6749 -50.9366 -10.0523 31.9815 -23.9494 -9.9305 8.9312 35.7751 0.0000 0.0000 8.0197 0.0000 0.0000 18.4965 0.8173 -0.3571 8.9940 0.0000 0.0000 8.0282 0.0000 0.0000 74.3036 -29.8261 43.5032 74.0568 0.0000 0.0000 78.3487 0.0000 0.0000 62.4940 -32.1641 44.3173 98.2424 0.0000 0.0000 62.0310 0.0000 0.0000 46.8198 -35.8607 47.3442 103.7630 0.0000 0.0000 53.8158 0.0000 0.0000 5.7377 -23.8626 -16.2670 0.0000 0.0000 0.0000 0.0000 0.0000 0.0000 13.0763 -18.6103 -16.1808 0.0000 0.0000 0.0000 0.0000 0.0000 0.0000
0.0642 0.3974 -0.1009 -3.3386 11.5186 13.1455 5.0235 1.1546 -12.9118 0.0000 0.0000 0.0000 0.0000 0.0000 0.0000 24.4528 55.9816 15.2752 0.0000 0.0000 0.0000 0.0000 0.0000 0.0000 -76.8496 0.0140 14.7821 -2.3020 -2.7856 4.3089 0.0000 0.0000 0.0000 0.0000 0.0000 0.0000 0.0000 0.0000 0.0000 0.0000 0.0000 0.0000 0.0000 0.0000 0.0000 0.0000 0.0000 0.0000 0.0000 0.0000 0.0000 0.0000 0.0000 0.0000 0.0000 0.0000 0.0000 0.0000 0.0000 0.0000 0.0000 0.0000 0.0000 0.0000 0.0000 0.0000 0.0000 0.0000 0.0000 0.0000 0.0000 0.0000 0.0000 0.0000 0.0000 0.0000 0.0000 0.0000 0.0000 0.0000 0.0000 31.7771 -22.9361 38.7509 -79.8798 63.3623 7.7058 -52.0018 -25.0937 39.1608 -18.7841 -9.8541 9.9747 31.0343 0.0000 0.0000 6.8390 0.0000 0.0000 14.0892 0.3849 -4.3039 3.4783 0.0000 0.0000 3.0854 0.0000 0.0000 77.4594 -33.0910 45.4231 62.9290 0.0000 0.0000 97.0404 0.0000 0.0000 71.1895 -35.8807 43.1421 75.8749 0.0000 0.0000 90.6321 0.0000 0.0000 60.5996 -41.7288 45.0249 82.6471 0.0000 0.0000 79.7780 0.0000 0.0000 5.0286 -23.5306 -15.3409 0.0000 0.0000 0.0000 0.0000 0.0000 0.0000 12.1493 -17.6285 -15.2087 0.0000 0.0000 0.0000 0.0000 0.0000 0.0000
0.0601 0.4392 -0.1220 -3.8162 11.9885 14.1094 5.7817 1.4265 -13.8128 0.0000 0.0000 0.0000 0.0000 0.0000 0.0000 23.5730 55.3996 14.6551 0.0000 0.0000 0.0000 0.0000 0.0000 0.0000 -78.2582 -3.1204 11.2254 -0.5073 -4.7495 6.0122 0.0000 0.0000 0.0000 0.0000 0.0000 0.0000 0.0000 0.0000 0.0000 0.0000 0.0000 0.0000 0.0000 0.0000 0.0000 0.0000 0.0000 0.0000 0.0000 0.0000 0.0000 0.0000 0.0000 0.0000 0.0000 0.0000 0.0000 0.0000 0.0000 0.0000 0.0000 0.0000 0.0000 0.0000 0.0000 0.0000 0.0000 0.0000 0.0000 0.0000 0.0000 0.0000 0.0000 0.0000 0.0000 0.0000 0.0000 0.0000 0.0000 0.0000 0.0000 22.9026 -21.3435 43.3368 -90.7309 57.4422 -3.0015 -52.4963 -38.7727 44.3886 -15.9708 -9.3221 9.5683 26.9235 0.0000 0.0000 13.0819 0.0000 0.0000 13.4003 0.4230 -2.8028 2.7043 0.0000 0.0000 4.1065 0.0000 0.0000 80.8250 -30.4645 40.2414 53.1076 0.0000 0.0000 104.8037 0.0000 0.0000 74.9174 -33.1270 38.2236 66.0560 0.0000 0.0000 98.7545 0.0000 0.0000 65.0347 -38.1678 39.2058 72.2380 0.0000 0.0000 82.8094 0.0000 0.0000 6.4997 -22.5120 -16.5698 0.0000 0.0000 0.0000 0.0000 0.0000 0.0000 14.3888 -17.4263 -16.4388 0.0000 0.0000 0.0000 0.0000 0.0000 0.0000
0.0570 0.4713 -0.1399 -4.1778 12.2974 14.8422 6.3454 1.6474 -14.4947 0.0000 0.0000 0.0000 0.0000 0.0000 0.0000 22.9363 55.0556 14.2285 0.0000 0.0000 0.0000 0.0000 0.0000 0.0000 -79.0084 -5.2068 8.9627 0.7112 -6.1400 7.2493 0.0000 0.0000 0.0000 0.0000 0.0000 0.0000 0.0000 0.0000 0.0000 0.0000 0.0000 0.0000 0.0000 0.0000 0.0000 0.0000 0.0000 0.0000 0.0000 0.0000 0.0000 0.0000 0.0000 0.0000 0.0000 0.0000 0.0000 0.0000 0.0000 0.0000 0.0000 0.0000 0.0000 0.0000 0.0000 0.0000 0.0000 0.0000 0.0000 0.0000 0.0000 0.0000 0.0000 0.0000 0.0000 0.0000 0.0000 0.0000 0.0000 0.0000 0.0000 17.4520 -20.0000 45.7987 -92.6956 54.4741 -5.6130 -53.2362 -44.4041 45.7908 -15.9708 -9.3221 9.5683 26.9235 0.0000 0.0000 13.0819 0.0000 0.0000 13.4003 0.4230 -2.8028 2.7043 0.0000 0.0000 4.1065 0.0000 0.0000 80.8250 -30.4645 40.2414 53.1076 0.0000 0.0000 104.8037 0.0000 0.0000 74.9174 -33.1270 38.2236 66.0560 0.0000 0.0000 98.7545 0.0000 0.0000 65.0347 -38.1678 39.2058 72.2380 0.0000 0.0000 82.8094 0.0000 0.0000 7.6071 -21.7080 -17.4704 0.0000 0.0000 0.0000 0.0000 0.0000 0.0000 16.0793 -17.2139 -17.3564 0.0000 0.0000 0.0000 0.0000 0.0000 0.0000
0.0600 0.4835 -0.1432 -4.0772 11.9314 14.6026 5.9868 1.5321 -14.3028 0.0000 0.0000 0.0000 0.0000 0.0000 0.0000 24.3335 55.6650 15.2454 0.0000 0.0000 0.0000 0.0000 0.0000 0.0000 -78.6472 -6.6272 6.7429 -0.0522 -6.6097 8.0430 0.0000 0.0000 0.0000 0.0000 0.0000 0.0000 0.0000 0.0000 0.0000 0.0000 0.0000 0.0000 0.0000 0.0000 0.0000 0.0000 0.0000 0.0000 0.0000 0.0000 0.0000 0.0000 0.0000 0.0000 0.0000 0.0000 0.0000 0.0000 0.0000 0.0000 0.0000 0.0000 0.0000 0.0000 0.0000 0.0000 0.0000 0.0000 0.0000 0.0000 0.0000 0.0000 0.0000 0.0000 0.0000 0.0000 0.0000 0.0000 0.0000 0.0000 0.0000 13.4406 -18.1578 46.8881 -88.8540 53.2610 -2.6082 -54.1514 -47.7227 49.3510 -11.5475 -8.8862 9.7246 27.4775 0.0000 0.0000 8.3232 0.0000 0.0000 12.5829 0.3429 -3.1425 4.3475 0.0000 0.0000 4.7595 0.0000 0.0000 84.1483 -27.3665 34.9580 53.8452 0.0000 0.0000 78.8565 0.0000 0.0000 79.0926 -29.2458 32.4608 61.3397 0.0000 0.0000 77.3825 0.0000 0.0000 70.2478 -33.9514 33.0801 63.3080 0.0000 0.0000 64.7955 0.0000 0.0000 7.3661 -21.5089 -17.1271 0.0000 0.0000 0.0000 0.0000 0.0000 0.0000 15.4698 -16.5120 -16.9136 0.0000 0.0000 0.0000 0.0000 0.0000 0.0000
0.0676 0.4810 -0.1366 -3.3737 11.3327 14.5536 4.8535 1.2437 -14.3385 0.0000 0.0000 0.0000 0.0000 0.0000 0.0000 26.9260 56.5484 17.1544 0.0000 0.0000 0.0000 0.0000 0.0000 0.0000 -77.6940 -5.9326 6.8600 -1.1667 -6.8725 8.7525 0.0000 0.0000 0.0000 0.0000 0.0000 0.0000 0.0000 0.0000 0.0000 0.0000 0.0000 0.0000 0.0000 0.0000 0.0000 0.0000 0.0000 0.0000 0.0000 0.0000 0.0000 0.0000 0.0000 0.0000 0.0000 0.0000 0.0000 0.0000 0.0000 0.0000 0.0000 0.0000 0.0000 0.0000 0.0000 0.0000 0.0000 0.0000 0.0000 0.0000 0.0000 0.0000 0.0000 0.0000 0.0000 0.0000 0.0000 0.0000 0.0000 0.0000 0.0000 11.0956 -16.6696 47.2900 -82.8636 53.3025 2.8558 -52.1709 -45.4851 45.1673 -10.1936 -9.1880 10.4882 24.4163 0.0000 0.0000 4.5996 0.0000 0.0000 15.0271 0.5689 -2.1009 8.1719 0.0000 0.0000 4.2388 0.0000 0.0000 81.9135 -29.9260 39.0005 55.5746 0.0000 0.0000 81.6489 0.0000 0.0000 76.9679 -32.6503 36.6957 62.9268 0.0000 0.0000 78.6899 0.0000 0.0000 66.2251 -36.7914 37.3730 62.2596 0.0000 0.0000 60.4001 0.0000 0.0000 5.9904 -22.0657 -16.7641 0.0000 0.0000 0.0000 0.0000 0.0000 0.0000 13.3890 -17.1067 -16.6817 0.0000 0.0000 0.0000 0.0000 0.0000 0.0000
0.0665 0.5016 -0.1468 -3.6250 11.5689 14.4328 5.0524 1.2833 -14.2153 0.0000 0.0000 0.0000 0.0000 0.0000 0.0000 27.5360 56.1406 17.4982 0.0000 0.0000 0.0000 0.0000 0.0000 0.0000 -78.2201 -7.5289 5.0582 -0.9148 -8.0093 9.9380 0.0000 0.0000 0.0000 0.0000 0.0000 0.0000 0.0000 0.0000 0.0000 0.0000 0.0000 0.0000 0.0000 0.0000 0.0000 0.0000 0.0000 0.0000 0.0000 0.0000 0.0000 0.0000 0.0000 0.0000 0.0000 0.0000 0.0000 0.0000 0.0000 0.0000 0.0000 0.0000 0.0000 0.0000 0.0000 0.0000 0.0000 0.0000 0.0000 0.0000 0.0000 0.0000 0.0000 0.0000 0.0000 0.0000 0.0000 0.0000 0.0000 0.0000 0.0000 9.2091 -16.1683 47.7750 -84.1671 53.3463 2.3731 -51.9644 -46.0407 47.7921 -9.9717 -8.2628 9.0224 24.0738 0.0000 0.0000 8.2520 0.0000 0.0000 15.3211 0.5724 -2.4251 11.2337 0.0000 0.0000 2.7273 0.0000 0.0000 84.1504 -28.9905 36.7321 56.8432 0.0000 0.0000 91.5180 0.0000 0.0000 78.2561 -32.8883 36.2746 69.9166 0.0000 0.0000 80.2777 0.0000 0.0000 72.4847 -37.0154 34.5490 65.9727 0.0000 0.0000 69.4892 0.0000 0.0000 6.7111 -22.2080 -16.8196 0.0000 0.0000 0.0000 0.0000 0.0000 0.0000 14.0044 -16.8979 -16.6165 0.0000 0.0000 0.0000 0.0000 0.0000 0.0000
0.0748 0.4947 -0.1373 -2.8554 11.4336 14.5190 4.2160 1.0790 -14.3295 0.0000 0.0000 0.0000 0.0000 0.0000 0.0000 28.9754 56.6760 18.5791 0.0000 0.0000 0.0000 0.0000 0.0000 0.0000 -77.6893 -7.3528 5.1328 -1.9461 -7.8912 10.1504 0.0000 0.0000 0.0000 0.0000 0.0000 0.0000 0.0000 0.0000 0.0000 0.0000 0.0000 0.0000 0.0000 0.0000 0.0000 0.0000 0.0000 0.0000 0.0000 0.0000 0.0000 0.0000 0.0000 0.0000 0.0000 0.0000 0.0000 0.0000 0.0000 0.0000 0.0000 0.0000 0.0000 0.0000 0.0000 0.0000 0.0000 0.0000 0.0000 0.0000 0.0000 0.0000 0.0000 0.0000 0.0000 0.0000 0.0000 0.0000 0.0000 0.0000 0.0000 8.0820 -15.6136 48.3185 -76.8465 54.3880 9.2105 -49.3233 -42.0558 48.7824 -5.2773 -7.7626 9.2193 23.6463 0.0000 0.0000 7.0480 0.0000 0.0000 23.8840 1.0586 0.0763 18.8705 0.0000 0.0000 4.7204 0.0000 0.0000 87.8164 -28.0088 33.8237 55.1649 0.0000 0.0000 89.3706 0.0000 0.0000 83.5787 -31.0477 32.1014 66.7318 0.0000 0.0000 79.1198 0.0000 0.0000 77.2935 -34.1719 30.2846 60.4629 0.0000 0.0000 61.9714 0.0000 0.0000 5.5904 -23.0494 -16.6326 0.0000 0.0000 0.0000 0.0000 0.0000 0.0000 12.5950 -17.7473 -16.5531 0.0000 0.0000 0.0000 0.0000 0.0000 0.0000
0.0814 0.4842 -0.1271 -2.6616 11.7315 14.3030 3.8045 0.9600 -14.1415 0.0000 0.0000 0.0000 0.0000 0.0000 0.0000 29.2598 56.3577 18.8395 0.0000 0.0000 0.0000 0.0000 0.0000 0.0000 -77.8118 -7.2352 5.5735 -1.8253 -7.7501 9.8975 0.0000 0.0000 0.0000 0.0000 0.0000 0.0000 0.0000 0.0000 0.0000 0.0000 0.0000 0.0000 0.0000 0.0000 0.0000 0.0000 0.0000 0.0000 0.0000 0.0000 0.0000 0.0000 0.0000 0.0000 0.0000 0.0000 0.0000 0.0000 0.0000 0.0000 0.0000 0.0000 0.0000 0.0000 0.0000 0.0000 0.0000 0.0000 0.0000 0.0000 0.0000 0.0000 0.0000 0.0000 0.0000 0.0000 0.0000 0.0000 0.0000 0.0000 0.0000 7.9146 -15.8882 48.2989 -71.3092 55.6136 15.2039 -43.5139 -35.6527 47.8010 -2.9589 -8.7729 11.1121 19.6689 0.0000 0.0000 6.8537 0.0000 0.0000 21.9735 0.9261 4.1305 16.8653 0.0000 0.0000 6.6168 0.0000 0.0000 79.9861 -27.5484 37.3513 50.7324 0.0000 0.0000 81.2311 0.0000 0.0000 77.6349 -30.6774 34.4767 58.3193 0.0000 0.0000 75.8978 0.0000 0.0000 71.4018 -33.7394 32.4090 48.8102 0.0000 0.0000 54.1724 0.0000 0.0000 4.8559 -24.0764 -16.3726 0.0000 0.0000 0.0000 0.0000 0.0000 0.0000 12.1023 -18.3705 -16.3295 0.0000 0.0000 0.0000 0.0000 0.0000 0.0000
0.0864 0.4763 -0.1193 -2.5133 11.9472 14.1391 3.4936 0.8721 -13.9987 0.0000 0.0000 0.0000 0.0000 0.0000 0.0000 29.4400 56.1250 19.0113 0.0000 0.0000 0.0000 0.0000 0.0000 0.0000 -77.9041 -7.1529 5.8895 -1.7288 -7.6573 9.7236 0.0000 0.0000 0.0000 0.0000 0.0000 0.0000 0.0000 0.0000 0.0000 0.0000 0.0000 0.0000 0.0000 0.0000 0.0000 0.0000 0.0000 0.0000 0.0000 0.0000 0.0000 0.0000 0.0000 0.0000 0.0000 0.0000 0.0000 0.0000 0.0000 0.0000 0.0000 0.0000 0.0000 0.0000 0.0000 0.0000 0.0000 0.0000 0.0000 0.0000 0.0000 0.0000 0.0000 0.0000 0.0000 0.0000 0.0000 0.0000 0.0000 0.0000 0.0000 7.8083 -16.0931 48.2665 -67.5558 56.1955 19.2525 -42.2514 -34.1436 45.7055 -2.9589 -8.7729 11.1121 19.6689 0.0000 0.0000 6.8537 0.0000 0.0000 21.9735 0.9261 4.1305 16.8653 0.0000 0.0000 6.6168 0.0000 0.0000 79.9861 -27.5484 37.3513 50.7324 0.0000 0.0000 81.2311 0.0000 0.0000 77.6349 -30.6774 34.4767 58.3193 0.0000 0.0000 75.8978 0.0000 0.0000 71.4018 -33.7394 32.4090 48.8102 0.0000 0.0000 54.1724 0.0000 0.0000 4.2846 -24.8319 -16.1615 0.0000 0.0000 0.0000 0.0000 0.0000 0.0000 11.7184 -18.8332 -16.1539 0.0000 0.0000 0.0000 0.0000 0.0000 0.0000
0.0870 0.4854 -0.1229 -3.0904 12.7840 14.4654 3.9853 1.0187 -14.3154 0.0000 0.0000 0.0000 0.0000 0.0000 0.0000 29.4678 55.0671 19.0085 0.0000 0.0000 0.0000 0.0000 0.0000 0.0000 -77.8786 -8.5518 5.0947 -1.2005 -7.6864 9.5482 0.0000 0.0000 0.0000 0.0000 0.0000 0.0000 0.0000 0.0000 0.0000 0.0000 0.0000 0.0000 0.0000 0.0000 0.0000 0.0000 0.0000 0.0000 0.0000 0.0000 0.0000 0.0000 0.0000 0.0000 0.0000 0.0000 0.0000 0.0000 0.0000 0.0000 0.0000 0.0000 0.0000 0.0000 0.0000 0.0000 0.0000 0.0000 0.0000 0.0000 0.0000 0.0000 0.0000 0.0000 0.0000 0.0000 0.0000 0.0000 0.0000 0.0000 0.0000 8.0052 -17.0257 47.5164 -67.2583 56.9399 20.7357 -48.2866 -37.5897 50.7234 0.7681 -6.4340 8.5947 16.1527 0.0000 0.0000 2.3640 0.0000 0.0000 38.5927 -0.2005 12.0637 23.7289 0.0000 0.0000 9.8003 0.0000 0.0000 87.3420 -24.3452 30.2366 49.4667 0.0000 0.0000 65.2978 0.0000 0.0000 85.5726 -27.2909 28.0806 53.1707 0.0000 0.0000 67.5636 0.0000 0.0000 82.0876 -30.4467 25.9059 44.5394 0.0000 0.0000 54.2579 0.0000 0.0000 5.3322 -24.3471 -16.8146 0.0000 0.0000 0.0000 0.0000 0.0000 0.0000 13.1461 -19.3957 -16.8403 0.0000 0.0000 0.0000 0.0000 0.0000 0.0000
0.0845 0.5101 -0.1349 -4.0308 13.8302 14.9452 4.7246 1.2503 -14.7898 0.0000 0.0000 0.0000 0.0000 0.0000 0.0000 29.0308 53.9561 18.8282 0.0000 0.0000 0.0000 0.0000 0.0000 0.0000 -77.9576 -9.3084 5.3233 0.0307 -8.0171 9.5409 0.0000 0.0000 0.0000 0.0000 0.0000 0.0000 0.0000 0.0000 0.0000 0.0000 0.0000 0.0000 0.0000 0.0000 0.0000 0.0000 0.0000 0.0000 0.0000 0.0000 0.0000 0.0000 0.0000 0.0000 0.0000 0.0000 0.0000 0.0000 0.0000 0.0000 0.0000 0.0000 0.0000 0.0000 0.0000 0.0000 0.0000 0.0000 0.0000 0.0000 0.0000 0.0000 0.0000 0.0000 0.0000 0.0000 0.0000 0.0000 0.0000 0.0000 0.0000 8.5502 -18.3636 46.9310 -69.7201 57.7383 19.3805 -54.2846 -43.5189 56.8038 2.0290 -3.8098 5.4933 30.5539 0.0000 0.0000 6.8529 0.0000 0.0000 63.9380 -5.9648 22.2176 13.1144 0.0000 0.0000 13.6479 0.0000 0.0000 94.7985 -18.9881 22.2574 53.3348 0.0000 0.0000 71.2904 0.0000 0.0000 92.3695 -20.5820 20.6463 61.1437 0.0000 0.0000 65.3974 0.0000 0.0000 87.3999 -24.7359 20.7596 54.7945 0.0000 0.0000 57.0828 0.0000 0.0000 6.6409 -24.4716 -17.8584 0.0000 0.0000 0.0000 0.0000 0.0000 0.0000 15.3297 -21.5979 -18.2316 0.0000 0.0000 0.0000 0.0000 0.0000 0.0000
0.0842 0.5112 -0.1380 -3.8778 13.6789 14.9345 4.4611 1.1812 -14.8002 0.0000 0.0000 0.0000 0.0000 0.0000 0.0000 28.9234 54.3115 18.8799 0.0000 0.0000 0.0000 0.0000 0.0000 0.0000 -77.8469 -8.8241 5.7385 0.4260 -7.5347 8.8779 0.0000 0.0000 0.0000 0.0000 0.0000 0.0000 0.0000 0.0000 0.0000 0.0000 0.0000 0.0000 0.0000 0.0000 0.0000 0.0000 0.0000 0.0000 0.0000 0.0000 0.0000 0.0000 0.0000 0.0000 0.0000 0.0000 0.0000 0.0000 0.0000 0.0000 0.0000 0.0000 0.0000 0.0000 0.0000 0.0000 0.0000 0.0000 0.0000 0.0000 0.0000 0.0000 0.0000 0.0000 0.0000 0.0000 0.0000 0.0000 0.0000 0.0000 0.0000 9.4866 -18.5738 46.5790 -69.4269 57.5296 19.2728 -58.9388 -46.2832 60.4925 -1.5036 -2.7879 3.1648 30.9474 0.0000 0.0000 10.1261 0.0000 0.0000 56.5284 -3.1530 17.5243 15.8115 0.0000 0.0000 14.3599 0.0000 0.0000 97.9882 -16.1362 18.8244 56.6580 0.0000 0.0000 87.2641 0.0000 0.0000 95.1471 -17.5405 17.8103 62.9686 0.0000 0.0000 72.1482 0.0000 0.0000 89.7019 -22.0799 18.6929 56.1835 0.0000 0.0000 59.4828 0.0000 0.0000 6.6867 -24.9540 -17.8565 0.0000 0.0000 0.0000 0.0000 0.0000 0.0000 15.1660 -22.9750 -18.4525 0.0000 0.0000 0.0000 0.0000 0.0000 0.0000
0.0827 0.5040 -0.1365 -3.1455 12.8701 15.3931 3.6357 0.9954 -15.2911 0.0000 0.0000 0.0000 0.0000 0.0000 0.0000 28.8629 55.4259 19.0535 0.0000 0.0000 0.0000 0.0000 0.0000 0.0000 -77.4614 -7.0991 6.9604 -0.1957 -6.5824 7.9660 0.0000 0.0000 0.0000 0.0000 0.0000 0.0000 0.0000 0.0000 0.0000 0.0000 0.0000 0.0000 0.0000 0.0000 0.0000 0.0000 0.0000 0.0000 0.0000 0.0000 0.0000 0.0000 0.0000 0.0000 0.0000 0.0000 0.0000 0.0000 0.0000 0.0000 0.0000 0.0000 0.0000 0.0000 0.0000 0.0000 0.0000 0.0000 0.0000 0.0000 0.0000 0.0000 0.0000 0.0000 0.0000 0.0000 0.0000 0.0000 0.0000 0.0000 0.0000 10.3475 -18.0926 46.3803 -68.2670 56.8878 19.6005 -55.7548 -46.0470 52.1532 -2.7442 -4.5651 5.2338 26.9630 0.0000 0.0000 6.7966 0.0000 0.0000 41.0091 -0.3501 12.0473 15.5648 0.0000 0.0000 6.5093 0.0000 0.0000 98.0376 -19.6611 21.8927 53.0626 0.0000 0.0000 90.9694 0.0000 0.0000 94.1103 -21.2322 20.6615 63.3226 0.0000 0.0000 77.3822 0.0000 0.0000 87.7357 -24.9749 20.8122 57.9087 0.0000 0.0000 62.0741 0.0000 0.0000 5.8677 -25.3054 -17.9879 0.0000 0.0000 0.0000 0.0000 0.0000 0.0000 14.3265 -25.0371 -19.0265 0.0000 0.0000 0.0000 0.0000 0.0000 0.0000
0.0877 0.4942 -0.1255 -2.9467 13.4587 15.4842 3.5511 0.9773 -15.3671 0.0000 0.0000 0.0000 0.0000 0.0000 0.0000 28.6504 54.9042 18.8884 0.0000 0.0000 0.0000 0.0000 0.0000 0.0000 -77.3572 -8.1643 6.3491 -0.7982 -6.2771 7.7559 0.0000 0.0000 0.0000 0.0000 0.0000 0.0000 0.0000 0.0000 0.0000 0.0000 0.0000 0.0000 0.0000 0.0000 0.0000 0.0000 0.0000 0.0000 0.0000 0.0000 0.0000 0.0000 0.0000 0.0000 0.0000 0.0000 0.0000 0.0000 0.0000 0.0000 0.0000 0.0000 0.0000 0.0000 0.0000 0.0000 0.0000 0.0000 0.0000 0.0000 0.0000 0.0000 0.0000 0.0000 0.0000 0.0000 0.0000 0.0000 0.0000 0.0000 0.0000 9.5172 -18.3536 46.3479 -66.1265 55.9009 21.0486 -52.0877 -44.0705 46.0297 -5.3308 -6.0830 6.7299 23.0284 0.0000 0.0000 3.4850 0.0000 0.0000 28.1031 0.9112 5.0952 11.5210 0.0000 0.0000 7.1001 0.0000 0.0000 92.6041 -21.7080 25.5365 53.2563 0.0000 0.0000 93.5977 0.0000 0.0000 87.5388 -22.8150 23.7356 62.3853 0.0000 0.0000 82.5469 0.0000 0.0000 81.5419 -27.5134 24.1439 62.7610 0.0000 0.0000 70.5777 0.0000 0.0000 5.2088 -24.6846 -17.8891 0.0000 0.0000 0.0000 0.0000 0.0000 0.0000 13.9712 -23.6913 -18.7240 0.0000 0.0000 0.0000 0.0000 0.0000 0.0000
0.0915 0.4867 -0.1171 -2.7948 13.9126 15.5561 3.4902 0.9643 -15.4260 0.0000 0.0000 0.0000 0.0000 0.0000 0.0000 28.4950 54.5000 18.7666 0.0000 0.0000 0.0000 0.0000 0.0000 0.0000 -77.2579 -9.0104 5.8428 -1.2641 -6.0398 7.5783 0.0000 0.0000 0.0000 0.0000 0.0000 0.0000 0.0000 0.0000 0.0000 0.0000 0.0000 0.0000 0.0000 0.0000 0.0000 0.0000 0.0000 0.0000 0.0000 0.0000 0.0000 0.0000 0.0000 0.0000 0.0000 0.0000 0.0000 0.0000 0.0000 0.0000 0.0000 0.0000 0.0000 0.0000 0.0000 0.0000 0.0000 0.0000 0.0000 0.0000 0.0000 0.0000 0.0000 0.0000 0.0000 0.0000 0.0000 0.0000 0.0000 0.0000 0.0000 8.9066 -18.5651 46.2951 -64.6197 55.1540 22.0599 -52.2634 -43.2964 46.5100 -5.3308 -6.0830 6.7299 23.0284 0.0000 0.0000 3.4850 0.0000 0.0000 28.1031 0.9112 5.0952 11.5210 0.0000 0.0000 7.1001 0.0000 0.0000 92.6041 -21.7080 25.5365 53.2563 0.0000 0.0000 93.5977 0.0000 0.0000 87.5388 -22.8150 23.7356 62.3853 0.0000 0.0000 82.5469 0.0000 0.0000 81.5419 -27.5134 24.1439 62.7610 0.0000 0.0000 70.5777 0.0000 0.0000 4.7002 -24.1408 -17.8172 0.0000 0.0000 0.0000 0.0000 0.0000 0.0000 13.7171 -22.8315 -18.5378 0.0000 0.0000 0.0000 0.0000 0.0000 0.0000
0.0994 0.4911 -0.1099 -2.3816 13.7898 15.9067 3.3019 0.9325 -15.7530 0.0000 0.0000 0.0000 0.0000 0.0000 0.0000 29.0707 55.0026 19.1840 0.0000 0.0000 0.0000 0.0000 0.0000 0.0000 -77.5910 -9.0238 5.6916 -1.6613 -5.9245 7.5016 0.0000 0.0000 0.0000 0.0000 0.0000 0.0000 0.0000 0.0000 0.0000 0.0000 0.0000 0.0000 0.0000 0.0000 0.0000 0.0000 0.0000 0.0000 0.0000 0.0000 0.0000 0.0000 0.0000 0.0000 0.0000 0.0000 0.0000 0.0000 0.0000 0.0000 0.0000 0.0000 0.0000 0.0000 0.0000 0.0000 0.0000 0.0000 0.0000 0.0000 0.0000 0.0000 0.0000 0.0000 0.0000 0.0000 0.0000 0.0000 0.0000 0.0000 0.0000 8.3448 -18.1859 46.2890 -63.2177 54.2640 22.8302 -48.7011 -41.5085 43.0467 -10.4666 -7.5586 7.7644 28.4297 0.0000 0.0000 4.5223 0.0000 0.0000 17.1620 0.8086 1.4663 7.7535 0.0000 0.0000 5.8888 0.0000 0.0000 84.8579 -22.9507 29.8153 55.7295 0.0000 0.0000 85.0538 0.0000 0.0000 78.8355 -24.5751 28.2169 64.4818 0.0000 0.0000 77.0966 0.0000 0.0000 67.7056 -29.4992 30.4211 65.7876 0.0000 0.0000 58.8346 0.0000 0.0000 3.8495 -24.1606 -17.9479 0.0000 0.0000 0.0000 0.0000 0.0000 0.0000 13.4121 -22.3743 -18.6503 0.0000 0.0000 0.0000 0.0000 0.0000 0.0000
0.1006 0.4929 -0.1112 -2.2223 13.3234 15.9036 3.0916 0.8737 -15.7643 0.0000 0.0000 0.0000 0.0000 0.0000 0.0000 29.7698 55.7673 19.7551 0.0000 0.0000 0.0000 0.0000 0.0000 0.0000 -77.2919 -8.7191 5.5156 -1.8248 -6.0021 7.6711 0.0000 0.0000 0.0000 0.0000 0.0000 0.0000 0.0000 0.0000 0.0000 0.0000 0.0000 0.0000 0.0000 0.0000 0.0000 0.0000 0.0000 0.0000 0.0000 0.0000 0.0000 0.0000 0.0000 0.0000 0.0000 0.0000 0.0000 0.0000 0.0000 0.0000 0.0000 0.0000 0.0000 0.0000 0.0000 0.0000 0.0000 0.0000 0.0000 0.0000 0.0000 0.0000 0.0000 0.0000 0.0000 0.0000 0.0000 0.0000 0.0000 0.0000 0.0000 7.9745 -17.6415 47.1962 -63.1996 53.5894 21.6334 -46.4455 -40.6486 40.7737 -9.4789 -8.6297 9.7176 27.3110 0.0000 0.0000 5.0080 0.0000 0.0000 12.1072 0.5447 0.0368 5.2441 0.0000 0.0000 3.8689 0.0000 0.0000 81.7406 -24.4869 32.9280 57.4182 0.0000 0.0000 71.0240 0.0000 0.0000 77.7309 -26.9683 30.9044 64.4051 0.0000 0.0000 72.0303 0.0000 0.0000 66.9595 -31.8081 32.6956 63.3105 0.0000 0.0000 58.5759 0.0000 0.0000 3.8633 -24.6672 -17.9142 0.0000 0.0000 0.0000 0.0000 0.0000 0.0000 12.9764 -21.5385 -18.4168 0.0000 0.0000 0.0000 0.0000 0.0000 0.0000
0.1060 0.4936 -0.1075 -2.0946 12.9713 16.0660 2.8074 0.8032 -15.9525 0.0000 0.0000 0.0000 0.0000 0.0000 0.0000 30.9222 56.3244 20.6640 0.0000 0.0000 0.0000 0.0000 0.0000 0.0000 -76.8781 -8.3522 5.5273 -1.8601 -6.1648 7.9200 0.0000 0.0000 0.0000 0.0000 0.0000 0.0000 0.0000 0.0000 0.0000 0.0000 0.0000 0.0000 0.0000 0.0000 0.0000 0.0000 0.0000 0.0000 0.0000 0.0000 0.0000 0.0000 0.0000 0.0000 0.0000 0.0000 0.0000 0.0000 0.0000 0.0000 0.0000 0.0000 0.0000 0.0000 0.0000 0.0000 0.0000 0.0000 0.0000 0.0000 0.0000 0.0000 0.0000 0.0000 0.0000 0.0000 0.0000 0.0000 0.0000 0.0000 0.0000 8.1325 -17.4238 47.7127 -61.6002 53.5655 22.6675 -45.7599 -38.8318 41.8593 -8.4972 -8.2076 9.2432 27.2781 0.0000 0.0000 4.9447 0.0000 0.0000 12.9552 0.4968 -1.2386 7.8636 0.0000 0.0000 3.0296 0.0000 0.0000 84.0579 -25.0524 32.4665 53.7528 0.0000 0.0000 81.4135 0.0000 0.0000 78.3142 -27.7323 31.3812 67.2377 0.0000 0.0000 78.1523 0.0000 0.0000 67.2063 -31.9001 32.6698 61.9549 0.0000 0.0000 56.7153 0.0000 0.0000 3.4966 -25.2420 -18.0294 0.0000 0.0000 0.0000 0.0000 0.0000 0.0000 12.6344 -20.6820 -18.3787 0.0000 0.0000 0.0000 0.0000 0.0000 0.0000
0.1101 0.4887 -0.1046 -1.6980 12.5229 15.8647 2.3115 0.6533 -15.7742 0.0000 0.0000 0.0000 0.0000 0.0000 0.0000 31.9830 56.6480 21.3543 0.0000 0.0000 0.0000 0.0000 0.0000 0.0000 -76.6797 -9.0817 3.9645 -2.1347 -6.1905 7.9678 0.0000 0.0000 0.0000 0.0000 0.0000 0.0000 0.0000 0.0000 0.0000 0.0000 0.0000 0.0000 0.0000 0.0000 0.0000 0.0000 0.0000 0.0000 0.0000 0.0000 0.0000 0.0000 0.0000 0.0000 0.0000 0.0000 0.0000 0.0000 0.0000 0.0000 0.0000 0.0000 0.0000 0.0000 0.0000 0.0000 0.0000 0.0000 0.0000 0.0000 0.0000 0.0000 0.0000 0.0000 0.0000 0.0000 0.0000 0.0000 0.0000 0.0000 0.0000 7.8657 -16.8760 48.0533 -61.1271 54.0507 23.5749 -42.3972 -39.0120 45.0791 -6.3757 -7.3992 8.4458 28.6549 0.0000 0.0000 10.5667 0.0000 0.0000 19.5554 0.8853 1.6947 13.4662 0.0000 0.0000 5.9074 0.0000 0.0000 87.4066 -22.2427 28.0175 56.0980 0.0000 0.0000 96.9967 0.0000 0.0000 83.9863 -23.9346 25.8114 77.8766 0.0000 0.0000 79.0377 0.0000 0.0000 77.1868 -27.6413 25.6056 67.3472 0.0000 0.0000 67.6501 0.0000 0.0000 3.3633 -25.0962 -17.6289 0.0000 0.0000 0.0000 0.0000 0.0000 0.0000 11.7079 -20.1394 -17.8909 0.0000 0.0000 0.0000 0.0000 0.0000 0.0000
0.1058 0.4979 -0.1131 -2.0541 12.7538 15.9922 2.6294 0.7495 -15.8990 0.0000 0.0000 0.0000 0.0000 0.0000 0.0000 31.4869 56.4629 21.0685 0.0000 0.0000 0.0000 0.0000 0.0000 0.0000 -76.5232 -9.8288 3.2427 -1.7374 -6.2252 7.9016 0.0000 0.0000 0.0000 0.0000 0.0000 0.0000 0.0000 0.0000 0.0000 0.0000 0.0000 0.0000 0.0000 0.0000 0.0000 0.0000 0.0000 0.0000 0.0000 0.0000 0.0000 0.0000 0.0000 0.0000 0.0000 0.0000 0.0000 0.0000 0.0000 0.0000 0.0000 0.0000 0.0000 0.0000 0.0000 0.0000 0.0000 0.0000 0.0000 0.0000 0.0000 0.0000 0.0000 0.0000 0.0000 0.0000 0.0000 0.0000 0.0000 0.0000 0.0000 7.5364 -17.0435 48.5578 -61.5095 55.2461 24.1058 -44.6843 -32.2802 48.6102 -3.0259 -6.6635 8.1031 23.3554 0.0000 0.0000 2.7659 0.0000 0.0000 24.0168 0.9760 3.0103 18.4633 0.0000 0.0000 7.7568 0.0000 0.0000 82.4719 -25.9200 34.1935 52.4537 0.0000 0.0000 75.9521 0.0000 0.0000 79.8944 -28.9503 31.8366 56.3987 0.0000 0.0000 71.7881 0.0000 0.0000 73.7439 -32.8429 30.7273 48.2449 0.0000 0.0000 55.7417 0.0000 0.0000 4.2209 -25.2838 -18.0205 0.0000 0.0000 0.0000 0.0000 0.0000 0.0000 12.4373 -19.7122 -18.1162 0.0000 0.0000 0.0000 0.0000 0.0000 0.0000
0.1025 0.5047 -0.1197 -2.3210 12.9309 16.0879 2.8690 0.8230 -15.9921 0.0000 0.0000 0.0000 0.0000 0.0000 0.0000 31.0999 56.3223 20.8453 0.0000 0.0000 0.0000 0.0000 0.0000 0.0000 -76.3910 -10.3992 2.6871 -1.4262 -6.2753 7.8862 0.0000 0.0000 0.0000 0.0000 0.0000 0.0000 0.0000 0.0000 0.0000 0.0000 0.0000 0.0000 0.0000 0.0000 0.0000 0.0000 0.0000 0.0000 0.0000 0.0000 0.0000 0.0000 0.0000 0.0000 0.0000 0.0000 0.0000 0.0000 0.0000 0.0000 0.0000 0.0000 0.0000 0.0000 0.0000 0.0000 0.0000 0.0000 0.0000 0.0000 0.0000 0.0000 0.0000 0.0000 0.0000 0.0000 0.0000 0.0000 0.0000 0.0000 0.0000 7.2889 -17.1712 48.9324 -61.8561 56.1422 24.4406 -44.1126 -33.0742 47.2535 -3.0259 -6.6635 8.1031 23.3554 0.0000 0.0000 2.7659 0.0000 0.0000 24.0168 0.9760 3.0103 18.4633 0.0000 0.0000 7.7568 0.0000 0.0000 82.4719 -25.9200 34.1935 52.4537 0.0000 0.0000 75.9521 0.0000 0.0000 79.8944 -28.9503 31.8366 56.3987 0.0000 0.0000 71.7881 0.0000 0.0000 73.7439 -32.8429 30.7273 48.2449 0.0000 0.0000 55.7417 0.0000 0.0000 4.8742 -25.4225 -18.3188 0.0000 0.0000 0.0000 0.0000 0.0000 0.0000 12.9859 -19.4000 -18.2810 0.0000 0.0000 0.0000 0.0000 0.0000 0.0000
0.0920 0.5097 -0.1332 -2.6940 12.5192 15.8996 3.1881 0.9035 -15.8065 0.0000 0.0000 0.0000 0.0000 0.0000 0.0000 29.8640 56.4446 19.9654 0.0000 0.0000 0.0000 0.0000 0.0000 0.0000 -76.9876 -9.6885 3.0869 -0.5109 -6.7846 8.2702 0.0000 0.0000 0.0000 0.0000 0.0000 0.0000 0.0000 0.0000 0.0000 0.0000 0.0000 0.0000 0.0000 0.0000 0.0000 0.0000 0.0000 0.0000 0.0000 0.0000 0.0000 0.0000 0.0000 0.0000 0.0000 0.0000 0.0000 0.0000 0.0000 0.0000 0.0000 0.0000 0.0000 0.0000 0.0000 0.0000 0.0000 0.0000 0.0000 0.0000 0.0000 0.0000 0.0000 0.0000 0.0000 0.0000 0.0000 0.0000 0.0000 0.0000 0.0000 8.0537 -17.0193 48.5055 -65.8836 57.2406 21.6568 -49.3668 -39.4190 56.8527 1.7151 -4.4640 6.2485 24.2508 0.0000 0.0000 5.0837 0.0000 0.0000 33.8008 0.6397 7.4117 20.3499 0.0000 0.0000 13.6281 0.0000 0.0000 87.2436 -18.3164 23.9749 52.1188 0.0000 0.0000 67.7197 0.0000 0.0000 85.4449 -20.5906 22.5389 56.9960 0.0000 0.0000 63.7802 0.0000 0.0000 82.3977 -24.2497 21.7680 48.0188 0.0000 0.0000 51.6107 0.0000 0.0000 5.6970 -25.2147 -18.3149 0.0000 0.0000 0.0000 0.0000 0.0000 0.0000 13.6755 -20.6707 -18.5037 0.0000 0.0000 0.0000 0.0000 0.0000 0.0000
0.0833 0.5171 -0.1439 -2.9654 12.7162 16.1676 3.5590 1.0255 -16.0534 0.0000 0.0000 0.0000 0.0000 0.0000 0.0000 28.9546 56.3353 19.3801 0.0000 0.0000 0.0000 0.0000 0.0000 0.0000 -77.0767 -8.9532 4.3417 -0.0714 -6.8440 8.2628 0.0000 0.0000 0.0000 0.0000 0.0000 0.0000 0.0000 0.0000 0.0000 0.0000 0.0000 0.0000 0.0000 0.0000 0.0000 0.0000 0.0000 0.0000 0.0000 0.0000 0.0000 0.0000 0.0000 0.0000 0.0000 0.0000 0.0000 0.0000 0.0000 0.0000 0.0000 0.0000 0.0000 0.0000 0.0000 0.0000 0.0000 0.0000 0.0000 0.0000 0.0000 0.0000 0.0000 0.0000 0.0000 0.0000 0.0000 0.0000 0.0000 0.0000 0.0000 8.6354 -17.4864 48.5747 -68.2058 57.5466 19.2712 -55.9164 -44.3937 66.0310 -0.5603 -1.8907 2.2676 29.1537 0.0000 0.0000 12.8347 0.0000 0.0000 59.9167 -3.0954 16.2199 7.7228 0.0000 0.0000 14.7795 0.0000 0.0000 92.9119 -12.0414 16.2205 55.7746 0.0000 0.0000 84.9556 0.0000 0.0000 89.8321 -13.6509 16.0081 65.7912 0.0000 0.0000 75.6115 0.0000 0.0000 87.0276 -18.9490 17.4688 62.3666 0.0000 0.0000 68.2298 0.0000 0.0000 6.5447 -25.2423 -18.8123 0.0000 0.0000 0.0000 0.0000 0.0000 0.0000 14.6673 -21.5786 -19.1342 0.0000 0.0000 0.0000 0.0000 0.0000 0.0000
0.0781 0.5240 -0.1524 -3.2397 12.4832 16.3113 3.7652 1.0956 -16.2008 0.0000 0.0000 0.0000 0.0000 0.0000 0.0000 28.4712 56.3144 19.0382 0.0000 0.0000 0.0000 0.0000 0.0000 0.0000 -77.2985 -8.0541 5.1910 0.4050 -7.0316 8.3461 0.0000 0.0000 0.0000 0.0000 0.0000 0.0000 0.0000 0.0000 0.0000 0.0000 0.0000 0.0000 0.0000 0.0000 0.0000 0.0000 0.0000 0.0000 0.0000 0.0000 0.0000 0.0000 0.0000 0.0000 0.0000 0.0000 0.0000 0.0000 0.0000 0.0000 0.0000 0.0000 0.0000 0.0000 0.0000 0.0000 0.0000 0.0000 0.0000 0.0000 0.0000 0.0000 0.0000 0.0000 0.0000 0.0000 0.0000 0.0000 0.0000 0.0000 0.0000 9.1972 -17.4419 48.0966 -70.1635 57.2981 17.4482 -56.7987 -46.3067 64.1279 -4.8452 -1.8279 0.7408 35.4878 0.0000 0.0000 15.4482 0.0000 0.0000 54.9766 -2.0472 14.5834 12.9064 0.0000 0.0000 14.8403 0.0000 0.0000 93.8707 -12.2926 16.2664 55.4400 0.0000 0.0000 92.1523 0.0000 0.0000 93.4143 -14.2652 15.8352 64.6684 0.0000 0.0000 81.4529 0.0000 0.0000 89.1760 -19.1038 17.1483 58.0008 0.0000 0.0000 70.9008 0.0000 0.0000 7.0618 -24.9265 -19.0767 0.0000 0.0000 0.0000 0.0000 0.0000 0.0000 15.2751 -21.8335 -19.5012 0.0000 0.0000 0.0000 0.0000 0.0000 0.0000
0.0736 0.5262 -0.1570 -3.6092 12.5611 15.9215 4.1036 1.1639 -15.8076 0.0000 0.0000 0.0000 0.0000 0.0000 0.0000 27.5555 56.3169 18.4500 0.0000 0.0000 0.0000 0.0000 0.0000 0.0000 -77.4180 -8.6316 4.5297 0.0243 -7.2193 8.6414 0.0000 0.0000 0.0000 0.0000 0.0000 0.0000 0.0000 0.0000 0.0000 0.0000 0.0000 0.0000 0.0000 0.0000 0.0000 0.0000 0.0000 0.0000 0.0000 0.0000 0.0000 0.0000 0.0000 0.0000 0.0000 0.0000 0.0000 0.0000 0.0000 0.0000 0.0000 0.0000 0.0000 0.0000 0.0000 0.0000 0.0000 0.0000 0.0000 0.0000 0.0000 0.0000 0.0000 0.0000 0.0000 0.0000 0.0000 0.0000 0.0000 0.0000 0.0000 9.4817 -17.5977 47.8012 -74.2638 56.7394 13.4033 -61.4585 -50.1272 64.8861 -9.4994 -2.7872 0.4697 38.9867 0.0000 0.0000 16.4946 0.0000 0.0000 39.4424 0.3273 8.5741 13.9153 0.0000 0.0000 8.6552 0.0000 0.0000 96.9690 -11.3020 14.7835 55.4363 0.0000 0.0000 94.8736 0.0000 0.0000 93.9765 -12.6460 14.5915 64.6280 0.0000 0.0000 81.1998 0.0000 0.0000 89.0561 -16.4563 15.6996 61.2495 0.0000 0.0000 69.1676 0.0000 0.0000 7.5035 -25.0464 -18.8721 0.0000 0.0000 0.0000 0.0000 0.0000 0.0000 15.4594 -20.7080 -18.9947 0.0000 0.0000 0.0000 0.0000 0.0000 0.0000
0.0723 0.5335 -0.1603 -3.8382 12.3025 15.9224 4.3076 1.2220 -15.8076 0.0000 0.0000 0.0000 0.0000 0.0000 0.0000 26.8395 56.4855 17.9794 0.0000 0.0000 0.0000 0.0000 0.0000 0.0000 -77.9038 -8.9992 3.6760 0.3323 -7.4467 8.7613 0.0000 0.0000 0.0000 0.0000 0.0000 0.0000 0.0000 0.0000 0.0000 0.0000 0.0000 0.0000 0.0000 0.0000 0.0000 0.0000 0.0000 0.0000 0.0000 0.0000 0.0000 0.0000 0.0000 0.0000 0.0000 0.0000 0.0000 0.0000 0.0000 0.0000 0.0000 0.0000 0.0000 0.0000 0.0000 0.0000 0.0000 0.0000 0.0000 0.0000 0.0000 0.0000 0.0000 0.0000 0.0000 0.0000 0.0000 0.0000 0.0000 0.0000 0.0000 9.1175 -17.1195 47.4013 -78.5618 56.3074 10.0366 -58.1764 -54.1383 54.9177 -6.0589 -5.0627 5.0347 28.1778 0.0000 0.0000 10.2021 0.0000 0.0000 25.8561 0.9173 4.9872 7.0807 0.0000 0.0000 6.3570 0.0000 0.0000 95.9965 -17.0291 20.1272 51.7895 0.0000 0.0000 86.7955 0.0000 0.0000 92.7334 -18.3758 18.9412 60.5426 0.0000 0.0000 82.8103 0.0000 0.0000 89.8258 -21.2850 18.2261 57.4220 0.0000 0.0000 75.7178 0.0000 0.0000 7.7337 -24.7231 -18.9282 0.0000 0.0000 0.0000 0.0000 0.0000 0.0000 15.7178 -21.3663 -19.2490 0.0000 0.0000 0.0000 0.0000 0.0000 0.0000
0.0713 0.5391 -0.1627 -4.0104 12.1064 15.9247 4.4615 1.2659 -15.8089 0.0000 0.0000 0.0000 0.0000 0.0000 0.0000 26.2898 56.6105 17.6179 0.0000 0.0000 0.0000 0.0000 0.0000 0.0000 -78.2616 -9.2748 3.0442 0.5562 -7.6214 8.8611 0.0000 0.0000 0.0000 0.0000 0.0000 0.0000 0.0000 0.0000 0.0000 0.0000 0.0000 0.0000 0.0000 0.0000 0.0000 0.0000 0.0000 0.0000 0.0000 0.0000 0.0000 0.0000 0.0000 0.0000 0.0000 0.0000 0.0000 0.0000 0.0000 0.0000 0.0000 0.0000 0.0000 0.0000 0.0000 0.0000 0.0000 0.0000 0.0000 0.0000 0.0000 0.0000 0.0000 0.0000 0.0000 0.0000 0.0000 0.0000 0.0000 0.0000 0.0000 8.8311 -16.7542 47.0948 -81.6655 55.8422 7.5912 -59.7627 -56.0682 56.7735 -6.0589 -5.0627 5.0347 28.1778 0.0000 0.0000 10.2021 0.0000 0.0000 25.8561 0.9173 4.9872 7.0807 0.0000 0.0000 6.3570 0.0000 0.0000 95.9965 -17.0291 20.1272 51.7895 0.0000 0.0000 86.7955 0.0000 0.0000 92.7334 -18.3758 18.9412 60.5426 0.0000 0.0000 82.8103 0.0000 0.0000 89.8258 -21.2850 18.2261 57.4220 0.0000 0.0000 75.7178 0.0000 0.0000 7.9042 -24.4785 -18.9701 0.0000 0.0000 0.0000 0.0000 0.0000 0.0000 15.9134 -21.8643 -19.4465 0.0000 0.0000 0.0000 0.0000 0.0000 0.0000
0.0787 0.5185 -0.1478 -3.1053 11.9319 16.0660 3.9735 1.1352 -15.9193 0.0000 0.0000 0.0000 0.0000 0.0000 0.0000 26.3042 57.2691 17.5883 0.0000 0.0000 0.0000 0.0000 0.0000 0.0000 -78.0347 -9.0007 3.3519 -0.4398 -6.8669 8.2796 0.0000 0.0000 0.0000 0.0000 0.0000 0.0000 0.0000 0.0000 0.0000 0.0000 0.0000 0.0000 0.0000 0.0000 0.0000 0.0000 0.0000 0.0000 0.0000 0.0000 0.0000 0.0000 0.0000 0.0000 0.0000 0.0000 0.0000 0.0000 0.0000 0.0000 0.0000 0.0000 0.0000 0.0000 0.0000 0.0000 0.0000 0.0000 0.0000 0.0000 0.0000 0.0000 0.0000 0.0000 0.0000 0.0000 0.0000 0.0000 0.0000 0.0000 0.0000 7.7847 -16.0794 47.2086 -77.5458 55.0740 10.6794 -53.7779 -54.7662 50.5291 -7.7412 -6.1185 6.1685 24.6527 0.0000 0.0000 4.7224 0.0000 0.0000 18.4471 0.8781 3.0504 4.9391 0.0000 0.0000 4.6919 0.0000 0.0000 92.8316 -17.9484 21.8676 53.7966 0.0000 0.0000 89.2277 0.0000 0.0000 89.5171 -19.7684 20.7735 64.3110 0.0000 0.0000 83.5152 0.0000 0.0000 83.6398 -22.9102 20.5992 62.2907 0.0000 0.0000 68.5946 0.0000 0.0000 6.7484 -24.0896 -18.6067 0.0000 0.0000 0.0000 0.0000 0.0000 0.0000 14.7210 -20.7148 -18.9406 0.0000 0.0000 0.0000 0.0000 0.0000 0.0000
0.0867 0.5051 -0.1365 -2.5786 11.6831 16.0181 3.4115 0.9724 -15.8900 0.0000 0.0000 0.0000 0.0000 0.0000 0.0000 27.2662 57.9915 18.3698 0.0000 0.0000 0.0000 0.0000 0.0000 0.0000 -77.2986 -9.0556 2.9969 -1.2429 -6.4214 7.9982 0.0000 0.0000 0.0000 0.0000 0.0000 0.0000 0.0000 0.0000 0.0000 0.0000 0.0000 0.0000 0.0000 0.0000 0.0000 0.0000 0.0000 0.0000 0.0000 0.0000 0.0000 0.0000 0.0000 0.0000 0.0000 0.0000 0.0000 0.0000 0.0000 0.0000 0.0000 0.0000 0.0000 0.0000 0.0000 0.0000 0.0000 0.0000 0.0000 0.0000 0.0000 0.0000 0.0000 0.0000 0.0000 0.0000 0.0000 0.0000 0.0000 0.0000 0.0000 7.6810 -15.8132 47.5800 -74.4389 54.9987 12.9967 -48.2224 -51.1181 45.3306 -6.9133 -6.6183 7.1406 22.0321 0.0000 0.0000 6.0404 0.0000 0.0000 17.1247 0.8604 3.2263 6.1554 0.0000 0.0000 2.6703 0.0000 0.0000 91.3302 -21.1694 25.4660 56.3897 0.0000 0.0000 94.9334 0.0000 0.0000 89.8980 -23.6336 23.6525 68.6912 0.0000 0.0000 89.8475 0.0000 0.0000 82.5112 -27.0077 23.5191 61.3800 0.0000 0.0000 76.6890 0.0000 0.0000 5.9788 -24.1371 -18.2820 0.0000 0.0000 0.0000 0.0000 0.0000 0.0000 13.4081 -19.1203 -18.3210 0.0000 0.0000 0.0000 0.0000 0.0000 0.0000
0.0888 0.5100 -0.1359 -2.7346 12.0730 16.0346 3.4723 0.9912 -15.9119 0.0000 0.0000 0.0000 0.0000 0.0000 0.0000 28.8454 57.6063 19.4355 0.0000 0.0000 0.0000 0.0000 0.0000 0.0000 -76.7514 -10.0098 2.2046 -1.4287 -6.7118 8.4152 0.0000 0.0000 0.0000 0.0000 0.0000 0.0000 0.0000 0.0000 0.0000 0.0000 0.0000 0.0000 0.0000 0.0000 0.0000 0.0000 0.0000 0.0000 0.0000 0.0000 0.0000 0.0000 0.0000 0.0000 0.0000 0.0000 0.0000 0.0000 0.0000 0.0000 0.0000 0.0000 0.0000 0.0000 0.0000 0.0000 0.0000 0.0000 0.0000 0.0000 0.0000 0.0000 0.0000 0.0000 0.0000 0.0000 0.0000 0.0000 0.0000 0.0000 0.0000 7.3677 -16.1523 47.9934 -72.8277 55.6396 14.7416 -47.4232 -45.7360 48.1684 -3.6702 -7.1926 8.7183 27.0506 0.0000 0.0000 9.6281 0.0000 0.0000 27.6113 0.7909 7.0546 12.2657 0.0000 0.0000 5.1942 0.0000 0.0000 90.6378 -23.9166 28.4312 52.0863 0.0000 0.0000 83.7390 0.0000 0.0000 88.0036 -25.7261 25.9196 65.6927 0.0000 0.0000 76.5958 0.0000 0.0000 82.3179 -29.2973 25.0723 52.8428 0.0000 0.0000 60.6096 0.0000 0.0000 6.2514 -24.1356 -18.3990 0.0000 0.0000 0.0000 0.0000 0.0000 0.0000 13.4319 -19.4805 -18.4372 0.0000 0.0000 0.0000 0.0000 0.0000 0.0000
0.0902 0.5182 -0.1366 -3.1220 12.7468 16.2522 3.8790 1.1223 -16.1119 0.0000 0.0000 0.0000 0.0000 0.0000 0.0000 28.7473 56.8262 19.3340 0.0000 0.0000 0.0000 0.0000 0.0000 0.0000 -76.6421 -10.5351 2.3529 -0.7853 -7.1431 8.8175 0.0000 0.0000 0.0000 0.0000 0.0000 0.0000 0.0000 0.0000 0.0000 0.0000 0.0000 0.0000 0.0000 0.0000 0.0000 0.0000 0.0000 0.0000 0.0000 0.0000 0.0000 0.0000 0.0000 0.0000 0.0000 0.0000 0.0000 0.0000 0.0000 0.0000 0.0000 0.0000 0.0000 0.0000 0.0000 0.0000 0.0000 0.0000 0.0000 0.0000 0.0000 0.0000 0.0000 0.0000 0.0000 0.0000 0.0000 0.0000 0.0000 0.0000 0.0000 7.2497 -16.8123 47.8414 -72.5831 56.9578 16.2933 -46.7809 -41.2122 59.0641 2.1215 -4.5630 6.4740 24.6737 0.0000 0.0000 4.9115 0.0000 0.0000 30.3272 0.8111 6.2559 19.9196 0.0000 0.0000 8.7845 0.0000 0.0000 86.7132 -18.8943 24.7605 48.9126 0.0000 0.0000 69.9392 0.0000 0.0000 84.1311 -21.5788 23.7563 56.4739 0.0000 0.0000 67.8594 0.0000 0.0000 79.7674 -25.2008 23.1194 47.3814 0.0000 0.0000 51.8256 0.0000 0.0000 6.9996 -24.0651 -18.8636 0.0000 0.0000 0.0000 0.0000 0.0000 0.0000 14.5674 -18.8589 -18.7263 0.0000 0.0000 0.0000 0.0000 0.0000 0.0000
0.0969 0.5059 -0.1247 -3.0593 12.8824 16.5917 3.5555 1.0536 -16.4857 0.0000 0.0000 0.0000 0.0000 0.0000 0.0000 29.6706 56.5971 20.0626 0.0000 0.0000 0.0000 0.0000 0.0000 0.0000 -76.2549 -9.3804 3.9752 -1.1457 -6.5238 8.1894 0.0000 0.0000 0.0000 0.0000 0.0000 0.0000 0.0000 0.0000 0.0000 0.0000 0.0000 0.0000 0.0000 0.0000 0.0000 0.0000 0.0000 0.0000 0.0000 0.0000 0.0000 0.0000 0.0000 0.0000 0.0000 0.0000 0.0000 0.0000 0.0000 0.0000 0.0000 0.0000 0.0000 0.0000 0.0000 0.0000 0.0000 0.0000 0.0000 0.0000 0.0000 0.0000 0.0000 0.0000 0.0000 0.0000 0.0000 0.0000 0.0000 0.0000 0.0000 8.6645 -17.4954 46.7352 -67.9463 57.6841 21.4933 -54.3976 -43.0259 71.6699 -20.6666 -3.0206 -4.0009 51.3227 0.0000 0.0000 20.5994 0.0000 0.0000 49.8125 -0.4315 10.1967 14.7428 0.0000 0.0000 12.9482 0.0000 0.0000 92.5256 -8.9918 13.3773 56.6412 0.0000 0.0000 81.9800 0.0000 0.0000 88.5757 -10.4236 13.7160 69.0801 0.0000 0.0000 72.1955 0.0000 0.0000 84.9601 -13.1944 14.4075 62.2446 0.0000 0.0000 63.7700 0.0000 0.0000 5.9646 -22.1900 -18.8583 0.0000 0.0000 0.0000 0.0000 0.0000 0.0000 14.8796 -19.7881 -19.2649 0.0000 0.0000 0.0000 0.0000 0.0000 0.0000
0.1020 0.4966 -0.1157 -3.0113 12.9888 16.8505 3.3095 0.9985 -16.7710 0.0000 0.0000 0.0000 0.0000 0.0000 0.0000 30.3687 56.4163 20.6115 0.0000 0.0000 0.0000 0.0000 0.0000 0.0000 -75.9170 -8.5371 5.1910 -1.4364 -6.1142 7.7997 0.0000 0.0000 0.0000 0.0000 0.0000 0.0000 0.0000 0.0000 0.0000 0.0000 0.0000 0.0000 0.0000 0.0000 0.0000 0.0000 0.0000 0.0000 0.0000 0.0000 0.0000 0.0000 0.0000 0.0000 0.0000 0.0000 0.0000 0.0000 0.0000 0.0000 0.0000 0.0000 0.0000 0.0000 0.0000 0.0000 0.0000 0.0000 0.0000 0.0000 0.0000 0.0000 0.0000 0.0000 0.0000 0.0000 0.0000 0.0000 0.0000 0.0000 0.0000 9.7781 -17.9979 45.8271 -64.0752 58.0793 25.7542 -52.2088 -41.2214 69.5225 -20.6666 -3.0206 -4.0009 51.3227 0.0000 0.0000 20.5994 0.0000 0.0000 49.8125 -0.4315 10.1967 14.7428 0.0000 0.0000 12.9482 0.0000 0.0000 92.5256 -8.9918 13.3773 56.6412 0.0000 0.0000 81.9800 0.0000 0.0000 88.5757 -10.4236 13.7160 69.0801 0.0000 0.0000 72.1955 0.0000 0.0000 84.9601 -13.1944 14.4075 62.2446 0.0000 0.0000 63.7700 0.0000 0.0000 5.1498 -20.7140 -18.8735 0.0000 0.0000 0.0000 0.0000 0.0000 0.0000 15.1233 -20.4766 -19.6764 0.0000 0.0000 0.0000 0.0000 0.0000 0.0000
0.1006 0.4972 -0.1169 -2.8655 13.0809 16.5386 3.2460 0.9596 -16.4519 0.0000 0.0000 0.0000 0.0000 0.0000 0.0000 29.9318 56.1429 20.1999 0.0000 0.0000 0.0000 0.0000 0.0000 0.0000 -76.0640 -8.4177 5.5135 -1.0990 -6.0304 7.6250 0.0000 0.0000 0.0000 0.0000 0.0000 0.0000 0.0000 0.0000 0.0000 0.0000 0.0000 0.0000 0.0000 0.0000 0.0000 0.0000 0.0000 0.0000 0.0000 0.0000 0.0000 0.0000 0.0000 0.0000 0.0000 0.0000 0.0000 0.0000 0.0000 0.0000 0.0000 0.0000 0.0000 0.0000 0.0000 0.0000 0.0000 0.0000 0.0000 0.0000 0.0000 0.0000 0.0000 0.0000 0.0000 0.0000 0.0000 0.0000 0.0000 0.0000 0.0000 9.8084 -18.1020 45.9461 -63.9432 57.7335 25.3205 -48.5834 -41.9576 68.4470 -26.7028 -4.0331 -5.2260 54.3090 0.0000 0.0000 25.6603 0.0000 0.0000 48.3420 -0.4098 10.3935 13.2667 0.0000 0.0000 13.2435 0.0000 0.0000 93.1219 -7.4580 11.8352 60.1490 0.0000 0.0000 81.3531 0.0000 0.0000 88.6219 -8.8331 12.4748 72.7081 0.0000 0.0000 67.5839 0.0000 0.0000 83.2792 -12.0095 13.8910 71.8643 0.0000 0.0000 55.5998 0.0000 0.0000 5.4737 -22.5308 -18.7383 0.0000 0.0000 0.0000 0.0000 0.0000 0.0000 14.9931 -21.1920 -19.4285 0.0000 0.0000 0.0000 0.0000 0.0000 0.0000
0.0947 0.4990 -0.1252 -2.8440 12.9131 16.3863 3.2536 0.9523 -16.2975 0.0000 0.0000 0.0000 0.0000 0.0000 0.0000 29.5010 56.4394 19.9386 0.0000 0.0000 0.0000 0.0000 0.0000 0.0000 -76.3606 -7.6037 6.3900 -0.3529 -5.9026 7.2840 0.0000 0.0000 0.0000 0.0000 0.0000 0.0000 0.0000 0.0000 0.0000 0.0000 0.0000 0.0000 0.0000 0.0000 0.0000 0.0000 0.0000 0.0000 0.0000 0.0000 0.0000 0.0000 0.0000 0.0000 0.0000 0.0000 0.0000 0.0000 0.0000 0.0000 0.0000 0.0000 0.0000 0.0000 0.0000 0.0000 0.0000 0.0000 0.0000 0.0000 0.0000 0.0000 0.0000 0.0000 0.0000 0.0000 0.0000 0.0000 0.0000 0.0000 0.0000 10.0229 -18.0327 46.1783 -63.6495 57.3295 24.8350 -47.4425 -40.6154 66.9729 -26.4393 -4.1491 -4.8171 52.9172 0.0000 0.0000 23.9652 0.0000 0.0000 38.0681 0.7194 6.3095 12.4709 0.0000 0.0000 9.0121 0.0000 0.0000 92.1107 -8.4267 12.8948 57.1423 0.0000 0.0000 77.9951 0.0000 0.0000 89.5000 -10.1820 13.4091 72.5264 0.0000 0.0000 69.2521 0.0000 0.0000 84.9365 -13.2555 14.4471 71.5813 0.0000 0.0000 64.1987 0.0000 0.0000 5.5710 -23.6635 -18.7033 0.0000 0.0000 0.0000 0.0000 0.0000 0.0000 14.7225 -22.5662 -19.5180 0.0000 0.0000 0.0000 0.0000 0.0000 0.0000
0.0926 0.5019 -0.1295 -2.9648 13.0888 16.3671 3.5347 1.0318 -16.2530 0.0000 0.0000 0.0000 0.0000 0.0000 0.0000 29.0829 56.0748 19.5242 0.0000 0.0000 0.0000 0.0000 0.0000 0.0000 -76.4253 -8.1629 5.9198 -0.2704 -5.9073 7.2724 0.0000 0.0000 0.0000 0.0000 0.0000 0.0000 0.0000 0.0000 0.0000 0.0000 0.0000 0.0000 0.0000 0.0000 0.0000 0.0000 0.0000 0.0000 0.0000 0.0000 0.0000 0.0000 0.0000 0.0000 0.0000 0.0000 0.0000 0.0000 0.0000 0.0000 0.0000 0.0000 0.0000 0.0000 0.0000 0.0000 0.0000 0.0000 0.0000 0.0000 0.0000 0.0000 0.0000 0.0000 0.0000 0.0000 0.0000 0.0000 0.0000 0.0000 0.0000 9.9794 -18.1798 46.2048 -65.4667 57.0671 22.7656 -48.0375 -41.3967 64.1286 -6.8561 -2.1286 0.4508 40.0464 0.0000 0.0000 14.0666 0.0000 0.0000 37.0525 0.4963 7.9293 11.8073 0.0000 0.0000 7.8120 0.0000 0.0000 93.4583 -10.5336 14.6913 53.5939 0.0000 0.0000 78.3459 0.0000 0.0000 91.0313 -12.8521 15.2040 68.8975 0.0000 0.0000 70.2855 0.0000 0.0000 85.4382 -17.3610 16.8248 68.2028 0.0000 0.0000 60.6248 0.0000 0.0000 6.2007 -24.5054 -18.9038 0.0000 0.0000 0.0000 0.0000 0.0000 0.0000 14.7436 -22.2179 -19.4656 0.0000 0.0000 0.0000 0.0000 0.0000 0.0000
0.0828 0.5224 -0.1469 -3.5890 13.3841 16.5804 4.3672 1.2895 -16.4181 0.0000 0.0000 0.0000 0.0000 0.0000 0.0000 27.3602 55.9796 18.3916 0.0000 0.0000 0.0000 0.0000 0.0000 0.0000 -76.8234 -7.9503 6.6149 0.6755 -6.5633 7.8035 0.0000 0.0000 0.0000 0.0000 0.0000 0.0000 0.0000 0.0000 0.0000 0.0000 0.0000 0.0000 0.0000 0.0000 0.0000 0.0000 0.0000 0.0000 0.0000 0.0000 0.0000 0.0000 0.0000 0.0000 0.0000 0.0000 0.0000 0.0000 0.0000 0.0000 0.0000 0.0000 0.0000 0.0000 0.0000 0.0000 0.0000 0.0000 0.0000 0.0000 0.0000 0.0000 0.0000 0.0000 0.0000 0.0000 0.0000 0.0000 0.0000 0.0000 0.0000 9.6200 -18.3530 46.4701 -69.5568 57.6998 19.4468 -48.2449 -43.2227 64.2714 -7.8573 -2.2328 0.2364 40.9243 0.0000 0.0000 13.9080 0.0000 0.0000 35.7538 0.6219 7.2379 12.6648 0.0000 0.0000 6.8066 0.0000 0.0000 92.5581 -10.4266 14.7454 53.6154 0.0000 0.0000 74.2068 0.0000 0.0000 90.5612 -12.4280 14.9611 68.4694 0.0000 0.0000 70.0724 0.0000 0.0000 85.2110 -16.5080 16.3534 65.9698 0.0000 0.0000 63.5072 0.0000 0.0000 7.5009 -24.9893 -19.5822 0.0000 0.0000 0.0000 0.0000 0.0000 0.0000 16.3309 -23.0961 -20.2567 0.0000 0.0000 0.0000 0.0000 0.0000 0.0000
0.0827 0.5104 -0.1412 -3.1005 13.1430 16.4695 4.0148 1.1763 -16.3035 0.0000 0.0000 0.0000 0.0000 0.0000 0.0000 27.1843 56.2249 18.2129 0.0000 0.0000 0.0000 0.0000 0.0000 0.0000 -76.6741 -7.4869 6.9941 -0.0865 -6.1243 7.5176 0.0000 0.0000 0.0000 0.0000 0.0000 0.0000 0.0000 0.0000 0.0000 0.0000 0.0000 0.0000 0.0000 0.0000 0.0000 0.0000 0.0000 0.0000 0.0000 0.0000 0.0000 0.0000 0.0000 0.0000 0.0000 0.0000 0.0000 0.0000 0.0000 0.0000 0.0000 0.0000 0.0000 0.0000 0.0000 0.0000 0.0000 0.0000 0.0000 0.0000 0.0000 0.0000 0.0000 0.0000 0.0000 0.0000 0.0000 0.0000 0.0000 0.0000 0.0000 9.2764 -17.9692 46.7930 -67.6012 57.0059 20.4623 -48.6697 -42.1730 64.8736 -6.7526 -2.1336 0.4958 38.6546 0.0000 0.0000 14.1264 0.0000 0.0000 36.0721 0.5631 7.6240 10.6215 0.0000 0.0000 7.6894 0.0000 0.0000 93.0565 -10.6146 14.8377 55.1535 0.0000 0.0000 80.8523 0.0000 0.0000 90.9083 -12.4128 14.8955 71.9637 0.0000 0.0000 72.0175 0.0000 0.0000 84.9543 -16.8441 16.5983 68.7180 0.0000 0.0000 65.2532 0.0000 0.0000 6.8780 -25.1787 -19.2295 0.0000 0.0000 0.0000 0.0000 0.0000 0.0000 15.2180 -22.9745 -19.8247 0.0000 0.0000 0.0000 0.0000 0.0000 0.0000
0.0826 0.5012 -0.1368 -2.7255 12.9608 16.3836 3.7450 1.0907 -16.2145 0.0000 0.0000 0.0000 0.0000 0.0000 0.0000 27.0565 56.4068 18.0783 0.0000 0.0000 0.0000 0.0000 0.0000 0.0000 -76.5579 -7.1415 7.2736 -0.6666 -5.7847 7.2891 0.0000 0.0000 0.0000 0.0000 0.0000 0.0000 0.0000 0.0000 0.0000 0.0000 0.0000 0.0000 0.0000 0.0000 0.0000 0.0000 0.0000 0.0000 0.0000 0.0000 0.0000 0.0000 0.0000 0.0000 0.0000 0.0000 0.0000 0.0000 0.0000 0.0000 0.0000 0.0000 0.0000 0.0000 0.0000 0.0000 0.0000 0.0000 0.0000 0.0000 0.0000 0.0000 0.0000 0.0000 0.0000 0.0000 0.0000 0.0000 0.0000 0.0000 0.0000 9.0178 -17.6771 47.0408 -66.2143 56.4718 21.1415 -48.3693 -41.4539 64.8517 -6.7526 -2.1336 0.4958 38.6546 0.0000 0.0000 14.1264 0.0000 0.0000 36.0721 0.5631 7.6240 10.6215 0.0000 0.0000 7.6894 0.0000 0.0000 93.0565 -10.6146 14.8377 55.1535 0.0000 0.0000 80.8523 0.0000 0.0000 90.9083 -12.4128 14.8955 71.9637 0.0000 0.0000 72.0175 0.0000 0.0000 84.9543 -16.8441 16.5983 68.7180 0.0000 0.0000 65.2532 0.0000 0.0000 6.3998 -25.3139 -18.9553 0.0000 0.0000 0.0000 0.0000 0.0000 0.0000 14.3591 -22.8869 -19.4971 0.0000 0.0000 0.0000 0.0000 0.0000 0.0000
0.0840 0.5075 -0.1390 -2.6623 12.8326 16.3757 3.9227 1.1398 -16.1767 0.0000 0.0000 0.0000 0.0000 0.0000 0.0000 26.6328 56.5860 17.7038 0.0000 0.0000 0.0000 0.0000 0.0000 0.0000 -76.9106 -7.2558 6.9999 -0.5883 -5.8507 7.3338 0.0000 0.0000 0.0000 0.0000 0.0000 0.0000 0.0000 0.0000 0.0000 0.0000 0.0000 0.0000 0.0000 0.0000 0.0000 0.0000 0.0000 0.0000 0.0000 0.0000 0.0000 0.0000 0.0000 0.0000 0.0000 0.0000 0.0000 0.0000 0.0000 0.0000 0.0000 0.0000 0.0000 0.0000 0.0000 0.0000 0.0000 0.0000 0.0000 0.0000 0.0000 0.0000 0.0000 0.0000 0.0000 0.0000 0.0000 0.0000 0.0000 0.0000 0.0000 8.9026 -17.4193 46.7277 -66.8045 56.5764 20.9948 -48.3418 -41.7972 65.3231 -7.7127 -2.3983 0.5375 38.7778 0.0000 0.0000 15.1213 0.0000 0.0000 39.2007 0.2315 9.2041 10.6519 0.0000 0.0000 8.6227 0.0000 0.0000 92.4730 -11.0195 15.3284 54.8447 0.0000 0.0000 80.2886 0.0000 0.0000 91.1562 -12.5194 14.9362 69.2055 0.0000 0.0000 71.8749 0.0000 0.0000 85.0760 -16.9214 16.6241 66.1251 0.0000 0.0000 63.9082 0.0000 0.0000 6.2917 -25.0113 -18.8693 0.0000 0.0000 0.0000 0.0000 0.0000 0.0000 14.6361 -23.7997 -19.6817 0.0000 0.0000 0.0000 0.0000 0.0000 0.0000
0.0903 0.5018 -0.1284 -2.5077 13.2067 16.0756 3.6793 1.0488 -15.8893 0.0000 0.0000 0.0000 0.0000 0.0000 0.0000 26.9859 56.2845 17.9656 0.0000 0.0000 0.0000 0.0000 0.0000 0.0000 -76.8516 -7.7952 6.7502 -0.6769 -5.9741 7.4981 0.0000 0.0000 0.0000 0.0000 0.0000 0.0000 0.0000 0.0000 0.0000 0.0000 0.0000 0.0000 0.0000 0.0000 0.0000 0.0000 0.0000 0.0000 0.0000 0.0000 0.0000 0.0000 0.0000 0.0000 0.0000 0.0000 0.0000 0.0000 0.0000 0.0000 0.0000 0.0000 0.0000 0.0000 0.0000 0.0000 0.0000 0.0000 0.0000 0.0000 0.0000 0.0000 0.0000 0.0000 0.0000 0.0000 0.0000 0.0000 0.0000 0.0000 0.0000 8.8818 -17.7768 46.4577 -64.7493 56.2456 22.8140 -48.2930 -42.0871 65.8651 -4.7413 -1.7297 0.6388 34.4271 0.0000 0.0000 13.7012 0.0000 0.0000 41.5609 0.0978 9.4475 9.3105 0.0000 0.0000 9.3886 0.0000 0.0000 93.0902 -9.1148 13.4097 52.5064 0.0000 0.0000 79.8876 0.0000 0.0000 91.6389 -10.7710 13.5726 64.9980 0.0000 0.0000 71.2845 0.0000 0.0000 85.5411 -15.1111 15.4689 61.6718 0.0000 0.0000 62.4777 0.0000 0.0000 5.7690 -25.9565 -18.5579 0.0000 0.0000 0.0000 0.0000 0.0000 0.0000 14.2614 -23.4796 -19.1897 0.0000 0.0000 0.0000 0.0000 0.0000 0.0000
0.0824 0.5216 -0.1456 -3.3748 13.2669 15.9170 4.3551 1.2296 -15.7365 0.0000 0.0000 0.0000 0.0000 0.0000 0.0000 26.6309 56.1215 17.7715 0.0000 0.0000 0.0000 0.0000 0.0000 0.0000 -77.1955 -7.5919 6.9996 0.4538 -6.6418 7.9533 0.0000 0.0000 0.0000 0.0000 0.0000 0.0000 0.0000 0.0000 0.0000 0.0000 0.0000 0.0000 0.0000 0.0000 0.0000 0.0000 0.0000 0.0000 0.0000 0.0000 0.0000 0.0000 0.0000 0.0000 0.0000 0.0000 0.0000 0.0000 0.0000 0.0000 0.0000 0.0000 0.0000 0.0000 0.0000 0.0000 0.0000 0.0000 0.0000 0.0000 0.0000 0.0000 0.0000 0.0000 0.0000 0.0000 0.0000 0.0000 0.0000 0.0000 0.0000 9.4776 -18.0860 46.2980 -69.0153 57.1260 19.5455 -54.5756 -44.7515 67.5760 -20.0655 -3.4295 -2.9170 49.5790 0.0000 0.0000 22.1924 0.0000 0.0000 47.4016 -0.2848 10.0655 8.4528 0.0000 0.0000 8.4905 0.0000 0.0000 94.8422 -9.7213 13.7079 59.7109 0.0000 0.0000 89.4435 0.0000 0.0000 93.5715 -11.3083 13.7017 71.0104 0.0000 0.0000 79.9929 0.0000 0.0000 89.0546 -14.8591 14.8165 63.9637 0.0000 0.0000 74.2537 0.0000 0.0000 6.9767 -25.7242 -18.8349 0.0000 0.0000 0.0000 0.0000 0.0000 0.0000 15.8221 -23.0474 -19.4134 0.0000 0.0000 0.0000 0.0000 0.0000 0.0000
0.0795 0.5425 -0.1538 -4.1592 14.1993 15.7893 5.1467 1.4388 -15.5771 0.0000 0.0000 0.0000 0.0000 0.0000 0.0000 25.9650 55.0907 17.2905 0.0000 0.0000 0.0000 0.0000 0.0000 0.0000 -77.5316 -7.9465 7.6896 1.6681 -6.9708 7.9516 0.0000 0.0000 0.0000 0.0000 0.0000 0.0000 0.0000 0.0000 0.0000 0.0000 0.0000 0.0000 0.0000 0.0000 0.0000 0.0000 0.0000 0.0000 0.0000 0.0000 0.0000 0.0000 0.0000 0.0000 0.0000 0.0000 0.0000 0.0000 0.0000 0.0000 0.0000 0.0000 0.0000 0.0000 0.0000 0.0000 0.0000 0.0000 0.0000 0.0000 0.0000 0.0000 0.0000 0.0000 0.0000 0.0000 0.0000 0.0000 0.0000 0.0000 0.0000 10.0946 -19.2954 46.1214 -71.4115 57.9353 17.7461 -61.7586 -46.2889 68.9511 -27.9915 -4.3790 -5.2162 55.5227 0.0000 0.0000 30.9064 0.0000 0.0000 45.6123 -0.3169 10.5813 3.3142 0.0000 0.0000 5.7307 0.0000 0.0000 94.3163 -10.6607 14.6622 56.9894 0.0000 0.0000 79.2795 0.0000 0.0000 92.0743 -12.9624 15.1174 63.6488 0.0000 0.0000 75.7669 0.0000 0.0000 86.1975 -17.1729 16.5815 56.7922 0.0000 0.0000 63.9269 0.0000 0.0000 8.3017 -26.0959 -19.2531 0.0000 0.0000 0.0000 0.0000 0.0000 0.0000 17.7755 -23.8193 -19.9190 0.0000 0.0000 0.0000 0.0000 0.0000 0.0000
0.0803 0.5436 -0.1534 -3.9785 14.6881 15.3936 5.2681 1.4293 -15.1371 0.0000 0.0000 0.0000 0.0000 0.0000 0.0000 24.8594 54.4201 16.3655 0.0000 0.0000 0.0000 0.0000 0.0000 0.0000 -77.9527 -7.8815 8.4474 1.7190 -6.5986 7.4797 0.0000 0.0000 0.0000 0.0000 0.0000 0.0000 0.0000 0.0000 0.0000 0.0000 0.0000 0.0000 0.0000 0.0000 0.0000 0.0000 0.0000 0.0000 0.0000 0.0000 0.0000 0.0000 0.0000 0.0000 0.0000 0.0000 0.0000 0.0000 0.0000 0.0000 0.0000 0.0000 0.0000 0.0000 0.0000 0.0000 0.0000 0.0000 0.0000 0.0000 0.0000 0.0000 0.0000 0.0000 0.0000 0.0000 0.0000 0.0000 0.0000 0.0000 0.0000 11.2650 -20.2216 46.1325 -73.4755 57.9916 15.0289 -68.0504 -48.4562 70.3854 -28.3948 -4.6378 -4.8642 50.8558 0.0000 0.0000 35.9974 0.0000 0.0000 35.7190 0.7724 6.1111 4.6876 0.0000 0.0000 2.8086 0.0000 0.0000 91.3338 -8.4182 12.9970 63.9614 0.0000 0.0000 76.5360 0.0000 0.0000 92.2618 -11.6431 14.1255 71.8144 0.0000 0.0000 76.9415 0.0000 0.0000 91.0384 -16.9780 15.6647 68.1224 0.0000 0.0000 73.4336 0.0000 0.0000 7.9172 -26.5738 -18.8069 0.0000 0.0000 0.0000 0.0000 0.0000 0.0000 17.6832 -24.3274 -19.5147 0.0000 0.0000 0.0000 0.0000 0.0000 0.0000
0.0809 0.5444 -0.1531 -3.8431 15.0533 15.0976 5.3602 1.4211 -14.8062 0.0000 0.0000 0.0000 0.0000 0.0000 0.0000 24.0345 53.9178 15.6817 0.0000 0.0000 0.0000 0.0000 0.0000 0.0000 -78.2685 -7.8429 8.9881 1.7508 -6.3421 7.1554 0.0000 0.0000 0.0000 0.0000 0.0000 0.0000 0.0000 0.0000 0.0000 0.0000 0.0000 0.0000 0.0000 0.0000 0.0000 0.0000 0.0000 0.0000 0.0000 0.0000 0.0000 0.0000 0.0000 0.0000 0.0000 0.0000 0.0000 0.0000 0.0000 0.0000 0.0000 0.0000 0.0000 0.0000 0.0000 0.0000 0.0000 0.0000 0.0000 0.0000 0.0000 0.0000 0.0000 0.0000 0.0000 0.0000 0.0000 0.0000 0.0000 0.0000 0.0000 12.1143 -20.8961 46.1406 -74.9826 57.9704 13.0429 -68.2601 -47.6901 71.3910 -28.3948 -4.6378 -4.8642 50.8558 0.0000 0.0000 35.9974 0.0000 0.0000 35.7190 0.7724 6.1111 4.6876 0.0000 0.0000 2.8086 0.0000 0.0000 91.3338 -8.4182 12.9970 63.9614 0.0000 0.0000 76.5360 0.0000 0.0000 92.2618 -11.6431 14.1255 71.8144 0.0000 0.0000 76.9415 0.0000 0.0000 91.0384 -16.9780 15.6647 68.1224 0.0000 0.0000 73.4336 0.0000 0.0000 7.6214 -26.9290 -18.4692 0.0000 0.0000 0.0000 0.0000 0.0000 0.0000 17.6115 -24.7079 -19.2094 0.0000 0.0000 0.0000 0.0000 0.0000 0.0000
0.0756 0.5398 -0.1560 -3.5275 14.3209 15.7500 4.8882 1.3589 -15.4978 0.0000 0.0000 0.0000 0.0000 0.0000 0.0000 24.3155 54.4252 15.9429 0.0000 0.0000 0.0000 0.0000 0.0000 0.0000 -78.2862 -6.7412 9.4004 1.5337 -5.9208 6.6863 0.0000 0.0000 0.0000 0.0000 0.0000 0.0000 0.0000 0.0000 0.0000 0.0000 0.0000 0.0000 0.0000 0.0000 0.0000 0.0000 0.0000 0.0000 0.0000 0.0000 0.0000 0.0000 0.0000 0.0000 0.0000 0.0000 0.0000 0.0000 0.0000 0.0000 0.0000 0.0000 0.0000 0.0000 0.0000 0.0000 0.0000 0.0000 0.0000 0.0000 0.0000 0.0000 0.0000 0.0000 0.0000 0.0000 0.0000 0.0000 0.0000 0.0000 0.0000 15.7578 -21.6346 45.8101 -76.5935 58.8492 10.7222 -76.2911 -44.9568 75.8642 -32.1419 -4.7295 -7.0538 45.1127 0.0000 0.0000 44.2662 0.0000 0.0000 24.2893 1.1362 -1.7659 12.9820 0.0000 0.0000 6.0442 0.0000 0.0000 85.2114 -3.4773 8.5525 73.4240 0.0000 0.0000 68.2238 0.0000 0.0000 88.7083 -7.8634 11.7141 81.8026 0.0000 0.0000 76.8884 0.0000 0.0000 85.6171 -15.8534 15.8977 83.8755 0.0000 0.0000 69.6701 0.0000 0.0000 7.5772 -27.2766 -19.0561 0.0000 0.0000 0.0000 0.0000 0.0000 0.0000 17.8013 -26.8741 -20.3748 0.0000 0.0000 0.0000 0.0000 0.0000 0.0000
0.0731 0.5210 -0.1497 -3.2318 13.6219 16.3117 4.3998 1.2727 -16.1018 0.0000 0.0000 0.0000 0.0000 0.0000 0.0000 24.3730 54.9318 16.0775 0.0000 0.0000 0.0000 0.0000 0.0000 0.0000 -78.2641 -4.9035 10.7922 1.1844 -4.6211 5.2201 0.0000 0.0000 0.0000 0.0000 0.0000 0.0000 0.0000 0.0000 0.0000 0.0000 0.0000 0.0000 0.0000 0.0000 0.0000 0.0000 0.0000 0.0000 0.0000 0.0000 0.0000 0.0000 0.0000 0.0000 0.0000 0.0000 0.0000 0.0000 0.0000 0.0000 0.0000 0.0000 0.0000 0.0000 0.0000 0.0000 0.0000 0.0000 0.0000 0.0000 0.0000 0.0000 0.0000 0.0000 0.0000 0.0000 0.0000 0.0000 0.0000 0.0000 0.0000 21.2446 -22.9919 44.8094 -72.1055 61.1465 13.9495 -72.2732 -42.2601 67.4728 -42.5692 -6.9125 -9.0878 30.7901 0.0000 0.0000 48.1738 0.0000 0.0000 20.6131 0.9172 -0.9641 12.2963 0.0000 0.0000 0.8781 0.0000 0.0000 54.3279 0.0071 4.7581 106.9550 0.0000 0.0000 43.2897 0.0000 0.0000 52.5533 -2.9108 9.2926 114.5800 0.0000 0.0000 42.1939 0.0000 0.0000 49.2515 -7.9028 14.1755 116.1258 0.0000 0.0000 33.6890 0.0000 0.0000 6.9484 -26.9003 -19.3693 0.0000 0.0000 0.0000 0.0000 0.0000 0.0000 17.4967 -28.5227 -21.2414 0.0000 0.0000 0.0000 0.0000 0.0000 0.0000
0.0745 0.5039 -0.1431 -3.4654 13.0140 16.2776 4.2937 1.2431 -16.1164 0.0000 0.0000 0.0000 0.0000 0.0000 0.0000 24.9381 55.6048 16.5978 0.0000 0.0000 0.0000 0.0000 0.0000 0.0000 -77.6067 -2.2623 13.4510 0.5732 -3.7320 4.3501 0.0000 0.0000 0.0000 0.0000 0.0000 0.0000 0.0000 0.0000 0.0000 0.0000 0.0000 0.0000 0.0000 0.0000 0.0000 0.0000 0.0000 0.0000 0.0000 0.0000 0.0000 0.0000 0.0000 0.0000 0.0000 0.0000 0.0000 0.0000 0.0000 0.0000 0.0000 0.0000 0.0000 0.0000 0.0000 0.0000 0.0000 0.0000 0.0000 0.0000 0.0000 0.0000 0.0000 0.0000 0.0000 0.0000 0.0000 0.0000 0.0000 0.0000 0.0000 29.1697 -24.6645 41.5993 -60.3772 64.3859 24.4649 -59.3987 -41.0948 61.4968 -46.6248 -9.4693 -3.2253 36.9839 0.0000 0.0000 32.3525 0.0000 0.0000 5.6440 0.4754 1.6840 3.4611 0.0000 0.0000 3.7165 0.0000 0.0000 33.6402 -0.2942 5.7450 128.5860 0.0000 0.0000 29.6199 0.0000 0.0000 21.1202 -0.8431 6.1879 153.6548 0.0000 0.0000 17.9464 0.0000 0.0000 -1.8943 -2.3525 7.6516 154.3525 0.0000 0.0000 7.5535 0.0000 0.0000 6.5094 -26.9669 -19.3376 0.0000 0.0000 0.0000 0.0000 0.0000 0.0000 17.1924 -29.0214 -21.3943 0.0000 0.0000 0.0000 0.0000 0.0000 0.0000
0.0736 0.4849 -0.1387 -3.5663 12.3180 16.7100 4.3192 1.2869 -16.5600 0.0000 0.0000 0.0000 0.0000 0.0000 0.0000 23.5531 56.4304 15.8339 0.0000 0.0000 0.0000 0.0000 0.0000 0.0000 -76.8049 -0.3182 15.2370 -0.5467 -1.6410 2.1950 0.0000 0.0000 0.0000 0.0000 0.0000 0.0000 0.0000 0.0000 0.0000 0.0000 0.0000 0.0000 0.0000 0.0000 0.0000 0.0000 0.0000 0.0000 0.0000 0.0000 0.0000 0.0000 0.0000 0.0000 0.0000 0.0000 0.0000 0.0000 0.0000 0.0000 0.0000 0.0000 0.0000 0.0000 0.0000 0.0000 0.0000 0.0000 0.0000 0.0000 0.0000 0.0000 0.0000 0.0000 0.0000 0.0000 0.0000 0.0000 0.0000 0.0000 0.0000 37.2965 -25.7644 37.9568 -37.5738 64.4413 43.3680 -44.6072 -30.3397 36.0551 -54.3914 -12.2803 3.8368 24.1921 0.0000 0.0000 25.7890 0.0000 0.0000 23.3573 0.5454 20.1375 10.5029 0.0000 0.0000 10.3292 0.0000 0.0000 25.4516 -4.3397 23.8203 126.9514 0.0000 0.0000 40.1567 0.0000 0.0000 12.7567 -5.6467 24.7584 141.5692 0.0000 0.0000 25.9209 0.0000 0.0000 -7.0860 -6.0366 22.9048 139.5316 0.0000 0.0000 28.7740 0.0000 0.0000 6.2855 -26.5072 -19.7011 0.0000 0.0000 0.0000 0.0000 0.0000 0.0000 17.1274 -27.9049 -21.6440 0.0000 0.0000 0.0000 0.0000 0.0000 0.0000
0.0821 0.4701 -0.1268 -3.9960 12.8548 16.0924 4.2338 1.2164 -16.0013 0.0000 0.0000 0.0000 0.0000 0.0000 0.0000 23.8750 55.7259 16.1815 0.0000 0.0000 0.0000 0.0000 0.0000 0.0000 -75.6701 -0.7358 15.6250 -1.5254 -1.5219 2.3889 0.0000 0.0000 0.0000 0.0000 0.0000 0.0000 0.0000 0.0000 0.0000 0.0000 0.0000 0.0000 0.0000 0.0000 0.0000 0.0000 0.0000 0.0000 0.0000 0.0000 0.0000 0.0000 0.0000 0.0000 0.0000 0.0000 0.0000 0.0000 0.0000 0.0000 0.0000 0.0000 0.0000 0.0000 0.0000 0.0000 0.0000 0.0000 0.0000 0.0000 0.0000 0.0000 0.0000 0.0000 0.0000 0.0000 0.0000 0.0000 0.0000 0.0000 0.0000 44.1880 -27.6340 35.1541 -15.9081 55.8049 55.3377 1.0295 -8.4515 31.6043 -85.8714 -14.4099 24.3742 29.6563 0.0000 0.0000 29.4408 0.0000 0.0000 3.1826 3.6844 23.0151 7.4961 0.0000 0.0000 13.3144 0.0000 0.0000 3.1393 -0.6297 27.4522 79.6075 0.0000 0.0000 43.9212 0.0000 0.0000 -8.5003 -2.4404 29.7231 104.7191 0.0000 0.0000 31.3735 0.0000 0.0000 -25.5801 -4.1601 30.7184 123.1212 0.0000 0.0000 17.6115 0.0000 0.0000 6.2625 -27.7399 -19.3960 0.0000 0.0000 0.0000 0.0000 0.0000 0.0000 17.5105 -26.7266 -20.9171 0.0000 0.0000 0.0000 0.0000 0.0000 0.0000
0.0885 0.4589 -0.1178 -4.3207 13.2327 15.6274 4.1627 1.1632 -15.5849 0.0000 0.0000 0.0000 0.0000 0.0000 0.0000 24.0992 55.2377 16.4330 0.0000 0.0000 0.0000 0.0000 0.0000 0.0000 -74.8028 -1.0100 15.9573 -2.2502 -1.4007 2.5011 0.0000 0.0000 0.0000 0.0000 0.0000 0.0000 0.0000 0.0000 0.0000 0.0000 0.0000 0.0000 0.0000 0.0000 0.0000 0.0000 0.0000 0.0000 0.0000 0.0000 0.0000 0.0000 0.0000 0.0000 0.0000 0.0000 0.0000 0.0000 0.0000 0.0000 0.0000 0.0000 0.0000 0.0000 0.0000 0.0000 0.0000 0.0000 0.0000 0.0000 0.0000 0.0000 0.0000 0.0000 0.0000 0.0000 0.0000 0.0000 0.0000 0.0000 0.0000 48.7868 -28.7141 33.1976 -11.3052 51.7845 54.4859 -0.1462 1.2617 33.8947 -85.8714 -14.4099 24.3742 29.6563 0.0000 0.0000 29.4408 0.0000 0.0000 3.1826 3.6844 23.0151 7.4961 0.0000 0.0000 13.3144 0.0000 0.0000 3.1393 -0.6297 27.4522 79.6075 0.0000 0.0000 43.9212 0.0000 0.0000 -8.5003 -2.4404 29.7231 104.7191 0.0000 0.0000 31.3735 0.0000 0.0000 -25.5801 -4.1601 30.7184 123.1212 0.0000 0.0000 17.6115 0.0000 0.0000 6.2197 -28.6598 -19.1691 0.0000 0.0000 0.0000 0.0000 0.0000 0.0000 17.7787 -25.8359 -20.3538 0.0000 0.0000 0.0000 0.0000 0.0000 0.0000
0.0914 0.4420 -0.1093 -4.3359 13.1912 15.5549 4.0941 1.1393 -15.5242 0.0000 0.0000 0.0000 0.0000 0.0000 0.0000 22.5714 54.4539 15.3053 0.0000 0.0000 0.0000 0.0000 0.0000 0.0000 -74.3444 -2.2679 14.2979 -3.9809 -1.2513 2.7749 0.0000 0.0000 0.0000 0.0000 0.0000 0.0000 0.0000 0.0000 0.0000 0.0000 0.0000 0.0000 0.0000 0.0000 0.0000 0.0000 0.0000 0.0000 0.0000 0.0000 0.0000 0.0000 0.0000 0.0000 0.0000 0.0000 0.0000 0.0000 0.0000 0.0000 0.0000 0.0000 0.0000 0.0000 0.0000 0.0000 0.0000 0.0000 0.0000 0.0000 0.0000 0.0000 0.0000 0.0000 0.0000 0.0000 0.0000 0.0000 0.0000 0.0000 0.0000 53.1237 -28.7769 30.5456 -3.2611 41.9642 52.4288 64.1329 23.0859 40.5934 -105.5198 -8.0136 43.7485 28.5914 0.0000 0.0000 21.8314 0.0000 0.0000 -14.2513 3.1601 12.1936 8.6921 0.0000 0.0000 10.8771 0.0000 0.0000 -21.4014 2.6834 18.9031 31.2954 0.0000 0.0000 18.4793 0.0000 0.0000 -29.4056 0.7987 20.5930 42.2631 0.0000 0.0000 17.4070 0.0000 0.0000 -35.9691 -2.2787 19.0421 46.8599 0.0000 0.0000 11.6613 0.0000 0.0000 5.5293 -23.4767 -18.3196 0.0000 0.0000 0.0000 0.0000 0.0000 0.0000 17.3608 -23.9240 -19.7624 0.0000 0.0000 0.0000 0.0000 0.0000 0.0000
0.0968 0.4230 -0.0911 -4.3700 13.7592 15.2498 4.2219 1.1498 -15.2067 0.0000 0.0000 0.0000 0.0000 0.0000 0.0000 21.3477 52.4761 14.1464 0.0000 0.0000 0.0000 0.0000 0.0000 0.0000 -74.9965 -5.5506 10.4329 -5.2829 -1.3051 2.8466 0.0000 0.0000 0.0000 0.0000 0.0000 0.0000 0.0000 0.0000 0.0000 0.0000 0.0000 0.0000 0.0000 0.0000 0.0000 0.0000 0.0000 0.0000 0.0000 0.0000 0.0000 0.0000 0.0000 0.0000 0.0000 0.0000 0.0000 0.0000 0.0000 0.0000 0.0000 0.0000 0.0000 0.0000 0.0000 0.0000 0.0000 0.0000 0.0000 0.0000 0.0000 0.0000 0.0000 0.0000 0.0000 0.0000 0.0000 0.0000 0.0000 0.0000 0.0000 59.4377 -28.2618 25.1716 3.2353 31.6821 46.3874 106.9745 38.7839 82.0264 -74.9885 -15.3039 -6.0634 9.8405 0.0000 0.0000 8.7576 0.0000 0.0000 1.1944 -0.8084 -5.0298 13.3863 0.0000 0.0000 5.8125 0.0000 0.0000 -8.1307 -0.3349 0.0624 11.2969 0.0000 0.0000 5.1550 0.0000 0.0000 -15.0961 -0.8311 -1.1077 13.2735 0.0000 0.0000 1.8721 0.0000 0.0000 -21.7284 -1.2569 -3.1366 9.1747 0.0000 0.0000 3.7602 0.0000 0.0000 5.4742 -17.8308 -17.3275 0.0000 0.0000 0.0000 0.0000 0.0000 0.0000 17.4263 -24.2718 -19.5159 0.0000 0.0000 0.0000 0.0000 0.0000 0.0000
