HIERARCHY
ROOT Hips
{
  OFFSET 0.000000 95.000000 0.000000
  CHANNELS 6 Xposition Yposition Zposition Zrotation Xrotation Yrotation
  JOINT Spine
  {
    OFFSET 0.000000 10.000000 0.000000
    CHANNELS 3 Zrotation Xrotation Yrotation
    JOINT Spine1
    {
      OFFSET 0.000000 12.000000 0.000000
      CHANNELS 3 Zrotation Xrotation Yrotation
      JOINT Spine2
      {
        OFFSET 0.000000 12.000000 0.000000
        CHANNELS 3 Zrotation Xrotation Yrotation
        JOINT Neck
        {
          OFFSET 0.000000 10.000000 0.000000
          CHANNELS 3 Zrotation Xrotation Yrotation
          JOINT Head
          {
            OFFSET 0.000000 8.000000 0.000000
            CHANNELS 3 Zrotation Xrotation Yrotation
            End Site
            {
              OFFSET 0.000000 10.000000 0.000000
            }
          }
        }
        JOINT LeftShoulder
        {
          OFFSET 6.000000 8.000000 0.000000
          CHANNELS 3 Zrotation Xrotation Yrotation
          JOINT LeftArm
          {
            OFFSET 12.000000 0.000000 0.000000
            CHANNELS 3 Zrotation Xrotation Yrotation
            JOINT LeftForeArm
            {
              OFFSET 24.000000 0.000000 0.000000
              CHANNELS 3 Zrotation Xrotation Yrotation
              JOINT LeftHand
              {
                OFFSET 22.000000 0.000000 0.000000
                CHANNELS 3 Zrotation Xrotation Yrotation
                JOINT LeftHandThumb1
                {
                  OFFSET 1.800000 -1.400000 0.500000
                  CHANNELS 3 Zrotation Xrotation Yrotation
                  JOINT LeftHandThumb2
                  {
                    OFFSET 2.400000 0.000000 0.000000
                    CHANNELS 3 Zrotation Xrotation Yrotation
                    JOINT LeftHandThumb3
                    {
                      OFFSET 1.900000 0.000000 0.000000
                      CHANNELS 3 Zrotation Xrotation Yrotation
                      End Site
                      {
                        OFFSET 1.600000 0.000000 0.000000
                      }
                    }
                  }
                }
                JOINT LeftHandIndex1
                {
                  OFFSET 6.600000 1.200000 0.300000
                  CHANNELS 3 Zrotation Xrotation Yrotation
                  JOINT LeftHandIndex2
                  {
                    OFFSET 2.000000 0.000000 0.000000
                    CHANNELS 3 Zrotation Xrotation Yrotation
                    JOINT LeftHandIndex3
                    {
                      OFFSET 1.200000 0.000000 0.000000
                      CHANNELS 3 Zrotation Xrotation Yrotation
                      End Site
                      {
                        OFFSET 1.000000 0.000000 0.000000
                      }
                    }
                  }
                }
                JOINT LeftHandMiddle1
                {
                  OFFSET 7.200000 0.000000 0.300000
                  CHANNELS 3 Zrotation Xrotation Yrotation
                  JOINT LeftHandMiddle2
                  {
                    OFFSET 3.000000 0.000000 0.000000
                    CHANNELS 3 Zrotation Xrotation Yrotation
                    JOINT LeftHandMiddle3
                    {
                      OFFSET 2.000000 0.000000 0.000000
                      CHANNELS 3 Zrotation Xrotation Yrotation
                      End Site
                      {
                        OFFSET 1.600000 0.000000 0.000000
                      }
                    }
                  }
                }
                JOINT LeftHandRing1
                {
                  OFFSET 7.100000 -1.000000 0.400000
                  CHANNELS 3 Zrotation Xrotation Yrotation
                  JOINT LeftHandRing2
                  {
                    OFFSET 2.600000 0.000000 0.000000
                    CHANNELS 3 Zrotation Xrotation Yrotation
                    JOINT LeftHandRing3
                    {
                      OFFSET 1.600000 0.000000 0.000000
                      CHANNELS 3 Zrotation Xrotation Yrotation
                      End Site
                      {
                        OFFSET 1.300000 0.000000 0.000000
                      }
                    }
                  }
                }
                JOINT LeftHandPinky1
                {
                  OFFSET 6.500000 -2.000000 0.500000
                  CHANNELS 3 Zrotation Xrotation Yrotation
                  JOINT LeftHandPinky2
                  {
                    OFFSET 1.900000 0.000000 0.000000
                    CHANNELS 3 Zrotation Xrotation Yrotation
                    JOINT LeftHandPinky3
                    {
                      OFFSET 1.400000 0.000000 0.000000
                      CHANNELS 3 Zrotation Xrotation Yrotation
                      End Site
                      {
                        OFFSET 1.300000 0.000000 0.000000
                      }
                    }
                  }
                }
              }
            }
          }
        }
        JOINT RightShoulder
        {
          OFFSET -6.000000 8.000000 0.000000
          CHANNELS 3 Zrotation Xrotation Yrotation
          JOINT RightArm
          {
            OFFSET -12.000000 0.000000 0.000000
            CHANNELS 3 Zrotation Xrotation Yrotation
            JOINT RightForeArm
            {
              OFFSET -24.000000 0.000000 0.000000
              CHANNELS 3 Zrotation Xrotation Yrotation
              JOINT RightHand
              {
                OFFSET -22.000000 0.000000 0.000000
                CHANNELS 3 Zrotation Xrotation Yrotation
                JOINT RightHandThumb1
                {
                  OFFSET -1.800000 -1.400000 0.500000
                  CHANNELS 3 Zrotation Xrotation Yrotation
                  JOINT RightHandThumb2
                  {
                    OFFSET -2.400000 0.000000 0.000000
                    CHANNELS 3 Zrotation Xrotation Yrotation
                    JOINT RightHandThumb3
                    {
                      OFFSET -1.900000 0.000000 0.000000
                      CHANNELS 3 Zrotation Xrotation Yrotation
                      End Site
                      {
                        OFFSET -1.600000 0.000000 0.000000
                      }
                    }
                  }
                }
                JOINT RightHandIndex1
                {
                  OFFSET -6.600000 1.200000 0.300000
                  CHANNELS 3 Zrotation Xrotation Yrotation
                  JOINT RightHandIndex2
                  {
                    OFFSET -2.000000 0.000000 0.000000
                    CHANNELS 3 Zrotation Xrotation Yrotation
                    JOINT RightHandIndex3
                    {
                      OFFSET -1.200000 0.000000 0.000000
                      CHANNELS 3 Zrotation Xrotation Yrotation
                      End Site
                      {
                        OFFSET -1.000000 0.000000 0.000000
                      }
                    }
                  }
                }
                JOINT RightHandMiddle1
                {
                  OFFSET -7.200000 0.000000 0.300000
                  CHANNELS 3 Zrotation Xrotation Yrotation
                  JOINT RightHandMiddle2
                  {
                    OFFSET -3.000000 0.000000 0.000000
                    CHANNELS 3 Zrotation Xrotation Yrotation
                    JOINT RightHandMiddle3
                    {
                      OFFSET -2.000000 0.000000 0.000000
                      CHANNELS 3 Zrotation Xrotation Yrotation
                      End Site
                      {
                        OFFSET -1.600000 0.000000 0.000000
                      }
                    }
                  }
                }
                JOINT RightHandRing1
                {
                  OFFSET -7.100000 -1.000000 0.400000
                  CHANNELS 3 Zrotation Xrotation Yrotation
                  JOINT RightHandRing2
                  {
                    OFFSET -2.600000 0.000000 0.000000
                    CHANNELS 3 Zrotation Xrotation Yrotation
                    JOINT RightHandRing3
                    {
                      OFFSET -1.600000 0.000000 0.000000
                      CHANNELS 3 Zrotation Xrotation Yrotation
                      End Site
                      {
                        OFFSET -1.300000 0.000000 0.000000
                      }
                    }
                  }
                }
                JOINT RightHandPinky1
                {
                  OFFSET -6.500000 -2.000000 0.500000
                  CHANNELS 3 Zrotation Xrotation Yrotation
                  JOINT RightHandPinky2
                  {
                    OFFSET -1.900000 0.000000 0.000000
                    CHANNELS 3 Zrotation Xrotation Yrotation
                    JOINT RightHandPinky3
                    {
                      OFFSET -1.400000 0.000000 0.000000
                      CHANNELS 3 Zrotation Xrotation Yrotation
                      End Site
                      {
                        OFFSET -1.300000 0.000000 0.000000
                      }
                    }
                  }
                }
              }
            }
          }
        }
      }
    }
  }
  JOINT LeftUpLeg
  {
    OFFSET 10.000000 -5.000000 0.000000
    CHANNELS 3 Zrotation Xrotation Yrotation
    JOINT LeftLeg
    {
      OFFSET 0.000000 -42.000000 0.000000
      CHANNELS 3 Zrotation Xrotation Yrotation
      JOINT LeftFoot
      {
        OFFSET 0.000000 -42.000000 4.000000
        CHANNELS 3 Zrotation Xrotation Yrotation
        End Site
        {
          OFFSET 0.000000 0.000000 12.000000
        }
      }
    }
  }
  JOINT RightUpLeg
  {
    OFFSET -10.000000 -5.000000 0.000000
    CHANNELS 3 Zrotation Xrotation Yrotation
    JOINT RightLeg
    {
      OFFSET 0.000000 -42.000000 0.000000
      CHANNELS 3 Zrotation Xrotation Yrotation
      JOINT RightFoot
      {
        OFFSET 0.000000 -42.000000 4.000000
        CHANNELS 3 Zrotation Xrotation Yrotation
        End Site
        {
          OFFSET 0.000000 0.000000 12.000000
        }
      }
    }
  }
}
MOTION
Frames: 60
Frame Time: 0.033333
0.0000 95.0000 0.0000 0.0000 0.0000 0.0000 0.0000 0.0000 0.0000 0.0000 0.0000 0.0000 0.0000 0.0000 0.0000 0.0000 0.0000 0.0000 0.0000 0.0000 0.0000 0.0000 0.0000 0.0000 -79.1928 0.8238 0.9959 -7.6319 -5.1656 7.3022 -170.2691 -9.6487 167.6211 54.0963 -10.3208 7.3994 5.0476 0.0000 0.0000 12.1873 0.0000 0.0000 -3.4847 -0.3203 3.1701 110.0000 0.0000 0.0000 34.8770 0.0000 0.0000 8.4367 -0.2584 -1.2689 110.0000 0.0000 0.0000 9.0363 0.0000 0.0000 18.3907 -0.9616 -2.8623 110.0000 0.0000 0.0000 22.6259 0.0000 0.0000 28.4984 -2.2680 -3.9637 110.0000 0.0000 0.0000 23.2188 0.0000 0.0000 0.0000 0.0000 0.0000 82.6955 -5.4090 6.1453 -2.2868 7.9067 8.2848 47.6874 67.2506 -172.0565 -48.7023 -8.9206 -7.6364 14.1957 0.0000 0.0000 14.4747 0.0000 0.0000 -0.2983 -3.3800 -17.9700 8.4781 0.0000 0.0000 4.7921 0.0000 0.0000 45.5427 -13.9303 37.2252 87.4500 0.0000 0.0000 53.7118 0.0000 0.0000 41.9020 -19.9791 40.2364 107.5316 0.0000 0.0000 52.0482 0.0000 0.0000 34.8363 -27.4447 44.2070 93.4016 0.0000 0.0000 61.8365 0.0000 0.0000 0.0000 0.0000 0.0000 0.0000 0.0000 0.0000 0.0000 0.0000 0.0000 0.0000 0.0000 0.0000 0.0000 0.0000 0.0000 0.0000 0.0000 0.0000
0.0000 95.0000 0.0000 0.0000 0.0000 0.0000 0.0000 0.0000 0.0000 0.0000 0.0000 0.0000 0.0000 0.0000 0.0000 0.0000 0.0000 0.0000 0.0000 0.0000 0.0000 0.0000 0.0000 0.0000 -79.6011 0.8115 0.9740 -7.5905 -5.0476 7.0775 -170.6924 -9.5209 167.8688 54.0963 -10.3208 7.3994 5.0476 0.0000 0.0000 12.1873 0.0000 0.0000 -3.4847 -0.3203 3.1701 110.0000 0.0000 0.0000 34.8770 0.0000 0.0000 8.4367 -0.2584 -1.2689 110.0000 0.0000 0.0000 9.0363 0.0000 0.0000 18.3907 -0.9616 -2.8623 110.0000 0.0000 0.0000 22.6259 0.0000 0.0000 28.4984 -2.2680 -3.9637 110.0000 0.0000 0.0000 23.2188 0.0000 0.0000 0.0000 0.0000 0.0000 82.7084 -5.4622 6.2043 -2.2768 7.4278 7.7691 47.7799 66.8288 -171.5066 -48.7023 -8.9206 -7.6364 14.1957 0.0000 0.0000 14.4747 0.0000 0.0000 -0.2983 -3.3800 -17.9700 8.4781 0.0000 0.0000 4.7921 0.0000 0.0000 45.5427 -13.9303 37.2252 87.4500 0.0000 0.0000 53.7118 0.0000 0.0000 41.9020 -19.9791 40.2364 107.5316 0.0000 0.0000 52.0482 0.0000 0.0000 34.8363 -27.4447 44.2070 93.4016 0.0000 0.0000 61.8365 0.0000 0.0000 0.0000 0.0000 0.0000 0.0000 0.0000 0.0000 0.0000 0.0000 0.0000 0.0000 0.0000 0.0000 0.0000 0.0000 0.0000 0.0000 0.0000 0.0000
0.0000 95.0000 0.0000 0.0000 0.0000 0.0000 0.0000 0.0000 0.0000 0.0000 0.0000 0.0000 0.0000 0.0000 0.0000 0.0000 0.0000 0.0000 0.0000 0.0000 0.0000 0.0000 0.0000 0.0000 -79.7829 1.1802 1.4119 -7.3888 -5.2811 7.4008 -170.5084 -10.1655 167.1362 54.0963 -10.3208 7.3994 5.0476 0.0000 0.0000 12.1873 0.0000 0.0000 -3.4847 -0.3203 3.1701 110.0000 0.0000 0.0000 34.8770 0.0000 0.0000 8.4367 -0.2584 -1.2689 110.0000 0.0000 0.0000 9.0363 0.0000 0.0000 18.3907 -0.9616 -2.8623 110.0000 0.0000 0.0000 22.6259 0.0000 0.0000 28.4984 -2.2680 -3.9637 110.0000 0.0000 0.0000 23.2188 0.0000 0.0000 0.0000 0.0000 0.0000 82.7298 -5.4394 6.1760 -1.9575 6.8608 7.2345 48.5528 66.1986 -170.2216 -48.7023 -8.9206 -7.6364 14.1957 0.0000 0.0000 14.4747 0.0000 0.0000 -0.2983 -3.3800 -17.9700 8.4781 0.0000 0.0000 4.7921 0.0000 0.0000 45.5427 -13.9303 37.2252 87.4500 0.0000 0.0000 53.7118 0.0000 0.0000 41.9020 -19.9791 40.2364 107.5316 0.0000 0.0000 52.0482 0.0000 0.0000 34.8363 -27.4447 44.2070 93.4016 0.0000 0.0000 61.8365 0.0000 0.0000 0.0000 0.0000 0.0000 0.0000 0.0000 0.0000 0.0000 0.0000 0.0000 0.0000 0.0000 0.0000 0.0000 0.0000 0.0000 0.0000 0.0000 0.0000
0.0000 95.0000 0.0000 0.0000 0.0000 0.0000 0.0000 0.0000 0.0000 0.0000 0.0000 0.0000 0.0000 0.0000 0.0000 0.0000 0.0000 0.0000 0.0000 0.0000 0.0000 0.0000 0.0000 0.0000 -79.8576 0.7009 0.8374 -7.4851 -5.7216 7.9289 -170.6199 -10.1392 167.1947 54.0963 -10.3208 7.3994 5.0476 0.0000 0.0000 12.1873 0.0000 0.0000 -3.4847 -0.3203 3.1701 110.0000 0.0000 0.0000 34.8770 0.0000 0.0000 8.4367 -0.2584 -1.2689 110.0000 0.0000 0.0000 9.0363 0.0000 0.0000 18.3907 -0.9616 -2.8623 110.0000 0.0000 0.0000 22.6259 0.0000 0.0000 28.4984 -2.2680 -3.9637 110.0000 0.0000 0.0000 23.2188 0.0000 0.0000 0.0000 0.0000 0.0000 82.5736 -5.0892 5.7945 -1.9832 7.0910 7.5182 47.9316 66.1702 -170.6478 -48.7023 -8.9206 -7.6364 14.1957 0.0000 0.0000 14.4747 0.0000 0.0000 -0.2983 -3.3800 -17.9700 8.4781 0.0000 0.0000 4.7921 0.0000 0.0000 45.5427 -13.9303 37.2252 87.4500 0.0000 0.0000 53.7118 0.0000 0.0000 41.9020 -19.9791 40.2364 107.5316 0.0000 0.0000 52.0482 0.0000 0.0000 34.8363 -27.4447 44.2070 93.4016 0.0000 0.0000 61.8365 0.0000 0.0000 0.0000 0.0000 0.0000 0.0000 0.0000 0.0000 0.0000 0.0000 0.0000 0.0000 0.0000 0.0000 0.0000 0.0000 0.0000 0.0000 0.0000 0.0000
0.0000 95.0000 0.0000 0.0000 0.0000 0.0000 0.0000 0.0000 0.0000 0.0000 0.0000 0.0000 0.0000 0.0000 0.0000 0.0000 0.0000 0.0000 0.0000 0.0000 0.0000 0.0000 0.0000 0.0000 -79.4366 0.6176 0.7434 -7.8566 -5.1170 7.2008 -170.8030 -9.4258 167.9982 54.0963 -10.3208 7.3994 5.0476 0.0000 0.0000 12.1873 0.0000 0.0000 -3.4847 -0.3203 3.1701 110.0000 0.0000 0.0000 34.8770 0.0000 0.0000 8.4367 -0.2584 -1.2689 110.0000 0.0000 0.0000 9.0363 0.0000 0.0000 18.3907 -0.9616 -2.8623 110.0000 0.0000 0.0000 22.6259 0.0000 0.0000 28.4984 -2.2680 -3.9637 110.0000 0.0000 0.0000 23.2188 0.0000 0.0000 0.0000 0.0000 0.0000 81.9037 -4.0186 4.6301 -1.1029 7.6309 8.4623 47.8619 65.8308 -170.3164 -48.7023 -8.9206 -7.6364 14.1957 0.0000 0.0000 14.4747 0.0000 0.0000 -0.2983 -3.3800 -17.9700 8.4781 0.0000 0.0000 4.7921 0.0000 0.0000 45.5427 -13.9303 37.2252 87.4500 0.0000 0.0000 53.7118 0.0000 0.0000 41.9020 -19.9791 40.2364 107.5316 0.0000 0.0000 52.0482 0.0000 0.0000 34.8363 -27.4447 44.2070 93.4016 0.0000 0.0000 61.8365 0.0000 0.0000 0.0000 0.0000 0.0000 0.0000 0.0000 0.0000 0.0000 0.0000 0.0000 0.0000 0.0000 0.0000 0.0000 0.0000 0.0000 0.0000 0.0000 0.0000
0.0000 95.0000 0.0000 0.0000 0.0000 0.0000 0.0000 0.0000 0.0000 0.0000 0.0000 0.0000 0.0000 0.0000 0.0000 0.0000 0.0000 0.0000 0.0000 0.0000 0.0000 0.0000 0.0000 0.0000 -77.6673 1.8611 2.3119 -7.5991 -3.4224 5.2114 -169.0771 -8.7613 168.2660 54.0963 -10.3208 7.3994 5.0476 0.0000 0.0000 12.1873 0.0000 0.0000 -3.4847 -0.3203 3.1701 110.0000 0.0000 0.0000 34.8770 0.0000 0.0000 8.4367 -0.2584 -1.2689 110.0000 0.0000 0.0000 9.0363 0.0000 0.0000 18.3907 -0.9616 -2.8623 110.0000 0.0000 0.0000 22.6259 0.0000 0.0000 28.4984 -2.2680 -3.9637 110.0000 0.0000 0.0000 23.2188 0.0000 0.0000 0.0000 0.0000 0.0000 78.9473 -7.6558 9.2894 -0.3570 16.8211 19.4924 30.0694 78.8324 -202.3899 -48.7023 -8.9206 -7.6364 14.1957 0.0000 0.0000 14.4747 0.0000 0.0000 -0.2983 -3.3800 -17.9700 8.4781 0.0000 0.0000 4.7921 0.0000 0.0000 45.5427 -13.9303 37.2252 87.4500 0.0000 0.0000 53.7118 0.0000 0.0000 41.9020 -19.9791 40.2364 107.5316 0.0000 0.0000 52.0482 0.0000 0.0000 34.8363 -27.4447 44.2070 93.4016 0.0000 0.0000 61.8365 0.0000 0.0000 0.0000 0.0000 0.0000 0.0000 0.0000 0.0000 0.0000 0.0000 0.0000 0.0000 0.0000 0.0000 0.0000 0.0000 0.0000 0.0000 0.0000 0.0000
0.0000 95.0000 0.0000 0.0000 0.0000 0.0000 0.0000 0.0000 0.0000 0.0000 0.0000 0.0000 0.0000 0.0000 0.0000 0.0000 0.0000 0.0000 0.0000 0.0000 0.0000 0.0000 0.0000 0.0000 -75.7446 5.9955 7.7047 -6.4599 -0.6492 1.8947 -166.2083 -9.9854 166.1122 54.0963 -10.3208 7.3994 5.0476 0.0000 0.0000 12.1873 0.0000 0.0000 -3.4847 -0.3203 3.1701 110.0000 0.0000 0.0000 34.8770 0.0000 0.0000 8.4367 -0.2584 -1.2689 110.0000 0.0000 0.0000 9.0363 0.0000 0.0000 18.3907 -0.9616 -2.8623 110.0000 0.0000 0.0000 22.6259 0.0000 0.0000 28.4984 -2.2680 -3.9637 110.0000 0.0000 0.0000 23.2188 0.0000 0.0000 0.0000 0.0000 0.0000 74.4309 -10.4913 13.7859 -2.2395 33.6642 37.9807 -60.8355 67.9954 -311.5018 -48.7023 -8.9206 -7.6364 14.1957 0.0000 0.0000 14.4747 0.0000 0.0000 -0.2983 -3.3800 -17.9700 8.4781 0.0000 0.0000 4.7921 0.0000 0.0000 45.5427 -13.9303 37.2252 87.4500 0.0000 0.0000 53.7118 0.0000 0.0000 41.9020 -19.9791 40.2364 107.5316 0.0000 0.0000 52.0482 0.0000 0.0000 34.8363 -27.4447 44.2070 93.4016 0.0000 0.0000 61.8365 0.0000 0.0000 0.0000 0.0000 0.0000 0.0000 0.0000 0.0000 0.0000 0.0000 0.0000 0.0000 0.0000 0.0000 0.0000 0.0000 0.0000 0.0000 0.0000 0.0000
0.0000 95.0000 0.0000 0.0000 0.0000 0.0000 0.0000 0.0000 0.0000 0.0000 0.0000 0.0000 0.0000 0.0000 0.0000 0.0000 0.0000 0.0000 0.0000 0.0000 0.0000 0.0000 0.0000 0.0000 -73.4849 7.0239 9.3993 -6.9151 0.6911 0.2411 -164.6397 -9.6268 166.0636 54.0963 -10.3208 7.3994 5.0476 0.0000 0.0000 12.1873 0.0000 0.0000 -3.4847 -0.3203 3.1701 110.0000 0.0000 0.0000 34.8770 0.0000 0.0000 8.4367 -0.2584 -1.2689 110.0000 0.0000 0.0000 9.0363 0.0000 0.0000 18.3907 -0.9616 -2.8623 110.0000 0.0000 0.0000 22.6259 0.0000 0.0000 28.4984 -2.2680 -3.9637 110.0000 0.0000 0.0000 23.2188 0.0000 0.0000 0.0000 0.0000 0.0000 66.5509 -15.3235 23.1688 -14.1241 51.1218 45.1069 -60.8145 35.4184 -326.8059 -48.7023 -8.9206 -7.6364 14.1957 0.0000 0.0000 14.4747 0.0000 0.0000 -0.2983 -3.3800 -17.9700 8.4781 0.0000 0.0000 4.7921 0.0000 0.0000 45.5427 -13.9303 37.2252 87.4500 0.0000 0.0000 53.7118 0.0000 0.0000 41.9020 -19.9791 40.2364 107.5316 0.0000 0.0000 52.0482 0.0000 0.0000 34.8363 -27.4447 44.2070 93.4016 0.0000 0.0000 61.8365 0.0000 0.0000 0.0000 0.0000 0.0000 0.0000 0.0000 0.0000 0.0000 0.0000 0.0000 0.0000 0.0000 0.0000 0.0000 0.0000 0.0000 0.0000 0.0000 0.0000
0.0000 95.0000 0.0000 0.0000 0.0000 0.0000 0.0000 0.0000 0.0000 0.0000 0.0000 0.0000 0.0000 0.0000 0.0000 0.0000 0.0000 0.0000 0.0000 0.0000 0.0000 0.0000 0.0000 0.0000 -71.7453 8.4956 11.7284 -6.5926 1.9326 -1.4475 -162.7748 -9.7306 165.3743 54.0963 -10.3208 7.3994 5.0476 0.0000 0.0000 12.1873 0.0000 0.0000 -3.4847 -0.3203 3.1701 110.0000 0.0000 0.0000 34.8770 0.0000 0.0000 8.4367 -0.2584 -1.2689 110.0000 0.0000 0.0000 9.0363 0.0000 0.0000 18.3907 -0.9616 -2.8623 110.0000 0.0000 0.0000 22.6259 0.0000 0.0000 28.4984 -2.2680 -3.9637 110.0000 0.0000 0.0000 23.2188 0.0000 0.0000 0.0000 0.0000 0.0000 58.1250 -16.8333 29.8182 -76.1710 68.9428 5.5938 -51.8096 -9.0937 -327.3643 -48.7023 -8.9206 -7.6364 14.1957 0.0000 0.0000 14.4747 0.0000 0.0000 -0.2983 -3.3800 -17.9700 8.4781 0.0000 0.0000 4.7921 0.0000 0.0000 45.5427 -13.9303 37.2252 87.4500 0.0000 0.0000 53.7118 0.0000 0.0000 41.9020 -19.9791 40.2364 107.5316 0.0000 0.0000 52.0482 0.0000 0.0000 34.8363 -27.4447 44.2070 93.4016 0.0000 0.0000 61.8365 0.0000 0.0000 0.0000 0.0000 0.0000 0.0000 0.0000 0.0000 0.0000 0.0000 0.0000 0.0000 0.0000 0.0000 0.0000 0.0000 0.0000 0.0000 0.0000 0.0000
0.0000 95.0000 0.0000 0.0000 0.0000 0.0000 0.0000 0.0000 0.0000 0.0000 0.0000 0.0000 0.0000 0.0000 0.0000 0.0000 0.0000 0.0000 0.0000 0.0000 0.0000 0.0000 0.0000 0.0000 -70.9652 8.3202 11.6522 -6.5794 2.3696 -2.1849 -162.0959 -8.9648 166.1006 54.0963 -10.3208 7.3994 5.0476 0.0000 0.0000 12.1873 0.0000 0.0000 -3.4847 -0.3203 3.1701 110.0000 0.0000 0.0000 34.8770 0.0000 0.0000 8.4367 -0.2584 -1.2689 110.0000 0.0000 0.0000 9.0363 0.0000 0.0000 18.3907 -0.9616 -2.8623 110.0000 0.0000 0.0000 22.6259 0.0000 0.0000 28.4984 -2.2680 -3.9637 110.0000 0.0000 0.0000 23.2188 0.0000 0.0000 0.0000 0.0000 0.0000 46.6361 -17.0041 38.2536 -104.6854 59.8399 -18.8860 -96.4008 -27.4058 -255.4058 -46.7211 -6.5993 -14.8404 20.2296 0.0000 0.0000 14.1043 0.0000 0.0000 106.5632 -26.0550 33.7831 110.0000 0.0000 0.0000 37.2935 0.0000 0.0000 117.4398 -22.5077 18.5578 79.5041 0.0000 0.0000 28.7058 0.0000 0.0000 117.3554 -16.5757 13.1397 73.2282 0.0000 0.0000 41.4647 0.0000 0.0000 105.7803 -23.5416 15.8992 75.2831 0.0000 0.0000 43.0553 0.0000 0.0000 0.0000 0.0000 0.0000 0.0000 0.0000 0.0000 0.0000 0.0000 0.0000 0.0000 0.0000 0.0000 0.0000 0.0000 0.0000 0.0000 0.0000 0.0000
0.0000 95.0000 0.0000 0.0000 0.0000 0.0000 0.0000 0.0000 0.0000 0.0000 0.0000 0.0000 0.0000 0.0000 0.0000 0.0000 0.0000 0.0000 0.0000 0.0000 0.0000 0.0000 0.0000 0.0000 -70.1146 8.7141 12.3940 -6.0763 2.1335 -1.8589 -160.6729 -9.5038 164.9921 54.0963 -10.3208 7.3994 5.0476 0.0000 0.0000 12.1873 0.0000 0.0000 -3.4847 -0.3203 3.1701 110.0000 0.0000 0.0000 34.8770 0.0000 0.0000 8.4367 -0.2584 -1.2689 110.0000 0.0000 0.0000 9.0363 0.0000 0.0000 18.3907 -0.9616 -2.8623 110.0000 0.0000 0.0000 22.6259 0.0000 0.0000 28.4984 -2.2680 -3.9637 110.0000 0.0000 0.0000 23.2188 0.0000 0.0000 0.0000 0.0000 0.0000 35.8333 -15.0898 44.5542 -105.0433 54.4969 -20.2462 -97.2901 -46.9012 -267.3429 -45.3139 -7.1208 -11.1642 26.3411 0.0000 0.0000 35.2680 0.0000 0.0000 -15.2922 -4.0874 -10.3281 9.2966 0.0000 0.0000 3.1377 0.0000 0.0000 37.6572 -2.4881 12.0601 110.0000 0.0000 0.0000 22.9755 0.0000 0.0000 54.3986 -10.3166 19.6812 110.0000 0.0000 0.0000 33.9989 0.0000 0.0000 41.1210 -13.9341 22.9918 110.0000 0.0000 0.0000 29.2863 0.0000 0.0000 0.0000 0.0000 0.0000 0.0000 0.0000 0.0000 0.0000 0.0000 0.0000 0.0000 0.0000 0.0000 0.0000 0.0000 0.0000 0.0000 0.0000 0.0000
0.0000 95.0000 0.0000 0.0000 0.0000 0.0000 0.0000 0.0000 0.0000 0.0000 0.0000 0.0000 0.0000 0.0000 0.0000 0.0000 0.0000 0.0000 0.0000 0.0000 0.0000 0.0000 0.0000 0.0000 -69.1791 8.6343 12.4950 -6.9106 2.1912 -1.8175 -160.5761 -9.5174 164.9440 54.0963 -10.3208 7.3994 5.0476 0.0000 0.0000 12.1873 0.0000 0.0000 -3.4847 -0.3203 3.1701 110.0000 0.0000 0.0000 34.8770 0.0000 0.0000 8.4367 -0.2584 -1.2689 110.0000 0.0000 0.0000 9.0363 0.0000 0.0000 18.3907 -0.9616 -2.8623 110.0000 0.0000 0.0000 22.6259 0.0000 0.0000 28.4984 -2.2680 -3.9637 110.0000 0.0000 0.0000 23.2188 0.0000 0.0000 0.0000 0.0000 0.0000 27.9702 -12.7669 48.3796 -99.9680 52.9925 -16.8445 -62.1345 -56.2201 -310.9446 -37.5410 -8.3631 -0.5396 39.6067 0.0000 0.0000 30.4980 0.0000 0.0000 -0.6801 -2.4337 -12.6683 2.6347 0.0000 0.0000 4.2243 0.0000 0.0000 60.5223 -22.1063 41.7940 66.8665 0.0000 0.0000 41.2750 0.0000 0.0000 62.2543 -31.9237 44.1810 72.4269 0.0000 0.0000 67.0319 0.0000 0.0000 57.5778 -37.0699 42.2052 73.0382 0.0000 0.0000 56.6699 0.0000 0.0000 0.0000 0.0000 0.0000 0.0000 0.0000 0.0000 0.0000 0.0000 0.0000 0.0000 0.0000 0.0000 0.0000 0.0000 0.0000 0.0000 0.0000 0.0000
0.0000 95.0000 0.0000 0.0000 0.0000 0.0000 0.0000 0.0000 0.0000 0.0000 0.0000 0.0000 0.0000 0.0000 0.0000 0.0000 0.0000 0.0000 0.0000 0.0000 0.0000 0.0000 0.0000 0.0000 -68.4886 8.2206 12.0522 -8.3905 2.2892 -1.7879 -161.3896 -9.2722 165.5065 54.0963 -10.3208 7.3994 5.0476 0.0000 0.0000 12.1873 0.0000 0.0000 -3.4847 -0.3203 3.1701 110.0000 0.0000 0.0000 34.8770 0.0000 0.0000 8.4367 -0.2584 -1.2689 110.0000 0.0000 0.0000 9.0363 0.0000 0.0000 18.3907 -0.9616 -2.8623 110.0000 0.0000 0.0000 22.6259 0.0000 0.0000 28.4984 -2.2680 -3.9637 110.0000 0.0000 0.0000 23.2188 0.0000 0.0000 0.0000 0.0000 0.0000 24.6893 -11.5828 49.7299 -95.6364 54.3383 -12.6766 -62.9607 -56.9468 -309.7007 -32.2522 -7.1254 -0.9848 39.7200 0.0000 0.0000 35.3303 0.0000 0.0000 3.6390 -0.6522 -5.4610 0.9650 0.0000 0.0000 5.1974 0.0000 0.0000 69.1932 -19.4946 32.7413 65.9964 0.0000 0.0000 40.0214 0.0000 0.0000 69.8107 -28.0393 35.5669 64.6465 0.0000 0.0000 60.5611 0.0000 0.0000 61.8027 -31.7434 34.9023 64.9825 0.0000 0.0000 59.8176 0.0000 0.0000 0.0000 0.0000 0.0000 0.0000 0.0000 0.0000 0.0000 0.0000 0.0000 0.0000 0.0000 0.0000 0.0000 0.0000 0.0000 0.0000 0.0000 0.0000
0.0000 95.0000 0.0000 0.0000 0.0000 0.0000 0.0000 0.0000 0.0000 0.0000 0.0000 0.0000 0.0000 0.0000 0.0000 0.0000 0.0000 0.0000 0.0000 0.0000 0.0000 0.0000 0.0000 0.0000 -67.4614 7.8838 11.7845 -9.7922 2.1323 -1.3310 -161.7206 -9.3794 165.4765 54.0963 -10.3208 7.3994 5.0476 0.0000 0.0000 12.1873 0.0000 0.0000 -3.4847 -0.3203 3.1701 110.0000 0.0000 0.0000 34.8770 0.0000 0.0000 8.4367 -0.2584 -1.2689 110.0000 0.0000 0.0000 9.0363 0.0000 0.0000 18.3907 -0.9616 -2.8623 110.0000 0.0000 0.0000 22.6259 0.0000 0.0000 28.4984 -2.2680 -3.9637 110.0000 0.0000 0.0000 23.2188 0.0000 0.0000 0.0000 0.0000 0.0000 23.3376 -11.0303 50.1154 -91.3060 56.8585 -7.6169 -81.3834 -56.6325 -291.5707 -34.2692 -5.8382 -5.6379 47.3048 0.0000 0.0000 47.5049 0.0000 0.0000 25.0316 0.8559 6.5551 1.4927 0.0000 0.0000 6.1829 0.0000 0.0000 90.1374 -15.5795 20.3146 65.0580 0.0000 0.0000 63.1361 0.0000 0.0000 91.3733 -18.3748 19.2568 63.0872 0.0000 0.0000 67.9664 0.0000 0.0000 95.1552 -18.9756 15.9839 55.4845 0.0000 0.0000 62.1914 0.0000 0.0000 0.0000 0.0000 0.0000 0.0000 0.0000 0.0000 0.0000 0.0000 0.0000 0.0000 0.0000 0.0000 0.0000 0.0000 0.0000 0.0000 0.0000 0.0000
0.0000 95.0000 0.0000 0.0000 0.0000 0.0000 0.0000 0.0000 0.0000 0.0000 0.0000 0.0000 0.0000 0.0000 0.0000 0.0000 0.0000 0.0000 0.0000 0.0000 0.0000 0.0000 0.0000 0.0000 -66.6049 6.7665 10.2844 -11.4186 3.2043 -3.4518 -161.0698 8.1907 167.9374 53.1660 -11.0480 2.1250 7.4374 0.0000 0.0000 1.5840 0.0000 0.0000 -6.7494 0.5586 -2.0988 1.5550 0.0000 0.0000 2.7295 0.0000 0.0000 3.9679 -0.0358 -3.7370 4.8254 0.0000 0.0000 5.0770 0.0000 0.0000 13.0504 -0.8543 -4.9766 5.9792 0.0000 0.0000 4.2233 0.0000 0.0000 21.1851 -2.0726 -4.5550 6.6738 0.0000 0.0000 3.6563 0.0000 0.0000 0.0000 0.0000 0.0000 24.9863 -11.4316 48.6214 -97.3847 57.7405 -11.1057 -98.2920 -59.3435 -283.0562 -34.8383 -4.4581 -9.7687 41.5408 0.0000 0.0000 56.5631 0.0000 0.0000 51.8545 -0.7051 10.8197 6.3184 0.0000 0.0000 2.1534 0.0000 0.0000 93.3232 -9.8311 14.0512 63.1081 0.0000 0.0000 50.1545 0.0000 0.0000 96.3980 -14.1296 15.2298 65.4934 0.0000 0.0000 59.9999 0.0000 0.0000 97.8409 -20.7824 16.3438 59.4114 0.0000 0.0000 53.7304 0.0000 0.0000 0.0000 0.0000 0.0000 0.0000 0.0000 0.0000 0.0000 0.0000 0.0000 0.0000 0.0000 0.0000 0.0000 0.0000 0.0000 0.0000 0.0000 0.0000
0.0000 95.0000 0.0000 0.0000 0.0000 0.0000 0.0000 0.0000 0.0000 0.0000 0.0000 0.0000 0.0000 0.0000 0.0000 0.0000 0.0000 0.0000 0.0000 0.0000 0.0000 0.0000 0.0000 0.0000 -65.4283 4.6593 7.2479 -13.4719 5.4888 -8.9569 -160.6050 24.0393 165.3895 47.6008 -12.0791 -7.2911 7.9301 0.0000 0.0000 6.2728 0.0000 0.0000 -9.8584 1.5980 -12.3178 6.1718 0.0000 0.0000 6.3323 0.0000 0.0000 0.2123 0.0164 -13.5865 11.0497 0.0000 0.0000 6.4607 0.0000 0.0000 7.3126 -1.5276 -14.7347 13.8374 0.0000 0.0000 12.6368 0.0000 0.0000 15.7626 -3.3930 -13.8160 14.0930 0.0000 0.0000 17.2051 0.0000 0.0000 0.0000 0.0000 0.0000 24.7472 -11.3129 48.5960 -97.3728 57.1232 -11.2909 -93.5260 -65.1915 -287.6483 -37.1368 -5.8706 -7.6633 39.2634 0.0000 0.0000 57.3303 0.0000 0.0000 31.1480 0.5693 8.7717 7.1264 0.0000 0.0000 2.5555 0.0000 0.0000 84.7929 -10.5775 16.3506 74.6867 0.0000 0.0000 47.6915 0.0000 0.0000 89.8303 -14.8090 16.8924 69.9216 0.0000 0.0000 56.6056 0.0000 0.0000 93.9570 -19.4521 16.4380 59.8862 0.0000 0.0000 54.2345 0.0000 0.0000 0.0000 0.0000 0.0000 0.0000 0.0000 0.0000 0.0000 0.0000 0.0000 0.0000 0.0000 0.0000 0.0000 0.0000 0.0000 0.0000 0.0000 0.0000
0.0000 95.0000 0.0000 0.0000 0.0000 0.0000 0.0000 0.0000 0.0000 0.0000 0.0000 0.0000 0.0000 0.0000 0.0000 0.0000 0.0000 0.0000 0.0000 0.0000 0.0000 0.0000 0.0000 0.0000 -63.4387 1.9836 3.2087 -15.8033 8.5208 -17.9902 -169.8590 19.0075 148.4946 51.6748 -13.5036 -12.4665 2.2881 0.0000 0.0000 2.2419 0.0000 0.0000 -8.8684 2.4025 -19.4855 18.1008 0.0000 0.0000 8.1828 0.0000 0.0000 -0.1994 -0.0166 -14.2868 32.6072 0.0000 0.0000 8.8867 0.0000 0.0000 4.4166 -1.9876 -17.1419 36.3096 0.0000 0.0000 12.0191 0.0000 0.0000 13.6233 -5.1864 -23.1053 25.8420 0.0000 0.0000 9.1187 0.0000 0.0000 0.0000 0.0000 0.0000 25.7447 -11.8430 48.8237 -98.4048 56.7235 -13.0205 -97.5908 -55.9712 -282.3320 -35.3750 -5.0678 -8.5423 38.9408 0.0000 0.0000 53.8379 0.0000 0.0000 45.7553 -0.6636 12.0960 24.4146 0.0000 0.0000 5.9098 0.0000 0.0000 82.8581 -13.6555 20.2245 68.8908 0.0000 0.0000 45.2843 0.0000 0.0000 88.9860 -17.8142 19.3886 66.3082 0.0000 0.0000 47.9603 0.0000 0.0000 89.8648 -21.9922 18.6083 60.3818 0.0000 0.0000 46.8243 0.0000 0.0000 0.0000 0.0000 0.0000 0.0000 0.0000 0.0000 0.0000 0.0000 0.0000 0.0000 0.0000 0.0000 0.0000 0.0000 0.0000 0.0000 0.0000 0.0000
0.0000 95.0000 0.0000 0.0000 0.0000 0.0000 0.0000 0.0000 0.0000 0.0000 0.0000 0.0000 0.0000 0.0000 0.0000 0.0000 0.0000 0.0000 0.0000 0.0000 0.0000 0.0000 0.0000 0.0000 -60.7112 -2.7124 -4.6298 -12.7346 13.8518 -31.4043 -151.9874 59.9528 195.6573 43.1251 -13.1187 -13.1944 5.2853 0.0000 0.0000 4.6697 0.0000 0.0000 -10.9551 1.8385 -15.9910 6.8467 0.0000 0.0000 6.8010 0.0000 0.0000 -2.2508 -0.2414 -17.0112 15.4870 0.0000 0.0000 24.5602 0.0000 0.0000 3.2516 -2.1755 -17.8201 17.9747 0.0000 0.0000 37.4697 0.0000 0.0000 10.4076 -4.4749 -17.6476 17.3748 0.0000 0.0000 28.1584 0.0000 0.0000 0.0000 0.0000 0.0000 27.1018 -12.5388 49.0087 -100.5277 56.1206 -15.7511 -102.8154 -52.6668 -277.0481 -32.1132 -3.4855 -10.1382 54.4207 0.0000 0.0000 46.6668 0.0000 0.0000 97.8479 -13.7158 23.2509 9.8244 0.0000 0.0000 1.6867 0.0000 0.0000 96.6032 -13.9379 17.2020 57.2255 0.0000 0.0000 30.9530 0.0000 0.0000 102.2345 -16.1570 15.5134 57.5034 0.0000 0.0000 32.1587 0.0000 0.0000 100.9473 -20.7353 15.7281 51.1954 0.0000 0.0000 31.0177 0.0000 0.0000 0.0000 0.0000 0.0000 0.0000 0.0000 0.0000 0.0000 0.0000 0.0000 0.0000 0.0000 0.0000 0.0000 0.0000 0.0000 0.0000 0.0000 0.0000
0.0000 95.0000 0.0000 0.0000 0.0000 0.0000 0.0000 0.0000 0.0000 0.0000 0.0000 0.0000 0.0000 0.0000 0.0000 0.0000 0.0000 0.0000 0.0000 0.0000 0.0000 0.0000 0.0000 0.0000 -56.0591 -6.3153 -11.8324 -5.1259 22.4835 -43.7812 -251.2211 58.4183 53.1695 43.4439 -25.0189 -59.0476 19.1809 0.0000 0.0000 15.0398 0.0000 0.0000 -42.1158 -16.7844 -83.4916 5.5634 0.0000 0.0000 11.8786 0.0000 0.0000 -33.3824 -27.5890 -83.3949 8.7113 0.0000 0.0000 6.8173 0.0000 0.0000 -28.4731 -34.4693 -79.4648 15.8957 0.0000 0.0000 30.0474 0.0000 0.0000 -23.1547 -40.6700 -73.7356 16.6959 0.0000 0.0000 28.9688 0.0000 0.0000 0.0000 0.0000 0.0000 27.7535 -12.3868 47.4285 -100.7355 56.3585 -14.6886 -35.7143 -40.4501 -362.0229 -34.7776 -9.9402 5.4993 6.6484 0.0000 0.0000 0.7168 0.0000 0.0000 26.2969 -0.3883 30.6562 9.2152 0.0000 0.0000 5.2791 0.0000 0.0000 33.9639 -26.2903 79.5843 64.9841 0.0000 0.0000 38.1775 0.0000 0.0000 29.1964 -35.1457 79.6484 60.4298 0.0000 0.0000 39.8907 0.0000 0.0000 13.9724 -34.8061 74.8968 59.0421 0.0000 0.0000 32.6289 0.0000 0.0000 0.0000 0.0000 0.0000 0.0000 0.0000 0.0000 0.0000 0.0000 0.0000 0.0000 0.0000 0.0000 0.0000 0.0000 0.0000 0.0000 0.0000 0.0000
0.0000 95.0000 0.0000 0.0000 0.0000 0.0000 0.0000 0.0000 0.0000 0.0000 0.0000 0.0000 0.0000 0.0000 0.0000 0.0000 0.0000 0.0000 0.0000 0.0000 0.0000 0.0000 0.0000 0.0000 -48.1224 -9.2578 -20.5557 8.8466 37.5571 -53.5540 -258.5921 4.1911 69.1591 71.3933 -14.8542 -17.8591 20.0526 0.0000 0.0000 7.7034 0.0000 0.0000 -4.7221 39.9214 -142.3582 7.9333 0.0000 0.0000 14.4107 0.0000 0.0000 12.7512 38.9075 -149.6627 7.0568 0.0000 0.0000 16.7355 0.0000 0.0000 20.2516 13.7650 -153.9548 14.7655 0.0000 0.0000 11.9368 0.0000 0.0000 29.2168 -22.7153 -161.7649 15.4646 0.0000 0.0000 14.4282 0.0000 0.0000 0.0000 0.0000 0.0000 27.3470 -12.5263 48.5621 -98.3896 56.1595 -13.9707 -21.1841 19.8962 -392.8621 -59.6069 -13.3391 6.5831 8.5663 0.0000 0.0000 10.2562 0.0000 0.0000 6.2571 0.5207 1.8999 6.8064 0.0000 0.0000 2.2424 0.0000 0.0000 -25.6289 22.9188 88.1873 56.4114 0.0000 0.0000 13.9358 0.0000 0.0000 -29.3523 16.6585 111.7828 55.3576 0.0000 0.0000 43.5878 0.0000 0.0000 -43.7484 10.0522 112.2819 55.7327 0.0000 0.0000 70.0210 0.0000 0.0000 0.0000 0.0000 0.0000 0.0000 0.0000 0.0000 0.0000 0.0000 0.0000 0.0000 0.0000 0.0000 0.0000 0.0000 0.0000 0.0000 0.0000 0.0000
0.0000 95.0000 0.0000 0.0000 0.0000 0.0000 0.0000 0.0000 0.0000 0.0000 0.0000 0.0000 0.0000 0.0000 0.0000 0.0000 0.0000 0.0000 0.0000 0.0000 0.0000 0.0000 0.0000 0.0000 -39.9075 -9.3803 -25.4670 46.6452 54.8095 -37.4445 -269.5621 13.2078 122.4669 41.1544 -3.0106 20.1892 5.1226 0.0000 0.0000 6.9435 0.0000 0.0000 13.5599 -10.0992 29.7884 110.0000 0.0000 0.0000 19.8697 0.0000 0.0000 22.7272 -7.3232 -329.4472 110.0000 0.0000 0.0000 15.8106 0.0000 0.0000 35.3235 -7.4348 -329.1817 110.0000 0.0000 0.0000 20.8751 0.0000 0.0000 32.9199 -2.2835 10.5195 4.9480 0.0000 0.0000 6.7470 0.0000 0.0000 0.0000 0.0000 0.0000 26.8302 -11.8943 47.1873 -114.9183 50.7580 -25.5402 -12.0716 25.8540 -383.4901 -70.0993 -14.6406 10.3950 17.2994 0.0000 0.0000 16.0770 0.0000 0.0000 11.5451 -0.0742 -7.4453 3.5488 0.0000 0.0000 1.2874 0.0000 0.0000 -28.4183 26.1448 89.8152 48.2389 0.0000 0.0000 12.4575 0.0000 0.0000 -38.0070 24.1158 103.6008 47.1478 0.0000 0.0000 32.6688 0.0000 0.0000 -47.7613 14.2376 109.0324 45.5324 0.0000 0.0000 51.0740 0.0000 0.0000 0.0000 0.0000 0.0000 0.0000 0.0000 0.0000 0.0000 0.0000 0.0000 0.0000 0.0000 0.0000 0.0000 0.0000 0.0000 0.0000 0.0000 0.0000
0.0000 95.0000 0.0000 0.0000 0.0000 0.0000 0.0000 0.0000 0.0000 0.0000 0.0000 0.0000 0.0000 0.0000 0.0000 0.0000 0.0000 0.0000 0.0000 0.0000 0.0000 0.0000 0.0000 0.0000 -25.4166 -6.6971 -29.0897 104.9938 42.0189 6.4752 -341.8434 23.8166 27.8010 65.7834 -14.1545 -8.2430 23.7567 0.0000 0.0000 13.4590 0.0000 0.0000 -2.4055 0.7229 -3.8376 2.6419 0.0000 0.0000 3.6710 0.0000 0.0000 25.5949 13.9718 -421.4612 90.9318 0.0000 0.0000 16.9769 0.0000 0.0000 43.1130 17.9284 -435.1582 82.1123 0.0000 0.0000 20.9154 0.0000 0.0000 62.5003 16.1632 -73.4930 73.9405 0.0000 0.0000 26.1734 0.0000 0.0000 0.0000 0.0000 0.0000 23.6213 -9.6251 43.8630 -133.8858 31.7421 -35.6764 -0.1414 17.1547 -368.2528 -71.2097 -14.7258 10.0942 26.8925 0.0000 0.0000 12.1230 0.0000 0.0000 15.3017 0.4037 -6.0402 2.8724 0.0000 0.0000 2.3302 0.0000 0.0000 -32.9519 33.5284 95.8235 35.1679 0.0000 0.0000 6.2964 0.0000 0.0000 -43.9567 33.2083 107.8982 27.1162 0.0000 0.0000 10.4495 0.0000 0.0000 -53.4532 22.8650 112.9835 26.1086 0.0000 0.0000 30.2389 0.0000 0.0000 0.0000 0.0000 0.0000 0.0000 0.0000 0.0000 0.0000 0.0000 0.0000 0.0000 0.0000 0.0000 0.0000 0.0000 0.0000 0.0000 0.0000 0.0000
0.0000 95.0000 0.0000 0.0000 0.0000 0.0000 0.0000 0.0000 0.0000 0.0000 0.0000 0.0000 0.0000 0.0000 0.0000 0.0000 0.0000 0.0000 0.0000 0.0000 0.0000 0.0000 0.0000 0.0000 -7.8424 -2.1950 -31.2295 114.9169 -6.3853 33.5217 -359.8875 -12.8300 -12.2368 67.7190 -14.3452 -8.1814 22.3976 0.0000 0.0000 17.1847 0.0000 0.0000 -2.3177 0.9253 -5.1038 2.4945 0.0000 0.0000 4.6503 0.0000 0.0000 31.1956 16.1534 -418.6626 90.0367 0.0000 0.0000 18.9434 0.0000 0.0000 49.4259 23.1073 -436.7083 77.3405 0.0000 0.0000 23.5410 0.0000 0.0000 71.4271 26.0256 -81.2487 60.8253 0.0000 0.0000 31.5963 0.0000 0.0000 0.0000 0.0000 0.0000 19.5624 -5.1675 29.3376 -133.7647 -35.3582 -36.8680 -11.0392 -42.0748 -324.6796 -78.0167 -14.8600 20.5876 32.4169 0.0000 0.0000 21.6786 0.0000 0.0000 18.3554 0.7080 -5.6415 7.0819 0.0000 0.0000 4.0508 0.0000 0.0000 -22.5117 15.4562 73.3496 68.6639 0.0000 0.0000 9.8792 0.0000 0.0000 -35.8514 21.6208 103.4588 44.2198 0.0000 0.0000 13.4167 0.0000 0.0000 -48.2723 10.5788 92.7469 49.3018 0.0000 0.0000 8.5175 0.0000 0.0000 0.0000 0.0000 0.0000 0.0000 0.0000 0.0000 0.0000 0.0000 0.0000 0.0000 0.0000 0.0000 0.0000 0.0000 0.0000 0.0000 0.0000 0.0000
0.0000 95.0000 0.0000 0.0000 0.0000 0.0000 0.0000 0.0000 0.0000 0.0000 0.0000 0.0000 0.0000 0.0000 0.0000 0.0000 0.0000 0.0000 0.0000 0.0000 0.0000 0.0000 0.0000 0.0000 1.1524 0.3350 -32.4209 110.0255 -11.2728 40.7292 -362.5592 -22.1078 -17.6537 71.7166 -14.7780 -10.9179 29.8840 0.0000 0.0000 18.4888 0.0000 0.0000 -1.7291 0.9825 -5.4466 0.1584 0.0000 0.0000 3.6286 0.0000 0.0000 18.6334 7.9265 -410.5618 104.6938 0.0000 0.0000 10.5175 0.0000 0.0000 36.1598 15.1932 -443.1154 77.9255 0.0000 0.0000 12.1387 0.0000 0.0000 53.1556 7.1358 -60.9169 90.6093 0.0000 0.0000 12.5165 0.0000 0.0000 0.0000 0.0000 0.0000 14.7777 -3.7240 28.1471 -127.2030 -37.5499 -40.3731 -14.5906 -46.2399 -315.8210 -68.6722 -14.7157 15.4685 28.2647 0.0000 0.0000 30.2107 0.0000 0.0000 11.2682 0.4065 -1.2051 0.7878 0.0000 0.0000 2.1043 0.0000 0.0000 -27.8295 30.0860 99.4297 34.3400 0.0000 0.0000 7.2376 0.0000 0.0000 -33.8157 25.3423 118.2360 30.5838 0.0000 0.0000 15.1703 0.0000 0.0000 -47.8326 18.4441 121.1571 29.1424 0.0000 0.0000 16.4491 0.0000 0.0000 0.0000 0.0000 0.0000 0.0000 0.0000 0.0000 0.0000 0.0000 0.0000 0.0000 0.0000 0.0000 0.0000 0.0000 0.0000 0.0000 0.0000 0.0000
0.0000 95.0000 0.0000 0.0000 0.0000 0.0000 0.0000 0.0000 0.0000 0.0000 0.0000 0.0000 0.0000 0.0000 0.0000 0.0000 0.0000 0.0000 0.0000 0.0000 0.0000 0.0000 0.0000 0.0000 4.8950 1.4878 -33.7957 108.2341 -2.2737 36.7685 -383.8480 -32.3399 5.5247 50.3146 -11.0835 -0.8177 12.6643 0.0000 0.0000 18.0741 0.0000 0.0000 25.5828 21.8164 -51.9869 93.5171 0.0000 0.0000 27.8530 0.0000 0.0000 48.4861 30.6404 -427.3996 74.0832 0.0000 0.0000 43.5060 0.0000 0.0000 55.6338 27.7111 -436.6429 74.6728 0.0000 0.0000 40.3099 0.0000 0.0000 73.6734 21.9418 -69.5525 74.8755 0.0000 0.0000 35.3362 0.0000 0.0000 0.0000 0.0000 0.0000 13.5248 -4.5331 36.9163 -131.3469 -9.5301 -38.5094 9.8059 -28.1509 -341.9150 -64.7310 -13.8855 5.9716 18.1109 0.0000 0.0000 20.1649 0.0000 0.0000 16.0253 0.3129 -10.0482 4.6381 0.0000 0.0000 3.3291 0.0000 0.0000 7.2345 -1.2630 24.5524 108.0118 0.0000 0.0000 3.2933 0.0000 0.0000 5.2779 -11.9783 61.0921 86.5327 0.0000 0.0000 2.8369 0.0000 0.0000 5.4521 -17.3309 48.2395 98.3145 0.0000 0.0000 7.5800 0.0000 0.0000 0.0000 0.0000 0.0000 0.0000 0.0000 0.0000 0.0000 0.0000 0.0000 0.0000 0.0000 0.0000 0.0000 0.0000 0.0000 0.0000 0.0000 0.0000
0.0000 95.0000 0.0000 0.0000 0.0000 0.0000 0.0000 0.0000 0.0000 0.0000 0.0000 0.0000 0.0000 0.0000 0.0000 0.0000 0.0000 0.0000 0.0000 0.0000 0.0000 0.0000 0.0000 0.0000 4.6938 1.4373 -34.0329 105.1266 4.1939 31.7352 -382.4181 -15.6179 5.2520 52.2038 -10.9809 1.4673 6.4804 0.0000 0.0000 20.8272 0.0000 0.0000 33.2112 21.7318 -44.9743 94.7703 0.0000 0.0000 24.5887 0.0000 0.0000 59.3809 30.7137 -416.2097 76.9514 0.0000 0.0000 33.1258 0.0000 0.0000 64.8354 31.9629 -432.0704 73.1880 0.0000 0.0000 34.9524 0.0000 0.0000 81.3369 22.9117 -62.0493 77.9877 0.0000 0.0000 30.9044 0.0000 0.0000 0.0000 0.0000 0.0000 12.7742 -4.5230 38.8643 -125.7608 5.6560 -35.0177 14.2568 -10.5260 -352.4869 -59.5426 -13.0680 4.3437 22.1911 0.0000 0.0000 20.2832 0.0000 0.0000 16.0717 0.4070 -7.8425 2.3799 0.0000 0.0000 2.4810 0.0000 0.0000 11.7126 -0.8856 13.3896 100.4974 0.0000 0.0000 12.5166 0.0000 0.0000 22.4038 -20.6626 59.6441 89.1032 0.0000 0.0000 8.7650 0.0000 0.0000 28.5173 -29.0640 51.0050 92.2253 0.0000 0.0000 11.5967 0.0000 0.0000 0.0000 0.0000 0.0000 0.0000 0.0000 0.0000 0.0000 0.0000 0.0000 0.0000 0.0000 0.0000 0.0000 0.0000 0.0000 0.0000 0.0000 0.0000
0.0000 95.0000 0.0000 0.0000 0.0000 0.0000 0.0000 0.0000 0.0000 0.0000 0.0000 0.0000 0.0000 0.0000 0.0000 0.0000 0.0000 0.0000 0.0000 0.0000 0.0000 0.0000 0.0000 0.0000 2.3065 0.7094 -34.1863 102.0476 13.8724 23.0596 -427.7861 -53.7850 47.4768 54.1433 -13.0328 -8.5974 21.6479 0.0000 0.0000 45.9849 0.0000 0.0000 8.3045 3.3587 -14.5158 2.3665 0.0000 0.0000 1.9574 0.0000 0.0000 5.6809 1.5619 -395.4964 85.2808 0.0000 0.0000 30.7975 0.0000 0.0000 19.3251 0.5985 -414.3189 68.7011 0.0000 0.0000 50.9952 0.0000 0.0000 30.1775 -4.4433 -62.4422 48.1429 0.0000 0.0000 64.6934 0.0000 0.0000 0.0000 0.0000 0.0000 16.2632 -6.4221 42.8742 -113.5250 28.0566 -26.7803 7.2947 16.3471 -369.4071 -53.3621 -11.9074 2.5385 25.1778 0.0000 0.0000 20.6928 0.0000 0.0000 16.2406 0.5087 -5.6786 0.7014 0.0000 0.0000 2.1148 0.0000 0.0000 12.1065 -0.2953 7.5563 17.3689 0.0000 0.0000 21.8213 0.0000 0.0000 35.8729 -24.7713 53.4829 88.2414 0.0000 0.0000 15.5844 0.0000 0.0000 47.0320 -33.9354 44.9678 79.6845 0.0000 0.0000 14.4300 0.0000 0.0000 0.0000 0.0000 0.0000 0.0000 0.0000 0.0000 0.0000 0.0000 0.0000 0.0000 0.0000 0.0000 0.0000 0.0000 0.0000 0.0000 0.0000 0.0000
0.0000 95.0000 0.0000 0.0000 0.0000 0.0000 0.0000 0.0000 0.0000 0.0000 0.0000 0.0000 0.0000 0.0000 0.0000 0.0000 0.0000 0.0000 0.0000 0.0000 0.0000 0.0000 0.0000 0.0000 0.0317 0.0086 -30.3286 96.4296 16.8052 15.2882 -373.6985 9.3483 4.1308 47.9650 -9.0706 6.1885 24.7769 0.0000 0.0000 7.9170 0.0000 0.0000 -20.3930 0.9128 -3.6566 16.5798 0.0000 0.0000 16.6082 0.0000 0.0000 -43.2864 -16.2590 -404.3691 99.8080 0.0000 0.0000 24.9910 0.0000 0.0000 -42.4499 -29.4760 -415.4836 91.4116 0.0000 0.0000 47.3893 0.0000 0.0000 -48.4229 -32.4114 -42.3901 90.9838 0.0000 0.0000 45.9648 0.0000 0.0000 0.0000 0.0000 0.0000 18.1288 -7.5400 44.8847 -92.9307 36.7730 -14.9251 -6.9408 33.3762 -387.2945 -44.5122 -10.0647 0.8022 26.1094 0.0000 0.0000 21.4171 0.0000 0.0000 16.5796 0.6540 -2.4428 2.0673 0.0000 0.0000 3.1170 0.0000 0.0000 9.3538 0.0512 4.1459 8.9381 0.0000 0.0000 10.2064 0.0000 0.0000 43.6437 -25.2855 47.7936 82.6843 0.0000 0.0000 27.7627 0.0000 0.0000 57.8538 -34.6861 39.6736 62.9526 0.0000 0.0000 16.6699 0.0000 0.0000 0.0000 0.0000 0.0000 0.0000 0.0000 0.0000 0.0000 0.0000 0.0000 0.0000 0.0000 0.0000 0.0000 0.0000 0.0000 0.0000 0.0000 0.0000
0.0000 95.0000 0.0000 0.0000 0.0000 0.0000 0.0000 0.0000 0.0000 0.0000 0.0000 0.0000 0.0000 0.0000 0.0000 0.0000 0.0000 0.0000 0.0000 0.0000 0.0000 0.0000 0.0000 0.0000 -1.9371 -0.4700 -27.2740 92.1077 15.5547 12.3462 -370.4298 -0.4048 -0.6388 54.7731 -11.9700 -1.5797 42.3941 0.0000 0.0000 5.6196 0.0000 0.0000 -13.2155 0.0881 7.7745 6.0838 0.0000 0.0000 2.6205 0.0000 0.0000 -49.2334 -20.3890 -407.6299 87.8377 0.0000 0.0000 25.8678 0.0000 0.0000 -54.2706 -30.0955 -407.1224 89.6962 0.0000 0.0000 52.6392 0.0000 0.0000 -57.3723 -29.4010 -34.6376 91.0832 0.0000 0.0000 45.6904 0.0000 0.0000 0.0000 0.0000 0.0000 17.8630 -7.0210 42.6460 -87.0866 33.3090 -12.2261 -8.6092 14.9392 -385.7085 -49.2479 -10.3615 -1.6848 33.3882 0.0000 0.0000 17.1475 0.0000 0.0000 11.5904 0.2966 -2.8244 2.2197 0.0000 0.0000 1.2705 0.0000 0.0000 38.0211 -10.3650 34.2691 108.8825 0.0000 0.0000 19.2405 0.0000 0.0000 40.4495 -16.4957 35.0403 110.0000 0.0000 0.0000 37.4940 0.0000 0.0000 56.5875 -29.0684 34.6549 90.6876 0.0000 0.0000 30.3348 0.0000 0.0000 0.0000 0.0000 0.0000 0.0000 0.0000 0.0000 0.0000 0.0000 0.0000 0.0000 0.0000 0.0000 0.0000 0.0000 0.0000 0.0000 0.0000 0.0000
0.0000 95.0000 0.0000 0.0000 0.0000 0.0000 0.0000 0.0000 0.0000 0.0000 0.0000 0.0000 0.0000 0.0000 0.0000 0.0000 0.0000 0.0000 0.0000 0.0000 0.0000 0.0000 0.0000 0.0000 -7.9904 -1.8671 -26.2654 86.9282 21.7496 4.6779 -368.0857 6.7165 10.4704 55.7867 -12.1118 -1.4306 38.0083 0.0000 0.0000 9.4202 0.0000 0.0000 -14.8859 0.7549 -1.8163 40.5506 0.0000 0.0000 10.3442 0.0000 0.0000 -46.9753 -15.4222 -399.3847 89.6755 0.0000 0.0000 14.7046 0.0000 0.0000 -48.6591 -21.5293 -398.5259 90.8199 0.0000 0.0000 22.4574 0.0000 0.0000 -45.8897 -18.0068 -26.6670 97.8008 0.0000 0.0000 21.5493 0.0000 0.0000 0.0000 0.0000 0.0000 21.8991 -8.5624 42.3071 -82.2203 36.0872 -8.3949 -17.0606 19.9068 -397.2201 -46.0967 -9.4202 -2.9660 30.7608 0.0000 0.0000 20.9244 0.0000 0.0000 20.1217 0.9210 6.5883 33.9938 0.0000 0.0000 15.5574 0.0000 0.0000 54.0707 -15.6675 34.9495 91.4149 0.0000 0.0000 15.2393 0.0000 0.0000 50.4130 -19.4540 34.4445 95.5711 0.0000 0.0000 20.5305 0.0000 0.0000 47.6086 -18.5027 26.6965 101.4790 0.0000 0.0000 23.0672 0.0000 0.0000 0.0000 0.0000 0.0000 0.0000 0.0000 0.0000 0.0000 0.0000 0.0000 0.0000 0.0000 0.0000 0.0000 0.0000 0.0000 0.0000 0.0000 0.0000
0.0000 95.0000 0.0000 0.0000 0.0000 0.0000 0.0000 0.0000 0.0000 0.0000 0.0000 0.0000 0.0000 0.0000 0.0000 0.0000 0.0000 0.0000 0.0000 0.0000 0.0000 0.0000 0.0000 0.0000 -16.5028 -3.5626 -24.2076 80.7555 27.8751 -3.2248 -377.8832 19.0779 18.7194 58.9275 -13.7472 -10.5669 45.2188 0.0000 0.0000 9.9186 0.0000 0.0000 -55.0745 -7.3315 -31.1500 68.4633 0.0000 0.0000 12.0950 0.0000 0.0000 -61.4173 -24.4479 -404.8505 52.9625 0.0000 0.0000 14.6140 0.0000 0.0000 -62.9922 -28.4697 -399.6223 51.3105 0.0000 0.0000 15.9573 0.0000 0.0000 -58.8037 -24.2938 -29.0299 57.3597 0.0000 0.0000 13.9154 0.0000 0.0000 0.0000 0.0000 0.0000 30.0826 -10.9613 39.2987 -75.3837 41.1484 -1.1127 -91.1141 36.8059 -435.3449 -35.9567 -5.8444 -6.8318 43.3906 0.0000 0.0000 37.3932 0.0000 0.0000 -105.9480 11.0304 10.1535 39.5498 0.0000 0.0000 52.4846 0.0000 0.0000 -125.1706 12.1606 11.0966 41.5810 0.0000 0.0000 84.2662 0.0000 0.0000 224.7051 15.3177 15.8337 52.9749 0.0000 0.0000 90.0000 0.0000 0.0000 215.3020 19.3800 23.1365 55.2540 0.0000 0.0000 90.0000 0.0000 0.0000 0.0000 0.0000 0.0000 0.0000 0.0000 0.0000 0.0000 0.0000 0.0000 0.0000 0.0000 0.0000 0.0000 0.0000 0.0000 0.0000 0.0000 0.0000
0.0000 95.0000 0.0000 0.0000 0.0000 0.0000 0.0000 0.0000 0.0000 0.0000 0.0000 0.0000 0.0000 0.0000 0.0000 0.0000 0.0000 0.0000 0.0000 0.0000 0.0000 0.0000 0.0000 0.0000 -24.6516 -5.2146 -23.5442 62.5626 35.7984 -18.1968 -456.8584 42.6290 -61.5361 45.2292 -21.7679 -48.5642 37.1268 0.0000 0.0000 9.6514 0.0000 0.0000 -9.6352 5.3599 -49.2126 19.6282 0.0000 0.0000 4.2485 0.0000 0.0000 6.9992 4.2336 -427.0684 45.2965 0.0000 0.0000 49.5227 0.0000 0.0000 12.7493 -2.9369 -430.9982 54.1253 0.0000 0.0000 48.9499 0.0000 0.0000 20.2372 -11.0017 -71.6024 50.1764 0.0000 0.0000 52.5309 0.0000 0.0000 0.0000 0.0000 0.0000 39.8319 -13.4123 35.9599 -59.0804 45.4682 11.2940 -185.2308 6.5132 -514.2245 -78.0949 -17.8964 -44.4072 25.3848 0.0000 0.0000 4.8882 0.0000 0.0000 -67.2052 -18.8388 -15.4277 15.4987 0.0000 0.0000 20.5257 0.0000 0.0000 -80.4217 -21.3461 -20.3633 7.8539 0.0000 0.0000 90.0000 0.0000 0.0000 273.3196 -22.6424 -24.0814 29.5667 0.0000 0.0000 90.0000 0.0000 0.0000 265.1335 -23.6599 -27.6093 23.4596 0.0000 0.0000 90.0000 0.0000 0.0000 0.0000 0.0000 0.0000 0.0000 0.0000 0.0000 0.0000 0.0000 0.0000 0.0000 0.0000 0.0000 0.0000 0.0000 0.0000 0.0000 0.0000 0.0000
0.0000 95.0000 0.0000 0.0000 0.0000 0.0000 0.0000 0.0000 0.0000 0.0000 0.0000 0.0000 0.0000 0.0000 0.0000 0.0000 0.0000 0.0000 0.0000 0.0000 0.0000 0.0000 0.0000 0.0000 -30.1118 -6.4064 -23.5055 37.1139 33.6113 -32.3063 -472.3558 17.6734 -98.6152 57.2774 -14.0150 -13.5295 26.8712 0.0000 0.0000 11.9274 0.0000 0.0000 3.2853 3.7163 -18.2519 5.6759 0.0000 0.0000 6.8294 0.0000 0.0000 27.3302 4.6324 -383.6626 84.1323 0.0000 0.0000 73.0812 0.0000 0.0000 35.6872 2.7262 -386.9173 98.4169 0.0000 0.0000 62.5826 0.0000 0.0000 45.5890 -0.3582 -28.6430 73.4389 0.0000 0.0000 84.6731 0.0000 0.0000 0.0000 0.0000 0.0000 45.0014 -14.0517 33.1380 -42.6699 43.5022 21.6666 -262.5210 -26.7830 -493.8236 -30.9021 11.8204 -41.8222 16.4651 0.0000 0.0000 2.7370 0.0000 0.0000 9.3102 -2.1774 -25.5804 1.5914 0.0000 0.0000 9.4682 0.0000 0.0000 -1.0897 -0.3897 -34.5848 44.0653 0.0000 0.0000 90.0000 0.0000 0.0000 353.3795 2.8946 -37.5850 70.4328 0.0000 0.0000 85.4249 0.0000 0.0000 345.3616 6.1995 -39.6782 64.3893 0.0000 0.0000 80.2299 0.0000 0.0000 0.0000 0.0000 0.0000 0.0000 0.0000 0.0000 0.0000 0.0000 0.0000 0.0000 0.0000 0.0000 0.0000 0.0000 0.0000 0.0000 0.0000 0.0000
0.0000 95.0000 0.0000 0.0000 0.0000 0.0000 0.0000 0.0000 0.0000 0.0000 0.0000 0.0000 0.0000 0.0000 0.0000 0.0000 0.0000 0.0000 0.0000 0.0000 0.0000 0.0000 0.0000 0.0000 -34.4481 -7.7755 -24.7287 16.6563 26.6276 -39.4495 -509.0675 16.2585 -115.4320 68.7583 -14.4133 -7.2116 60.8567 0.0000 0.0000 51.2469 0.0000 0.0000 4.5988 1.8225 -9.1039 3.3317 0.0000 0.0000 5.8299 0.0000 0.0000 26.5997 1.4660 -370.9680 68.3960 0.0000 0.0000 89.4692 0.0000 0.0000 35.4872 0.3788 -373.6908 65.7552 0.0000 0.0000 88.7439 0.0000 0.0000 42.8248 -1.9719 -14.4555 58.1777 0.0000 0.0000 90.0000 0.0000 0.0000 0.0000 0.0000 0.0000 49.9965 -14.7189 30.9657 -28.8665 40.3738 28.9852 -216.0391 -10.1755 -444.3787 -41.4076 -4.5461 -15.7053 21.3281 0.0000 0.0000 17.4897 0.0000 0.0000 -36.0651 -3.8848 -3.8511 52.1662 0.0000 0.0000 90.0000 0.0000 0.0000 -46.4628 -3.4368 -3.2240 91.5539 0.0000 0.0000 66.2679 0.0000 0.0000 309.4399 -4.5993 -5.5667 88.0460 0.0000 0.0000 69.0533 0.0000 0.0000 306.9194 -5.5616 -10.2979 14.9234 0.0000 0.0000 13.1177 0.0000 0.0000 0.0000 0.0000 0.0000 0.0000 0.0000 0.0000 0.0000 0.0000 0.0000 0.0000 0.0000 0.0000 0.0000 0.0000 0.0000 0.0000 0.0000 0.0000
0.0000 95.0000 0.0000 0.0000 0.0000 0.0000 0.0000 0.0000 0.0000 0.0000 0.0000 0.0000 0.0000 0.0000 0.0000 0.0000 0.0000 0.0000 0.0000 0.0000 0.0000 0.0000 0.0000 0.0000 -38.8784 -8.2743 -23.1651 9.8411 25.4666 -42.7408 -537.9643 5.4245 -167.8025 -7.8772 7.2397 5.3993 68.6932 0.0000 0.0000 24.4386 0.0000 0.0000 32.3815 -11.4181 19.4026 32.4358 0.0000 0.0000 23.6332 0.0000 0.0000 51.5702 -10.9280 -342.3722 87.6570 0.0000 0.0000 28.6745 0.0000 0.0000 57.0044 -11.0897 -339.4455 110.0000 0.0000 0.0000 22.4196 0.0000 0.0000 73.4569 -13.0561 21.1021 110.0000 0.0000 0.0000 12.4516 0.0000 0.0000 0.0000 0.0000 0.0000 56.6175 -14.2416 26.1151 -27.6054 45.9378 33.8164 -219.1740 -16.5833 -448.4988 -39.7024 -2.6003 -19.6872 20.8518 0.0000 0.0000 15.7710 0.0000 0.0000 -27.5027 -4.3163 -6.6510 24.2754 0.0000 0.0000 90.0000 0.0000 0.0000 -40.8984 -4.2784 -6.6694 105.7651 0.0000 0.0000 58.7849 0.0000 0.0000 314.1618 -5.0629 -9.2548 106.6675 0.0000 0.0000 56.8470 0.0000 0.0000 311.2584 -5.4927 -15.1459 36.2644 0.0000 0.0000 63.8674 0.0000 0.0000 0.0000 0.0000 0.0000 0.0000 0.0000 0.0000 0.0000 0.0000 0.0000 0.0000 0.0000 0.0000 0.0000 0.0000 0.0000 0.0000 0.0000 0.0000
0.0000 95.0000 0.0000 0.0000 0.0000 0.0000 0.0000 0.0000 0.0000 0.0000 0.0000 0.0000 0.0000 0.0000 0.0000 0.0000 0.0000 0.0000 0.0000 0.0000 0.0000 0.0000 0.0000 0.0000 -44.5959 -8.6241 -20.8369 9.6439 34.8203 -52.3091 -580.0267 -14.0910 -218.3704 20.0628 6.4943 20.8901 25.8102 0.0000 0.0000 24.5008 0.0000 0.0000 -0.1776 -5.6929 30.5246 50.4760 0.0000 0.0000 10.8029 0.0000 0.0000 20.7600 -9.5148 -315.9032 26.6067 0.0000 0.0000 35.0187 0.0000 0.0000 27.2614 -6.9010 -310.2600 36.5578 0.0000 0.0000 77.1985 0.0000 0.0000 28.5465 1.1002 57.9545 50.6442 0.0000 0.0000 62.3772 0.0000 0.0000 0.0000 0.0000 0.0000 60.9100 -13.9647 23.5318 -26.3210 53.4181 39.9414 -219.1050 -19.5740 -456.9321 -37.7419 -0.2572 -23.8918 20.4447 0.0000 0.0000 14.3282 0.0000 0.0000 -17.0894 -3.9591 -9.1816 7.0385 0.0000 0.0000 24.6820 0.0000 0.0000 -35.5272 -4.8692 -10.3480 110.0000 0.0000 0.0000 49.7481 0.0000 0.0000 318.9162 -5.2418 -13.0671 110.0000 0.0000 0.0000 44.0215 0.0000 0.0000 315.7513 -5.0108 -19.9241 88.0517 0.0000 0.0000 65.4964 0.0000 0.0000 0.0000 0.0000 0.0000 0.0000 0.0000 0.0000 0.0000 0.0000 0.0000 0.0000 0.0000 0.0000 0.0000 0.0000 0.0000 0.0000 0.0000 0.0000
0.0000 95.0000 0.0000 0.0000 0.0000 0.0000 0.0000 0.0000 0.0000 0.0000 0.0000 0.0000 0.0000 0.0000 0.0000 0.0000 0.0000 0.0000 0.0000 0.0000 0.0000 0.0000 0.0000 0.0000 -48.1166 -8.8885 -19.7514 -0.4498 45.7556 -75.4530 -636.2603 -45.0254 -146.2275 33.2791 20.2027 59.5942 29.1852 0.0000 0.0000 15.8060 0.0000 0.0000 -5.0135 -17.9990 96.1141 30.4077 0.0000 0.0000 16.3223 0.0000 0.0000 -2.3795 3.6955 -250.3153 22.9324 0.0000 0.0000 26.7451 0.0000 0.0000 6.2790 15.2878 -248.1412 27.5068 0.0000 0.0000 28.8413 0.0000 0.0000 13.5742 31.5454 110.2618 28.1406 0.0000 0.0000 41.7318 0.0000 0.0000 0.0000 0.0000 0.0000 62.7308 -14.6317 23.7869 -21.2044 61.2729 49.5591 -218.3779 -21.7590 -471.6646 -34.5514 4.0366 -30.5509 19.9346 0.0000 0.0000 12.5799 0.0000 0.0000 1.8979 -1.9539 -12.2777 5.7256 0.0000 0.0000 3.6540 0.0000 0.0000 -27.8265 -5.3017 -16.4012 110.0000 0.0000 0.0000 35.8019 0.0000 0.0000 325.9777 -4.9976 -19.1627 110.0000 0.0000 0.0000 28.5605 0.0000 0.0000 322.5076 -3.5607 -27.1312 110.0000 0.0000 0.0000 22.0556 0.0000 0.0000 0.0000 0.0000 0.0000 0.0000 0.0000 0.0000 0.0000 0.0000 0.0000 0.0000 0.0000 0.0000 0.0000 0.0000 0.0000 0.0000 0.0000 0.0000
0.0000 95.0000 0.0000 0.0000 0.0000 0.0000 0.0000 0.0000 0.0000 0.0000 0.0000 0.0000 0.0000 0.0000 0.0000 0.0000 0.0000 0.0000 0.0000 0.0000 0.0000 0.0000 0.0000 0.0000 -50.8999 -9.2773 -19.3507 -12.7385 54.4499 -98.3022 -623.3822 -38.2580 -117.5065 22.8239 35.2250 65.0351 25.5530 0.0000 0.0000 35.7913 0.0000 0.0000 -12.9437 -16.5836 128.0343 13.7152 0.0000 0.0000 49.5050 0.0000 0.0000 -4.6157 10.7861 -231.0072 24.9684 0.0000 0.0000 90.0000 0.0000 0.0000 2.1791 29.4151 -234.6752 31.3077 0.0000 0.0000 90.0000 0.0000 0.0000 5.5985 52.0752 118.6503 27.5246 0.0000 0.0000 90.0000 0.0000 0.0000 0.0000 0.0000 0.0000 64.1426 -15.0782 23.8527 -15.9663 68.9905 59.7093 -206.9601 -17.6178 -479.4552 -39.2612 2.0579 -31.9616 20.4716 0.0000 0.0000 3.8875 0.0000 0.0000 0.5269 -1.5414 -8.7926 6.7918 0.0000 0.0000 6.3756 0.0000 0.0000 -35.4107 -7.2760 -17.7554 93.2375 0.0000 0.0000 71.1291 0.0000 0.0000 315.8550 -7.9405 -21.3088 110.0000 0.0000 0.0000 38.1671 0.0000 0.0000 308.8759 -8.2193 -29.0481 110.0000 0.0000 0.0000 26.3878 0.0000 0.0000 0.0000 0.0000 0.0000 0.0000 0.0000 0.0000 0.0000 0.0000 0.0000 0.0000 0.0000 0.0000 0.0000 0.0000 0.0000 0.0000 0.0000 0.0000
0.0000 95.0000 0.0000 0.0000 0.0000 0.0000 0.0000 0.0000 0.0000 0.0000 0.0000 0.0000 0.0000 0.0000 0.0000 0.0000 0.0000 0.0000 0.0000 0.0000 0.0000 0.0000 0.0000 0.0000 -52.3302 -9.4920 -19.1831 -24.7555 58.1456 -117.0412 -608.9456 -41.8302 -120.1318 27.2173 28.1859 62.2485 32.9241 0.0000 0.0000 40.2851 0.0000 0.0000 -6.6416 -27.1325 122.6657 19.2811 0.0000 0.0000 76.8522 0.0000 0.0000 1.6048 -3.5438 -233.4873 21.2922 0.0000 0.0000 90.0000 0.0000 0.0000 9.1385 14.6299 -233.8112 26.8681 0.0000 0.0000 90.0000 0.0000 0.0000 14.7996 39.9186 124.0858 23.3192 0.0000 0.0000 90.0000 0.0000 0.0000 0.0000 0.0000 0.0000 64.5644 -15.4555 24.2461 -9.2365 72.9460 69.0390 -204.3443 -16.1645 -487.6248 -40.9925 2.0659 -34.5302 20.6619 0.0000 0.0000 1.8637 0.0000 0.0000 -1.7071 -2.6399 -12.8681 8.5053 0.0000 0.0000 6.7060 0.0000 0.0000 -36.7013 -8.6052 -20.7872 71.1876 0.0000 0.0000 88.9529 0.0000 0.0000 315.1468 -8.9454 -24.3148 110.0000 0.0000 0.0000 39.9791 0.0000 0.0000 309.1737 -8.7724 -33.0174 110.0000 0.0000 0.0000 27.9884 0.0000 0.0000 0.0000 0.0000 0.0000 0.0000 0.0000 0.0000 0.0000 0.0000 0.0000 0.0000 0.0000 0.0000 0.0000 0.0000 0.0000 0.0000 0.0000 0.0000
0.0000 95.0000 0.0000 0.0000 0.0000 0.0000 0.0000 0.0000 0.0000 0.0000 0.0000 0.0000 0.0000 0.0000 0.0000 0.0000 0.0000 0.0000 0.0000 0.0000 0.0000 0.0000 0.0000 0.0000 -53.3691 -9.3565 -18.4950 -32.7933 58.6540 -128.6349 -612.0845 -40.4988 -116.0658 24.7950 29.3364 60.4688 35.0587 0.0000 0.0000 43.9997 0.0000 0.0000 -12.1687 -16.8560 124.5314 18.1610 0.0000 0.0000 24.6342 0.0000 0.0000 -3.1669 7.5589 -230.1867 29.4867 0.0000 0.0000 90.0000 0.0000 0.0000 3.5826 27.8319 -232.4764 37.7810 0.0000 0.0000 90.0000 0.0000 0.0000 7.2133 52.0125 121.3341 33.0123 0.0000 0.0000 90.0000 0.0000 0.0000 0.0000 0.0000 0.0000 64.9241 -15.3559 23.9306 -2.8028 75.1469 77.4249 -202.0414 -13.6810 -490.0872 -42.4266 1.5141 -35.2676 23.7882 0.0000 0.0000 6.0861 0.0000 0.0000 -5.7359 -4.8203 -19.1430 13.2906 0.0000 0.0000 6.4104 0.0000 0.0000 -40.2438 -9.9008 -21.8304 108.7883 0.0000 0.0000 61.8506 0.0000 0.0000 311.8030 -10.1442 -25.0362 110.0000 0.0000 0.0000 30.3664 0.0000 0.0000 306.0632 -10.0471 -33.4763 110.0000 0.0000 0.0000 25.4806 0.0000 0.0000 0.0000 0.0000 0.0000 0.0000 0.0000 0.0000 0.0000 0.0000 0.0000 0.0000 0.0000 0.0000 0.0000 0.0000 0.0000 0.0000 0.0000 0.0000
0.0000 95.0000 0.0000 0.0000 0.0000 0.0000 0.0000 0.0000 0.0000 0.0000 0.0000 0.0000 0.0000 0.0000 0.0000 0.0000 0.0000 0.0000 0.0000 0.0000 0.0000 0.0000 0.0000 0.0000 -54.3286 -9.5342 -18.4616 -38.4743 58.4666 -135.9980 -595.5610 -41.0398 -121.6160 31.4650 34.5477 76.2781 20.4877 0.0000 0.0000 24.7205 0.0000 0.0000 -5.4342 -23.1247 110.8672 12.4118 0.0000 0.0000 7.2273 0.0000 0.0000 4.4008 -9.6138 -233.8835 17.3768 0.0000 0.0000 70.7239 0.0000 0.0000 12.0687 8.4739 -231.6942 22.9588 0.0000 0.0000 90.0000 0.0000 0.0000 22.5290 29.4180 132.7021 21.6180 0.0000 0.0000 90.0000 0.0000 0.0000 0.0000 0.0000 0.0000 65.7572 -15.1104 23.1908 5.8549 75.1963 86.5541 -203.4399 -17.2010 -491.8952 -34.9757 4.7296 -32.6610 25.4183 0.0000 0.0000 9.9223 0.0000 0.0000 -13.7275 -7.0298 -20.3029 15.2029 0.0000 0.0000 5.5433 0.0000 0.0000 -39.6459 -10.5156 -23.8701 90.1792 0.0000 0.0000 84.3601 0.0000 0.0000 312.9676 -10.7007 -28.0665 110.0000 0.0000 0.0000 40.3880 0.0000 0.0000 307.0894 -9.8120 -34.3295 110.0000 0.0000 0.0000 28.6175 0.0000 0.0000 0.0000 0.0000 0.0000 0.0000 0.0000 0.0000 0.0000 0.0000 0.0000 0.0000 0.0000 0.0000 0.0000 0.0000 0.0000 0.0000 0.0000 0.0000
0.0000 95.0000 0.0000 0.0000 0.0000 0.0000 0.0000 0.0000 0.0000 0.0000 0.0000 0.0000 0.0000 0.0000 0.0000 0.0000 0.0000 0.0000 0.0000 0.0000 0.0000 0.0000 0.0000 0.0000 -55.0121 -9.2055 -17.5780 -40.2769 54.9784 -137.1464 -593.9835 -35.4335 -149.4100 38.5926 11.2377 52.1057 51.7726 0.0000 0.0000 31.8005 0.0000 0.0000 14.6692 -43.7872 99.2398 16.5643 0.0000 0.0000 13.9436 0.0000 0.0000 17.1013 -28.4167 -246.1783 78.2160 0.0000 0.0000 87.3410 0.0000 0.0000 22.4334 -13.0130 -242.1263 110.0000 0.0000 0.0000 60.5227 0.0000 0.0000 29.7842 6.3194 120.3034 110.0000 0.0000 0.0000 44.3684 0.0000 0.0000 0.0000 0.0000 0.0000 66.5620 -14.5687 22.0394 9.0165 71.6889 87.5541 -212.9116 -11.7446 -493.4577 -32.1479 6.3796 -32.7156 29.7730 0.0000 0.0000 14.6116 0.0000 0.0000 -6.2829 -4.5229 -17.4501 8.7046 0.0000 0.0000 5.1366 0.0000 0.0000 -29.1871 -5.4111 -15.8028 110.0000 0.0000 0.0000 10.3332 0.0000 0.0000 323.8418 -5.3278 -18.2753 110.0000 0.0000 0.0000 3.9918 0.0000 0.0000 318.8171 -4.6122 -25.4005 110.0000 0.0000 0.0000 7.2498 0.0000 0.0000 0.0000 0.0000 0.0000 0.0000 0.0000 0.0000 0.0000 0.0000 0.0000 0.0000 0.0000 0.0000 0.0000 0.0000 0.0000 0.0000 0.0000 0.0000
0.0000 95.0000 0.0000 0.0000 0.0000 0.0000 0.0000 0.0000 0.0000 0.0000 0.0000 0.0000 0.0000 0.0000 0.0000 0.0000 0.0000 0.0000 0.0000 0.0000 0.0000 0.0000 0.0000 0.0000 -56.8262 -8.8674 -16.3127 -35.9601 42.2690 -119.2333 -529.5907 -34.2338 -197.3210 23.4754 9.9346 29.9053 50.8479 0.0000 0.0000 23.7086 0.0000 0.0000 33.9543 -15.5082 26.1859 7.7533 0.0000 0.0000 1.0975 0.0000 0.0000 47.3672 -15.6729 -329.9307 27.0037 0.0000 0.0000 90.0000 0.0000 0.0000 54.4990 -15.0066 -327.2167 77.2167 0.0000 0.0000 90.0000 0.0000 0.0000 60.6538 -13.4761 36.4929 110.0000 0.0000 0.0000 57.2878 0.0000 0.0000 0.0000 0.0000 0.0000 69.1329 -13.3181 19.2347 15.7683 63.4352 88.2598 -245.6814 -17.7208 -478.2531 -17.6023 7.7361 -20.9699 27.5140 0.0000 0.0000 15.6975 0.0000 0.0000 8.0944 -0.7681 -10.2676 40.4929 0.0000 0.0000 90.0000 0.0000 0.0000 -3.4267 -0.4484 -10.1343 110.0000 0.0000 0.0000 32.5420 0.0000 0.0000 348.9308 -0.1284 -11.2525 110.0000 0.0000 0.0000 21.4003 0.0000 0.0000 341.0529 0.5226 -14.2375 110.0000 0.0000 0.0000 20.8624 0.0000 0.0000 0.0000 0.0000 0.0000 0.0000 0.0000 0.0000 0.0000 0.0000 0.0000 0.0000 0.0000 0.0000 0.0000 0.0000 0.0000 0.0000 0.0000 0.0000
0.0000 95.0000 0.0000 0.0000 0.0000 0.0000 0.0000 0.0000 0.0000 0.0000 0.0000 0.0000 0.0000 0.0000 0.0000 0.0000 0.0000 0.0000 0.0000 0.0000 0.0000 0.0000 0.0000 0.0000 -58.8090 -7.8185 -13.8271 -38.0203 19.5861 -90.9588 -507.5086 -67.5470 -211.1509 11.0509 14.2874 25.4469 49.9248 0.0000 0.0000 21.7557 0.0000 0.0000 16.8893 -8.0730 21.0350 5.7767 0.0000 0.0000 1.7162 0.0000 0.0000 30.7177 -7.8130 -336.8490 16.6161 0.0000 0.0000 79.2792 0.0000 0.0000 39.2874 -7.4171 -335.3738 55.5561 0.0000 0.0000 90.0000 0.0000 0.0000 46.8166 -6.4720 26.7179 105.7349 0.0000 0.0000 69.1918 0.0000 0.0000 0.0000 0.0000 0.0000 71.4495 -11.5091 15.9522 20.2465 47.3877 78.3733 -278.1400 -24.9983 -455.9476 -17.6409 1.1928 -10.0083 25.2356 0.0000 0.0000 17.7575 0.0000 0.0000 0.1193 0.6517 3.5796 110.0000 0.0000 0.0000 8.0616 0.0000 0.0000 -11.4475 0.2261 7.0275 110.0000 0.0000 0.0000 9.6089 0.0000 0.0000 342.6642 -0.7934 14.4086 110.0000 0.0000 0.0000 8.1596 0.0000 0.0000 331.5705 -2.5246 9.2601 110.0000 0.0000 0.0000 8.3464 0.0000 0.0000 0.0000 0.0000 0.0000 0.0000 0.0000 0.0000 0.0000 0.0000 0.0000 0.0000 0.0000 0.0000 0.0000 0.0000 0.0000 0.0000 0.0000 0.0000
0.0000 95.0000 0.0000 0.0000 0.0000 0.0000 0.0000 0.0000 0.0000 0.0000 0.0000 0.0000 0.0000 0.0000 0.0000 0.0000 0.0000 0.0000 0.0000 0.0000 0.0000 0.0000 0.0000 0.0000 -60.4005 -6.8368 -11.7195 -40.6101 7.4441 -59.2263 -384.6809 -75.4510 -349.0129 11.0509 14.2874 25.4469 49.9248 0.0000 0.0000 21.7557 0.0000 0.0000 16.8893 -8.0730 21.0350 5.7767 0.0000 0.0000 1.7162 0.0000 0.0000 30.7177 -7.8130 -336.8490 16.6161 0.0000 0.0000 79.2792 0.0000 0.0000 39.2874 -7.4171 -335.3738 55.5561 0.0000 0.0000 90.0000 0.0000 0.0000 46.8166 -6.4720 26.7179 105.7349 0.0000 0.0000 69.1918 0.0000 0.0000 0.0000 0.0000 0.0000 73.5275 -9.5146 12.7122 20.8061 34.6505 63.0009 -301.1478 -34.8309 -435.3700 -17.6409 1.1928 -10.0083 25.2356 0.0000 0.0000 17.7575 0.0000 0.0000 0.1193 0.6517 3.5796 110.0000 0.0000 0.0000 8.0616 0.0000 0.0000 -11.4475 0.2261 7.0275 110.0000 0.0000 0.0000 9.6089 0.0000 0.0000 342.6642 -0.7934 14.4086 110.0000 0.0000 0.0000 8.1596 0.0000 0.0000 331.5705 -2.5246 9.2601 110.0000 0.0000 0.0000 8.3464 0.0000 0.0000 0.0000 0.0000 0.0000 0.0000 0.0000 0.0000 0.0000 0.0000 0.0000 0.0000 0.0000 0.0000 0.0000 0.0000 0.0000 0.0000 0.0000 0.0000
0.0000 95.0000 0.0000 0.0000 0.0000 0.0000 0.0000 0.0000 0.0000 0.0000 0.0000 0.0000 0.0000 0.0000 0.0000 0.0000 0.0000 0.0000 0.0000 0.0000 0.0000 0.0000 0.0000 0.0000 -65.3111 -4.1780 -6.5149 -40.2862 4.1869 -29.8706 -378.7147 -46.8401 -374.9023 11.0509 14.2874 25.4469 49.9248 0.0000 0.0000 21.7557 0.0000 0.0000 16.8893 -8.0730 21.0350 5.7767 0.0000 0.0000 1.7162 0.0000 0.0000 30.7177 -7.8130 -336.8490 16.6161 0.0000 0.0000 79.2792 0.0000 0.0000 39.2874 -7.4171 -335.3738 55.5561 0.0000 0.0000 90.0000 0.0000 0.0000 46.8166 -6.4720 26.7179 105.7349 0.0000 0.0000 69.1918 0.0000 0.0000 0.0000 0.0000 0.0000 75.3484 -7.5957 9.8271 19.6638 22.2376 42.5083 -328.4546 -32.3016 -405.4338 -17.6409 1.1928 -10.0083 25.2356 0.0000 0.0000 17.7575 0.0000 0.0000 0.1193 0.6517 3.5796 110.0000 0.0000 0.0000 8.0616 0.0000 0.0000 -11.4475 0.2261 7.0275 110.0000 0.0000 0.0000 9.6089 0.0000 0.0000 342.6642 -0.7934 14.4086 110.0000 0.0000 0.0000 8.1596 0.0000 0.0000 331.5705 -2.5246 9.2601 110.0000 0.0000 0.0000 8.3464 0.0000 0.0000 0.0000 0.0000 0.0000 0.0000 0.0000 0.0000 0.0000 0.0000 0.0000 0.0000 0.0000 0.0000 0.0000 0.0000 0.0000 0.0000 0.0000 0.0000
0.0000 95.0000 0.0000 0.0000 0.0000 0.0000 0.0000 0.0000 0.0000 0.0000 0.0000 0.0000 0.0000 0.0000 0.0000 0.0000 0.0000 0.0000 0.0000 0.0000 0.0000 0.0000 0.0000 0.0000 -69.9789 -2.9137 -4.1618 -30.1881 2.8286 -11.5981 -391.1626 -33.8079 -380.6361 11.0509 14.2874 25.4469 49.9248 0.0000 0.0000 21.7557 0.0000 0.0000 16.8893 -8.0730 21.0350 5.7767 0.0000 0.0000 1.7162 0.0000 0.0000 30.7177 -7.8130 -336.8490 16.6161 0.0000 0.0000 79.2792 0.0000 0.0000 39.2874 -7.4171 -335.3738 55.5561 0.0000 0.0000 90.0000 0.0000 0.0000 46.8166 -6.4720 26.7179 105.7349 0.0000 0.0000 69.1918 0.0000 0.0000 0.0000 0.0000 0.0000 77.1004 -6.7654 8.4843 14.4927 16.8231 28.8069 -336.4495 -23.9590 -390.5805 -17.6409 1.1928 -10.0083 25.2356 0.0000 0.0000 17.7575 0.0000 0.0000 0.1193 0.6517 3.5796 110.0000 0.0000 0.0000 8.0616 0.0000 0.0000 -11.4475 0.2261 7.0275 110.0000 0.0000 0.0000 9.6089 0.0000 0.0000 342.6642 -0.7934 14.4086 110.0000 0.0000 0.0000 8.1596 0.0000 0.0000 331.5705 -2.5246 9.2601 110.0000 0.0000 0.0000 8.3464 0.0000 0.0000 0.0000 0.0000 0.0000 0.0000 0.0000 0.0000 0.0000 0.0000 0.0000 0.0000 0.0000 0.0000 0.0000 0.0000 0.0000 0.0000 0.0000 0.0000
0.0000 95.0000 0.0000 0.0000 0.0000 0.0000 0.0000 0.0000 0.0000 0.0000 0.0000 0.0000 0.0000 0.0000 0.0000 0.0000 0.0000 0.0000 0.0000 0.0000 0.0000 0.0000 0.0000 0.0000 -73.0041 -2.0977 -2.8344 -22.5614 -0.2953 -0.9915 -400.0618 -27.0522 -384.6831 11.0509 14.2874 25.4469 49.9248 0.0000 0.0000 21.7557 0.0000 0.0000 16.8893 -8.0730 21.0350 5.7767 0.0000 0.0000 1.7162 0.0000 0.0000 30.7177 -7.8130 -336.8490 16.6161 0.0000 0.0000 79.2792 0.0000 0.0000 39.2874 -7.4171 -335.3738 55.5561 0.0000 0.0000 90.0000 0.0000 0.0000 46.8166 -6.4720 26.7179 105.7349 0.0000 0.0000 69.1918 0.0000 0.0000 0.0000 0.0000 0.0000 78.4709 -6.6424 8.1295 10.5674 12.5865 19.7701 -339.1895 -17.6191 -382.2468 -17.6409 1.1928 -10.0083 25.2356 0.0000 0.0000 17.7575 0.0000 0.0000 0.1193 0.6517 3.5796 110.0000 0.0000 0.0000 8.0616 0.0000 0.0000 -11.4475 0.2261 7.0275 110.0000 0.0000 0.0000 9.6089 0.0000 0.0000 342.6642 -0.7934 14.4086 110.0000 0.0000 0.0000 8.1596 0.0000 0.0000 331.5705 -2.5246 9.2601 110.0000 0.0000 0.0000 8.3464 0.0000 0.0000 0.0000 0.0000 0.0000 0.0000 0.0000 0.0000 0.0000 0.0000 0.0000 0.0000 0.0000 0.0000 0.0000 0.0000 0.0000 0.0000 0.0000 0.0000
0.0000 95.0000 0.0000 0.0000 0.0000 0.0000 0.0000 0.0000 0.0000 0.0000 0.0000 0.0000 0.0000 0.0000 0.0000 0.0000 0.0000 0.0000 0.0000 0.0000 0.0000 0.0000 0.0000 0.0000 -74.8363 -1.4573 -1.9047 -17.0700 -2.5053 3.8054 -406.0975 -24.5010 -386.4588 11.0509 14.2874 25.4469 49.9248 0.0000 0.0000 21.7557 0.0000 0.0000 16.8893 -8.0730 21.0350 5.7767 0.0000 0.0000 1.7162 0.0000 0.0000 30.7177 -7.8130 -336.8490 16.6161 0.0000 0.0000 79.2792 0.0000 0.0000 39.2874 -7.4171 -335.3738 55.5561 0.0000 0.0000 90.0000 0.0000 0.0000 46.8166 -6.4720 26.7179 105.7349 0.0000 0.0000 69.1918 0.0000 0.0000 0.0000 0.0000 0.0000 79.4201 -6.1370 7.3862 7.8811 9.7922 14.3987 -339.8980 -13.0611 -376.9452 -17.6409 1.1928 -10.0083 25.2356 0.0000 0.0000 17.7575 0.0000 0.0000 0.1193 0.6517 3.5796 110.0000 0.0000 0.0000 8.0616 0.0000 0.0000 -11.4475 0.2261 7.0275 110.0000 0.0000 0.0000 9.6089 0.0000 0.0000 342.6642 -0.7934 14.4086 110.0000 0.0000 0.0000 8.1596 0.0000 0.0000 331.5705 -2.5246 9.2601 110.0000 0.0000 0.0000 8.3464 0.0000 0.0000 0.0000 0.0000 0.0000 0.0000 0.0000 0.0000 0.0000 0.0000 0.0000 0.0000 0.0000 0.0000 0.0000 0.0000 0.0000 0.0000 0.0000 0.0000
0.0000 95.0000 0.0000 0.0000 0.0000 0.0000 0.0000 0.0000 0.0000 0.0000 0.0000 0.0000 0.0000 0.0000 0.0000 0.0000 0.0000 0.0000 0.0000 0.0000 0.0000 0.0000 0.0000 0.0000 -75.9463 -0.9257 -1.1860 -13.3763 -4.0397 6.3114 -410.1444 -23.2599 -387.4439 11.0509 14.2874 25.4469 49.9248 0.0000 0.0000 21.7557 0.0000 0.0000 16.8893 -8.0730 21.0350 5.7767 0.0000 0.0000 1.7162 0.0000 0.0000 30.7177 -7.8130 -336.8490 16.6161 0.0000 0.0000 79.2792 0.0000 0.0000 39.2874 -7.4171 -335.3738 55.5561 0.0000 0.0000 90.0000 0.0000 0.0000 46.8166 -6.4720 26.7179 105.7349 0.0000 0.0000 69.1918 0.0000 0.0000 0.0000 0.0000 0.0000 80.0922 -5.8961 7.0127 5.4693 8.5399 11.7158 -339.0840 -10.7279 -374.4694 -17.6409 1.1928 -10.0083 25.2356 0.0000 0.0000 17.7575 0.0000 0.0000 0.1193 0.6517 3.5796 110.0000 0.0000 0.0000 8.0616 0.0000 0.0000 -11.4475 0.2261 7.0275 110.0000 0.0000 0.0000 9.6089 0.0000 0.0000 342.6642 -0.7934 14.4086 110.0000 0.0000 0.0000 8.1596 0.0000 0.0000 331.5705 -2.5246 9.2601 110.0000 0.0000 0.0000 8.3464 0.0000 0.0000 0.0000 0.0000 0.0000 0.0000 0.0000 0.0000 0.0000 0.0000 0.0000 0.0000 0.0000 0.0000 0.0000 0.0000 0.0000 0.0000 0.0000 0.0000
0.0000 95.0000 0.0000 0.0000 0.0000 0.0000 0.0000 0.0000 0.0000 0.0000 0.0000 0.0000 0.0000 0.0000 0.0000 0.0000 0.0000 0.0000 0.0000 0.0000 0.0000 0.0000 0.0000 0.0000 -76.6000 -0.7323 -0.9273 -11.3759 -4.5301 6.8629 -411.8844 -23.2032 -387.4534 11.0509 14.2874 25.4469 49.9248 0.0000 0.0000 21.7557 0.0000 0.0000 16.8893 -8.0730 21.0350 5.7767 0.0000 0.0000 1.7162 0.0000 0.0000 30.7177 -7.8130 -336.8490 16.6161 0.0000 0.0000 79.2792 0.0000 0.0000 39.2874 -7.4171 -335.3738 55.5561 0.0000 0.0000 90.0000 0.0000 0.0000 46.8166 -6.4720 26.7179 105.7349 0.0000 0.0000 69.1918 0.0000 0.0000 0.0000 0.0000 0.0000 80.5238 -5.6716 6.6946 3.6375 8.2133 10.6251 -337.9940 -9.6639 -373.4185 -17.6409 1.1928 -10.0083 25.2356 0.0000 0.0000 17.7575 0.0000 0.0000 0.1193 0.6517 3.5796 110.0000 0.0000 0.0000 8.0616 0.0000 0.0000 -11.4475 0.2261 7.0275 110.0000 0.0000 0.0000 9.6089 0.0000 0.0000 342.6642 -0.7934 14.4086 110.0000 0.0000 0.0000 8.1596 0.0000 0.0000 331.5705 -2.5246 9.2601 110.0000 0.0000 0.0000 8.3464 0.0000 0.0000 0.0000 0.0000 0.0000 0.0000 0.0000 0.0000 0.0000 0.0000 0.0000 0.0000 0.0000 0.0000 0.0000 0.0000 0.0000 0.0000 0.0000 0.0000
0.0000 95.0000 0.0000 0.0000 0.0000 0.0000 0.0000 0.0000 0.0000 0.0000 0.0000 0.0000 0.0000 0.0000 0.0000 0.0000 0.0000 0.0000 0.0000 0.0000 0.0000 0.0000 0.0000 0.0000 -76.8704 -0.2575 -0.3245 -10.3996 -4.7076 7.1125 -412.9713 -22.8538 -387.7687 11.0509 14.2874 25.4469 49.9248 0.0000 0.0000 21.7557 0.0000 0.0000 16.8893 -8.0730 21.0350 5.7767 0.0000 0.0000 1.7162 0.0000 0.0000 30.7177 -7.8130 -336.8490 16.6161 0.0000 0.0000 79.2792 0.0000 0.0000 39.2874 -7.4171 -335.3738 55.5561 0.0000 0.0000 90.0000 0.0000 0.0000 46.8166 -6.4720 26.7179 105.7349 0.0000 0.0000 69.1918 0.0000 0.0000 0.0000 0.0000 0.0000 80.8608 -5.3713 6.3027 2.5300 8.0359 10.0122 -337.4047 -8.9023 -372.6155 -17.6409 1.1928 -10.0083 25.2356 0.0000 0.0000 17.7575 0.0000 0.0000 0.1193 0.6517 3.5796 110.0000 0.0000 0.0000 8.0616 0.0000 0.0000 -11.4475 0.2261 7.0275 110.0000 0.0000 0.0000 9.6089 0.0000 0.0000 342.6642 -0.7934 14.4086 110.0000 0.0000 0.0000 8.1596 0.0000 0.0000 331.5705 -2.5246 9.2601 110.0000 0.0000 0.0000 8.3464 0.0000 0.0000 0.0000 0.0000 0.0000 0.0000 0.0000 0.0000 0.0000 0.0000 0.0000 0.0000 0.0000 0.0000 0.0000 0.0000 0.0000 0.0000 0.0000 0.0000
0.0000 95.0000 0.0000 0.0000 0.0000 0.0000 0.0000 0.0000 0.0000 0.0000 0.0000 0.0000 0.0000 0.0000 0.0000 0.0000 0.0000 0.0000 0.0000 0.0000 0.0000 0.0000 0.0000 0.0000 -77.3062 0.0758 0.0948 -9.4488 -4.6455 6.9185 -413.5801 -22.8571 -387.7534 11.0509 14.2874 25.4469 49.9248 0.0000 0.0000 21.7557 0.0000 0.0000 16.8893 -8.0730 21.0350 5.7767 0.0000 0.0000 1.7162 0.0000 0.0000 30.7177 -7.8130 -336.8490 16.6161 0.0000 0.0000 79.2792 0.0000 0.0000 39.2874 -7.4171 -335.3738 55.5561 0.0000 0.0000 90.0000 0.0000 0.0000 46.8166 -6.4720 26.7179 105.7349 0.0000 0.0000 69.1918 0.0000 0.0000 0.0000 0.0000 0.0000 80.9316 -5.1576 6.0445 1.9041 8.0071 9.7861 -336.9198 -8.5184 -372.2271 -17.6409 1.1928 -10.0083 25.2356 0.0000 0.0000 17.7575 0.0000 0.0000 0.1193 0.6517 3.5796 110.0000 0.0000 0.0000 8.0616 0.0000 0.0000 -11.4475 0.2261 7.0275 110.0000 0.0000 0.0000 9.6089 0.0000 0.0000 342.6642 -0.7934 14.4086 110.0000 0.0000 0.0000 8.1596 0.0000 0.0000 331.5705 -2.5246 9.2601 110.0000 0.0000 0.0000 8.3464 0.0000 0.0000 0.0000 0.0000 0.0000 0.0000 0.0000 0.0000 0.0000 0.0000 0.0000 0.0000 0.0000 0.0000 0.0000 0.0000 0.0000 0.0000 0.0000 0.0000
0.0000 95.0000 0.0000 0.0000 0.0000 0.0000 0.0000 0.0000 0.0000 0.0000 0.0000 0.0000 0.0000 0.0000 0.0000 0.0000 0.0000 0.0000 0.0000 0.0000 0.0000 0.0000 0.0000 0.0000 -77.5455 0.5164 0.6428 -8.9761 -4.4605 6.6493 -413.9110 -22.7152 -387.8882 11.0509 14.2874 25.4469 49.9248 0.0000 0.0000 21.7557 0.0000 0.0000 16.8893 -8.0730 21.0350 5.7767 0.0000 0.0000 1.7162 0.0000 0.0000 30.7177 -7.8130 -336.8490 16.6161 0.0000 0.0000 79.2792 0.0000 0.0000 39.2874 -7.4171 -335.3738 55.5561 0.0000 0.0000 90.0000 0.0000 0.0000 46.8166 -6.4720 26.7179 105.7349 0.0000 0.0000 69.1918 0.0000 0.0000 0.0000 0.0000 0.0000 80.9948 -5.1244 5.9990 1.5379 8.1472 9.8388 -336.5868 -8.5406 -372.2938 -17.6409 1.1928 -10.0083 25.2356 0.0000 0.0000 17.7575 0.0000 0.0000 0.1193 0.6517 3.5796 110.0000 0.0000 0.0000 8.0616 0.0000 0.0000 -11.4475 0.2261 7.0275 110.0000 0.0000 0.0000 9.6089 0.0000 0.0000 342.6642 -0.7934 14.4086 110.0000 0.0000 0.0000 8.1596 0.0000 0.0000 331.5705 -2.5246 9.2601 110.0000 0.0000 0.0000 8.3464 0.0000 0.0000 0.0000 0.0000 0.0000 0.0000 0.0000 0.0000 0.0000 0.0000 0.0000 0.0000 0.0000 0.0000 0.0000 0.0000 0.0000 0.0000 0.0000 0.0000
0.0000 95.0000 0.0000 0.0000 0.0000 0.0000 0.0000 0.0000 0.0000 0.0000 0.0000 0.0000 0.0000 0.0000 0.0000 0.0000 0.0000 0.0000 0.0000 0.0000 0.0000 0.0000 0.0000 0.0000 -77.9267 0.7014 0.8673 -8.4329 -4.4977 6.6190 -414.1661 -22.6087 -387.9902 11.0509 14.2874 25.4469 49.9248 0.0000 0.0000 21.7557 0.0000 0.0000 16.8893 -8.0730 21.0350 5.7767 0.0000 0.0000 1.7162 0.0000 0.0000 30.7177 -7.8130 -336.8490 16.6161 0.0000 0.0000 79.2792 0.0000 0.0000 39.2874 -7.4171 -335.3738 55.5561 0.0000 0.0000 90.0000 0.0000 0.0000 46.8166 -6.4720 26.7179 105.7349 0.0000 0.0000 69.1918 0.0000 0.0000 0.0000 0.0000 0.0000 81.1116 -4.9527 5.7861 1.1800 8.1075 9.6750 -336.4007 -8.2506 -371.9732 -17.6409 1.1928 -10.0083 25.2356 0.0000 0.0000 17.7575 0.0000 0.0000 0.1193 0.6517 3.5796 110.0000 0.0000 0.0000 8.0616 0.0000 0.0000 -11.4475 0.2261 7.0275 110.0000 0.0000 0.0000 9.6089 0.0000 0.0000 342.6642 -0.7934 14.4086 110.0000 0.0000 0.0000 8.1596 0.0000 0.0000 331.5705 -2.5246 9.2601 110.0000 0.0000 0.0000 8.3464 0.0000 0.0000 0.0000 0.0000 0.0000 0.0000 0.0000 0.0000 0.0000 0.0000 0.0000 0.0000 0.0000 0.0000 0.0000 0.0000 0.0000 0.0000 0.0000 0.0000
0.0000 95.0000 0.0000 0.0000 0.0000 0.0000 0.0000 0.0000 0.0000 0.0000 0.0000 0.0000 0.0000 0.0000 0.0000 0.0000 0.0000 0.0000 0.0000 0.0000 0.0000 0.0000 0.0000 0.0000 -78.3621 0.9331 1.1449 -8.2824 -4.5168 6.6159 -414.0112 -22.2655 -388.3344 11.0509 14.2874 25.4469 49.9248 0.0000 0.0000 21.7557 0.0000 0.0000 16.8893 -8.0730 21.0350 5.7767 0.0000 0.0000 1.7162 0.0000 0.0000 30.7177 -7.8130 -336.8490 16.6161 0.0000 0.0000 79.2792 0.0000 0.0000 39.2874 -7.4171 -335.3738 55.5561 0.0000 0.0000 90.0000 0.0000 0.0000 46.8166 -6.4720 26.7179 105.7349 0.0000 0.0000 69.1918 0.0000 0.0000 0.0000 0.0000 0.0000 81.2188 -4.8094 5.6082 0.9678 8.0189 9.4982 -336.3566 -7.9747 -371.6513 -17.6409 1.1928 -10.0083 25.2356 0.0000 0.0000 17.7575 0.0000 0.0000 0.1193 0.6517 3.5796 110.0000 0.0000 0.0000 8.0616 0.0000 0.0000 -11.4475 0.2261 7.0275 110.0000 0.0000 0.0000 9.6089 0.0000 0.0000 342.6642 -0.7934 14.4086 110.0000 0.0000 0.0000 8.1596 0.0000 0.0000 331.5705 -2.5246 9.2601 110.0000 0.0000 0.0000 8.3464 0.0000 0.0000 0.0000 0.0000 0.0000 0.0000 0.0000 0.0000 0.0000 0.0000 0.0000 0.0000 0.0000 0.0000 0.0000 0.0000 0.0000 0.0000 0.0000 0.0000
0.0000 95.0000 0.0000 0.0000 0.0000 0.0000 0.0000 0.0000 0.0000 0.0000 0.0000 0.0000 0.0000 0.0000 0.0000 0.0000 0.0000 0.0000 0.0000 0.0000 0.0000 0.0000 0.0000 0.0000 -78.8624 0.9590 1.1662 -7.9297 -4.6415 6.6838 -413.9328 -22.1115 -388.4881 11.0509 14.2874 25.4469 49.9248 0.0000 0.0000 21.7557 0.0000 0.0000 16.8893 -8.0730 21.0350 5.7767 0.0000 0.0000 1.7162 0.0000 0.0000 30.7177 -7.8130 -336.8490 16.6161 0.0000 0.0000 79.2792 0.0000 0.0000 39.2874 -7.4171 -335.3738 55.5561 0.0000 0.0000 90.0000 0.0000 0.0000 46.8166 -6.4720 26.7179 105.7349 0.0000 0.0000 69.1918 0.0000 0.0000 0.0000 0.0000 0.0000 81.2393 -4.7576 5.5458 0.5677 8.0235 9.3957 -336.0004 -7.8483 -371.5403 -17.6409 1.1928 -10.0083 25.2356 0.0000 0.0000 17.7575 0.0000 0.0000 0.1193 0.6517 3.5796 110.0000 0.0000 0.0000 8.0616 0.0000 0.0000 -11.4475 0.2261 7.0275 110.0000 0.0000 0.0000 9.6089 0.0000 0.0000 342.6642 -0.7934 14.4086 110.0000 0.0000 0.0000 8.1596 0.0000 0.0000 331.5705 -2.5246 9.2601 110.0000 0.0000 0.0000 8.3464 0.0000 0.0000 0.0000 0.0000 0.0000 0.0000 0.0000 0.0000 0.0000 0.0000 0.0000 0.0000 0.0000 0.0000 0.0000 0.0000 0.0000 0.0000 0.0000 0.0000
0.0000 95.0000 0.0000 0.0000 0.0000 0.0000 0.0000 0.0000 0.0000 0.0000 0.0000 0.0000 0.0000 0.0000 0.0000 0.0000 0.0000 0.0000 0.0000 0.0000 0.0000 0.0000 0.0000 0.0000 -78.9753 1.1222 1.3619 -8.1399 -4.6440 6.7335 -413.7207 -21.7956 -388.8016 11.0509 14.2874 25.4469 49.9248 0.0000 0.0000 21.7557 0.0000 0.0000 16.8893 -8.0730 21.0350 5.7767 0.0000 0.0000 1.7162 0.0000 0.0000 30.7177 -7.8130 -336.8490 16.6161 0.0000 0.0000 79.2792 0.0000 0.0000 39.2874 -7.4171 -335.3738 55.5561 0.0000 0.0000 90.0000 0.0000 0.0000 46.8166 -6.4720 26.7179 105.7349 0.0000 0.0000 69.1918 0.0000 0.0000 0.0000 0.0000 0.0000 81.2478 -4.6705 5.4434 0.4308 7.9630 9.2907 -335.9093 -7.6783 -371.3473 -17.6409 1.1928 -10.0083 25.2356 0.0000 0.0000 17.7575 0.0000 0.0000 0.1193 0.6517 3.5796 110.0000 0.0000 0.0000 8.0616 0.0000 0.0000 -11.4475 0.2261 7.0275 110.0000 0.0000 0.0000 9.6089 0.0000 0.0000 342.6642 -0.7934 14.4086 110.0000 0.0000 0.0000 8.1596 0.0000 0.0000 331.5705 -2.5246 9.2601 110.0000 0.0000 0.0000 8.3464 0.0000 0.0000 0.0000 0.0000 0.0000 0.0000 0.0000 0.0000 0.0000 0.0000 0.0000 0.0000 0.0000 0.0000 0.0000 0.0000 0.0000 0.0000 0.0000 0.0000
0.0000 95.0000 0.0000 0.0000 0.0000 0.0000 0.0000 0.0000 0.0000 0.0000 0.0000 0.0000 0.0000 0.0000 0.0000 0.0000 0.0000 0.0000 0.0000 0.0000 0.0000 0.0000 0.0000 0.0000 -79.1795 1.5057 1.8208 -8.1022 -4.4801 6.5433 -413.6532 -21.5026 -389.0901 11.0509 14.2874 25.4469 49.9248 0.0000 0.0000 21.7557 0.0000 0.0000 16.8893 -8.0730 21.0350 5.7767 0.0000 0.0000 1.7162 0.0000 0.0000 30.7177 -7.8130 -336.8490 16.6161 0.0000 0.0000 79.2792 0.0000 0.0000 39.2874 -7.4171 -335.3738 55.5561 0.0000 0.0000 90.0000 0.0000 0.0000 46.8166 -6.4720 26.7179 105.7349 0.0000 0.0000 69.1918 0.0000 0.0000 0.0000 0.0000 0.0000 81.2602 -4.6244 5.3886 0.5150 7.6481 8.9477 -336.1178 -7.3461 -370.9299 -17.6409 1.1928 -10.0083 25.2356 0.0000 0.0000 17.7575 0.0000 0.0000 0.1193 0.6517 3.5796 110.0000 0.0000 0.0000 8.0616 0.0000 0.0000 -11.4475 0.2261 7.0275 110.0000 0.0000 0.0000 9.6089 0.0000 0.0000 342.6642 -0.7934 14.4086 110.0000 0.0000 0.0000 8.1596 0.0000 0.0000 331.5705 -2.5246 9.2601 110.0000 0.0000 0.0000 8.3464 0.0000 0.0000 0.0000 0.0000 0.0000 0.0000 0.0000 0.0000 0.0000 0.0000 0.0000 0.0000 0.0000 0.0000 0.0000 0.0000 0.0000 0.0000 0.0000 0.0000
0.0000 95.0000 0.0000 0.0000 0.0000 0.0000 0.0000 0.0000 0.0000 0.0000 0.0000 0.0000 0.0000 0.0000 0.0000 0.0000 0.0000 0.0000 0.0000 0.0000 0.0000 0.0000 0.0000 0.0000 -79.6195 1.4930 1.7913 -7.8208 -4.4670 6.4272 -413.4485 -21.5135 -389.0787 11.0509 14.2874 25.4469 49.9248 0.0000 0.0000 21.7557 0.0000 0.0000 16.8893 -8.0730 21.0350 5.7767 0.0000 0.0000 1.7162 0.0000 0.0000 30.7177 -7.8130 -336.8490 16.6161 0.0000 0.0000 79.2792 0.0000 0.0000 39.2874 -7.4171 -335.3738 55.5561 0.0000 0.0000 90.0000 0.0000 0.0000 46.8166 -6.4720 26.7179 105.7349 0.0000 0.0000 69.1918 0.0000 0.0000 0.0000 0.0000 0.0000 81.3268 -4.6099 5.3654 0.4617 7.4640 8.7120 -336.1985 -7.1411 -370.6783 -17.6409 1.1928 -10.0083 25.2356 0.0000 0.0000 17.7575 0.0000 0.0000 0.1193 0.6517 3.5796 110.0000 0.0000 0.0000 8.0616 0.0000 0.0000 -11.4475 0.2261 7.0275 110.0000 0.0000 0.0000 9.6089 0.0000 0.0000 342.6642 -0.7934 14.4086 110.0000 0.0000 0.0000 8.1596 0.0000 0.0000 331.5705 -2.5246 9.2601 110.0000 0.0000 0.0000 8.3464 0.0000 0.0000 0.0000 0.0000 0.0000 0.0000 0.0000 0.0000 0.0000 0.0000 0.0000 0.0000 0.0000 0.0000 0.0000 0.0000 0.0000 0.0000 0.0000 0.0000
