HIERARCHY
ROOT Hips
{
  OFFSET 0.000000 95.000000 0.000000
  CHANNELS 6 Xposition Yposition Zposition Zrotation Xrotation Yrotation
  JOINT Spine
  {
    OFFSET 0.000000 10.000000 0.000000
    CHANNELS 3 Zrotation Xrotation Yrotation
    JOINT Spine1
    {
      OFFSET 0.000000 12.000000 0.000000
      CHANNELS 3 Zrotation Xrotation Yrotation
      JOINT Spine2
      {
        OFFSET 0.000000 12.000000 0.000000
        CHANNELS 3 Zrotation Xrotation Yrotation
        JOINT Neck
        {
          OFFSET 0.000000 10.000000 0.000000
          CHANNELS 3 Zrotation Xrotation Yrotation
          JOINT Head
          {
            OFFSET 0.000000 8.000000 0.000000
            CHANNELS 3 Zrotation Xrotation Yrotation
            End Site
            {
              OFFSET 0.000000 10.000000 0.000000
            }
          }
        }
        JOINT LeftShoulder
        {
          OFFSET 6.000000 8.000000 0.000000
          CHANNELS 3 Zrotation Xrotation Yrotation
          JOINT LeftArm
          {
            OFFSET 12.000000 0.000000 0.000000
            CHANNELS 3 Zrotation Xrotation Yrotation
            JOINT LeftForeArm
            {
              OFFSET 24.000000 0.000000 0.000000
              CHANNELS 3 Zrotation Xrotation Yrotation
              JOINT LeftHand
              {
                OFFSET 22.000000 0.000000 0.000000
                CHANNELS 3 Zrotation Xrotation Yrotation
                JOINT LeftHandThumb1
                {
                  OFFSET 1.800000 -1.400000 0.500000
                  CHANNELS 3 Zrotation Xrotation Yrotation
                  JOINT LeftHandThumb2
                  {
                    OFFSET 2.400000 0.000000 0.000000
                    CHANNELS 3 Zrotation Xrotation Yrotation
                    JOINT LeftHandThumb3
                    {
                      OFFSET 1.900000 0.000000 0.000000
                      CHANNELS 3 Zrotation Xrotation Yrotation
                      End Site
                      {
                        OFFSET 1.600000 0.000000 0.000000
                      }
                    }
                  }
                }
                JOINT LeftHandIndex1
                {
                  OFFSET 6.600000 1.200000 0.300000
                  CHANNELS 3 Zrotation Xrotation Yrotation
                  JOINT LeftHandIndex2
                  {
                    OFFSET 2.000000 0.000000 0.000000
                    CHANNELS 3 Zrotation Xrotation Yrotation
                    JOINT LeftHandIndex3
                    {
                      OFFSET 1.200000 0.000000 0.000000
                      CHANNELS 3 Zrotation Xrotation Yrotation
                      End Site
                      {
                        OFFSET 1.000000 0.000000 0.000000
                      }
                    }
                  }
                }
                JOINT LeftHandMiddle1
                {
                  OFFSET 7.200000 0.000000 0.300000
                  CHANNELS 3 Zrotation Xrotation Yrotation
                  JOINT LeftHandMiddle2
                  {
                    OFFSET 3.000000 0.000000 0.000000
                    CHANNELS 3 Zrotation Xrotation Yrotation
                    JOINT LeftHandMiddle3
                    {
                      OFFSET 2.000000 0.000000 0.000000
                      CHANNELS 3 Zrotation Xrotation Yrotation
                      End Site
                      {
                        OFFSET 1.600000 0.000000 0.000000
                      }
                    }
                  }
                }
                JOINT LeftHandRing1
                {
                  OFFSET 7.100000 -1.000000 0.400000
                  CHANNELS 3 Zrotation Xrotation Yrotation
                  JOINT LeftHandRing2
                  {
                    OFFSET 2.600000 0.000000 0.000000
                    CHANNELS 3 Zrotation Xrotation Yrotation
                    JOINT LeftHandRing3
                    {
                      OFFSET 1.600000 0.000000 0.000000
                      CHANNELS 3 Zrotation Xrotation Yrotation
                      End Site
                      {
                        OFFSET 1.300000 0.000000 0.000000
                      }
                    }
                  }
                }
                JOINT LeftHandPinky1
                {
                  OFFSET 6.500000 -2.000000 0.500000
                  CHANNELS 3 Zrotation Xrotation Yrotation
                  JOINT LeftHandPinky2
                  {
                    OFFSET 1.900000 0.000000 0.000000
                    CHANNELS 3 Zrotation Xrotation Yrotation
                    JOINT LeftHandPinky3
                    {
                      OFFSET 1.400000 0.000000 0.000000
                      CHANNELS 3 Zrotation Xrotation Yrotation
                      End Site
                      {
                        OFFSET 1.300000 0.000000 0.000000
                      }
                    }
                  }
                }
              }
            }
          }
        }
        JOINT RightShoulder
        {
          OFFSET -6.000000 8.000000 0.000000
          CHANNELS 3 Zrotation Xrotation Yrotation
          JOINT RightArm
          {
            OFFSET -12.000000 0.000000 0.000000
            CHANNELS 3 Zrotation Xrotation Yrotation
            JOINT RightForeArm
            {
              OFFSET -24.000000 0.000000 0.000000
              CHANNELS 3 Zrotation Xrotation Yrotation
              JOINT RightHand
              {
                OFFSET -22.000000 0.000000 0.000000
                CHANNELS 3 Zrotation Xrotation Yrotation
                JOINT RightHandThumb1
                {
                  OFFSET -1.800000 -1.400000 0.500000
                  CHANNELS 3 Zrotation Xrotation Yrotation
                  JOINT RightHandThumb2
                  {
                    OFFSET -2.400000 0.000000 0.000000
                    CHANNELS 3 Zrotation Xrotation Yrotation
                    JOINT RightHandThumb3
                    {
                      OFFSET -1.900000 0.000000 0.000000
                      CHANNELS 3 Zrotation Xrotation Yrotation
                      End Site
                      {
                        OFFSET -1.600000 0.000000 0.000000
                      }
                    }
                  }
                }
                JOINT RightHandIndex1
                {
                  OFFSET -6.600000 1.200000 0.300000
                  CHANNELS 3 Zrotation Xrotation Yrotation
                  JOINT RightHandIndex2
                  {
                    OFFSET -2.000000 0.000000 0.000000
                    CHANNELS 3 Zrotation Xrotation Yrotation
                    JOINT RightHandIndex3
                    {
                      OFFSET -1.200000 0.000000 0.000000
                      CHANNELS 3 Zrotation Xrotation Yrotation
                      End Site
                      {
                        OFFSET -1.000000 0.000000 0.000000
                      }
                    }
                  }
                }
                JOINT RightHandMiddle1
                {
                  OFFSET -7.200000 0.000000 0.300000
                  CHANNELS 3 Zrotation Xrotation Yrotation
                  JOINT RightHandMiddle2
                  {
                    OFFSET -3.000000 0.000000 0.000000
                    CHANNELS 3 Zrotation Xrotation Yrotation
                    JOINT RightHandMiddle3
                    {
                      OFFSET -2.000000 0.000000 0.000000
                      CHANNELS 3 Zrotation Xrotation Yrotation
                      End Site
                      {
                        OFFSET -1.600000 0.000000 0.000000
                      }
                    }
                  }
                }
                JOINT RightHandRing1
                {
                  OFFSET -7.100000 -1.000000 0.400000
                  CHANNELS 3 Zrotation Xrotation Yrotation
                  JOINT RightHandRing2
                  {
                    OFFSET -2.600000 0.000000 0.000000
                    CHANNELS 3 Zrotation Xrotation Yrotation
                    JOINT RightHandRing3
                    {
                      OFFSET -1.600000 0.000000 0.000000
                      CHANNELS 3 Zrotation Xrotation Yrotation
                      End Site
                      {
                        OFFSET -1.300000 0.000000 0.000000
                      }
                    }
                  }
                }
                JOINT RightHandPinky1
                {
                  OFFSET -6.500000 -2.000000 0.500000
                  CHANNELS 3 Zrotation Xrotation Yrotation
                  JOINT RightHandPinky2
                  {
                    OFFSET -1.900000 0.000000 0.000000
                    CHANNELS 3 Zrotation Xrotation Yrotation
                    JOINT RightHandPinky3
                    {
                      OFFSET -1.400000 0.000000 0.000000
                      CHANNELS 3 Zrotation Xrotation Yrotation
                      End Site
                      {
                        OFFSET -1.300000 0.000000 0.000000
                      }
                    }
                  }
                }
              }
            }
          }
        }
      }
    }
  }
  JOINT LeftUpLeg
  {
    OFFSET 10.000000 -5.000000 0.000000
    CHANNELS 3 Zrotation Xrotation Yrotation
    JOINT LeftLeg
    {
      OFFSET 0.000000 -42.000000 0.000000
      CHANNELS 3 Zrotation Xrotation Yrotation
      JOINT LeftFoot
      {
        OFFSET 0.000000 -42.000000 4.000000
        CHANNELS 3 Zrotation Xrotation Yrotation
        End Site
        {
          OFFSET 0.000000 0.000000 12.000000
        }
      }
    }
  }
  JOINT RightUpLeg
  {
    OFFSET -10.000000 -5.000000 0.000000
    CHANNELS 3 Zrotation Xrotation Yrotation
    JOINT RightLeg
    {
      OFFSET 0.000000 -42.000000 0.000000
      CHANNELS 3 Zrotation Xrotation Yrotation
      JOINT RightFoot
      {
        OFFSET 0.000000 -42.000000 4.000000
        CHANNELS 3 Zrotation Xrotation Yrotation
        End Site
        {
          OFFSET 0.000000 0.000000 12.000000
        }
      }
    }
  }
}
MOTION
Frames: 60
Frame Time: 0.033333
0.0000 95.0000 0.0000 0.0000 0.0000 0.0000 0.0000 0.0000 0.0000 0.0000 0.0000 0.0000 0.0000 0.0000 0.0000 0.0000 0.0000 0.0000 0.0000 0.0000 0.0000 0.0000 0.0000 0.0000 -80.1212 -0.6720 -0.7991 -9.9392 -3.8988 5.3925 0.0000 0.0000 0.0000 0.0000 0.0000 0.0000 0.0000 0.0000 0.0000 0.0000 0.0000 0.0000 0.0000 0.0000 0.0000 0.0000 0.0000 0.0000 0.0000 0.0000 0.0000 0.0000 0.0000 0.0000 0.0000 0.0000 0.0000 0.0000 0.0000 0.0000 0.0000 0.0000 0.0000 0.0000 0.0000 0.0000 0.0000 0.0000 0.0000 0.0000 0.0000 0.0000 0.0000 0.0000 0.0000 0.0000 0.0000 0.0000 0.0000 0.0000 0.0000 84.1510 -3.3002 3.6553 -3.1833 8.7333 8.8920 126.8999 37.5158 -165.4093 -94.7348 -19.9412 -7.2339 14.1511 0.0000 0.0000 15.5824 0.0000 0.0000 -44.5971 -21.3954 -29.1578 18.8464 0.0000 0.0000 7.7044 0.0000 0.0000 -61.6268 -21.0075 -29.7646 18.5365 0.0000 0.0000 2.1822 0.0000 0.0000 -60.0326 -14.7832 -27.2669 31.1839 0.0000 0.0000 4.7064 0.0000 0.0000 -63.6011 -12.4689 -28.8116 32.0225 0.0000 0.0000 6.4485 0.0000 0.0000 0.0000 0.0000 0.0000 0.0000 0.0000 0.0000 0.0000 0.0000 0.0000 0.0000 0.0000 0.0000 0.0000 0.0000 0.0000 0.0000 0.0000 0.0000
0.0000 95.0000 0.0000 0.0000 0.0000 0.0000 0.0000 0.0000 0.0000 0.0000 0.0000 0.0000 0.0000 0.0000 0.0000 0.0000 0.0000 0.0000 0.0000 0.0000 0.0000 0.0000 0.0000 0.0000 -80.1542 -0.2065 -0.2454 -9.8779 -3.9368 5.5443 0.0000 0.0000 0.0000 0.0000 0.0000 0.0000 0.0000 0.0000 0.0000 0.0000 0.0000 0.0000 0.0000 0.0000 0.0000 0.0000 0.0000 0.0000 0.0000 0.0000 0.0000 0.0000 0.0000 0.0000 0.0000 0.0000 0.0000 0.0000 0.0000 0.0000 0.0000 0.0000 0.0000 0.0000 0.0000 0.0000 0.0000 0.0000 0.0000 0.0000 0.0000 0.0000 0.0000 0.0000 0.0000 0.0000 0.0000 0.0000 0.0000 0.0000 0.0000 84.1596 -3.1742 3.5153 -3.0201 8.6211 8.8197 127.0428 37.2531 -165.0978 -94.7348 -19.9412 -7.2339 14.1511 0.0000 0.0000 15.5824 0.0000 0.0000 -44.5971 -21.3954 -29.1578 18.8464 0.0000 0.0000 7.7044 0.0000 0.0000 -61.6268 -21.0075 -29.7646 18.5365 0.0000 0.0000 2.1822 0.0000 0.0000 -60.0326 -14.7832 -27.2669 31.1839 0.0000 0.0000 4.7064 0.0000 0.0000 -63.6011 -12.4689 -28.8116 32.0225 0.0000 0.0000 6.4485 0.0000 0.0000 0.0000 0.0000 0.0000 0.0000 0.0000 0.0000 0.0000 0.0000 0.0000 0.0000 0.0000 0.0000 0.0000 0.0000 0.0000 0.0000 0.0000 0.0000
0.0000 95.0000 0.0000 0.0000 0.0000 0.0000 0.0000 0.0000 0.0000 0.0000 0.0000 0.0000 0.0000 0.0000 0.0000 0.0000 0.0000 0.0000 0.0000 0.0000 0.0000 0.0000 0.0000 0.0000 -80.1646 -0.1195 -0.1420 -9.6219 -3.6394 5.1174 0.0000 0.0000 0.0000 0.0000 0.0000 0.0000 0.0000 0.0000 0.0000 0.0000 0.0000 0.0000 0.0000 0.0000 0.0000 0.0000 0.0000 0.0000 0.0000 0.0000 0.0000 0.0000 0.0000 0.0000 0.0000 0.0000 0.0000 0.0000 0.0000 0.0000 0.0000 0.0000 0.0000 0.0000 0.0000 0.0000 0.0000 0.0000 0.0000 0.0000 0.0000 0.0000 0.0000 0.0000 0.0000 0.0000 0.0000 0.0000 0.0000 0.0000 0.0000 83.7696 -3.2417 3.6146 -2.3740 8.6212 9.0148 127.3841 37.3256 -165.1125 -94.7348 -19.9412 -7.2339 14.1511 0.0000 0.0000 15.5824 0.0000 0.0000 -44.5971 -21.3954 -29.1578 18.8464 0.0000 0.0000 7.7044 0.0000 0.0000 -61.6268 -21.0075 -29.7646 18.5365 0.0000 0.0000 2.1822 0.0000 0.0000 -60.0326 -14.7832 -27.2669 31.1839 0.0000 0.0000 4.7064 0.0000 0.0000 -63.6011 -12.4689 -28.8116 32.0225 0.0000 0.0000 6.4485 0.0000 0.0000 0.0000 0.0000 0.0000 0.0000 0.0000 0.0000 0.0000 0.0000 0.0000 0.0000 0.0000 0.0000 0.0000 0.0000 0.0000 0.0000 0.0000 0.0000
0.0000 95.0000 0.0000 0.0000 0.0000 0.0000 0.0000 0.0000 0.0000 0.0000 0.0000 0.0000 0.0000 0.0000 0.0000 0.0000 0.0000 0.0000 0.0000 0.0000 0.0000 0.0000 0.0000 0.0000 -80.0924 0.9127 1.0859 -9.1811 -3.7201 5.4128 0.0000 0.0000 0.0000 0.0000 0.0000 0.0000 0.0000 0.0000 0.0000 0.0000 0.0000 0.0000 0.0000 0.0000 0.0000 0.0000 0.0000 0.0000 0.0000 0.0000 0.0000 0.0000 0.0000 0.0000 0.0000 0.0000 0.0000 0.0000 0.0000 0.0000 0.0000 0.0000 0.0000 0.0000 0.0000 0.0000 0.0000 0.0000 0.0000 0.0000 0.0000 0.0000 0.0000 0.0000 0.0000 0.0000 0.0000 0.0000 0.0000 0.0000 0.0000 83.5647 -2.8288 3.1656 -0.9537 8.6005 9.3580 128.6501 36.6597 -164.1811 -94.7348 -19.9412 -7.2339 14.1511 0.0000 0.0000 15.5824 0.0000 0.0000 -44.5971 -21.3954 -29.1578 18.8464 0.0000 0.0000 7.7044 0.0000 0.0000 -61.6268 -21.0075 -29.7646 18.5365 0.0000 0.0000 2.1822 0.0000 0.0000 -60.0326 -14.7832 -27.2669 31.1839 0.0000 0.0000 4.7064 0.0000 0.0000 -63.6011 -12.4689 -28.8116 32.0225 0.0000 0.0000 6.4485 0.0000 0.0000 0.0000 0.0000 0.0000 0.0000 0.0000 0.0000 0.0000 0.0000 0.0000 0.0000 0.0000 0.0000 0.0000 0.0000 0.0000 0.0000 0.0000 0.0000
0.0000 95.0000 0.0000 0.0000 0.0000 0.0000 0.0000 0.0000 0.0000 0.0000 0.0000 0.0000 0.0000 0.0000 0.0000 0.0000 0.0000 0.0000 0.0000 0.0000 0.0000 0.0000 0.0000 0.0000 -79.4598 1.8812 2.2634 -9.4524 -3.1245 4.8734 0.0000 0.0000 0.0000 0.0000 0.0000 0.0000 0.0000 0.0000 0.0000 0.0000 0.0000 0.0000 0.0000 0.0000 0.0000 0.0000 0.0000 0.0000 0.0000 0.0000 0.0000 0.0000 0.0000 0.0000 0.0000 0.0000 0.0000 0.0000 0.0000 0.0000 0.0000 0.0000 0.0000 0.0000 0.0000 0.0000 0.0000 0.0000 0.0000 0.0000 0.0000 0.0000 0.0000 0.0000 0.0000 0.0000 0.0000 0.0000 0.0000 0.0000 0.0000 82.9088 -1.4870 1.6834 3.7071 9.6654 11.7484 132.8814 35.5518 -162.4122 -94.7348 -19.9412 -7.2339 14.1511 0.0000 0.0000 15.5824 0.0000 0.0000 -44.5971 -21.3954 -29.1578 18.8464 0.0000 0.0000 7.7044 0.0000 0.0000 -61.6268 -21.0075 -29.7646 18.5365 0.0000 0.0000 2.1822 0.0000 0.0000 -60.0326 -14.7832 -27.2669 31.1839 0.0000 0.0000 4.7064 0.0000 0.0000 -63.6011 -12.4689 -28.8116 32.0225 0.0000 0.0000 6.4485 0.0000 0.0000 0.0000 0.0000 0.0000 0.0000 0.0000 0.0000 0.0000 0.0000 0.0000 0.0000 0.0000 0.0000 0.0000 0.0000 0.0000 0.0000 0.0000 0.0000
0.0000 95.0000 0.0000 0.0000 0.0000 0.0000 0.0000 0.0000 0.0000 0.0000 0.0000 0.0000 0.0000 0.0000 0.0000 0.0000 0.0000 0.0000 0.0000 0.0000 0.0000 0.0000 0.0000 0.0000 -79.3645 2.9900 3.6034 -8.5192 -2.0438 3.4630 0.0000 0.0000 0.0000 0.0000 0.0000 0.0000 0.0000 0.0000 0.0000 0.0000 0.0000 0.0000 0.0000 0.0000 0.0000 0.0000 0.0000 0.0000 0.0000 0.0000 0.0000 0.0000 0.0000 0.0000 0.0000 0.0000 0.0000 0.0000 0.0000 0.0000 0.0000 0.0000 0.0000 0.0000 0.0000 0.0000 0.0000 0.0000 0.0000 0.0000 0.0000 0.0000 0.0000 0.0000 0.0000 0.0000 0.0000 0.0000 0.0000 0.0000 0.0000 82.4949 -4.2813 4.8817 7.9667 17.3837 23.0451 138.1806 46.7665 -172.0458 -94.7348 -19.9412 -7.2339 14.1511 0.0000 0.0000 15.5824 0.0000 0.0000 -44.5971 -21.3954 -29.1578 18.8464 0.0000 0.0000 7.7044 0.0000 0.0000 -61.6268 -21.0075 -29.7646 18.5365 0.0000 0.0000 2.1822 0.0000 0.0000 -60.0326 -14.7832 -27.2669 31.1839 0.0000 0.0000 4.7064 0.0000 0.0000 -63.6011 -12.4689 -28.8116 32.0225 0.0000 0.0000 6.4485 0.0000 0.0000 0.0000 0.0000 0.0000 0.0000 0.0000 0.0000 0.0000 0.0000 0.0000 0.0000 0.0000 0.0000 0.0000 0.0000 0.0000 0.0000 0.0000 0.0000
0.0000 95.0000 0.0000 0.0000 0.0000 0.0000 0.0000 0.0000 0.0000 0.0000 0.0000 0.0000 0.0000 0.0000 0.0000 0.0000 0.0000 0.0000 0.0000 0.0000 0.0000 0.0000 0.0000 0.0000 -77.8555 7.4850 9.2601 -6.9947 -0.0828 1.3609 0.0000 0.0000 0.0000 0.0000 0.0000 0.0000 0.0000 0.0000 0.0000 0.0000 0.0000 0.0000 0.0000 0.0000 0.0000 0.0000 0.0000 0.0000 0.0000 0.0000 0.0000 0.0000 0.0000 0.0000 0.0000 0.0000 0.0000 0.0000 0.0000 0.0000 0.0000 0.0000 0.0000 0.0000 0.0000 0.0000 0.0000 0.0000 0.0000 0.0000 0.0000 0.0000 0.0000 0.0000 0.0000 0.0000 0.0000 0.0000 0.0000 0.0000 0.0000 81.7918 -7.7171 8.9057 10.9531 29.8153 40.5850 127.7610 64.8513 -198.5153 -94.7348 -19.9412 -7.2339 14.1511 0.0000 0.0000 15.5824 0.0000 0.0000 -44.5971 -21.3954 -29.1578 18.8464 0.0000 0.0000 7.7044 0.0000 0.0000 -61.6268 -21.0075 -29.7646 18.5365 0.0000 0.0000 2.1822 0.0000 0.0000 -60.0326 -14.7832 -27.2669 31.1839 0.0000 0.0000 4.7064 0.0000 0.0000 -63.6011 -12.4689 -28.8116 32.0225 0.0000 0.0000 6.4485 0.0000 0.0000 0.0000 0.0000 0.0000 0.0000 0.0000 0.0000 0.0000 0.0000 0.0000 0.0000 0.0000 0.0000 0.0000 0.0000 0.0000 0.0000 0.0000 0.0000
0.0000 95.0000 0.0000 0.0000 0.0000 0.0000 0.0000 0.0000 0.0000 0.0000 0.0000 0.0000 0.0000 0.0000 0.0000 0.0000 0.0000 0.0000 0.0000 0.0000 0.0000 0.0000 0.0000 0.0000 -75.9189 10.6948 13.6833 -6.3332 -0.4503 2.2914 0.0000 0.0000 0.0000 0.0000 0.0000 0.0000 0.0000 0.0000 0.0000 0.0000 0.0000 0.0000 0.0000 0.0000 0.0000 0.0000 0.0000 0.0000 0.0000 0.0000 0.0000 0.0000 0.0000 0.0000 0.0000 0.0000 0.0000 0.0000 0.0000 0.0000 0.0000 0.0000 0.0000 0.0000 0.0000 0.0000 0.0000 0.0000 0.0000 0.0000 0.0000 0.0000 0.0000 0.0000 0.0000 0.0000 0.0000 0.0000 0.0000 0.0000 0.0000 80.1601 -12.2638 14.5513 16.2588 47.0723 64.9508 217.9729 10.6791 -64.8184 -46.1097 -9.3813 -3.1344 5.0106 0.0000 0.0000 7.1540 0.0000 0.0000 16.4574 0.6465 -2.4294 4.5910 0.0000 0.0000 1.5687 0.0000 0.0000 6.2925 0.4662 -3.6933 5.3910 0.0000 0.0000 2.3762 0.0000 0.0000 -2.4626 0.1922 -2.7754 5.7477 0.0000 0.0000 2.2412 0.0000 0.0000 -11.2816 -0.1225 -3.5635 8.7551 0.0000 0.0000 1.9908 0.0000 0.0000 0.0000 0.0000 0.0000 0.0000 0.0000 0.0000 0.0000 0.0000 0.0000 0.0000 0.0000 0.0000 0.0000 0.0000 0.0000 0.0000 0.0000 0.0000
0.0000 95.0000 0.0000 0.0000 0.0000 0.0000 0.0000 0.0000 0.0000 0.0000 0.0000 0.0000 0.0000 0.0000 0.0000 0.0000 0.0000 0.0000 0.0000 0.0000 0.0000 0.0000 0.0000 0.0000 -73.8825 12.8686 17.0589 -6.3243 0.7255 1.0370 0.0000 0.0000 0.0000 0.0000 0.0000 0.0000 0.0000 0.0000 0.0000 0.0000 0.0000 0.0000 0.0000 0.0000 0.0000 0.0000 0.0000 0.0000 0.0000 0.0000 0.0000 0.0000 0.0000 0.0000 0.0000 0.0000 0.0000 0.0000 0.0000 0.0000 0.0000 0.0000 0.0000 0.0000 0.0000 0.0000 0.0000 0.0000 0.0000 0.0000 0.0000 0.0000 0.0000 0.0000 0.0000 0.0000 0.0000 0.0000 0.0000 0.0000 0.0000 79.2416 -14.7572 17.7803 35.0335 63.9875 101.8159 258.1635 29.2048 -40.6702 -41.2400 -7.5996 -5.5797 6.1576 0.0000 0.0000 12.8945 0.0000 0.0000 16.1817 0.3918 -8.5546 5.4817 0.0000 0.0000 1.7868 0.0000 0.0000 5.2855 0.6946 -10.1905 6.5203 0.0000 0.0000 2.4091 0.0000 0.0000 -2.3709 0.9909 -9.3246 5.1288 0.0000 0.0000 2.8893 0.0000 0.0000 -10.2209 0.7949 -7.3263 7.3783 0.0000 0.0000 2.0147 0.0000 0.0000 0.0000 0.0000 0.0000 0.0000 0.0000 0.0000 0.0000 0.0000 0.0000 0.0000 0.0000 0.0000 0.0000 0.0000 0.0000 0.0000 0.0000 0.0000
0.0000 95.0000 0.0000 0.0000 0.0000 0.0000 0.0000 0.0000 0.0000 0.0000 0.0000 0.0000 0.0000 0.0000 0.0000 0.0000 0.0000 0.0000 0.0000 0.0000 0.0000 0.0000 0.0000 0.0000 -72.6404 14.0325 19.0086 -5.7218 1.3015 0.2073 0.0000 0.0000 0.0000 0.0000 0.0000 0.0000 0.0000 0.0000 0.0000 0.0000 0.0000 0.0000 0.0000 0.0000 0.0000 0.0000 0.0000 0.0000 0.0000 0.0000 0.0000 0.0000 0.0000 0.0000 0.0000 0.0000 0.0000 0.0000 0.0000 0.0000 0.0000 0.0000 0.0000 0.0000 0.0000 0.0000 0.0000 0.0000 0.0000 0.0000 0.0000 0.0000 0.0000 0.0000 0.0000 0.0000 0.0000 0.0000 0.0000 0.0000 0.0000 78.2696 -16.9219 20.7203 74.5166 72.4143 154.5559 279.0260 22.3998 -32.3096 -41.3366 -6.9733 -7.7496 6.7392 0.0000 0.0000 11.6304 0.0000 0.0000 17.6525 0.5006 -11.1259 12.3859 0.0000 0.0000 2.2524 0.0000 0.0000 5.5129 0.8904 -13.5649 10.5341 0.0000 0.0000 1.1067 0.0000 0.0000 -1.3815 1.5360 -12.4298 4.8196 0.0000 0.0000 1.4199 0.0000 0.0000 -9.0760 1.3025 -8.8568 3.4360 0.0000 0.0000 0.4759 0.0000 0.0000 0.0000 0.0000 0.0000 0.0000 0.0000 0.0000 0.0000 0.0000 0.0000 0.0000 0.0000 0.0000 0.0000 0.0000 0.0000 0.0000 0.0000 0.0000
0.0000 95.0000 0.0000 0.0000 0.0000 0.0000 0.0000 0.0000 0.0000 0.0000 0.0000 0.0000 0.0000 0.0000 0.0000 0.0000 0.0000 0.0000 0.0000 0.0000 0.0000 0.0000 0.0000 0.0000 -72.0460 14.7495 20.1852 -5.0531 1.5924 -0.3451 0.0000 0.0000 0.0000 0.0000 0.0000 0.0000 0.0000 0.0000 0.0000 0.0000 0.0000 0.0000 0.0000 0.0000 0.0000 0.0000 0.0000 0.0000 0.0000 0.0000 0.0000 0.0000 0.0000 0.0000 0.0000 0.0000 0.0000 0.0000 0.0000 0.0000 0.0000 0.0000 0.0000 0.0000 0.0000 0.0000 0.0000 0.0000 0.0000 0.0000 0.0000 0.0000 0.0000 0.0000 0.0000 0.0000 0.0000 0.0000 0.0000 0.0000 0.0000 77.1650 -18.3910 22.9410 104.8523 72.9429 191.1095 290.4306 13.0870 -24.3664 -41.6038 -7.9951 -4.5380 7.1773 0.0000 0.0000 4.5976 0.0000 0.0000 13.6770 -0.1250 -12.1011 11.2087 0.0000 0.0000 1.7508 0.0000 0.0000 4.1929 0.6945 -14.0298 11.6574 0.0000 0.0000 0.3707 0.0000 0.0000 -1.9615 1.4001 -12.1244 6.1933 0.0000 0.0000 0.8089 0.0000 0.0000 -9.0049 1.5412 -9.8579 2.7273 0.0000 0.0000 0.4137 0.0000 0.0000 0.0000 0.0000 0.0000 0.0000 0.0000 0.0000 0.0000 0.0000 0.0000 0.0000 0.0000 0.0000 0.0000 0.0000 0.0000 0.0000 0.0000 0.0000
0.0000 95.0000 0.0000 0.0000 0.0000 0.0000 0.0000 0.0000 0.0000 0.0000 0.0000 0.0000 0.0000 0.0000 0.0000 0.0000 0.0000 0.0000 0.0000 0.0000 0.0000 0.0000 0.0000 0.0000 -72.0153 14.1720 19.4128 -4.7220 1.2072 0.0130 0.0000 0.0000 0.0000 0.0000 0.0000 0.0000 0.0000 0.0000 0.0000 0.0000 0.0000 0.0000 0.0000 0.0000 0.0000 0.0000 0.0000 0.0000 0.0000 0.0000 0.0000 0.0000 0.0000 0.0000 0.0000 0.0000 0.0000 0.0000 0.0000 0.0000 0.0000 0.0000 0.0000 0.0000 0.0000 0.0000 0.0000 0.0000 0.0000 0.0000 0.0000 0.0000 0.0000 0.0000 0.0000 0.0000 0.0000 0.0000 0.0000 0.0000 0.0000 76.1081 -19.2470 24.4435 122.6324 72.5472 211.8545 296.8377 12.2142 -36.3409 -42.6317 -7.3348 -7.6868 3.6767 0.0000 0.0000 9.6805 0.0000 0.0000 19.0370 0.6900 -11.6599 8.6978 0.0000 0.0000 1.3461 0.0000 0.0000 7.9778 1.2343 -12.7901 8.6052 0.0000 0.0000 1.7432 0.0000 0.0000 0.8776 1.7175 -11.1224 4.7233 0.0000 0.0000 2.7148 0.0000 0.0000 -5.9427 1.1441 -6.3081 4.4546 0.0000 0.0000 2.0761 0.0000 0.0000 0.0000 0.0000 0.0000 0.0000 0.0000 0.0000 0.0000 0.0000 0.0000 0.0000 0.0000 0.0000 0.0000 0.0000 0.0000 0.0000 0.0000 0.0000
0.0000 95.0000 0.0000 0.0000 0.0000 0.0000 0.0000 0.0000 0.0000 0.0000 0.0000 0.0000 0.0000 0.0000 0.0000 0.0000 0.0000 0.0000 0.0000 0.0000 0.0000 0.0000 0.0000 0.0000 -71.9959 14.0542 19.2596 -4.1618 1.4836 -0.5960 0.0000 0.0000 0.0000 0.0000 0.0000 0.0000 0.0000 0.0000 0.0000 0.0000 0.0000 0.0000 0.0000 0.0000 0.0000 0.0000 0.0000 0.0000 0.0000 0.0000 0.0000 0.0000 0.0000 0.0000 0.0000 0.0000 0.0000 0.0000 0.0000 0.0000 0.0000 0.0000 0.0000 0.0000 0.0000 0.0000 0.0000 0.0000 0.0000 0.0000 0.0000 0.0000 0.0000 0.0000 0.0000 0.0000 0.0000 0.0000 0.0000 0.0000 0.0000 74.0382 -20.1097 26.4645 132.8033 76.8358 220.5315 298.0823 17.9301 -61.7534 -45.6570 -8.5181 -6.1561 5.6097 0.0000 0.0000 8.2891 0.0000 0.0000 18.3815 0.7233 -4.9731 5.4311 0.0000 0.0000 2.1224 0.0000 0.0000 6.3227 0.4970 -4.2082 3.8990 0.0000 0.0000 2.6689 0.0000 0.0000 -0.9100 0.1926 -1.8354 4.8918 0.0000 0.0000 3.8248 0.0000 0.0000 -6.1208 -1.2176 3.0234 17.0143 0.0000 0.0000 6.8020 0.0000 0.0000 0.0000 0.0000 0.0000 0.0000 0.0000 0.0000 0.0000 0.0000 0.0000 0.0000 0.0000 0.0000 0.0000 0.0000 0.0000 0.0000 0.0000 0.0000
0.0000 95.0000 0.0000 0.0000 0.0000 0.0000 0.0000 0.0000 0.0000 0.0000 0.0000 0.0000 0.0000 0.0000 0.0000 0.0000 0.0000 0.0000 0.0000 0.0000 0.0000 0.0000 0.0000 0.0000 -71.8418 14.1687 19.4690 -4.1845 1.7794 -0.9996 0.0000 0.0000 0.0000 0.0000 0.0000 0.0000 0.0000 0.0000 0.0000 0.0000 0.0000 0.0000 0.0000 0.0000 0.0000 0.0000 0.0000 0.0000 0.0000 0.0000 0.0000 0.0000 0.0000 0.0000 0.0000 0.0000 0.0000 0.0000 0.0000 0.0000 0.0000 0.0000 0.0000 0.0000 0.0000 0.0000 0.0000 0.0000 0.0000 0.0000 0.0000 0.0000 0.0000 0.0000 0.0000 0.0000 0.0000 0.0000 0.0000 0.0000 0.0000 72.5402 -20.1953 27.2837 140.0911 79.3006 227.3543 301.3403 15.8193 -58.9089 -45.8754 -8.7601 -5.4095 7.0587 0.0000 0.0000 8.9847 0.0000 0.0000 16.6303 0.5552 -5.3946 5.0682 0.0000 0.0000 2.6186 0.0000 0.0000 5.1152 0.4368 -4.9830 3.3716 0.0000 0.0000 2.6557 0.0000 0.0000 -1.0015 0.4519 -3.8442 7.3419 0.0000 0.0000 4.2501 0.0000 0.0000 -5.9808 -0.1559 -1.1831 20.2814 0.0000 0.0000 9.4796 0.0000 0.0000 0.0000 0.0000 0.0000 0.0000 0.0000 0.0000 0.0000 0.0000 0.0000 0.0000 0.0000 0.0000 0.0000 0.0000 0.0000 0.0000 0.0000 0.0000
0.0000 95.0000 0.0000 0.0000 0.0000 0.0000 0.0000 0.0000 0.0000 0.0000 0.0000 0.0000 0.0000 0.0000 0.0000 0.0000 0.0000 0.0000 0.0000 0.0000 0.0000 0.0000 0.0000 0.0000 -71.7482 14.3937 19.8088 -4.3823 2.1401 -1.4251 0.0000 0.0000 0.0000 0.0000 0.0000 0.0000 0.0000 0.0000 0.0000 0.0000 0.0000 0.0000 0.0000 0.0000 0.0000 0.0000 0.0000 0.0000 0.0000 0.0000 0.0000 0.0000 0.0000 0.0000 0.0000 0.0000 0.0000 0.0000 0.0000 0.0000 0.0000 0.0000 0.0000 0.0000 0.0000 0.0000 0.0000 0.0000 0.0000 0.0000 0.0000 0.0000 0.0000 0.0000 0.0000 0.0000 0.0000 0.0000 0.0000 0.0000 0.0000 70.7160 -19.9967 27.9063 129.6291 82.5720 215.5723 295.6599 20.2488 -62.1460 -44.5420 -7.8292 -7.7106 8.9779 0.0000 0.0000 13.5920 0.0000 0.0000 18.9324 0.7332 -7.6335 6.8570 0.0000 0.0000 2.2633 0.0000 0.0000 6.8965 0.7589 -7.7720 5.1959 0.0000 0.0000 1.6437 0.0000 0.0000 0.3679 1.0142 -6.8615 7.1854 0.0000 0.0000 3.1995 0.0000 0.0000 -3.7034 1.6538 -7.0635 12.4312 0.0000 0.0000 3.7974 0.0000 0.0000 0.0000 0.0000 0.0000 0.0000 0.0000 0.0000 0.0000 0.0000 0.0000 0.0000 0.0000 0.0000 0.0000 0.0000 0.0000 0.0000 0.0000 0.0000
0.0000 95.0000 0.0000 0.0000 0.0000 0.0000 0.0000 0.0000 0.0000 0.0000 0.0000 0.0000 0.0000 0.0000 0.0000 0.0000 0.0000 0.0000 0.0000 0.0000 0.0000 0.0000 0.0000 0.0000 -71.9654 14.2513 19.5379 -4.5419 2.1399 -1.3859 0.0000 0.0000 0.0000 0.0000 0.0000 0.0000 0.0000 0.0000 0.0000 0.0000 0.0000 0.0000 0.0000 0.0000 0.0000 0.0000 0.0000 0.0000 0.0000 0.0000 0.0000 0.0000 0.0000 0.0000 0.0000 0.0000 0.0000 0.0000 0.0000 0.0000 0.0000 0.0000 0.0000 0.0000 0.0000 0.0000 0.0000 0.0000 0.0000 0.0000 0.0000 0.0000 0.0000 0.0000 0.0000 0.0000 0.0000 0.0000 0.0000 0.0000 0.0000 69.1368 -19.5599 28.0896 97.9416 83.7901 182.9026 291.2663 16.5797 -53.2218 -40.6142 -6.3560 -9.1199 5.9094 0.0000 0.0000 19.5670 0.0000 0.0000 20.8237 0.9437 -7.8510 8.4195 0.0000 0.0000 2.0057 0.0000 0.0000 9.2096 0.9788 -7.3359 6.7245 0.0000 0.0000 2.0349 0.0000 0.0000 0.6724 0.8291 -5.3698 5.6489 0.0000 0.0000 3.1037 0.0000 0.0000 -8.7227 -0.0558 -2.6583 7.6862 0.0000 0.0000 2.1134 0.0000 0.0000 0.0000 0.0000 0.0000 0.0000 0.0000 0.0000 0.0000 0.0000 0.0000 0.0000 0.0000 0.0000 0.0000 0.0000 0.0000 0.0000 0.0000 0.0000
0.0000 95.0000 0.0000 0.0000 0.0000 0.0000 0.0000 0.0000 0.0000 0.0000 0.0000 0.0000 0.0000 0.0000 0.0000 0.0000 0.0000 0.0000 0.0000 0.0000 0.0000 0.0000 0.0000 0.0000 -71.6704 14.4079 19.8559 -5.1223 2.5936 -1.8349 0.0000 0.0000 0.0000 0.0000 0.0000 0.0000 0.0000 0.0000 0.0000 0.0000 0.0000 0.0000 0.0000 0.0000 0.0000 0.0000 0.0000 0.0000 0.0000 0.0000 0.0000 0.0000 0.0000 0.0000 0.0000 0.0000 0.0000 0.0000 0.0000 0.0000 0.0000 0.0000 0.0000 0.0000 0.0000 0.0000 0.0000 0.0000 0.0000 0.0000 0.0000 0.0000 0.0000 0.0000 0.0000 0.0000 0.0000 0.0000 0.0000 0.0000 0.0000 68.1312 -19.1464 28.0107 73.3691 83.5408 157.6646 288.6388 17.5963 -58.9331 -41.8463 -6.5437 -9.6487 5.5524 0.0000 0.0000 15.9441 0.0000 0.0000 19.9580 0.8482 -7.4272 7.9615 0.0000 0.0000 1.9054 0.0000 0.0000 8.0377 0.8101 -6.7197 5.8629 0.0000 0.0000 1.7479 0.0000 0.0000 -0.3277 0.6871 -5.0998 6.0066 0.0000 0.0000 2.7656 0.0000 0.0000 -10.1952 -0.2256 -2.5396 7.0132 0.0000 0.0000 1.9420 0.0000 0.0000 0.0000 0.0000 0.0000 0.0000 0.0000 0.0000 0.0000 0.0000 0.0000 0.0000 0.0000 0.0000 0.0000 0.0000 0.0000 0.0000 0.0000 0.0000
0.0000 95.0000 0.0000 0.0000 0.0000 0.0000 0.0000 0.0000 0.0000 0.0000 0.0000 0.0000 0.0000 0.0000 0.0000 0.0000 0.0000 0.0000 0.0000 0.0000 0.0000 0.0000 0.0000 0.0000 -71.5604 14.4265 19.9207 -5.5547 2.7573 -1.9304 0.0000 0.0000 0.0000 0.0000 0.0000 0.0000 0.0000 0.0000 0.0000 0.0000 0.0000 0.0000 0.0000 0.0000 0.0000 0.0000 0.0000 0.0000 0.0000 0.0000 0.0000 0.0000 0.0000 0.0000 0.0000 0.0000 0.0000 0.0000 0.0000 0.0000 0.0000 0.0000 0.0000 0.0000 0.0000 0.0000 0.0000 0.0000 0.0000 0.0000 0.0000 0.0000 0.0000 0.0000 0.0000 0.0000 0.0000 0.0000 0.0000 0.0000 0.0000 67.4673 -18.9835 28.1134 58.4422 83.0725 142.0506 286.1125 18.2238 -61.6167 -41.5881 -6.4429 -9.7385 6.4206 0.0000 0.0000 14.6131 0.0000 0.0000 20.5913 0.9173 -7.3696 7.7787 0.0000 0.0000 2.0858 0.0000 0.0000 8.5092 0.8470 -6.5771 5.3412 0.0000 0.0000 1.5603 0.0000 0.0000 0.0309 0.6863 -4.8366 4.8646 0.0000 0.0000 2.6484 0.0000 0.0000 -10.2676 -0.3460 -2.0049 5.9882 0.0000 0.0000 2.0496 0.0000 0.0000 0.0000 0.0000 0.0000 0.0000 0.0000 0.0000 0.0000 0.0000 0.0000 0.0000 0.0000 0.0000 0.0000 0.0000 0.0000 0.0000 0.0000 0.0000
0.0000 95.0000 0.0000 0.0000 0.0000 0.0000 0.0000 0.0000 0.0000 0.0000 0.0000 0.0000 0.0000 0.0000 0.0000 0.0000 0.0000 0.0000 0.0000 0.0000 0.0000 0.0000 0.0000 0.0000 -71.6820 14.3829 19.8176 -5.3026 2.4610 -1.5819 0.0000 0.0000 0.0000 0.0000 0.0000 0.0000 0.0000 0.0000 0.0000 0.0000 0.0000 0.0000 0.0000 0.0000 0.0000 0.0000 0.0000 0.0000 0.0000 0.0000 0.0000 0.0000 0.0000 0.0000 0.0000 0.0000 0.0000 0.0000 0.0000 0.0000 0.0000 0.0000 0.0000 0.0000 0.0000 0.0000 0.0000 0.0000 0.0000 0.0000 0.0000 0.0000 0.0000 0.0000 0.0000 0.0000 0.0000 0.0000 0.0000 0.0000 0.0000 66.9496 -18.7739 28.0727 49.1698 82.3022 132.3803 287.0351 16.7028 -60.1459 -41.8501 -6.5263 -9.7105 6.8639 0.0000 0.0000 20.0493 0.0000 0.0000 18.5963 0.7358 -5.3377 6.9307 0.0000 0.0000 2.1790 0.0000 0.0000 7.1078 0.5999 -4.8653 5.0399 0.0000 0.0000 2.2201 0.0000 0.0000 -1.4927 0.3594 -3.4688 4.6166 0.0000 0.0000 2.7625 0.0000 0.0000 -10.6618 -0.4736 -1.5663 7.3173 0.0000 0.0000 1.8696 0.0000 0.0000 0.0000 0.0000 0.0000 0.0000 0.0000 0.0000 0.0000 0.0000 0.0000 0.0000 0.0000 0.0000 0.0000 0.0000 0.0000 0.0000 0.0000 0.0000
0.0000 95.0000 0.0000 0.0000 0.0000 0.0000 0.0000 0.0000 0.0000 0.0000 0.0000 0.0000 0.0000 0.0000 0.0000 0.0000 0.0000 0.0000 0.0000 0.0000 0.0000 0.0000 0.0000 0.0000 -71.8039 14.3527 19.7329 -5.4504 2.4014 -1.4466 0.0000 0.0000 0.0000 0.0000 0.0000 0.0000 0.0000 0.0000 0.0000 0.0000 0.0000 0.0000 0.0000 0.0000 0.0000 0.0000 0.0000 0.0000 0.0000 0.0000 0.0000 0.0000 0.0000 0.0000 0.0000 0.0000 0.0000 0.0000 0.0000 0.0000 0.0000 0.0000 0.0000 0.0000 0.0000 0.0000 0.0000 0.0000 0.0000 0.0000 0.0000 0.0000 0.0000 0.0000 0.0000 0.0000 0.0000 0.0000 0.0000 0.0000 0.0000 66.5805 -18.7640 28.2478 43.1452 82.0386 125.9363 286.3731 15.8321 -57.0089 -40.9693 -6.2205 -9.8843 6.5383 0.0000 0.0000 18.4285 0.0000 0.0000 19.4706 0.7996 -6.9414 8.0083 0.0000 0.0000 1.7329 0.0000 0.0000 8.1578 0.7693 -5.9851 6.5035 0.0000 0.0000 2.2347 0.0000 0.0000 -0.4775 0.5894 -4.4995 5.4871 0.0000 0.0000 3.0936 0.0000 0.0000 -10.1885 -0.4016 -1.7093 6.4263 0.0000 0.0000 2.0363 0.0000 0.0000 0.0000 0.0000 0.0000 0.0000 0.0000 0.0000 0.0000 0.0000 0.0000 0.0000 0.0000 0.0000 0.0000 0.0000 0.0000 0.0000 0.0000 0.0000
0.0000 95.0000 0.0000 0.0000 0.0000 0.0000 0.0000 0.0000 0.0000 0.0000 0.0000 0.0000 0.0000 0.0000 0.0000 0.0000 0.0000 0.0000 0.0000 0.0000 0.0000 0.0000 0.0000 0.0000 -71.9383 14.1492 19.4087 -5.6784 2.4054 -1.4063 0.0000 0.0000 0.0000 0.0000 0.0000 0.0000 0.0000 0.0000 0.0000 0.0000 0.0000 0.0000 0.0000 0.0000 0.0000 0.0000 0.0000 0.0000 0.0000 0.0000 0.0000 0.0000 0.0000 0.0000 0.0000 0.0000 0.0000 0.0000 0.0000 0.0000 0.0000 0.0000 0.0000 0.0000 0.0000 0.0000 0.0000 0.0000 0.0000 0.0000 0.0000 0.0000 0.0000 0.0000 0.0000 0.0000 0.0000 0.0000 0.0000 0.0000 0.0000 66.4383 -18.6881 28.2093 38.1119 81.9375 120.5878 286.8431 15.2649 -56.2008 -41.5551 -6.4073 -9.8252 6.4657 0.0000 0.0000 19.4922 0.0000 0.0000 18.5803 0.7198 -6.1650 7.4706 0.0000 0.0000 1.8273 0.0000 0.0000 7.0918 0.6236 -5.2654 6.0076 0.0000 0.0000 2.2608 0.0000 0.0000 -1.6047 0.3941 -3.8191 4.9084 0.0000 0.0000 2.8825 0.0000 0.0000 -10.9339 -0.4684 -1.7072 6.3651 0.0000 0.0000 1.9402 0.0000 0.0000 0.0000 0.0000 0.0000 0.0000 0.0000 0.0000 0.0000 0.0000 0.0000 0.0000 0.0000 0.0000 0.0000 0.0000 0.0000 0.0000 0.0000 0.0000
0.0000 95.0000 0.0000 0.0000 0.0000 0.0000 0.0000 0.0000 0.0000 0.0000 0.0000 0.0000 0.0000 0.0000 0.0000 0.0000 0.0000 0.0000 0.0000 0.0000 0.0000 0.0000 0.0000 0.0000 -71.8526 14.3044 19.6499 -5.7592 2.6347 -1.6941 0.0000 0.0000 0.0000 0.0000 0.0000 0.0000 0.0000 0.0000 0.0000 0.0000 0.0000 0.0000 0.0000 0.0000 0.0000 0.0000 0.0000 0.0000 0.0000 0.0000 0.0000 0.0000 0.0000 0.0000 0.0000 0.0000 0.0000 0.0000 0.0000 0.0000 0.0000 0.0000 0.0000 0.0000 0.0000 0.0000 0.0000 0.0000 0.0000 0.0000 0.0000 0.0000 0.0000 0.0000 0.0000 0.0000 0.0000 0.0000 0.0000 0.0000 0.0000 66.5013 -18.7636 28.2881 34.3636 81.9026 116.3452 285.4880 15.7181 -59.8692 -41.9693 -6.6428 -9.4332 6.8113 0.0000 0.0000 18.0973 0.0000 0.0000 18.3602 0.7192 -5.0890 6.9098 0.0000 0.0000 1.9988 0.0000 0.0000 6.7997 0.5465 -4.4076 5.3885 0.0000 0.0000 2.4858 0.0000 0.0000 -1.6866 0.2802 -2.9754 4.6656 0.0000 0.0000 3.1593 0.0000 0.0000 -11.2307 -0.6437 -0.9738 6.3810 0.0000 0.0000 2.1397 0.0000 0.0000 0.0000 0.0000 0.0000 0.0000 0.0000 0.0000 0.0000 0.0000 0.0000 0.0000 0.0000 0.0000 0.0000 0.0000 0.0000 0.0000 0.0000 0.0000
0.0000 95.0000 0.0000 0.0000 0.0000 0.0000 0.0000 0.0000 0.0000 0.0000 0.0000 0.0000 0.0000 0.0000 0.0000 0.0000 0.0000 0.0000 0.0000 0.0000 0.0000 0.0000 0.0000 0.0000 -71.7832 14.4670 19.8961 -5.7898 2.8660 -2.0013 0.0000 0.0000 0.0000 0.0000 0.0000 0.0000 0.0000 0.0000 0.0000 0.0000 0.0000 0.0000 0.0000 0.0000 0.0000 0.0000 0.0000 0.0000 0.0000 0.0000 0.0000 0.0000 0.0000 0.0000 0.0000 0.0000 0.0000 0.0000 0.0000 0.0000 0.0000 0.0000 0.0000 0.0000 0.0000 0.0000 0.0000 0.0000 0.0000 0.0000 0.0000 0.0000 0.0000 0.0000 0.0000 0.0000 0.0000 0.0000 0.0000 0.0000 0.0000 66.4401 -18.7979 28.3703 31.1156 81.7147 112.7187 284.9460 16.2658 -60.6885 -42.0797 -6.6612 -9.4765 7.3018 0.0000 0.0000 17.5163 0.0000 0.0000 18.1355 0.6892 -5.5570 7.1274 0.0000 0.0000 1.7123 0.0000 0.0000 6.5632 0.5462 -4.7329 5.8695 0.0000 0.0000 2.3439 0.0000 0.0000 -1.9573 0.2864 -3.2065 5.0302 0.0000 0.0000 3.1325 0.0000 0.0000 -11.6979 -0.7463 -0.6502 6.2378 0.0000 0.0000 2.0377 0.0000 0.0000 0.0000 0.0000 0.0000 0.0000 0.0000 0.0000 0.0000 0.0000 0.0000 0.0000 0.0000 0.0000 0.0000 0.0000 0.0000 0.0000 0.0000 0.0000
0.0000 95.0000 0.0000 0.0000 0.0000 0.0000 0.0000 0.0000 0.0000 0.0000 0.0000 0.0000 0.0000 0.0000 0.0000 0.0000 0.0000 0.0000 0.0000 0.0000 0.0000 0.0000 0.0000 0.0000 -71.6150 14.7283 20.3133 -5.6088 2.8179 -1.9502 0.0000 0.0000 0.0000 0.0000 0.0000 0.0000 0.0000 0.0000 0.0000 0.0000 0.0000 0.0000 0.0000 0.0000 0.0000 0.0000 0.0000 0.0000 0.0000 0.0000 0.0000 0.0000 0.0000 0.0000 0.0000 0.0000 0.0000 0.0000 0.0000 0.0000 0.0000 0.0000 0.0000 0.0000 0.0000 0.0000 0.0000 0.0000 0.0000 0.0000 0.0000 0.0000 0.0000 0.0000 0.0000 0.0000 0.0000 0.0000 0.0000 0.0000 0.0000 66.2437 -18.9238 28.6586 26.0859 81.4236 107.0584 285.0997 14.6091 -57.7296 -42.2676 -6.7122 -9.4836 6.3510 0.0000 0.0000 17.3792 0.0000 0.0000 17.5144 0.6478 -4.9537 7.0576 0.0000 0.0000 1.4270 0.0000 0.0000 6.1334 0.4870 -4.2984 6.2292 0.0000 0.0000 2.0379 0.0000 0.0000 -2.4024 0.2170 -2.9415 5.3928 0.0000 0.0000 2.8397 0.0000 0.0000 -11.7623 -0.8336 -0.2347 6.4930 0.0000 0.0000 1.9963 0.0000 0.0000 0.0000 0.0000 0.0000 0.0000 0.0000 0.0000 0.0000 0.0000 0.0000 0.0000 0.0000 0.0000 0.0000 0.0000 0.0000 0.0000 0.0000 0.0000
0.0000 95.0000 0.0000 0.0000 0.0000 0.0000 0.0000 0.0000 0.0000 0.0000 0.0000 0.0000 0.0000 0.0000 0.0000 0.0000 0.0000 0.0000 0.0000 0.0000 0.0000 0.0000 0.0000 0.0000 -71.7528 14.3261 19.7149 -6.2338 2.8457 -1.8473 0.0000 0.0000 0.0000 0.0000 0.0000 0.0000 0.0000 0.0000 0.0000 0.0000 0.0000 0.0000 0.0000 0.0000 0.0000 0.0000 0.0000 0.0000 0.0000 0.0000 0.0000 0.0000 0.0000 0.0000 0.0000 0.0000 0.0000 0.0000 0.0000 0.0000 0.0000 0.0000 0.0000 0.0000 0.0000 0.0000 0.0000 0.0000 0.0000 0.0000 0.0000 0.0000 0.0000 0.0000 0.0000 0.0000 0.0000 0.0000 0.0000 0.0000 0.0000 66.8225 -18.9988 28.4674 27.4249 82.5500 108.6328 288.6394 12.4742 -49.3504 -41.9419 -6.6730 -9.3060 5.1357 0.0000 0.0000 18.5059 0.0000 0.0000 16.3600 0.5475 -4.9336 7.8127 0.0000 0.0000 1.7369 0.0000 0.0000 4.9235 0.3903 -4.2877 7.6640 0.0000 0.0000 1.8673 0.0000 0.0000 -3.3316 0.1616 -3.1289 6.2263 0.0000 0.0000 2.7760 0.0000 0.0000 -11.8133 -0.5505 -1.6871 7.6633 0.0000 0.0000 2.2336 0.0000 0.0000 0.0000 0.0000 0.0000 0.0000 0.0000 0.0000 0.0000 0.0000 0.0000 0.0000 0.0000 0.0000 0.0000 0.0000 0.0000 0.0000 0.0000 0.0000
0.0000 95.0000 0.0000 0.0000 0.0000 0.0000 0.0000 0.0000 0.0000 0.0000 0.0000 0.0000 0.0000 0.0000 0.0000 0.0000 0.0000 0.0000 0.0000 0.0000 0.0000 0.0000 0.0000 0.0000 -71.4729 14.4413 19.9725 -6.5115 3.1378 -2.1789 0.0000 0.0000 0.0000 0.0000 0.0000 0.0000 0.0000 0.0000 0.0000 0.0000 0.0000 0.0000 0.0000 0.0000 0.0000 0.0000 0.0000 0.0000 0.0000 0.0000 0.0000 0.0000 0.0000 0.0000 0.0000 0.0000 0.0000 0.0000 0.0000 0.0000 0.0000 0.0000 0.0000 0.0000 0.0000 0.0000 0.0000 0.0000 0.0000 0.0000 0.0000 0.0000 0.0000 0.0000 0.0000 0.0000 0.0000 0.0000 0.0000 0.0000 0.0000 67.1571 -19.1123 28.4597 24.5824 82.4720 105.2068 292.3617 12.4623 -42.5901 -44.6428 -7.0667 -10.6349 4.9679 0.0000 0.0000 21.7145 0.0000 0.0000 14.5945 0.6978 0.8792 12.2262 0.0000 0.0000 4.2815 0.0000 0.0000 2.7831 0.0875 1.1694 12.8026 0.0000 0.0000 4.0424 0.0000 0.0000 -4.8154 -0.2991 0.2985 15.6858 0.0000 0.0000 6.0445 0.0000 0.0000 -12.2474 -1.4382 2.7073 13.8129 0.0000 0.0000 7.1206 0.0000 0.0000 0.0000 0.0000 0.0000 0.0000 0.0000 0.0000 0.0000 0.0000 0.0000 0.0000 0.0000 0.0000 0.0000 0.0000 0.0000 0.0000 0.0000 0.0000
0.0000 95.0000 0.0000 0.0000 0.0000 0.0000 0.0000 0.0000 0.0000 0.0000 0.0000 0.0000 0.0000 0.0000 0.0000 0.0000 0.0000 0.0000 0.0000 0.0000 0.0000 0.0000 0.0000 0.0000 -71.2246 14.3338 19.9142 -7.0084 3.9476 -3.2901 0.0000 0.0000 0.0000 0.0000 0.0000 0.0000 0.0000 0.0000 0.0000 0.0000 0.0000 0.0000 0.0000 0.0000 0.0000 0.0000 0.0000 0.0000 0.0000 0.0000 0.0000 0.0000 0.0000 0.0000 0.0000 0.0000 0.0000 0.0000 0.0000 0.0000 0.0000 0.0000 0.0000 0.0000 0.0000 0.0000 0.0000 0.0000 0.0000 0.0000 0.0000 0.0000 0.0000 0.0000 0.0000 0.0000 0.0000 0.0000 0.0000 0.0000 0.0000 68.0425 -18.8758 27.6674 18.9275 77.1888 95.8886 322.9827 -2.0151 48.6583 -51.5741 -9.1255 -10.2403 54.1343 0.0000 0.0000 40.2732 0.0000 0.0000 95.6148 -1.7767 8.5427 58.6605 0.0000 0.0000 46.6726 0.0000 0.0000 97.8839 -9.2738 12.8542 59.3045 0.0000 0.0000 40.9084 0.0000 0.0000 100.4499 -9.1141 11.4323 63.5313 0.0000 0.0000 52.0644 0.0000 0.0000 110.9951 -9.3370 10.2178 64.8521 0.0000 0.0000 66.6253 0.0000 0.0000 0.0000 0.0000 0.0000 0.0000 0.0000 0.0000 0.0000 0.0000 0.0000 0.0000 0.0000 0.0000 0.0000 0.0000 0.0000 0.0000 0.0000 0.0000
0.0000 95.0000 0.0000 0.0000 0.0000 0.0000 0.0000 0.0000 0.0000 0.0000 0.0000 0.0000 0.0000 0.0000 0.0000 0.0000 0.0000 0.0000 0.0000 0.0000 0.0000 0.0000 0.0000 0.0000 -71.7809 14.1919 19.5220 -7.7134 5.4075 -5.3611 0.0000 0.0000 0.0000 0.0000 0.0000 0.0000 0.0000 0.0000 0.0000 0.0000 0.0000 0.0000 0.0000 0.0000 0.0000 0.0000 0.0000 0.0000 0.0000 0.0000 0.0000 0.0000 0.0000 0.0000 0.0000 0.0000 0.0000 0.0000 0.0000 0.0000 0.0000 0.0000 0.0000 0.0000 0.0000 0.0000 0.0000 0.0000 0.0000 0.0000 0.0000 0.0000 0.0000 0.0000 0.0000 0.0000 0.0000 0.0000 0.0000 0.0000 0.0000 69.1016 -18.5067 26.6228 15.2341 67.9734 85.4478 326.6806 10.0413 49.9334 -51.5741 -9.1255 -10.2403 54.1343 0.0000 0.0000 40.2732 0.0000 0.0000 95.6148 -1.7767 8.5427 58.6605 0.0000 0.0000 46.6726 0.0000 0.0000 97.8839 -9.2738 12.8542 59.3045 0.0000 0.0000 40.9084 0.0000 0.0000 100.4499 -9.1141 11.4323 63.5313 0.0000 0.0000 52.0644 0.0000 0.0000 110.9951 -9.3370 10.2178 64.8521 0.0000 0.0000 66.6253 0.0000 0.0000 0.0000 0.0000 0.0000 0.0000 0.0000 0.0000 0.0000 0.0000 0.0000 0.0000 0.0000 0.0000 0.0000 0.0000 0.0000 0.0000 0.0000 0.0000
0.0000 95.0000 0.0000 0.0000 0.0000 0.0000 0.0000 0.0000 0.0000 0.0000 0.0000 0.0000 0.0000 0.0000 0.0000 0.0000 0.0000 0.0000 0.0000 0.0000 0.0000 0.0000 0.0000 0.0000 -73.3721 12.5514 16.7939 -7.4932 5.2846 -5.4854 0.0000 0.0000 0.0000 0.0000 0.0000 0.0000 0.0000 0.0000 0.0000 0.0000 0.0000 0.0000 0.0000 0.0000 0.0000 0.0000 0.0000 0.0000 0.0000 0.0000 0.0000 0.0000 0.0000 0.0000 0.0000 0.0000 0.0000 0.0000 0.0000 0.0000 0.0000 0.0000 0.0000 0.0000 0.0000 0.0000 0.0000 0.0000 0.0000 0.0000 0.0000 0.0000 0.0000 0.0000 0.0000 0.0000 0.0000 0.0000 0.0000 0.0000 0.0000 70.9214 -17.2845 24.0916 15.6867 54.3710 75.3541 333.7740 28.0971 55.3622 -51.5741 -9.1255 -10.2403 54.1343 0.0000 0.0000 40.2732 0.0000 0.0000 95.6148 -1.7767 8.5427 58.6605 0.0000 0.0000 46.6726 0.0000 0.0000 97.8839 -9.2738 12.8542 59.3045 0.0000 0.0000 40.9084 0.0000 0.0000 100.4499 -9.1141 11.4323 63.5313 0.0000 0.0000 52.0644 0.0000 0.0000 110.9951 -9.3370 10.2178 64.8521 0.0000 0.0000 66.6253 0.0000 0.0000 0.0000 0.0000 0.0000 0.0000 0.0000 0.0000 0.0000 0.0000 0.0000 0.0000 0.0000 0.0000 0.0000 0.0000 0.0000 0.0000 0.0000 0.0000
0.0000 95.0000 0.0000 0.0000 0.0000 0.0000 0.0000 0.0000 0.0000 0.0000 0.0000 0.0000 0.0000 0.0000 0.0000 0.0000 0.0000 0.0000 0.0000 0.0000 0.0000 0.0000 0.0000 0.0000 -75.5453 9.3135 12.0012 -8.1711 3.8659 -3.7916 0.0000 0.0000 0.0000 0.0000 0.0000 0.0000 0.0000 0.0000 0.0000 0.0000 0.0000 0.0000 0.0000 0.0000 0.0000 0.0000 0.0000 0.0000 0.0000 0.0000 0.0000 0.0000 0.0000 0.0000 0.0000 0.0000 0.0000 0.0000 0.0000 0.0000 0.0000 0.0000 0.0000 0.0000 0.0000 0.0000 0.0000 0.0000 0.0000 0.0000 0.0000 0.0000 0.0000 0.0000 0.0000 0.0000 0.0000 0.0000 0.0000 0.0000 0.0000 74.6734 -14.0404 18.3406 18.7804 33.0030 56.3251 363.5514 54.6262 87.3997 -51.5741 -9.1255 -10.2403 54.1343 0.0000 0.0000 40.2732 0.0000 0.0000 95.6148 -1.7767 8.5427 58.6605 0.0000 0.0000 46.6726 0.0000 0.0000 97.8839 -9.2738 12.8542 59.3045 0.0000 0.0000 40.9084 0.0000 0.0000 100.4499 -9.1141 11.4323 63.5313 0.0000 0.0000 52.0644 0.0000 0.0000 110.9951 -9.3370 10.2178 64.8521 0.0000 0.0000 66.6253 0.0000 0.0000 0.0000 0.0000 0.0000 0.0000 0.0000 0.0000 0.0000 0.0000 0.0000 0.0000 0.0000 0.0000 0.0000 0.0000 0.0000 0.0000 0.0000 0.0000
0.0000 95.0000 0.0000 0.0000 0.0000 0.0000 0.0000 0.0000 0.0000 0.0000 0.0000 0.0000 0.0000 0.0000 0.0000 0.0000 0.0000 0.0000 0.0000 0.0000 0.0000 0.0000 0.0000 0.0000 -77.0495 6.4892 8.1458 -8.4266 2.2130 -1.8694 0.0000 0.0000 0.0000 0.0000 0.0000 0.0000 0.0000 0.0000 0.0000 0.0000 0.0000 0.0000 0.0000 0.0000 0.0000 0.0000 0.0000 0.0000 0.0000 0.0000 0.0000 0.0000 0.0000 0.0000 0.0000 0.0000 0.0000 0.0000 0.0000 0.0000 0.0000 0.0000 0.0000 0.0000 0.0000 0.0000 0.0000 0.0000 0.0000 0.0000 0.0000 0.0000 0.0000 0.0000 0.0000 0.0000 0.0000 0.0000 0.0000 0.0000 0.0000 76.8845 -11.1209 13.9841 17.4335 19.1359 35.2503 405.7919 52.9348 139.0417 -51.5741 -9.1255 -10.2403 54.1343 0.0000 0.0000 40.2732 0.0000 0.0000 95.6148 -1.7767 8.5427 58.6605 0.0000 0.0000 46.6726 0.0000 0.0000 97.8839 -9.2738 12.8542 59.3045 0.0000 0.0000 40.9084 0.0000 0.0000 100.4499 -9.1141 11.4323 63.5313 0.0000 0.0000 52.0644 0.0000 0.0000 110.9951 -9.3370 10.2178 64.8521 0.0000 0.0000 66.6253 0.0000 0.0000 0.0000 0.0000 0.0000 0.0000 0.0000 0.0000 0.0000 0.0000 0.0000 0.0000 0.0000 0.0000 0.0000 0.0000 0.0000 0.0000 0.0000 0.0000
0.0000 95.0000 0.0000 0.0000 0.0000 0.0000 0.0000 0.0000 0.0000 0.0000 0.0000 0.0000 0.0000 0.0000 0.0000 0.0000 0.0000 0.0000 0.0000 0.0000 0.0000 0.0000 0.0000 0.0000 -77.9680 4.1946 5.1817 -8.7480 0.7303 -0.1610 0.0000 0.0000 0.0000 0.0000 0.0000 0.0000 0.0000 0.0000 0.0000 0.0000 0.0000 0.0000 0.0000 0.0000 0.0000 0.0000 0.0000 0.0000 0.0000 0.0000 0.0000 0.0000 0.0000 0.0000 0.0000 0.0000 0.0000 0.0000 0.0000 0.0000 0.0000 0.0000 0.0000 0.0000 0.0000 0.0000 0.0000 0.0000 0.0000 0.0000 0.0000 0.0000 0.0000 0.0000 0.0000 0.0000 0.0000 0.0000 0.0000 0.0000 0.0000 78.6552 -8.8339 10.7719 13.1711 12.8287 21.8278 415.7197 41.8351 159.2285 -51.5741 -9.1255 -10.2403 54.1343 0.0000 0.0000 40.2732 0.0000 0.0000 95.6148 -1.7767 8.5427 58.6605 0.0000 0.0000 46.6726 0.0000 0.0000 97.8839 -9.2738 12.8542 59.3045 0.0000 0.0000 40.9084 0.0000 0.0000 100.4499 -9.1141 11.4323 63.5313 0.0000 0.0000 52.0644 0.0000 0.0000 110.9951 -9.3370 10.2178 64.8521 0.0000 0.0000 66.6253 0.0000 0.0000 0.0000 0.0000 0.0000 0.0000 0.0000 0.0000 0.0000 0.0000 0.0000 0.0000 0.0000 0.0000 0.0000 0.0000 0.0000 0.0000 0.0000 0.0000
0.0000 95.0000 0.0000 0.0000 0.0000 0.0000 0.0000 0.0000 0.0000 0.0000 0.0000 0.0000 0.0000 0.0000 0.0000 0.0000 0.0000 0.0000 0.0000 0.0000 0.0000 0.0000 0.0000 0.0000 -78.5979 2.7207 3.3239 -9.1161 -0.0756 0.7074 0.0000 0.0000 0.0000 0.0000 0.0000 0.0000 0.0000 0.0000 0.0000 0.0000 0.0000 0.0000 0.0000 0.0000 0.0000 0.0000 0.0000 0.0000 0.0000 0.0000 0.0000 0.0000 0.0000 0.0000 0.0000 0.0000 0.0000 0.0000 0.0000 0.0000 0.0000 0.0000 0.0000 0.0000 0.0000 0.0000 0.0000 0.0000 0.0000 0.0000 0.0000 0.0000 0.0000 0.0000 0.0000 0.0000 0.0000 0.0000 0.0000 0.0000 0.0000 79.8505 -7.4102 8.8493 8.9176 10.6365 15.9915 414.9352 36.0305 165.1966 -51.5741 -9.1255 -10.2403 54.1343 0.0000 0.0000 40.2732 0.0000 0.0000 95.6148 -1.7767 8.5427 58.6605 0.0000 0.0000 46.6726 0.0000 0.0000 97.8839 -9.2738 12.8542 59.3045 0.0000 0.0000 40.9084 0.0000 0.0000 100.4499 -9.1141 11.4323 63.5313 0.0000 0.0000 52.0644 0.0000 0.0000 110.9951 -9.3370 10.2178 64.8521 0.0000 0.0000 66.6253 0.0000 0.0000 0.0000 0.0000 0.0000 0.0000 0.0000 0.0000 0.0000 0.0000 0.0000 0.0000 0.0000 0.0000 0.0000 0.0000 0.0000 0.0000 0.0000 0.0000
0.0000 95.0000 0.0000 0.0000 0.0000 0.0000 0.0000 0.0000 0.0000 0.0000 0.0000 0.0000 0.0000 0.0000 0.0000 0.0000 0.0000 0.0000 0.0000 0.0000 0.0000 0.0000 0.0000 0.0000 -78.9150 1.9530 2.3726 -9.2959 -0.4090 1.0237 0.0000 0.0000 0.0000 0.0000 0.0000 0.0000 0.0000 0.0000 0.0000 0.0000 0.0000 0.0000 0.0000 0.0000 0.0000 0.0000 0.0000 0.0000 0.0000 0.0000 0.0000 0.0000 0.0000 0.0000 0.0000 0.0000 0.0000 0.0000 0.0000 0.0000 0.0000 0.0000 0.0000 0.0000 0.0000 0.0000 0.0000 0.0000 0.0000 0.0000 0.0000 0.0000 0.0000 0.0000 0.0000 0.0000 0.0000 0.0000 0.0000 0.0000 0.0000 80.8711 -6.4203 7.5313 5.6559 9.9222 13.3866 413.2291 33.1535 167.5840 -51.5741 -9.1255 -10.2403 54.1343 0.0000 0.0000 40.2732 0.0000 0.0000 95.6148 -1.7767 8.5427 58.6605 0.0000 0.0000 46.6726 0.0000 0.0000 97.8839 -9.2738 12.8542 59.3045 0.0000 0.0000 40.9084 0.0000 0.0000 100.4499 -9.1141 11.4323 63.5313 0.0000 0.0000 52.0644 0.0000 0.0000 110.9951 -9.3370 10.2178 64.8521 0.0000 0.0000 66.6253 0.0000 0.0000 0.0000 0.0000 0.0000 0.0000 0.0000 0.0000 0.0000 0.0000 0.0000 0.0000 0.0000 0.0000 0.0000 0.0000 0.0000 0.0000 0.0000 0.0000
0.0000 95.0000 0.0000 0.0000 0.0000 0.0000 0.0000 0.0000 0.0000 0.0000 0.0000 0.0000 0.0000 0.0000 0.0000 0.0000 0.0000 0.0000 0.0000 0.0000 0.0000 0.0000 0.0000 0.0000 -79.2522 1.6939 2.0456 -9.3806 -1.0151 1.8307 0.0000 0.0000 0.0000 0.0000 0.0000 0.0000 0.0000 0.0000 0.0000 0.0000 0.0000 0.0000 0.0000 0.0000 0.0000 0.0000 0.0000 0.0000 0.0000 0.0000 0.0000 0.0000 0.0000 0.0000 0.0000 0.0000 0.0000 0.0000 0.0000 0.0000 0.0000 0.0000 0.0000 0.0000 0.0000 0.0000 0.0000 0.0000 0.0000 0.0000 0.0000 0.0000 0.0000 0.0000 0.0000 0.0000 0.0000 0.0000 0.0000 0.0000 0.0000 81.8622 -5.4129 6.2404 3.0498 9.3578 11.5541 411.9605 30.8408 169.6426 -51.5741 -9.1255 -10.2403 54.1343 0.0000 0.0000 40.2732 0.0000 0.0000 95.6148 -1.7767 8.5427 58.6605 0.0000 0.0000 46.6726 0.0000 0.0000 97.8839 -9.2738 12.8542 59.3045 0.0000 0.0000 40.9084 0.0000 0.0000 100.4499 -9.1141 11.4323 63.5313 0.0000 0.0000 52.0644 0.0000 0.0000 110.9951 -9.3370 10.2178 64.8521 0.0000 0.0000 66.6253 0.0000 0.0000 0.0000 0.0000 0.0000 0.0000 0.0000 0.0000 0.0000 0.0000 0.0000 0.0000 0.0000 0.0000 0.0000 0.0000 0.0000 0.0000 0.0000 0.0000
0.0000 95.0000 0.0000 0.0000 0.0000 0.0000 0.0000 0.0000 0.0000 0.0000 0.0000 0.0000 0.0000 0.0000 0.0000 0.0000 0.0000 0.0000 0.0000 0.0000 0.0000 0.0000 0.0000 0.0000 -79.4002 1.5212 1.8323 -9.5949 -1.0859 1.9030 0.0000 0.0000 0.0000 0.0000 0.0000 0.0000 0.0000 0.0000 0.0000 0.0000 0.0000 0.0000 0.0000 0.0000 0.0000 0.0000 0.0000 0.0000 0.0000 0.0000 0.0000 0.0000 0.0000 0.0000 0.0000 0.0000 0.0000 0.0000 0.0000 0.0000 0.0000 0.0000 0.0000 0.0000 0.0000 0.0000 0.0000 0.0000 0.0000 0.0000 0.0000 0.0000 0.0000 0.0000 0.0000 0.0000 0.0000 0.0000 0.0000 0.0000 0.0000 82.3674 -4.8169 5.5045 1.2969 9.5581 11.1574 410.6200 30.0676 169.9657 -51.5741 -9.1255 -10.2403 54.1343 0.0000 0.0000 40.2732 0.0000 0.0000 95.6148 -1.7767 8.5427 58.6605 0.0000 0.0000 46.6726 0.0000 0.0000 97.8839 -9.2738 12.8542 59.3045 0.0000 0.0000 40.9084 0.0000 0.0000 100.4499 -9.1141 11.4323 63.5313 0.0000 0.0000 52.0644 0.0000 0.0000 110.9951 -9.3370 10.2178 64.8521 0.0000 0.0000 66.6253 0.0000 0.0000 0.0000 0.0000 0.0000 0.0000 0.0000 0.0000 0.0000 0.0000 0.0000 0.0000 0.0000 0.0000 0.0000 0.0000 0.0000 0.0000 0.0000 0.0000
0.0000 95.0000 0.0000 0.0000 0.0000 0.0000 0.0000 0.0000 0.0000 0.0000 0.0000 0.0000 0.0000 0.0000 0.0000 0.0000 0.0000 0.0000 0.0000 0.0000 0.0000 0.0000 0.0000 0.0000 -79.5874 1.0798 1.2963 -9.8159 -1.7780 2.8004 0.0000 0.0000 0.0000 0.0000 0.0000 0.0000 0.0000 0.0000 0.0000 0.0000 0.0000 0.0000 0.0000 0.0000 0.0000 0.0000 0.0000 0.0000 0.0000 0.0000 0.0000 0.0000 0.0000 0.0000 0.0000 0.0000 0.0000 0.0000 0.0000 0.0000 0.0000 0.0000 0.0000 0.0000 0.0000 0.0000 0.0000 0.0000 0.0000 0.0000 0.0000 0.0000 0.0000 0.0000 0.0000 0.0000 0.0000 0.0000 0.0000 0.0000 0.0000 82.8483 -4.3759 4.9586 -0.1307 9.2491 10.3335 409.7966 29.0562 170.8085 -51.5741 -9.1255 -10.2403 54.1343 0.0000 0.0000 40.2732 0.0000 0.0000 95.6148 -1.7767 8.5427 58.6605 0.0000 0.0000 46.6726 0.0000 0.0000 97.8839 -9.2738 12.8542 59.3045 0.0000 0.0000 40.9084 0.0000 0.0000 100.4499 -9.1141 11.4323 63.5313 0.0000 0.0000 52.0644 0.0000 0.0000 110.9951 -9.3370 10.2178 64.8521 0.0000 0.0000 66.6253 0.0000 0.0000 0.0000 0.0000 0.0000 0.0000 0.0000 0.0000 0.0000 0.0000 0.0000 0.0000 0.0000 0.0000 0.0000 0.0000 0.0000 0.0000 0.0000 0.0000
0.0000 95.0000 0.0000 0.0000 0.0000 0.0000 0.0000 0.0000 0.0000 0.0000 0.0000 0.0000 0.0000 0.0000 0.0000 0.0000 0.0000 0.0000 0.0000 0.0000 0.0000 0.0000 0.0000 0.0000 -79.6955 0.6929 0.8302 -10.0137 -2.3778 3.5790 0.0000 0.0000 0.0000 0.0000 0.0000 0.0000 0.0000 0.0000 0.0000 0.0000 0.0000 0.0000 0.0000 0.0000 0.0000 0.0000 0.0000 0.0000 0.0000 0.0000 0.0000 0.0000 0.0000 0.0000 0.0000 0.0000 0.0000 0.0000 0.0000 0.0000 0.0000 0.0000 0.0000 0.0000 0.0000 0.0000 0.0000 0.0000 0.0000 0.0000 0.0000 0.0000 0.0000 0.0000 0.0000 0.0000 0.0000 0.0000 0.0000 0.0000 0.0000 83.1585 -3.9151 4.4124 -1.2287 8.9702 9.7131 409.1048 28.1626 171.5876 -51.5741 -9.1255 -10.2403 54.1343 0.0000 0.0000 40.2732 0.0000 0.0000 95.6148 -1.7767 8.5427 58.6605 0.0000 0.0000 46.6726 0.0000 0.0000 97.8839 -9.2738 12.8542 59.3045 0.0000 0.0000 40.9084 0.0000 0.0000 100.4499 -9.1141 11.4323 63.5313 0.0000 0.0000 52.0644 0.0000 0.0000 110.9951 -9.3370 10.2178 64.8521 0.0000 0.0000 66.6253 0.0000 0.0000 0.0000 0.0000 0.0000 0.0000 0.0000 0.0000 0.0000 0.0000 0.0000 0.0000 0.0000 0.0000 0.0000 0.0000 0.0000 0.0000 0.0000 0.0000
0.0000 95.0000 0.0000 0.0000 0.0000 0.0000 0.0000 0.0000 0.0000 0.0000 0.0000 0.0000 0.0000 0.0000 0.0000 0.0000 0.0000 0.0000 0.0000 0.0000 0.0000 0.0000 0.0000 0.0000 -79.9009 0.5063 0.6044 -9.6752 -2.6264 3.8488 0.0000 0.0000 0.0000 0.0000 0.0000 0.0000 0.0000 0.0000 0.0000 0.0000 0.0000 0.0000 0.0000 0.0000 0.0000 0.0000 0.0000 0.0000 0.0000 0.0000 0.0000 0.0000 0.0000 0.0000 0.0000 0.0000 0.0000 0.0000 0.0000 0.0000 0.0000 0.0000 0.0000 0.0000 0.0000 0.0000 0.0000 0.0000 0.0000 0.0000 0.0000 0.0000 0.0000 0.0000 0.0000 0.0000 0.0000 0.0000 0.0000 0.0000 0.0000 83.6001 -3.6193 4.0476 -2.3675 8.9998 9.4176 408.3914 27.7224 171.8322 -51.5741 -9.1255 -10.2403 54.1343 0.0000 0.0000 40.2732 0.0000 0.0000 95.6148 -1.7767 8.5427 58.6605 0.0000 0.0000 46.6726 0.0000 0.0000 97.8839 -9.2738 12.8542 59.3045 0.0000 0.0000 40.9084 0.0000 0.0000 100.4499 -9.1141 11.4323 63.5313 0.0000 0.0000 52.0644 0.0000 0.0000 110.9951 -9.3370 10.2178 64.8521 0.0000 0.0000 66.6253 0.0000 0.0000 0.0000 0.0000 0.0000 0.0000 0.0000 0.0000 0.0000 0.0000 0.0000 0.0000 0.0000 0.0000 0.0000 0.0000 0.0000 0.0000 0.0000 0.0000
0.0000 95.0000 0.0000 0.0000 0.0000 0.0000 0.0000 0.0000 0.0000 0.0000 0.0000 0.0000 0.0000 0.0000 0.0000 0.0000 0.0000 0.0000 0.0000 0.0000 0.0000 0.0000 0.0000 0.0000 -80.1125 -0.1631 -0.1939 -9.3674 -2.7517 3.8399 0.0000 0.0000 0.0000 0.0000 0.0000 0.0000 0.0000 0.0000 0.0000 0.0000 0.0000 0.0000 0.0000 0.0000 0.0000 0.0000 0.0000 0.0000 0.0000 0.0000 0.0000 0.0000 0.0000 0.0000 0.0000 0.0000 0.0000 0.0000 0.0000 0.0000 0.0000 0.0000 0.0000 0.0000 0.0000 0.0000 0.0000 0.0000 0.0000 0.0000 0.0000 0.0000 0.0000 0.0000 0.0000 0.0000 0.0000 0.0000 0.0000 0.0000 0.0000 83.6757 -3.5719 3.9893 -2.7134 9.0769 9.4096 408.0818 27.6987 171.7385 -51.5741 -9.1255 -10.2403 54.1343 0.0000 0.0000 40.2732 0.0000 0.0000 95.6148 -1.7767 8.5427 58.6605 0.0000 0.0000 46.6726 0.0000 0.0000 97.8839 -9.2738 12.8542 59.3045 0.0000 0.0000 40.9084 0.0000 0.0000 100.4499 -9.1141 11.4323 63.5313 0.0000 0.0000 52.0644 0.0000 0.0000 110.9951 -9.3370 10.2178 64.8521 0.0000 0.0000 66.6253 0.0000 0.0000 0.0000 0.0000 0.0000 0.0000 0.0000 0.0000 0.0000 0.0000 0.0000 0.0000 0.0000 0.0000 0.0000 0.0000 0.0000 0.0000 0.0000 0.0000
0.0000 95.0000 0.0000 0.0000 0.0000 0.0000 0.0000 0.0000 0.0000 0.0000 0.0000 0.0000 0.0000 0.0000 0.0000 0.0000 0.0000 0.0000 0.0000 0.0000 0.0000 0.0000 0.0000 0.0000 -79.8907 -0.2854 -0.3408 -9.5989 -2.5121 3.5036 0.0000 0.0000 0.0000 0.0000 0.0000 0.0000 0.0000 0.0000 0.0000 0.0000 0.0000 0.0000 0.0000 0.0000 0.0000 0.0000 0.0000 0.0000 0.0000 0.0000 0.0000 0.0000 0.0000 0.0000 0.0000 0.0000 0.0000 0.0000 0.0000 0.0000 0.0000 0.0000 0.0000 0.0000 0.0000 0.0000 0.0000 0.0000 0.0000 0.0000 0.0000 0.0000 0.0000 0.0000 0.0000 0.0000 0.0000 0.0000 0.0000 0.0000 0.0000 83.6493 -3.5831 4.0036 -2.8662 9.5102 9.8319 407.7346 28.0865 171.1291 -51.5741 -9.1255 -10.2403 54.1343 0.0000 0.0000 40.2732 0.0000 0.0000 95.6148 -1.7767 8.5427 58.6605 0.0000 0.0000 46.6726 0.0000 0.0000 97.8839 -9.2738 12.8542 59.3045 0.0000 0.0000 40.9084 0.0000 0.0000 100.4499 -9.1141 11.4323 63.5313 0.0000 0.0000 52.0644 0.0000 0.0000 110.9951 -9.3370 10.2178 64.8521 0.0000 0.0000 66.6253 0.0000 0.0000 0.0000 0.0000 0.0000 0.0000 0.0000 0.0000 0.0000 0.0000 0.0000 0.0000 0.0000 0.0000 0.0000 0.0000 0.0000 0.0000 0.0000 0.0000
0.0000 95.0000 0.0000 0.0000 0.0000 0.0000 0.0000 0.0000 0.0000 0.0000 0.0000 0.0000 0.0000 0.0000 0.0000 0.0000 0.0000 0.0000 0.0000 0.0000 0.0000 0.0000 0.0000 0.0000 -79.6975 0.1346 0.1613 -9.6677 -2.2909 3.3001 0.0000 0.0000 0.0000 0.0000 0.0000 0.0000 0.0000 0.0000 0.0000 0.0000 0.0000 0.0000 0.0000 0.0000 0.0000 0.0000 0.0000 0.0000 0.0000 0.0000 0.0000 0.0000 0.0000 0.0000 0.0000 0.0000 0.0000 0.0000 0.0000 0.0000 0.0000 0.0000 0.0000 0.0000 0.0000 0.0000 0.0000 0.0000 0.0000 0.0000 0.0000 0.0000 0.0000 0.0000 0.0000 0.0000 0.0000 0.0000 0.0000 0.0000 0.0000 83.5977 -3.4923 3.9058 -2.8302 9.7988 10.1595 407.6171 28.2747 170.8520 -51.5741 -9.1255 -10.2403 54.1343 0.0000 0.0000 40.2732 0.0000 0.0000 95.6148 -1.7767 8.5427 58.6605 0.0000 0.0000 46.6726 0.0000 0.0000 97.8839 -9.2738 12.8542 59.3045 0.0000 0.0000 40.9084 0.0000 0.0000 100.4499 -9.1141 11.4323 63.5313 0.0000 0.0000 52.0644 0.0000 0.0000 110.9951 -9.3370 10.2178 64.8521 0.0000 0.0000 66.6253 0.0000 0.0000 0.0000 0.0000 0.0000 0.0000 0.0000 0.0000 0.0000 0.0000 0.0000 0.0000 0.0000 0.0000 0.0000 0.0000 0.0000 0.0000 0.0000 0.0000
0.0000 95.0000 0.0000 0.0000 0.0000 0.0000 0.0000 0.0000 0.0000 0.0000 0.0000 0.0000 0.0000 0.0000 0.0000 0.0000 0.0000 0.0000 0.0000 0.0000 0.0000 0.0000 0.0000 0.0000 -79.8026 -0.2992 -0.3578 -9.6474 -2.3888 3.3334 0.0000 0.0000 0.0000 0.0000 0.0000 0.0000 0.0000 0.0000 0.0000 0.0000 0.0000 0.0000 0.0000 0.0000 0.0000 0.0000 0.0000 0.0000 0.0000 0.0000 0.0000 0.0000 0.0000 0.0000 0.0000 0.0000 0.0000 0.0000 0.0000 0.0000 0.0000 0.0000 0.0000 0.0000 0.0000 0.0000 0.0000 0.0000 0.0000 0.0000 0.0000 0.0000 0.0000 0.0000 0.0000 0.0000 0.0000 0.0000 0.0000 0.0000 0.0000 83.6210 -3.5608 3.9808 -3.1102 9.6799 9.9574 407.3797 28.1886 170.8598 -51.5741 -9.1255 -10.2403 54.1343 0.0000 0.0000 40.2732 0.0000 0.0000 95.6148 -1.7767 8.5427 58.6605 0.0000 0.0000 46.6726 0.0000 0.0000 97.8839 -9.2738 12.8542 59.3045 0.0000 0.0000 40.9084 0.0000 0.0000 100.4499 -9.1141 11.4323 63.5313 0.0000 0.0000 52.0644 0.0000 0.0000 110.9951 -9.3370 10.2178 64.8521 0.0000 0.0000 66.6253 0.0000 0.0000 0.0000 0.0000 0.0000 0.0000 0.0000 0.0000 0.0000 0.0000 0.0000 0.0000 0.0000 0.0000 0.0000 0.0000 0.0000 0.0000 0.0000 0.0000
0.0000 95.0000 0.0000 0.0000 0.0000 0.0000 0.0000 0.0000 0.0000 0.0000 0.0000 0.0000 0.0000 0.0000 0.0000 0.0000 0.0000 0.0000 0.0000 0.0000 0.0000 0.0000 0.0000 0.0000 -79.8535 -0.5407 -0.6460 -9.7603 -2.9419 4.0697 0.0000 0.0000 0.0000 0.0000 0.0000 0.0000 0.0000 0.0000 0.0000 0.0000 0.0000 0.0000 0.0000 0.0000 0.0000 0.0000 0.0000 0.0000 0.0000 0.0000 0.0000 0.0000 0.0000 0.0000 0.0000 0.0000 0.0000 0.0000 0.0000 0.0000 0.0000 0.0000 0.0000 0.0000 0.0000 0.0000 0.0000 0.0000 0.0000 0.0000 0.0000 0.0000 0.0000 0.0000 0.0000 0.0000 0.0000 0.0000 0.0000 0.0000 0.0000 83.7075 -3.3078 3.6923 -3.3945 9.3253 9.5289 407.3206 27.5934 171.5642 -51.5741 -9.1255 -10.2403 54.1343 0.0000 0.0000 40.2732 0.0000 0.0000 95.6148 -1.7767 8.5427 58.6605 0.0000 0.0000 46.6726 0.0000 0.0000 97.8839 -9.2738 12.8542 59.3045 0.0000 0.0000 40.9084 0.0000 0.0000 100.4499 -9.1141 11.4323 63.5313 0.0000 0.0000 52.0644 0.0000 0.0000 110.9951 -9.3370 10.2178 64.8521 0.0000 0.0000 66.6253 0.0000 0.0000 0.0000 0.0000 0.0000 0.0000 0.0000 0.0000 0.0000 0.0000 0.0000 0.0000 0.0000 0.0000 0.0000 0.0000 0.0000 0.0000 0.0000 0.0000
0.0000 95.0000 0.0000 0.0000 0.0000 0.0000 0.0000 0.0000 0.0000 0.0000 0.0000 0.0000 0.0000 0.0000 0.0000 0.0000 0.0000 0.0000 0.0000 0.0000 0.0000 0.0000 0.0000 0.0000 -79.6846 0.1397 0.1674 -9.7605 -2.7225 3.9248 0.0000 0.0000 0.0000 0.0000 0.0000 0.0000 0.0000 0.0000 0.0000 0.0000 0.0000 0.0000 0.0000 0.0000 0.0000 0.0000 0.0000 0.0000 0.0000 0.0000 0.0000 0.0000 0.0000 0.0000 0.0000 0.0000 0.0000 0.0000 0.0000 0.0000 0.0000 0.0000 0.0000 0.0000 0.0000 0.0000 0.0000 0.0000 0.0000 0.0000 0.0000 0.0000 0.0000 0.0000 0.0000 0.0000 0.0000 0.0000 0.0000 0.0000 0.0000 83.7346 -3.5020 3.9072 -3.2688 9.4379 9.6534 407.4311 27.8858 171.2510 -51.5741 -9.1255 -10.2403 54.1343 0.0000 0.0000 40.2732 0.0000 0.0000 95.6148 -1.7767 8.5427 58.6605 0.0000 0.0000 46.6726 0.0000 0.0000 97.8839 -9.2738 12.8542 59.3045 0.0000 0.0000 40.9084 0.0000 0.0000 100.4499 -9.1141 11.4323 63.5313 0.0000 0.0000 52.0644 0.0000 0.0000 110.9951 -9.3370 10.2178 64.8521 0.0000 0.0000 66.6253 0.0000 0.0000 0.0000 0.0000 0.0000 0.0000 0.0000 0.0000 0.0000 0.0000 0.0000 0.0000 0.0000 0.0000 0.0000 0.0000 0.0000 0.0000 0.0000 0.0000
0.0000 95.0000 0.0000 0.0000 0.0000 0.0000 0.0000 0.0000 0.0000 0.0000 0.0000 0.0000 0.0000 0.0000 0.0000 0.0000 0.0000 0.0000 0.0000 0.0000 0.0000 0.0000 0.0000 0.0000 -79.3018 0.6402 0.7725 -10.1084 -2.6868 4.0481 0.0000 0.0000 0.0000 0.0000 0.0000 0.0000 0.0000 0.0000 0.0000 0.0000 0.0000 0.0000 0.0000 0.0000 0.0000 0.0000 0.0000 0.0000 0.0000 0.0000 0.0000 0.0000 0.0000 0.0000 0.0000 0.0000 0.0000 0.0000 0.0000 0.0000 0.0000 0.0000 0.0000 0.0000 0.0000 0.0000 0.0000 0.0000 0.0000 0.0000 0.0000 0.0000 0.0000 0.0000 0.0000 0.0000 0.0000 0.0000 0.0000 0.0000 0.0000 83.7017 -3.7770 4.2164 -3.2599 9.5065 9.7081 407.3546 28.2014 170.8337 -51.5741 -9.1255 -10.2403 54.1343 0.0000 0.0000 40.2732 0.0000 0.0000 95.6148 -1.7767 8.5427 58.6605 0.0000 0.0000 46.6726 0.0000 0.0000 97.8839 -9.2738 12.8542 59.3045 0.0000 0.0000 40.9084 0.0000 0.0000 100.4499 -9.1141 11.4323 63.5313 0.0000 0.0000 52.0644 0.0000 0.0000 110.9951 -9.3370 10.2178 64.8521 0.0000 0.0000 66.6253 0.0000 0.0000 0.0000 0.0000 0.0000 0.0000 0.0000 0.0000 0.0000 0.0000 0.0000 0.0000 0.0000 0.0000 0.0000 0.0000 0.0000 0.0000 0.0000 0.0000
0.0000 95.0000 0.0000 0.0000 0.0000 0.0000 0.0000 0.0000 0.0000 0.0000 0.0000 0.0000 0.0000 0.0000 0.0000 0.0000 0.0000 0.0000 0.0000 0.0000 0.0000 0.0000 0.0000 0.0000 -79.1594 0.7707 0.9323 -10.3260 -2.5102 3.8534 0.0000 0.0000 0.0000 0.0000 0.0000 0.0000 0.0000 0.0000 0.0000 0.0000 0.0000 0.0000 0.0000 0.0000 0.0000 0.0000 0.0000 0.0000 0.0000 0.0000 0.0000 0.0000 0.0000 0.0000 0.0000 0.0000 0.0000 0.0000 0.0000 0.0000 0.0000 0.0000 0.0000 0.0000 0.0000 0.0000 0.0000 0.0000 0.0000 0.0000 0.0000 0.0000 0.0000 0.0000 0.0000 0.0000 0.0000 0.0000 0.0000 0.0000 0.0000 83.6793 -3.8112 4.2562 -3.3222 9.7235 9.9190 407.1788 28.4204 170.4925 -51.5741 -9.1255 -10.2403 54.1343 0.0000 0.0000 40.2732 0.0000 0.0000 95.6148 -1.7767 8.5427 58.6605 0.0000 0.0000 46.6726 0.0000 0.0000 97.8839 -9.2738 12.8542 59.3045 0.0000 0.0000 40.9084 0.0000 0.0000 100.4499 -9.1141 11.4323 63.5313 0.0000 0.0000 52.0644 0.0000 0.0000 110.9951 -9.3370 10.2178 64.8521 0.0000 0.0000 66.6253 0.0000 0.0000 0.0000 0.0000 0.0000 0.0000 0.0000 0.0000 0.0000 0.0000 0.0000 0.0000 0.0000 0.0000 0.0000 0.0000 0.0000 0.0000 0.0000 0.0000
0.0000 95.0000 0.0000 0.0000 0.0000 0.0000 0.0000 0.0000 0.0000 0.0000 0.0000 0.0000 0.0000 0.0000 0.0000 0.0000 0.0000 0.0000 0.0000 0.0000 0.0000 0.0000 0.0000 0.0000 -79.0765 1.2026 1.4569 -10.4665 -2.4475 3.8885 0.0000 0.0000 0.0000 0.0000 0.0000 0.0000 0.0000 0.0000 0.0000 0.0000 0.0000 0.0000 0.0000 0.0000 0.0000 0.0000 0.0000 0.0000 0.0000 0.0000 0.0000 0.0000 0.0000 0.0000 0.0000 0.0000 0.0000 0.0000 0.0000 0.0000 0.0000 0.0000 0.0000 0.0000 0.0000 0.0000 0.0000 0.0000 0.0000 0.0000 0.0000 0.0000 0.0000 0.0000 0.0000 0.0000 0.0000 0.0000 0.0000 0.0000 0.0000 83.7717 -3.6406 4.0592 -3.4251 9.6239 9.7907 407.2263 28.1548 170.8382 -51.5741 -9.1255 -10.2403 54.1343 0.0000 0.0000 40.2732 0.0000 0.0000 95.6148 -1.7767 8.5427 58.6605 0.0000 0.0000 46.6726 0.0000 0.0000 97.8839 -9.2738 12.8542 59.3045 0.0000 0.0000 40.9084 0.0000 0.0000 100.4499 -9.1141 11.4323 63.5313 0.0000 0.0000 52.0644 0.0000 0.0000 110.9951 -9.3370 10.2178 64.8521 0.0000 0.0000 66.6253 0.0000 0.0000 0.0000 0.0000 0.0000 0.0000 0.0000 0.0000 0.0000 0.0000 0.0000 0.0000 0.0000 0.0000 0.0000 0.0000 0.0000 0.0000 0.0000 0.0000
0.0000 95.0000 0.0000 0.0000 0.0000 0.0000 0.0000 0.0000 0.0000 0.0000 0.0000 0.0000 0.0000 0.0000 0.0000 0.0000 0.0000 0.0000 0.0000 0.0000 0.0000 0.0000 0.0000 0.0000 -79.0398 1.0390 1.2595 -10.6481 -2.5444 4.0100 0.0000 0.0000 0.0000 0.0000 0.0000 0.0000 0.0000 0.0000 0.0000 0.0000 0.0000 0.0000 0.0000 0.0000 0.0000 0.0000 0.0000 0.0000 0.0000 0.0000 0.0000 0.0000 0.0000 0.0000 0.0000 0.0000 0.0000 0.0000 0.0000 0.0000 0.0000 0.0000 0.0000 0.0000 0.0000 0.0000 0.0000 0.0000 0.0000 0.0000 0.0000 0.0000 0.0000 0.0000 0.0000 0.0000 0.0000 0.0000 0.0000 0.0000 0.0000 83.9577 -3.5398 3.9340 -3.4015 9.2972 9.4365 407.5885 27.7577 171.4706 -51.5741 -9.1255 -10.2403 54.1343 0.0000 0.0000 40.2732 0.0000 0.0000 95.6148 -1.7767 8.5427 58.6605 0.0000 0.0000 46.6726 0.0000 0.0000 97.8839 -9.2738 12.8542 59.3045 0.0000 0.0000 40.9084 0.0000 0.0000 100.4499 -9.1141 11.4323 63.5313 0.0000 0.0000 52.0644 0.0000 0.0000 110.9951 -9.3370 10.2178 64.8521 0.0000 0.0000 66.6253 0.0000 0.0000 0.0000 0.0000 0.0000 0.0000 0.0000 0.0000 0.0000 0.0000 0.0000 0.0000 0.0000 0.0000 0.0000 0.0000 0.0000 0.0000 0.0000 0.0000
0.0000 95.0000 0.0000 0.0000 0.0000 0.0000 0.0000 0.0000 0.0000 0.0000 0.0000 0.0000 0.0000 0.0000 0.0000 0.0000 0.0000 0.0000 0.0000 0.0000 0.0000 0.0000 0.0000 0.0000 -79.2909 0.5328 0.6430 -10.3860 -3.2792 4.9095 0.0000 0.0000 0.0000 0.0000 0.0000 0.0000 0.0000 0.0000 0.0000 0.0000 0.0000 0.0000 0.0000 0.0000 0.0000 0.0000 0.0000 0.0000 0.0000 0.0000 0.0000 0.0000 0.0000 0.0000 0.0000 0.0000 0.0000 0.0000 0.0000 0.0000 0.0000 0.0000 0.0000 0.0000 0.0000 0.0000 0.0000 0.0000 0.0000 0.0000 0.0000 0.0000 0.0000 0.0000 0.0000 0.0000 0.0000 0.0000 0.0000 0.0000 0.0000 83.8832 -3.4070 3.7913 -3.2409 9.0611 9.2523 407.7671 27.4494 171.9166 -51.5741 -9.1255 -10.2403 54.1343 0.0000 0.0000 40.2732 0.0000 0.0000 95.6148 -1.7767 8.5427 58.6605 0.0000 0.0000 46.6726 0.0000 0.0000 97.8839 -9.2738 12.8542 59.3045 0.0000 0.0000 40.9084 0.0000 0.0000 100.4499 -9.1141 11.4323 63.5313 0.0000 0.0000 52.0644 0.0000 0.0000 110.9951 -9.3370 10.2178 64.8521 0.0000 0.0000 66.6253 0.0000 0.0000 0.0000 0.0000 0.0000 0.0000 0.0000 0.0000 0.0000 0.0000 0.0000 0.0000 0.0000 0.0000 0.0000 0.0000 0.0000 0.0000 0.0000 0.0000
0.0000 95.0000 0.0000 0.0000 0.0000 0.0000 0.0000 0.0000 0.0000 0.0000 0.0000 0.0000 0.0000 0.0000 0.0000 0.0000 0.0000 0.0000 0.0000 0.0000 0.0000 0.0000 0.0000 0.0000 -79.5072 0.5454 0.6557 -9.9562 -3.8958 5.7347 0.0000 0.0000 0.0000 0.0000 0.0000 0.0000 0.0000 0.0000 0.0000 0.0000 0.0000 0.0000 0.0000 0.0000 0.0000 0.0000 0.0000 0.0000 0.0000 0.0000 0.0000 0.0000 0.0000 0.0000 0.0000 0.0000 0.0000 0.0000 0.0000 0.0000 0.0000 0.0000 0.0000 0.0000 0.0000 0.0000 0.0000 0.0000 0.0000 0.0000 0.0000 0.0000 0.0000 0.0000 0.0000 0.0000 0.0000 0.0000 0.0000 0.0000 0.0000 83.8623 -3.4059 3.7915 -3.2400 8.9950 9.1873 407.7663 27.3903 171.9881 -51.5741 -9.1255 -10.2403 54.1343 0.0000 0.0000 40.2732 0.0000 0.0000 95.6148 -1.7767 8.5427 58.6605 0.0000 0.0000 46.6726 0.0000 0.0000 97.8839 -9.2738 12.8542 59.3045 0.0000 0.0000 40.9084 0.0000 0.0000 100.4499 -9.1141 11.4323 63.5313 0.0000 0.0000 52.0644 0.0000 0.0000 110.9951 -9.3370 10.2178 64.8521 0.0000 0.0000 66.6253 0.0000 0.0000 0.0000 0.0000 0.0000 0.0000 0.0000 0.0000 0.0000 0.0000 0.0000 0.0000 0.0000 0.0000 0.0000 0.0000 0.0000 0.0000 0.0000 0.0000
0.0000 95.0000 0.0000 0.0000 0.0000 0.0000 0.0000 0.0000 0.0000 0.0000 0.0000 0.0000 0.0000 0.0000 0.0000 0.0000 0.0000 0.0000 0.0000 0.0000 0.0000 0.0000 0.0000 0.0000 -79.3185 0.8365 1.0090 -10.2988 -3.4577 5.2308 0.0000 0.0000 0.0000 0.0000 0.0000 0.0000 0.0000 0.0000 0.0000 0.0000 0.0000 0.0000 0.0000 0.0000 0.0000 0.0000 0.0000 0.0000 0.0000 0.0000 0.0000 0.0000 0.0000 0.0000 0.0000 0.0000 0.0000 0.0000 0.0000 0.0000 0.0000 0.0000 0.0000 0.0000 0.0000 0.0000 0.0000 0.0000 0.0000 0.0000 0.0000 0.0000 0.0000 0.0000 0.0000 0.0000 0.0000 0.0000 0.0000 0.0000 0.0000 83.9693 -3.2208 3.5788 -3.2479 8.9480 9.1354 407.9082 27.1684 172.3125 -51.5741 -9.1255 -10.2403 54.1343 0.0000 0.0000 40.2732 0.0000 0.0000 95.6148 -1.7767 8.5427 58.6605 0.0000 0.0000 46.6726 0.0000 0.0000 97.8839 -9.2738 12.8542 59.3045 0.0000 0.0000 40.9084 0.0000 0.0000 100.4499 -9.1141 11.4323 63.5313 0.0000 0.0000 52.0644 0.0000 0.0000 110.9951 -9.3370 10.2178 64.8521 0.0000 0.0000 66.6253 0.0000 0.0000 0.0000 0.0000 0.0000 0.0000 0.0000 0.0000 0.0000 0.0000 0.0000 0.0000 0.0000 0.0000 0.0000 0.0000 0.0000 0.0000 0.0000 0.0000
0.0000 95.0000 0.0000 0.0000 0.0000 0.0000 0.0000 0.0000 0.0000 0.0000 0.0000 0.0000 0.0000 0.0000 0.0000 0.0000 0.0000 0.0000 0.0000 0.0000 0.0000 0.0000 0.0000 0.0000 -79.2833 1.2178 1.4699 -10.0478 -3.2728 5.0277 0.0000 0.0000 0.0000 0.0000 0.0000 0.0000 0.0000 0.0000 0.0000 0.0000 0.0000 0.0000 0.0000 0.0000 0.0000 0.0000 0.0000 0.0000 0.0000 0.0000 0.0000 0.0000 0.0000 0.0000 0.0000 0.0000 0.0000 0.0000 0.0000 0.0000 0.0000 0.0000 0.0000 0.0000 0.0000 0.0000 0.0000 0.0000 0.0000 0.0000 0.0000 0.0000 0.0000 0.0000 0.0000 0.0000 0.0000 0.0000 0.0000 0.0000 0.0000 84.0662 -3.2609 3.6171 -3.5434 9.0824 9.1903 407.6530 27.2838 172.0732 -51.5741 -9.1255 -10.2403 54.1343 0.0000 0.0000 40.2732 0.0000 0.0000 95.6148 -1.7767 8.5427 58.6605 0.0000 0.0000 46.6726 0.0000 0.0000 97.8839 -9.2738 12.8542 59.3045 0.0000 0.0000 40.9084 0.0000 0.0000 100.4499 -9.1141 11.4323 63.5313 0.0000 0.0000 52.0644 0.0000 0.0000 110.9951 -9.3370 10.2178 64.8521 0.0000 0.0000 66.6253 0.0000 0.0000 0.0000 0.0000 0.0000 0.0000 0.0000 0.0000 0.0000 0.0000 0.0000 0.0000 0.0000 0.0000 0.0000 0.0000 0.0000 0.0000 0.0000 0.0000
0.0000 95.0000 0.0000 0.0000 0.0000 0.0000 0.0000 0.0000 0.0000 0.0000 0.0000 0.0000 0.0000 0.0000 0.0000 0.0000 0.0000 0.0000 0.0000 0.0000 0.0000 0.0000 0.0000 0.0000 -79.5264 0.7705 0.9259 -9.8572 -3.3318 4.9638 0.0000 0.0000 0.0000 0.0000 0.0000 0.0000 0.0000 0.0000 0.0000 0.0000 0.0000 0.0000 0.0000 0.0000 0.0000 0.0000 0.0000 0.0000 0.0000 0.0000 0.0000 0.0000 0.0000 0.0000 0.0000 0.0000 0.0000 0.0000 0.0000 0.0000 0.0000 0.0000 0.0000 0.0000 0.0000 0.0000 0.0000 0.0000 0.0000 0.0000 0.0000 0.0000 0.0000 0.0000 0.0000 0.0000 0.0000 0.0000 0.0000 0.0000 0.0000 84.0244 -3.2476 3.6051 -3.3527 8.7964 8.9444 407.9038 27.0382 172.4685 -51.5741 -9.1255 -10.2403 54.1343 0.0000 0.0000 40.2732 0.0000 0.0000 95.6148 -1.7767 8.5427 58.6605 0.0000 0.0000 46.6726 0.0000 0.0000 97.8839 -9.2738 12.8542 59.3045 0.0000 0.0000 40.9084 0.0000 0.0000 100.4499 -9.1141 11.4323 63.5313 0.0000 0.0000 52.0644 0.0000 0.0000 110.9951 -9.3370 10.2178 64.8521 0.0000 0.0000 66.6253 0.0000 0.0000 0.0000 0.0000 0.0000 0.0000 0.0000 0.0000 0.0000 0.0000 0.0000 0.0000 0.0000 0.0000 0.0000 0.0000 0.0000 0.0000 0.0000 0.0000
0.0000 95.0000 0.0000 0.0000 0.0000 0.0000 0.0000 0.0000 0.0000 0.0000 0.0000 0.0000 0.0000 0.0000 0.0000 0.0000 0.0000 0.0000 0.0000 0.0000 0.0000 0.0000 0.0000 0.0000 -79.4972 0.9055 1.0888 -9.9368 -3.4500 5.1764 0.0000 0.0000 0.0000 0.0000 0.0000 0.0000 0.0000 0.0000 0.0000 0.0000 0.0000 0.0000 0.0000 0.0000 0.0000 0.0000 0.0000 0.0000 0.0000 0.0000 0.0000 0.0000 0.0000 0.0000 0.0000 0.0000 0.0000 0.0000 0.0000 0.0000 0.0000 0.0000 0.0000 0.0000 0.0000 0.0000 0.0000 0.0000 0.0000 0.0000 0.0000 0.0000 0.0000 0.0000 0.0000 0.0000 0.0000 0.0000 0.0000 0.0000 0.0000 83.8945 -3.2060 3.5670 -3.0739 8.8052 9.0380 408.0574 27.0512 172.5118 -51.5741 -9.1255 -10.2403 54.1343 0.0000 0.0000 40.2732 0.0000 0.0000 95.6148 -1.7767 8.5427 58.6605 0.0000 0.0000 46.6726 0.0000 0.0000 97.8839 -9.2738 12.8542 59.3045 0.0000 0.0000 40.9084 0.0000 0.0000 100.4499 -9.1141 11.4323 63.5313 0.0000 0.0000 52.0644 0.0000 0.0000 110.9951 -9.3370 10.2178 64.8521 0.0000 0.0000 66.6253 0.0000 0.0000 0.0000 0.0000 0.0000 0.0000 0.0000 0.0000 0.0000 0.0000 0.0000 0.0000 0.0000 0.0000 0.0000 0.0000 0.0000 0.0000 0.0000 0.0000
0.0000 95.0000 0.0000 0.0000 0.0000 0.0000 0.0000 0.0000 0.0000 0.0000 0.0000 0.0000 0.0000 0.0000 0.0000 0.0000 0.0000 0.0000 0.0000 0.0000 0.0000 0.0000 0.0000 0.0000 -79.5222 0.9980 1.1995 -9.8378 -3.4158 5.1346 0.0000 0.0000 0.0000 0.0000 0.0000 0.0000 0.0000 0.0000 0.0000 0.0000 0.0000 0.0000 0.0000 0.0000 0.0000 0.0000 0.0000 0.0000 0.0000 0.0000 0.0000 0.0000 0.0000 0.0000 0.0000 0.0000 0.0000 0.0000 0.0000 0.0000 0.0000 0.0000 0.0000 0.0000 0.0000 0.0000 0.0000 0.0000 0.0000 0.0000 0.0000 0.0000 0.0000 0.0000 0.0000 0.0000 0.0000 0.0000 0.0000 0.0000 0.0000 83.9631 -3.1545 3.5055 -2.8925 8.5936 8.8499 408.3996 26.8239 172.9154 -51.5741 -9.1255 -10.2403 54.1343 0.0000 0.0000 40.2732 0.0000 0.0000 95.6148 -1.7767 8.5427 58.6605 0.0000 0.0000 46.6726 0.0000 0.0000 97.8839 -9.2738 12.8542 59.3045 0.0000 0.0000 40.9084 0.0000 0.0000 100.4499 -9.1141 11.4323 63.5313 0.0000 0.0000 52.0644 0.0000 0.0000 110.9951 -9.3370 10.2178 64.8521 0.0000 0.0000 66.6253 0.0000 0.0000 0.0000 0.0000 0.0000 0.0000 0.0000 0.0000 0.0000 0.0000 0.0000 0.0000 0.0000 0.0000 0.0000 0.0000 0.0000 0.0000 0.0000 0.0000
0.0000 95.0000 0.0000 0.0000 0.0000 0.0000 0.0000 0.0000 0.0000 0.0000 0.0000 0.0000 0.0000 0.0000 0.0000 0.0000 0.0000 0.0000 0.0000 0.0000 0.0000 0.0000 0.0000 0.0000 -79.5860 0.8839 1.0612 -9.8558 -3.6514 5.4418 0.0000 0.0000 0.0000 0.0000 0.0000 0.0000 0.0000 0.0000 0.0000 0.0000 0.0000 0.0000 0.0000 0.0000 0.0000 0.0000 0.0000 0.0000 0.0000 0.0000 0.0000 0.0000 0.0000 0.0000 0.0000 0.0000 0.0000 0.0000 0.0000 0.0000 0.0000 0.0000 0.0000 0.0000 0.0000 0.0000 0.0000 0.0000 0.0000 0.0000 0.0000 0.0000 0.0000 0.0000 0.0000 0.0000 0.0000 0.0000 0.0000 0.0000 0.0000 84.1251 -3.0960 3.4307 -2.9964 8.5831 8.7966 408.4771 26.7346 173.0516 -51.5741 -9.1255 -10.2403 54.1343 0.0000 0.0000 40.2732 0.0000 0.0000 95.6148 -1.7767 8.5427 58.6605 0.0000 0.0000 46.6726 0.0000 0.0000 97.8839 -9.2738 12.8542 59.3045 0.0000 0.0000 40.9084 0.0000 0.0000 100.4499 -9.1141 11.4323 63.5313 0.0000 0.0000 52.0644 0.0000 0.0000 110.9951 -9.3370 10.2178 64.8521 0.0000 0.0000 66.6253 0.0000 0.0000 0.0000 0.0000 0.0000 0.0000 0.0000 0.0000 0.0000 0.0000 0.0000 0.0000 0.0000 0.0000 0.0000 0.0000 0.0000 0.0000 0.0000 0.0000
0.0000 95.0000 0.0000 0.0000 0.0000 0.0000 0.0000 0.0000 0.0000 0.0000 0.0000 0.0000 0.0000 0.0000 0.0000 0.0000 0.0000 0.0000 0.0000 0.0000 0.0000 0.0000 0.0000 0.0000 -79.5690 0.8632 1.0366 -10.0046 -3.6926 5.5157 0.0000 0.0000 0.0000 0.0000 0.0000 0.0000 0.0000 0.0000 0.0000 0.0000 0.0000 0.0000 0.0000 0.0000 0.0000 0.0000 0.0000 0.0000 0.0000 0.0000 0.0000 0.0000 0.0000 0.0000 0.0000 0.0000 0.0000 0.0000 0.0000 0.0000 0.0000 0.0000 0.0000 0.0000 0.0000 0.0000 0.0000 0.0000 0.0000 0.0000 0.0000 0.0000 0.0000 0.0000 0.0000 0.0000 0.0000 0.0000 0.0000 0.0000 0.0000 84.0733 -3.0910 3.4283 -2.9592 8.5034 8.7297 408.4830 26.6653 173.1370 -51.5741 -9.1255 -10.2403 54.1343 0.0000 0.0000 40.2732 0.0000 0.0000 95.6148 -1.7767 8.5427 58.6605 0.0000 0.0000 46.6726 0.0000 0.0000 97.8839 -9.2738 12.8542 59.3045 0.0000 0.0000 40.9084 0.0000 0.0000 100.4499 -9.1141 11.4323 63.5313 0.0000 0.0000 52.0644 0.0000 0.0000 110.9951 -9.3370 10.2178 64.8521 0.0000 0.0000 66.6253 0.0000 0.0000 0.0000 0.0000 0.0000 0.0000 0.0000 0.0000 0.0000 0.0000 0.0000 0.0000 0.0000 0.0000 0.0000 0.0000 0.0000 0.0000 0.0000 0.0000
0.0000 95.0000 0.0000 0.0000 0.0000 0.0000 0.0000 0.0000 0.0000 0.0000 0.0000 0.0000 0.0000 0.0000 0.0000 0.0000 0.0000 0.0000 0.0000 0.0000 0.0000 0.0000 0.0000 0.0000 -79.7549 0.8053 0.9638 -9.7798 -3.5416 5.2412 0.0000 0.0000 0.0000 0.0000 0.0000 0.0000 0.0000 0.0000 0.0000 0.0000 0.0000 0.0000 0.0000 0.0000 0.0000 0.0000 0.0000 0.0000 0.0000 0.0000 0.0000 0.0000 0.0000 0.0000 0.0000 0.0000 0.0000 0.0000 0.0000 0.0000 0.0000 0.0000 0.0000 0.0000 0.0000 0.0000 0.0000 0.0000 0.0000 0.0000 0.0000 0.0000 0.0000 0.0000 0.0000 0.0000 0.0000 0.0000 0.0000 0.0000 0.0000 84.0120 -2.9818 3.3108 -3.2802 8.8124 9.0010 407.9815 26.8190 172.7635 -51.5741 -9.1255 -10.2403 54.1343 0.0000 0.0000 40.2732 0.0000 0.0000 95.6148 -1.7767 8.5427 58.6605 0.0000 0.0000 46.6726 0.0000 0.0000 97.8839 -9.2738 12.8542 59.3045 0.0000 0.0000 40.9084 0.0000 0.0000 100.4499 -9.1141 11.4323 63.5313 0.0000 0.0000 52.0644 0.0000 0.0000 110.9951 -9.3370 10.2178 64.8521 0.0000 0.0000 66.6253 0.0000 0.0000 0.0000 0.0000 0.0000 0.0000 0.0000 0.0000 0.0000 0.0000 0.0000 0.0000 0.0000 0.0000 0.0000 0.0000 0.0000 0.0000 0.0000 0.0000
0.0000 95.0000 0.0000 0.0000 0.0000 0.0000 0.0000 0.0000 0.0000 0.0000 0.0000 0.0000 0.0000 0.0000 0.0000 0.0000 0.0000 0.0000 0.0000 0.0000 0.0000 0.0000 0.0000 0.0000 -79.5709 0.8735 1.0490 -10.0054 -3.2771 4.9214 0.0000 0.0000 0.0000 0.0000 0.0000 0.0000 0.0000 0.0000 0.0000 0.0000 0.0000 0.0000 0.0000 0.0000 0.0000 0.0000 0.0000 0.0000 0.0000 0.0000 0.0000 0.0000 0.0000 0.0000 0.0000 0.0000 0.0000 0.0000 0.0000 0.0000 0.0000 0.0000 0.0000 0.0000 0.0000 0.0000 0.0000 0.0000 0.0000 0.0000 0.0000 0.0000 0.0000 0.0000 0.0000 0.0000 0.0000 0.0000 0.0000 0.0000 0.0000 83.9984 -3.0147 3.3481 -3.5434 8.9528 9.0892 407.6364 26.9484 172.4749 -51.5741 -9.1255 -10.2403 54.1343 0.0000 0.0000 40.2732 0.0000 0.0000 95.6148 -1.7767 8.5427 58.6605 0.0000 0.0000 46.6726 0.0000 0.0000 97.8839 -9.2738 12.8542 59.3045 0.0000 0.0000 40.9084 0.0000 0.0000 100.4499 -9.1141 11.4323 63.5313 0.0000 0.0000 52.0644 0.0000 0.0000 110.9951 -9.3370 10.2178 64.8521 0.0000 0.0000 66.6253 0.0000 0.0000 0.0000 0.0000 0.0000 0.0000 0.0000 0.0000 0.0000 0.0000 0.0000 0.0000 0.0000 0.0000 0.0000 0.0000 0.0000 0.0000 0.0000 0.0000
