HIERARCHY
ROOT Hips
{
  OFFSET 0.000000 95.000000 0.000000
  CHANNELS 6 Xposition Yposition Zposition Zrotation Xrotation Yrotation
  JOINT Spine
  {
    OFFSET 0.000000 10.000000 0.000000
    CHANNELS 3 Zrotation Xrotation Yrotation
    JOINT Spine1
    {
      OFFSET 0.000000 12.000000 0.000000
      CHANNELS 3 Zrotation Xrotation Yrotation
      JOINT Spine2
      {
        OFFSET 0.000000 12.000000 0.000000
        CHANNELS 3 Zrotation Xrotation Yrotation
        JOINT Neck
        {
          OFFSET 0.000000 10.000000 0.000000
          CHANNELS 3 Zrotation Xrotation Yrotation
          JOINT Head
          {
            OFFSET 0.000000 8.000000 0.000000
            CHANNELS 3 Zrotation Xrotation Yrotation
            End Site
            {
              OFFSET 0.000000 10.000000 0.000000
            }
          }
        }
        JOINT LeftShoulder
        {
          OFFSET 6.000000 8.000000 0.000000
          CHANNELS 3 Zrotation Xrotation Yrotation
          JOINT LeftArm
          {
            OFFSET 12.000000 0.000000 0.000000
            CHANNELS 3 Zrotation Xrotation Yrotation
            JOINT LeftForeArm
            {
              OFFSET 24.000000 0.000000 0.000000
              CHANNELS 3 Zrotation Xrotation Yrotation
              JOINT LeftHand
              {
                OFFSET 22.000000 0.000000 0.000000
                CHANNELS 3 Zrotation Xrotation Yrotation
                JOINT LeftHandThumb1
                {
                  OFFSET 1.800000 -1.400000 0.500000
                  CHANNELS 3 Zrotation Xrotation Yrotation
                  JOINT LeftHandThumb2
                  {
                    OFFSET 2.400000 0.000000 0.000000
                    CHANNELS 3 Zrotation Xrotation Yrotation
                    JOINT LeftHandThumb3
                    {
                      OFFSET 1.900000 0.000000 0.000000
                      CHANNELS 3 Zrotation Xrotation Yrotation
                      End Site
                      {
                        OFFSET 1.600000 0.000000 0.000000
                      }
                    }
                  }
                }
                JOINT LeftHandIndex1
                {
                  OFFSET 6.600000 1.200000 0.300000
                  CHANNELS 3 Zrotation Xrotation Yrotation
                  JOINT LeftHandIndex2
                  {
                    OFFSET 2.000000 0.000000 0.000000
                    CHANNELS 3 Zrotation Xrotation Yrotation
                    JOINT LeftHandIndex3
                    {
                      OFFSET 1.200000 0.000000 0.000000
                      CHANNELS 3 Zrotation Xrotation Yrotation
                      End Site
                      {
                        OFFSET 1.000000 0.000000 0.000000
                      }
                    }
                  }
                }
                JOINT LeftHandMiddle1
                {
                  OFFSET 7.200000 0.000000 0.300000
                  CHANNELS 3 Zrotation Xrotation Yrotation
                  JOINT LeftHandMiddle2
                  {
                    OFFSET 3.000000 0.000000 0.000000
                    CHANNELS 3 Zrotation Xrotation Yrotation
                    JOINT LeftHandMiddle3
                    {
                      OFFSET 2.000000 0.000000 0.000000
                      CHANNELS 3 Zrotation Xrotation Yrotation
                      End Site
                      {
                        OFFSET 1.600000 0.000000 0.000000
                      }
                    }
                  }
                }
                JOINT LeftHandRing1
                {
                  OFFSET 7.100000 -1.000000 0.400000
                  CHANNELS 3 Zrotation Xrotation Yrotation
                  JOINT LeftHandRing2
                  {
                    OFFSET 2.600000 0.000000 0.000000
                    CHANNELS 3 Zrotation Xrotation Yrotation
                    JOINT LeftHandRing3
                    {
                      OFFSET 1.600000 0.000000 0.000000
                      CHANNELS 3 Zrotation Xrotation Yrotation
                      End Site
                      {
                        OFFSET 1.300000 0.000000 0.000000
                      }
                    }
                  }
                }
                JOINT LeftHandPinky1
                {
                  OFFSET 6.500000 -2.000000 0.500000
                  CHANNELS 3 Zrotation Xrotation Yrotation
                  JOINT LeftHandPinky2
                  {
                    OFFSET 1.900000 0.000000 0.000000
                    CHANNELS 3 Zrotation Xrotation Yrotation
                    JOINT LeftHandPinky3
                    {
                      OFFSET 1.400000 0.000000 0.000000
                      CHANNELS 3 Zrotation Xrotation Yrotation
                      End Site
                      {
                        OFFSET 1.300000 0.000000 0.000000
                      }
                    }
                  }
                }
              }
            }
          }
        }
        JOINT RightShoulder
        {
          OFFSET -6.000000 8.000000 0.000000
          CHANNELS 3 Zrotation Xrotation Yrotation
          JOINT RightArm
          {
            OFFSET -12.000000 0.000000 0.000000
            CHANNELS 3 Zrotation Xrotation Yrotation
            JOINT RightForeArm
            {
              OFFSET -24.000000 0.000000 0.000000
              CHANNELS 3 Zrotation Xrotation Yrotation
              JOINT RightHand
              {
                OFFSET -22.000000 0.000000 0.000000
                CHANNELS 3 Zrotation Xrotation Yrotation
                JOINT RightHandThumb1
                {
                  OFFSET -1.800000 -1.400000 0.500000
                  CHANNELS 3 Zrotation Xrotation Yrotation
                  JOINT RightHandThumb2
                  {
                    OFFSET -2.400000 0.000000 0.000000
                    CHANNELS 3 Zrotation Xrotation Yrotation
                    JOINT RightHandThumb3
                    {
                      OFFSET -1.900000 0.000000 0.000000
                      CHANNELS 3 Zrotation Xrotation Yrotation
                      End Site
                      {
                        OFFSET -1.600000 0.000000 0.000000
                      }
                    }
                  }
                }
                JOINT RightHandIndex1
                {
                  OFFSET -6.600000 1.200000 0.300000
                  CHANNELS 3 Zrotation Xrotation Yrotation
                  JOINT RightHandIndex2
                  {
                    OFFSET -2.000000 0.000000 0.000000
                    CHANNELS 3 Zrotation Xrotation Yrotation
                    JOINT RightHandIndex3
                    {
                      OFFSET -1.200000 0.000000 0.000000
                      CHANNELS 3 Zrotation Xrotation Yrotation
                      End Site
                      {
                        OFFSET -1.000000 0.000000 0.000000
                      }
                    }
                  }
                }
                JOINT RightHandMiddle1
                {
                  OFFSET -7.200000 0.000000 0.300000
                  CHANNELS 3 Zrotation Xrotation Yrotation
                  JOINT RightHandMiddle2
                  {
                    OFFSET -3.000000 0.000000 0.000000
                    CHANNELS 3 Zrotation Xrotation Yrotation
                    JOINT RightHandMiddle3
                    {
                      OFFSET -2.000000 0.000000 0.000000
                      CHANNELS 3 Zrotation Xrotation Yrotation
                      End Site
                      {
                        OFFSET -1.600000 0.000000 0.000000
                      }
                    }
                  }
                }
                JOINT RightHandRing1
                {
                  OFFSET -7.100000 -1.000000 0.400000
                  CHANNELS 3 Zrotation Xrotation Yrotation
                  JOINT RightHandRing2
                  {
                    OFFSET -2.600000 0.000000 0.000000
                    CHANNELS 3 Zrotation Xrotation Yrotation
                    JOINT RightHandRing3
                    {
                      OFFSET -1.600000 0.000000 0.000000
                      CHANNELS 3 Zrotation Xrotation Yrotation
                      End Site
                      {
                        OFFSET -1.300000 0.000000 0.000000
                      }
                    }
                  }
                }
                JOINT RightHandPinky1
                {
                  OFFSET -6.500000 -2.000000 0.500000
                  CHANNELS 3 Zrotation Xrotation Yrotation
                  JOINT RightHandPinky2
                  {
                    OFFSET -1.900000 0.000000 0.000000
                    CHANNELS 3 Zrotation Xrotation Yrotation
                    JOINT RightHandPinky3
                    {
                      OFFSET -1.400000 0.000000 0.000000
                      CHANNELS 3 Zrotation Xrotation Yrotation
                      End Site
                      {
                        OFFSET -1.300000 0.000000 0.000000
                      }
                    }
                  }
                }
              }
            }
          }
        }
      }
    }
  }
  JOINT LeftUpLeg
  {
    OFFSET 10.000000 -5.000000 0.000000
    CHANNELS 3 Zrotation Xrotation Yrotation
    JOINT LeftLeg
    {
      OFFSET 0.000000 -42.000000 0.000000
      CHANNELS 3 Zrotation Xrotation Yrotation
      JOINT LeftFoot
      {
        OFFSET 0.000000 -42.000000 4.000000
        CHANNELS 3 Zrotation Xrotation Yrotation
        End Site
        {
          OFFSET 0.000000 0.000000 12.000000
        }
      }
    }
  }
  JOINT RightUpLeg
  {
    OFFSET -10.000000 -5.000000 0.000000
    CHANNELS 3 Zrotation Xrotation Yrotation
    JOINT RightLeg
    {
      OFFSET 0.000000 -42.000000 0.000000
      CHANNELS 3 Zrotation Xrotation Yrotation
      JOINT RightFoot
      {
        OFFSET 0.000000 -42.000000 4.000000
        CHANNELS 3 Zrotation Xrotation Yrotation
        End Site
        {
          OFFSET 0.000000 0.000000 12.000000
        }
      }
    }
  }
}
MOTION
Frames: 60
Frame Time: 0.033333
0.0000 95.0000 0.0000 0.0000 0.0000 0.0000 0.0000 0.0000 0.0000 0.0000 0.0000 0.0000 0.0000 0.0000 0.0000 0.0000 0.0000 0.0000 0.0000 0.0000 0.0000 0.0000 0.0000 0.0000 -79.7787 7.3895 8.8358 -2.5905 -2.2359 3.1781 -166.3541 37.9993 -179.9912 40.8243 -6.4292 9.0743 6.2222 0.0000 0.0000 3.1262 0.0000 0.0000 -6.0841 -0.2519 4.1231 3.7899 0.0000 0.0000 1.1541 0.0000 0.0000 5.4125 -0.3443 2.5024 4.0233 0.0000 0.0000 1.7998 0.0000 0.0000 13.4675 -0.6960 2.4385 2.0686 0.0000 0.0000 2.1041 0.0000 0.0000 21.9213 -1.3120 2.8000 1.6999 0.0000 0.0000 1.2173 0.0000 0.0000 0.0000 0.0000 0.0000 88.4351 -1.1959 1.2290 -3.2717 9.7770 9.4047 169.2508 14.1398 171.9155 -55.0509 -10.1635 -9.7527 15.7189 0.0000 0.0000 1.7332 0.0000 0.0000 0.6106 -1.1817 -6.8335 6.7966 0.0000 0.0000 1.5110 0.0000 0.0000 -10.9257 -0.8019 -3.5982 7.6948 0.0000 0.0000 1.0028 0.0000 0.0000 -18.6108 -1.1552 -5.2585 10.4931 0.0000 0.0000 2.3692 0.0000 0.0000 -25.9734 -1.4683 -6.0451 10.0600 0.0000 0.0000 3.9365 0.0000 0.0000 0.0000 0.0000 0.0000 0.0000 0.0000 0.0000 0.0000 0.0000 0.0000 0.0000 0.0000 0.0000 0.0000 0.0000 0.0000 0.0000 0.0000 0.0000
0.0000 95.0000 0.0000 0.0000 0.0000 0.0000 0.0000 0.0000 0.0000 0.0000 0.0000 0.0000 0.0000 0.0000 0.0000 0.0000 0.0000 0.0000 0.0000 0.0000 0.0000 0.0000 0.0000 0.0000 -80.1929 7.2794 8.6408 -2.5748 -2.1549 3.0470 -166.8296 38.2837 -180.0391 40.8243 -6.4292 9.0743 6.2222 0.0000 0.0000 3.1262 0.0000 0.0000 -6.0841 -0.2519 4.1231 3.7899 0.0000 0.0000 1.1541 0.0000 0.0000 5.4125 -0.3443 2.5024 4.0233 0.0000 0.0000 1.7998 0.0000 0.0000 13.4675 -0.6960 2.4385 2.0686 0.0000 0.0000 2.1041 0.0000 0.0000 21.9213 -1.3120 2.8000 1.6999 0.0000 0.0000 1.2173 0.0000 0.0000 0.0000 0.0000 0.0000 88.3688 -1.2663 1.3028 -3.3564 9.5568 9.1817 169.1563 13.9961 172.0575 -55.0509 -10.1635 -9.7527 15.7189 0.0000 0.0000 1.7332 0.0000 0.0000 0.6106 -1.1817 -6.8335 6.7966 0.0000 0.0000 1.5110 0.0000 0.0000 -10.9257 -0.8019 -3.5982 7.6948 0.0000 0.0000 1.0028 0.0000 0.0000 -18.6108 -1.1552 -5.2585 10.4931 0.0000 0.0000 2.3692 0.0000 0.0000 -25.9734 -1.4683 -6.0451 10.0600 0.0000 0.0000 3.9365 0.0000 0.0000 0.0000 0.0000 0.0000 0.0000 0.0000 0.0000 0.0000 0.0000 0.0000 0.0000 0.0000 0.0000 0.0000 0.0000 0.0000 0.0000 0.0000 0.0000
0.0000 95.0000 0.0000 0.0000 0.0000 0.0000 0.0000 0.0000 0.0000 0.0000 0.0000 0.0000 0.0000 0.0000 0.0000 0.0000 0.0000 0.0000 0.0000 0.0000 0.0000 0.0000 0.0000 0.0000 -79.4606 7.3728 8.8656 -3.5689 -2.2747 3.4566 -167.1853 37.8925 -180.7521 40.8243 -6.4292 9.0743 6.2222 0.0000 0.0000 3.1262 0.0000 0.0000 -6.0841 -0.2519 4.1231 3.7899 0.0000 0.0000 1.1541 0.0000 0.0000 5.4125 -0.3443 2.5024 4.0233 0.0000 0.0000 1.7998 0.0000 0.0000 13.4675 -0.6960 2.4385 2.0686 0.0000 0.0000 2.1041 0.0000 0.0000 21.9213 -1.3120 2.8000 1.6999 0.0000 0.0000 1.2173 0.0000 0.0000 0.0000 0.0000 0.0000 88.0241 -1.3604 1.4081 -2.8425 9.2166 8.9912 169.3971 13.8494 172.2697 -55.0509 -10.1635 -9.7527 15.7189 0.0000 0.0000 1.7332 0.0000 0.0000 0.6106 -1.1817 -6.8335 6.7966 0.0000 0.0000 1.5110 0.0000 0.0000 -10.9257 -0.8019 -3.5982 7.6948 0.0000 0.0000 1.0028 0.0000 0.0000 -18.6108 -1.1552 -5.2585 10.4931 0.0000 0.0000 2.3692 0.0000 0.0000 -25.9734 -1.4683 -6.0451 10.0600 0.0000 0.0000 3.9365 0.0000 0.0000 0.0000 0.0000 0.0000 0.0000 0.0000 0.0000 0.0000 0.0000 0.0000 0.0000 0.0000 0.0000 0.0000 0.0000 0.0000 0.0000 0.0000 0.0000
0.0000 95.0000 0.0000 0.0000 0.0000 0.0000 0.0000 0.0000 0.0000 0.0000 0.0000 0.0000 0.0000 0.0000 0.0000 0.0000 0.0000 0.0000 0.0000 0.0000 0.0000 0.0000 0.0000 0.0000 -79.0728 7.6937 9.3146 -4.0503 -2.2451 3.5764 -167.3732 37.4894 -181.3470 40.8243 -6.4292 9.0743 6.2222 0.0000 0.0000 3.1262 0.0000 0.0000 -6.0841 -0.2519 4.1231 3.7899 0.0000 0.0000 1.1541 0.0000 0.0000 5.4125 -0.3443 2.5024 4.0233 0.0000 0.0000 1.7998 0.0000 0.0000 13.4675 -0.6960 2.4385 2.0686 0.0000 0.0000 2.1041 0.0000 0.0000 21.9213 -1.3120 2.8000 1.6999 0.0000 0.0000 1.2173 0.0000 0.0000 0.0000 0.0000 0.0000 87.8908 -1.2924 1.3409 -2.8018 8.9683 8.7794 169.3772 13.5682 172.5802 -55.0509 -10.1635 -9.7527 15.7189 0.0000 0.0000 1.7332 0.0000 0.0000 0.6106 -1.1817 -6.8335 6.7966 0.0000 0.0000 1.5110 0.0000 0.0000 -10.9257 -0.8019 -3.5982 7.6948 0.0000 0.0000 1.0028 0.0000 0.0000 -18.6108 -1.1552 -5.2585 10.4931 0.0000 0.0000 2.3692 0.0000 0.0000 -25.9734 -1.4683 -6.0451 10.0600 0.0000 0.0000 3.9365 0.0000 0.0000 0.0000 0.0000 0.0000 0.0000 0.0000 0.0000 0.0000 0.0000 0.0000 0.0000 0.0000 0.0000 0.0000 0.0000 0.0000 0.0000 0.0000 0.0000
0.0000 95.0000 0.0000 0.0000 0.0000 0.0000 0.0000 0.0000 0.0000 0.0000 0.0000 0.0000 0.0000 0.0000 0.0000 0.0000 0.0000 0.0000 0.0000 0.0000 0.0000 0.0000 0.0000 0.0000 -79.0431 7.8368 9.4925 -4.2512 -2.3434 3.7628 -167.6030 37.2145 -181.8281 40.8243 -6.4292 9.0743 6.2222 0.0000 0.0000 3.1262 0.0000 0.0000 -6.0841 -0.2519 4.1231 3.7899 0.0000 0.0000 1.1541 0.0000 0.0000 5.4125 -0.3443 2.5024 4.0233 0.0000 0.0000 1.7998 0.0000 0.0000 13.4675 -0.6960 2.4385 2.0686 0.0000 0.0000 2.1041 0.0000 0.0000 21.9213 -1.3120 2.8000 1.6999 0.0000 0.0000 1.2173 0.0000 0.0000 0.0000 0.0000 0.0000 87.7160 -1.3232 1.3770 -2.9234 8.9092 8.7243 169.0883 13.5359 172.5609 -55.0509 -10.1635 -9.7527 15.7189 0.0000 0.0000 1.7332 0.0000 0.0000 0.6106 -1.1817 -6.8335 6.7966 0.0000 0.0000 1.5110 0.0000 0.0000 -10.9257 -0.8019 -3.5982 7.6948 0.0000 0.0000 1.0028 0.0000 0.0000 -18.6108 -1.1552 -5.2585 10.4931 0.0000 0.0000 2.3692 0.0000 0.0000 -25.9734 -1.4683 -6.0451 10.0600 0.0000 0.0000 3.9365 0.0000 0.0000 0.0000 0.0000 0.0000 0.0000 0.0000 0.0000 0.0000 0.0000 0.0000 0.0000 0.0000 0.0000 0.0000 0.0000 0.0000 0.0000 0.0000 0.0000
0.0000 95.0000 0.0000 0.0000 0.0000 0.0000 0.0000 0.0000 0.0000 0.0000 0.0000 0.0000 0.0000 0.0000 0.0000 0.0000 0.0000 0.0000 0.0000 0.0000 0.0000 0.0000 0.0000 0.0000 -79.2267 8.0345 9.7001 -4.6197 -2.6994 4.3127 -168.2697 36.6267 -182.9789 40.8243 -6.4292 9.0743 6.2222 0.0000 0.0000 3.1262 0.0000 0.0000 -6.0841 -0.2519 4.1231 3.7899 0.0000 0.0000 1.1541 0.0000 0.0000 5.4125 -0.3443 2.5024 4.0233 0.0000 0.0000 1.7998 0.0000 0.0000 13.4675 -0.6960 2.4385 2.0686 0.0000 0.0000 2.1041 0.0000 0.0000 21.9213 -1.3120 2.8000 1.6999 0.0000 0.0000 1.2173 0.0000 0.0000 0.0000 0.0000 0.0000 87.5418 -1.3069 1.3642 -2.8588 8.7997 8.6549 169.0038 13.4352 172.6578 -55.0509 -10.1635 -9.7527 15.7189 0.0000 0.0000 1.7332 0.0000 0.0000 0.6106 -1.1817 -6.8335 6.7966 0.0000 0.0000 1.5110 0.0000 0.0000 -10.9257 -0.8019 -3.5982 7.6948 0.0000 0.0000 1.0028 0.0000 0.0000 -18.6108 -1.1552 -5.2585 10.4931 0.0000 0.0000 2.3692 0.0000 0.0000 -25.9734 -1.4683 -6.0451 10.0600 0.0000 0.0000 3.9365 0.0000 0.0000 0.0000 0.0000 0.0000 0.0000 0.0000 0.0000 0.0000 0.0000 0.0000 0.0000 0.0000 0.0000 0.0000 0.0000 0.0000 0.0000 0.0000 0.0000
0.0000 95.0000 0.0000 0.0000 0.0000 0.0000 0.0000 0.0000 0.0000 0.0000 0.0000 0.0000 0.0000 0.0000 0.0000 0.0000 0.0000 0.0000 0.0000 0.0000 0.0000 0.0000 0.0000 0.0000 -78.9585 8.3478 10.1257 -4.7319 -2.6769 4.3622 -168.1342 36.2518 -183.2967 40.8243 -6.4292 9.0743 6.2222 0.0000 0.0000 3.1262 0.0000 0.0000 -6.0841 -0.2519 4.1231 3.7899 0.0000 0.0000 1.1541 0.0000 0.0000 5.4125 -0.3443 2.5024 4.0233 0.0000 0.0000 1.7998 0.0000 0.0000 13.4675 -0.6960 2.4385 2.0686 0.0000 0.0000 2.1041 0.0000 0.0000 21.9213 -1.3120 2.8000 1.6999 0.0000 0.0000 1.2173 0.0000 0.0000 0.0000 0.0000 0.0000 87.6851 -1.0710 1.1152 -3.0564 8.7841 8.6000 168.9840 13.1731 172.9490 -55.0509 -10.1635 -9.7527 15.7189 0.0000 0.0000 1.7332 0.0000 0.0000 0.6106 -1.1817 -6.8335 6.7966 0.0000 0.0000 1.5110 0.0000 0.0000 -10.9257 -0.8019 -3.5982 7.6948 0.0000 0.0000 1.0028 0.0000 0.0000 -18.6108 -1.1552 -5.2585 10.4931 0.0000 0.0000 2.3692 0.0000 0.0000 -25.9734 -1.4683 -6.0451 10.0600 0.0000 0.0000 3.9365 0.0000 0.0000 0.0000 0.0000 0.0000 0.0000 0.0000 0.0000 0.0000 0.0000 0.0000 0.0000 0.0000 0.0000 0.0000 0.0000 0.0000 0.0000 0.0000 0.0000
0.0000 95.0000 0.0000 0.0000 0.0000 0.0000 0.0000 0.0000 0.0000 0.0000 0.0000 0.0000 0.0000 0.0000 0.0000 0.0000 0.0000 0.0000 0.0000 0.0000 0.0000 0.0000 0.0000 0.0000 -78.5876 9.3078 11.3621 -5.2885 -3.1380 5.2402 -168.4166 34.5721 -185.3730 40.8243 -6.4292 9.0743 6.2222 0.0000 0.0000 3.1262 0.0000 0.0000 -6.0841 -0.2519 4.1231 3.7899 0.0000 0.0000 1.1541 0.0000 0.0000 5.4125 -0.3443 2.5024 4.0233 0.0000 0.0000 1.7998 0.0000 0.0000 13.4675 -0.6960 2.4385 2.0686 0.0000 0.0000 2.1041 0.0000 0.0000 21.9213 -1.3120 2.8000 1.6999 0.0000 0.0000 1.2173 0.0000 0.0000 0.0000 0.0000 0.0000 87.2638 -0.9347 0.9804 -2.4221 8.5970 8.5917 169.2419 12.9614 173.2339 -55.0509 -10.1635 -9.7527 15.7189 0.0000 0.0000 1.7332 0.0000 0.0000 0.6106 -1.1817 -6.8335 6.7966 0.0000 0.0000 1.5110 0.0000 0.0000 -10.9257 -0.8019 -3.5982 7.6948 0.0000 0.0000 1.0028 0.0000 0.0000 -18.6108 -1.1552 -5.2585 10.4931 0.0000 0.0000 2.3692 0.0000 0.0000 -25.9734 -1.4683 -6.0451 10.0600 0.0000 0.0000 3.9365 0.0000 0.0000 0.0000 0.0000 0.0000 0.0000 0.0000 0.0000 0.0000 0.0000 0.0000 0.0000 0.0000 0.0000 0.0000 0.0000 0.0000 0.0000 0.0000 0.0000
0.0000 95.0000 0.0000 0.0000 0.0000 0.0000 0.0000 0.0000 0.0000 0.0000 0.0000 0.0000 0.0000 0.0000 0.0000 0.0000 0.0000 0.0000 0.0000 0.0000 0.0000 0.0000 0.0000 0.0000 -78.6749 9.0695 11.0547 -4.9665 -2.9863 4.9176 -168.1337 35.0521 -184.6359 40.8243 -6.4292 9.0743 6.2222 0.0000 0.0000 3.1262 0.0000 0.0000 -6.0841 -0.2519 4.1231 3.7899 0.0000 0.0000 1.1541 0.0000 0.0000 5.4125 -0.3443 2.5024 4.0233 0.0000 0.0000 1.7998 0.0000 0.0000 13.4675 -0.6960 2.4385 2.0686 0.0000 0.0000 2.1041 0.0000 0.0000 21.9213 -1.3120 2.8000 1.6999 0.0000 0.0000 1.2173 0.0000 0.0000 0.0000 0.0000 0.0000 87.3572 -0.6209 0.6502 -2.5680 8.2986 8.2739 169.3005 12.3690 173.9069 -55.0509 -10.1635 -9.7527 15.7189 0.0000 0.0000 1.7332 0.0000 0.0000 0.6106 -1.1817 -6.8335 6.7966 0.0000 0.0000 1.5110 0.0000 0.0000 -10.9257 -0.8019 -3.5982 7.6948 0.0000 0.0000 1.0028 0.0000 0.0000 -18.6108 -1.1552 -5.2585 10.4931 0.0000 0.0000 2.3692 0.0000 0.0000 -25.9734 -1.4683 -6.0451 10.0600 0.0000 0.0000 3.9365 0.0000 0.0000 0.0000 0.0000 0.0000 0.0000 0.0000 0.0000 0.0000 0.0000 0.0000 0.0000 0.0000 0.0000 0.0000 0.0000 0.0000 0.0000 0.0000 0.0000
0.0000 95.0000 0.0000 0.0000 0.0000 0.0000 0.0000 0.0000 0.0000 0.0000 0.0000 0.0000 0.0000 0.0000 0.0000 0.0000 0.0000 0.0000 0.0000 0.0000 0.0000 0.0000 0.0000 0.0000 -79.1374 8.1881 9.9009 -4.4390 -2.8895 4.5308 -167.9353 36.2490 -183.1541 40.8243 -6.4292 9.0743 6.2222 0.0000 0.0000 3.1262 0.0000 0.0000 -6.0841 -0.2519 4.1231 3.7899 0.0000 0.0000 1.1541 0.0000 0.0000 5.4125 -0.3443 2.5024 4.0233 0.0000 0.0000 1.7998 0.0000 0.0000 13.4675 -0.6960 2.4385 2.0686 0.0000 0.0000 2.1041 0.0000 0.0000 21.9213 -1.3120 2.8000 1.6999 0.0000 0.0000 1.2173 0.0000 0.0000 0.0000 0.0000 0.0000 87.5090 -0.9309 0.9723 -2.8192 8.2770 8.1725 169.1844 12.6069 173.6207 -55.0509 -10.1635 -9.7527 15.7189 0.0000 0.0000 1.7332 0.0000 0.0000 0.6106 -1.1817 -6.8335 6.7966 0.0000 0.0000 1.5110 0.0000 0.0000 -10.9257 -0.8019 -3.5982 7.6948 0.0000 0.0000 1.0028 0.0000 0.0000 -18.6108 -1.1552 -5.2585 10.4931 0.0000 0.0000 2.3692 0.0000 0.0000 -25.9734 -1.4683 -6.0451 10.0600 0.0000 0.0000 3.9365 0.0000 0.0000 0.0000 0.0000 0.0000 0.0000 0.0000 0.0000 0.0000 0.0000 0.0000 0.0000 0.0000 0.0000 0.0000 0.0000 0.0000 0.0000 0.0000 0.0000
0.0000 95.0000 0.0000 0.0000 0.0000 0.0000 0.0000 0.0000 0.0000 0.0000 0.0000 0.0000 0.0000 0.0000 0.0000 0.0000 0.0000 0.0000 0.0000 0.0000 0.0000 0.0000 0.0000 0.0000 -79.5300 7.8504 9.4275 -4.6119 -1.8035 3.1245 -168.7109 37.8663 -181.9347 40.8243 -6.4292 9.0743 6.2222 0.0000 0.0000 3.1262 0.0000 0.0000 -6.0841 -0.2519 4.1231 3.7899 0.0000 0.0000 1.1541 0.0000 0.0000 5.4125 -0.3443 2.5024 4.0233 0.0000 0.0000 1.7998 0.0000 0.0000 13.4675 -0.6960 2.4385 2.0686 0.0000 0.0000 2.1041 0.0000 0.0000 21.9213 -1.3120 2.8000 1.6999 0.0000 0.0000 1.2173 0.0000 0.0000 0.0000 0.0000 0.0000 87.6136 -0.6561 0.6840 -2.6201 7.9912 7.9214 169.5851 12.0975 174.2570 -55.0509 -10.1635 -9.7527 15.7189 0.0000 0.0000 1.7332 0.0000 0.0000 0.6106 -1.1817 -6.8335 6.7966 0.0000 0.0000 1.5110 0.0000 0.0000 -10.9257 -0.8019 -3.5982 7.6948 0.0000 0.0000 1.0028 0.0000 0.0000 -18.6108 -1.1552 -5.2585 10.4931 0.0000 0.0000 2.3692 0.0000 0.0000 -25.9734 -1.4683 -6.0451 10.0600 0.0000 0.0000 3.9365 0.0000 0.0000 0.0000 0.0000 0.0000 0.0000 0.0000 0.0000 0.0000 0.0000 0.0000 0.0000 0.0000 0.0000 0.0000 0.0000 0.0000 0.0000 0.0000 0.0000
0.0000 95.0000 0.0000 0.0000 0.0000 0.0000 0.0000 0.0000 0.0000 0.0000 0.0000 0.0000 0.0000 0.0000 0.0000 0.0000 0.0000 0.0000 0.0000 0.0000 0.0000 0.0000 0.0000 0.0000 -78.7280 8.0899 9.8535 -5.6883 0.3615 0.5749 -167.2807 59.4397 -177.7132 44.0725 -9.0454 2.7520 10.5448 0.0000 0.0000 3.1029 0.0000 0.0000 -5.3271 -0.0921 2.4763 6.6464 0.0000 0.0000 3.3025 0.0000 0.0000 5.4842 -0.2881 1.2375 9.2502 0.0000 0.0000 3.5537 0.0000 0.0000 13.1813 -0.6943 1.6155 8.5605 0.0000 0.0000 5.8552 0.0000 0.0000 20.7375 -1.3120 1.8318 8.4181 0.0000 0.0000 5.8972 0.0000 0.0000 0.0000 0.0000 0.0000 87.2220 -0.6738 0.7073 0.0233 9.4894 9.9521 171.3963 13.8461 172.6604 -55.0509 -10.1635 -9.7527 15.7189 0.0000 0.0000 1.7332 0.0000 0.0000 0.6106 -1.1817 -6.8335 6.7966 0.0000 0.0000 1.5110 0.0000 0.0000 -10.9257 -0.8019 -3.5982 7.6948 0.0000 0.0000 1.0028 0.0000 0.0000 -18.6108 -1.1552 -5.2585 10.4931 0.0000 0.0000 2.3692 0.0000 0.0000 -25.9734 -1.4683 -6.0451 10.0600 0.0000 0.0000 3.9365 0.0000 0.0000 0.0000 0.0000 0.0000 0.0000 0.0000 0.0000 0.0000 0.0000 0.0000 0.0000 0.0000 0.0000 0.0000 0.0000 0.0000 0.0000 0.0000 0.0000
0.0000 95.0000 0.0000 0.0000 0.0000 0.0000 0.0000 0.0000 0.0000 0.0000 0.0000 0.0000 0.0000 0.0000 0.0000 0.0000 0.0000 0.0000 0.0000 0.0000 0.0000 0.0000 0.0000 0.0000 -77.6113 8.2076 10.1966 -7.0963 2.2019 -1.6855 -170.5934 51.6717 -183.8924 48.5876 -10.3974 0.9357 13.1746 0.0000 0.0000 2.4124 0.0000 0.0000 -6.2880 0.0047 2.2167 0.5590 0.0000 0.0000 1.8416 0.0000 0.0000 2.8252 -0.2711 6.1900 4.0682 0.0000 0.0000 3.1160 0.0000 0.0000 9.7300 -0.1042 7.9614 4.3558 0.0000 0.0000 4.0314 0.0000 0.0000 18.6805 -0.1069 9.3231 3.8420 0.0000 0.0000 3.3801 0.0000 0.0000 0.0000 0.0000 0.0000 86.0281 -0.1227 0.1315 4.4591 10.8327 12.5516 173.0332 28.2234 171.6403 -55.6919 -11.0033 -5.5761 18.1301 0.0000 0.0000 5.7706 0.0000 0.0000 13.5823 0.3700 -3.8703 1.3896 0.0000 0.0000 1.5850 0.0000 0.0000 5.2292 0.3077 -1.9597 3.6018 0.0000 0.0000 1.9330 0.0000 0.0000 -3.9147 0.1316 -3.3053 3.1814 0.0000 0.0000 2.7094 0.0000 0.0000 -14.7893 -0.4690 -3.6942 0.8003 0.0000 0.0000 3.9418 0.0000 0.0000 0.0000 0.0000 0.0000 0.0000 0.0000 0.0000 0.0000 0.0000 0.0000 0.0000 0.0000 0.0000 0.0000 0.0000 0.0000 0.0000 0.0000 0.0000
0.0000 95.0000 0.0000 0.0000 0.0000 0.0000 0.0000 0.0000 0.0000 0.0000 0.0000 0.0000 0.0000 0.0000 0.0000 0.0000 0.0000 0.0000 0.0000 0.0000 0.0000 0.0000 0.0000 0.0000 -74.9815 7.2083 9.3885 -13.9696 4.9369 -5.5134 -167.0968 63.6787 -186.1754 82.4727 -16.2142 -3.2494 25.2197 0.0000 0.0000 18.0844 0.0000 0.0000 -11.8267 -0.5349 13.7566 1.2602 0.0000 0.0000 3.3962 0.0000 0.0000 -4.3802 0.6536 12.1939 2.2526 0.0000 0.0000 3.9348 0.0000 0.0000 1.9523 1.3714 11.8847 3.1908 0.0000 0.0000 3.8605 0.0000 0.0000 10.1079 1.6413 11.1538 4.3641 0.0000 0.0000 2.4892 0.0000 0.0000 0.0000 0.0000 0.0000 84.5001 -1.5254 1.6793 10.5506 19.2514 25.5727 168.0555 47.5717 165.7809 -90.2600 -18.6701 -5.7912 45.1819 0.0000 0.0000 7.1800 0.0000 0.0000 19.8537 0.8353 -7.6534 2.1232 0.0000 0.0000 3.1503 0.0000 0.0000 9.4266 0.5539 -1.9383 3.9730 0.0000 0.0000 4.4443 0.0000 0.0000 2.5398 0.5208 -2.3031 4.8058 0.0000 0.0000 3.9170 0.0000 0.0000 -5.1412 0.6027 -3.8237 4.3617 0.0000 0.0000 1.5222 0.0000 0.0000 0.0000 0.0000 0.0000 0.0000 0.0000 0.0000 0.0000 0.0000 0.0000 0.0000 0.0000 0.0000 0.0000 0.0000 0.0000 0.0000 0.0000 0.0000
0.0000 95.0000 0.0000 0.0000 0.0000 0.0000 0.0000 0.0000 0.0000 0.0000 0.0000 0.0000 0.0000 0.0000 0.0000 0.0000 0.0000 0.0000 0.0000 0.0000 0.0000 0.0000 0.0000 0.0000 -74.7591 2.2206 2.9064 -20.8226 14.1032 -26.1325 -193.3672 80.4077 -210.1630 141.3970 -14.5267 -20.5295 18.5534 0.0000 0.0000 11.7043 0.0000 0.0000 -15.7660 -0.3200 23.7801 7.1315 0.0000 0.0000 6.6932 0.0000 0.0000 -13.8296 3.1715 20.9456 12.0999 0.0000 0.0000 5.7630 0.0000 0.0000 -8.6616 5.0464 20.3570 11.8134 0.0000 0.0000 8.3553 0.0000 0.0000 -1.7417 6.8443 20.2050 10.0723 0.0000 0.0000 4.1918 0.0000 0.0000 0.0000 0.0000 0.0000 83.5620 -4.4293 4.9566 14.9850 36.0037 50.5922 124.9586 62.5349 113.3754 -122.6791 -21.0596 6.0004 46.9296 0.0000 0.0000 11.6077 0.0000 0.0000 21.0336 0.9927 -13.9745 2.3343 0.0000 0.0000 3.6424 0.0000 0.0000 13.4728 1.0694 -4.2635 1.8189 0.0000 0.0000 6.5832 0.0000 0.0000 7.4433 1.2245 -3.8408 4.9674 0.0000 0.0000 6.8101 0.0000 0.0000 -1.7892 0.8860 -3.5110 6.2887 0.0000 0.0000 2.9835 0.0000 0.0000 0.0000 0.0000 0.0000 0.0000 0.0000 0.0000 0.0000 0.0000 0.0000 0.0000 0.0000 0.0000 0.0000 0.0000 0.0000 0.0000 0.0000 0.0000
0.0000 95.0000 0.0000 0.0000 0.0000 0.0000 0.0000 0.0000 0.0000 0.0000 0.0000 0.0000 0.0000 0.0000 0.0000 0.0000 0.0000 0.0000 0.0000 0.0000 0.0000 0.0000 0.0000 0.0000 -74.7909 -0.5608 -0.7336 -33.2663 25.6406 -62.2406 -204.4655 28.3025 -320.4783 42.9550 -5.4353 14.5261 3.2809 0.0000 0.0000 2.6986 0.0000 0.0000 -22.7291 1.1577 7.7882 14.7238 0.0000 0.0000 7.8577 0.0000 0.0000 -12.4989 2.0144 13.4690 23.4478 0.0000 0.0000 9.6832 0.0000 0.0000 -3.8193 2.9944 15.6469 22.3232 0.0000 0.0000 12.7237 0.0000 0.0000 3.3713 5.5537 20.5840 19.7473 0.0000 0.0000 8.1642 0.0000 0.0000 0.0000 0.0000 0.0000 82.8943 -8.3532 9.4544 19.8698 58.6104 80.1937 -15.1895 43.3358 47.0588 -86.5121 -17.9253 -6.5125 2.8837 0.0000 0.0000 4.0464 0.0000 0.0000 -46.8234 -15.1366 -18.7903 10.8893 0.0000 0.0000 1.2520 0.0000 0.0000 -66.6139 -13.6791 -15.9186 19.2809 0.0000 0.0000 22.0435 0.0000 0.0000 -62.4905 -18.9187 -34.3027 20.3653 0.0000 0.0000 19.6899 0.0000 0.0000 32.4236 3.0683 -0.3856 98.1480 0.0000 0.0000 26.7316 0.0000 0.0000 0.0000 0.0000 0.0000 0.0000 0.0000 0.0000 0.0000 0.0000 0.0000 0.0000 0.0000 0.0000 0.0000 0.0000 0.0000 0.0000 0.0000 0.0000
0.0000 95.0000 0.0000 0.0000 0.0000 0.0000 0.0000 0.0000 0.0000 0.0000 0.0000 0.0000 0.0000 0.0000 0.0000 0.0000 0.0000 0.0000 0.0000 0.0000 0.0000 0.0000 0.0000 0.0000 -74.8564 -2.4938 -3.2580 -51.7664 38.1643 -118.2688 -251.8899 11.5289 -313.6985 45.2240 -6.4212 13.6682 3.3610 0.0000 0.0000 4.7892 0.0000 0.0000 -18.6083 0.6913 7.9699 12.0835 0.0000 0.0000 7.4994 0.0000 0.0000 -6.9793 0.9634 10.9270 13.1048 0.0000 0.0000 5.4234 0.0000 0.0000 0.8629 1.6518 12.6400 11.0032 0.0000 0.0000 9.0627 0.0000 0.0000 -13.6775 11.2406 22.2432 35.1182 0.0000 0.0000 8.0419 0.0000 0.0000 0.0000 0.0000 0.0000 82.2777 -11.1344 12.7337 36.8015 75.7126 112.7324 -65.5918 20.8789 4.9705 -53.1807 -8.4728 -16.0260 2.6691 0.0000 0.0000 3.9498 0.0000 0.0000 2.1350 -3.1684 -19.7306 5.0925 0.0000 0.0000 2.8619 0.0000 0.0000 -11.2242 -2.8967 -24.0875 7.6671 0.0000 0.0000 3.6241 0.0000 0.0000 -18.5477 -1.6959 -28.6412 11.9683 0.0000 0.0000 2.8403 0.0000 0.0000 -17.9031 3.0994 -29.7792 16.6776 0.0000 0.0000 4.6026 0.0000 0.0000 0.0000 0.0000 0.0000 0.0000 0.0000 0.0000 0.0000 0.0000 0.0000 0.0000 0.0000 0.0000 0.0000 0.0000 0.0000 0.0000 0.0000 0.0000
0.0000 95.0000 0.0000 0.0000 0.0000 0.0000 0.0000 0.0000 0.0000 0.0000 0.0000 0.0000 0.0000 0.0000 0.0000 0.0000 0.0000 0.0000 0.0000 0.0000 0.0000 0.0000 0.0000 0.0000 -75.7376 -2.3003 -2.9580 -86.7442 45.4385 -202.0127 -329.8478 -8.0259 -299.2080 60.4997 -11.9115 7.1531 3.2629 0.0000 0.0000 6.8733 0.0000 0.0000 3.9164 0.3420 -2.3989 9.1064 0.0000 0.0000 3.1605 0.0000 0.0000 18.3999 -0.9717 1.2221 1.5169 0.0000 0.0000 7.1213 0.0000 0.0000 22.1079 -1.4610 4.3453 9.0441 0.0000 0.0000 3.0723 0.0000 0.0000 4.2405 1.4051 6.4272 35.2862 0.0000 0.0000 3.7106 0.0000 0.0000 0.0000 0.0000 0.0000 82.8449 -13.1806 14.9200 122.4481 79.0862 210.5539 -64.2803 1.2787 -1.1454 -45.3193 -5.3091 -17.8466 2.4509 0.0000 0.0000 1.6648 0.0000 0.0000 12.4642 -0.9164 -20.3823 6.5761 0.0000 0.0000 5.7418 0.0000 0.0000 -0.6805 -0.1845 -25.5651 8.9110 0.0000 0.0000 6.6693 0.0000 0.0000 -6.8575 2.0863 -29.7099 12.5553 0.0000 0.0000 5.8034 0.0000 0.0000 -11.0160 6.6587 -34.6593 21.4039 0.0000 0.0000 9.6390 0.0000 0.0000 0.0000 0.0000 0.0000 0.0000 0.0000 0.0000 0.0000 0.0000 0.0000 0.0000 0.0000 0.0000 0.0000 0.0000 0.0000 0.0000 0.0000 0.0000
0.0000 95.0000 0.0000 0.0000 0.0000 0.0000 0.0000 0.0000 0.0000 0.0000 0.0000 0.0000 0.0000 0.0000 0.0000 0.0000 0.0000 0.0000 0.0000 0.0000 0.0000 0.0000 0.0000 0.0000 -77.6243 -0.9521 -1.1836 -125.8054 27.8879 -299.2165 -395.2694 19.5545 -292.4824 51.3082 -10.8930 1.0350 4.6441 0.0000 0.0000 2.4566 0.0000 0.0000 9.9762 7.2085 -27.8287 26.8824 0.0000 0.0000 15.7712 0.0000 0.0000 18.1868 3.2121 -24.6443 67.8688 0.0000 0.0000 19.7391 0.0000 0.0000 24.6630 0.0449 -18.5839 75.4021 0.0000 0.0000 22.1284 0.0000 0.0000 33.5089 -2.4863 -12.6837 57.3549 0.0000 0.0000 21.2363 0.0000 0.0000 0.0000 0.0000 0.0000 84.4674 -14.5235 15.9800 151.7319 66.9197 248.9316 -30.3619 -28.6363 9.4902 -62.0925 -13.3853 4.0552 2.4835 0.0000 0.0000 5.4620 0.0000 0.0000 -6.8611 -2.5836 -9.2212 3.1952 0.0000 0.0000 6.2174 0.0000 0.0000 -12.0167 -1.2688 -7.2391 6.3653 0.0000 0.0000 6.8834 0.0000 0.0000 -11.9890 -0.5218 -4.1686 17.1637 0.0000 0.0000 9.5951 0.0000 0.0000 -8.0881 0.4650 -4.6256 28.1362 0.0000 0.0000 9.4068 0.0000 0.0000 0.0000 0.0000 0.0000 0.0000 0.0000 0.0000 0.0000 0.0000 0.0000 0.0000 0.0000 0.0000 0.0000 0.0000 0.0000 0.0000 0.0000 0.0000
0.0000 95.0000 0.0000 0.0000 0.0000 0.0000 0.0000 0.0000 0.0000 0.0000 0.0000 0.0000 0.0000 0.0000 0.0000 0.0000 0.0000 0.0000 0.0000 0.0000 0.0000 0.0000 0.0000 0.0000 -78.1828 2.6936 3.3152 -137.4401 -12.9362 -390.3106 -521.6170 -13.3762 -241.4500 56.0247 -12.3054 -2.4576 3.1219 0.0000 0.0000 8.1199 0.0000 0.0000 -26.9011 -0.7394 -34.2964 42.2356 0.0000 0.0000 26.2703 0.0000 0.0000 -21.7444 -7.3094 -41.5618 72.9584 0.0000 0.0000 46.7315 0.0000 0.0000 -19.0365 -10.5561 -36.3734 44.8554 0.0000 0.0000 51.1371 0.0000 0.0000 -24.3294 -15.1696 -30.7172 20.2388 0.0000 0.0000 85.7434 0.0000 0.0000 0.0000 0.0000 0.0000 86.6131 -14.0421 14.8884 154.9477 53.1872 263.3512 -10.8854 -45.3420 -0.8559 -70.1781 -14.6104 8.9319 7.2824 0.0000 0.0000 2.6946 0.0000 0.0000 -6.8251 -1.1864 -3.5663 7.4620 0.0000 0.0000 7.9736 0.0000 0.0000 -11.5385 -0.4232 0.5855 13.0351 0.0000 0.0000 4.6031 0.0000 0.0000 -15.6154 -0.8624 -1.8777 25.6884 0.0000 0.0000 10.6761 0.0000 0.0000 -14.4667 -1.7603 3.9540 24.8924 0.0000 0.0000 8.1830 0.0000 0.0000 0.0000 0.0000 0.0000 0.0000 0.0000 0.0000 0.0000 0.0000 0.0000 0.0000 0.0000 0.0000 0.0000 0.0000 0.0000 0.0000 0.0000 0.0000
0.0000 95.0000 0.0000 0.0000 0.0000 0.0000 0.0000 0.0000 0.0000 0.0000 0.0000 0.0000 0.0000 0.0000 0.0000 0.0000 0.0000 0.0000 0.0000 0.0000 0.0000 0.0000 0.0000 0.0000 -78.2908 4.8072 5.9039 -145.3181 -25.4417 -409.5535 -523.8872 27.4282 -218.7316 39.7959 -5.0452 12.4675 3.3237 0.0000 0.0000 8.3744 0.0000 0.0000 -24.9378 1.2169 2.8657 44.1854 0.0000 0.0000 35.7232 0.0000 0.0000 -17.3987 0.3612 -2.4116 42.4180 0.0000 0.0000 34.7855 0.0000 0.0000 -14.6149 0.2480 -2.1705 41.2782 0.0000 0.0000 24.2586 0.0000 0.0000 -11.5151 -0.0147 -2.2102 16.5251 0.0000 0.0000 10.8340 0.0000 0.0000 0.0000 0.0000 0.0000 88.6174 -13.7493 14.0818 158.4342 43.6794 274.9668 -65.5086 -65.8336 47.0655 -62.2665 -12.5728 -4.6978 8.4838 0.0000 0.0000 5.3779 0.0000 0.0000 12.4198 0.8846 4.6134 11.8988 0.0000 0.0000 5.0191 0.0000 0.0000 2.9364 -0.1066 8.9290 3.5103 0.0000 0.0000 1.4073 0.0000 0.0000 -2.1535 -0.9229 6.6052 9.7749 0.0000 0.0000 3.3035 0.0000 0.0000 -8.6665 -1.3752 3.2001 14.9594 0.0000 0.0000 2.7505 0.0000 0.0000 0.0000 0.0000 0.0000 0.0000 0.0000 0.0000 0.0000 0.0000 0.0000 0.0000 0.0000 0.0000 0.0000 0.0000 0.0000 0.0000 0.0000 0.0000
0.0000 95.0000 0.0000 0.0000 0.0000 0.0000 0.0000 0.0000 0.0000 0.0000 0.0000 0.0000 0.0000 0.0000 0.0000 0.0000 0.0000 0.0000 0.0000 0.0000 0.0000 0.0000 0.0000 0.0000 -78.7988 4.5227 5.5048 -151.1949 -22.1474 -400.8822 -537.7911 8.9091 -230.2227 55.1181 -10.8921 5.4544 9.3371 0.0000 0.0000 16.0682 0.0000 0.0000 -12.4596 1.0001 -6.2399 19.4449 0.0000 0.0000 15.0241 0.0000 0.0000 0.2626 0.0096 -8.9576 6.7752 0.0000 0.0000 10.7983 0.0000 0.0000 6.9459 -0.8823 -6.2407 3.5607 0.0000 0.0000 6.2948 0.0000 0.0000 5.0805 -1.5421 -4.4666 16.8634 0.0000 0.0000 5.9926 0.0000 0.0000 0.0000 0.0000 0.0000 89.6066 -14.1225 14.2189 164.4004 40.3522 282.6215 -99.2291 -66.6649 83.9572 -63.1170 -12.5891 -6.5566 11.9063 0.0000 0.0000 4.6439 0.0000 0.0000 18.0237 0.9010 4.4125 12.7792 0.0000 0.0000 9.1040 0.0000 0.0000 7.0655 -0.3184 9.9262 6.2691 0.0000 0.0000 2.5136 0.0000 0.0000 -1.6718 -1.1703 8.5655 9.8568 0.0000 0.0000 0.9135 0.0000 0.0000 -13.3963 -2.3696 7.5181 10.6294 0.0000 0.0000 1.8303 0.0000 0.0000 0.0000 0.0000 0.0000 0.0000 0.0000 0.0000 0.0000 0.0000 0.0000 0.0000 0.0000 0.0000 0.0000 0.0000 0.0000 0.0000 0.0000 0.0000
0.0000 95.0000 0.0000 0.0000 0.0000 0.0000 0.0000 0.0000 0.0000 0.0000 0.0000 0.0000 0.0000 0.0000 0.0000 0.0000 0.0000 0.0000 0.0000 0.0000 0.0000 0.0000 0.0000 0.0000 -80.0538 -0.9244 -1.1006 -154.7942 -6.2004 -365.8102 -510.9767 -5.5129 -198.8568 53.6240 -8.9050 14.5056 8.6959 0.0000 0.0000 9.9878 0.0000 0.0000 -15.0462 0.2727 8.2160 20.5512 0.0000 0.0000 14.4994 0.0000 0.0000 -7.4329 0.6166 4.6988 7.9250 0.0000 0.0000 13.1511 0.0000 0.0000 -1.8314 0.9243 5.2039 8.6621 0.0000 0.0000 12.2040 0.0000 0.0000 2.3989 1.5169 5.9413 19.9313 0.0000 0.0000 13.9744 0.0000 0.0000 0.0000 0.0000 0.0000 88.7894 -16.4662 16.8128 174.6118 40.6241 287.7284 -113.3400 -56.1089 99.7097 -63.7107 -12.1216 -13.5782 11.5966 0.0000 0.0000 11.8847 0.0000 0.0000 13.3827 0.1677 -6.8181 21.2894 0.0000 0.0000 13.1660 0.0000 0.0000 2.9213 0.0947 1.0590 8.9688 0.0000 0.0000 11.9441 0.0000 0.0000 -5.9481 -0.3383 0.0609 6.5546 0.0000 0.0000 7.0726 0.0000 0.0000 -13.7235 -1.1608 0.7666 4.6936 0.0000 0.0000 1.3854 0.0000 0.0000 0.0000 0.0000 0.0000 0.0000 0.0000 0.0000 0.0000 0.0000 0.0000 0.0000 0.0000 0.0000 0.0000 0.0000 0.0000 0.0000 0.0000 0.0000
0.0000 95.0000 0.0000 0.0000 0.0000 0.0000 0.0000 0.0000 0.0000 0.0000 0.0000 0.0000 0.0000 0.0000 0.0000 0.0000 0.0000 0.0000 0.0000 0.0000 0.0000 0.0000 0.0000 0.0000 -80.8601 -4.3295 -5.0809 -163.5616 16.7796 -331.2695 -514.1880 -40.8105 -180.0404 54.8394 -9.8168 11.4521 9.4934 0.0000 0.0000 14.6800 0.0000 0.0000 -12.1604 0.0768 6.3244 13.8961 0.0000 0.0000 6.8806 0.0000 0.0000 -3.0717 0.1929 2.4122 4.6237 0.0000 0.0000 3.4387 0.0000 0.0000 2.2373 0.2496 3.0983 4.9477 0.0000 0.0000 7.6715 0.0000 0.0000 7.4718 0.3402 3.8014 13.1465 0.0000 0.0000 9.8921 0.0000 0.0000 0.0000 0.0000 0.0000 87.1895 -19.2932 20.2440 186.1050 42.8810 291.1880 -116.5191 -51.9578 99.9329 -62.2442 -11.7396 -13.0424 8.9195 0.0000 0.0000 8.7448 0.0000 0.0000 14.7014 0.3171 -6.5867 18.9476 0.0000 0.0000 11.7497 0.0000 0.0000 6.6024 0.2601 0.2652 9.3332 0.0000 0.0000 7.2804 0.0000 0.0000 -2.3866 0.0333 -1.3986 7.8929 0.0000 0.0000 4.4671 0.0000 0.0000 -11.0785 -0.6540 -0.8623 6.9772 0.0000 0.0000 1.6805 0.0000 0.0000 0.0000 0.0000 0.0000 0.0000 0.0000 0.0000 0.0000 0.0000 0.0000 0.0000 0.0000 0.0000 0.0000 0.0000 0.0000 0.0000 0.0000 0.0000
0.0000 95.0000 0.0000 0.0000 0.0000 0.0000 0.0000 0.0000 0.0000 0.0000 0.0000 0.0000 0.0000 0.0000 0.0000 0.0000 0.0000 0.0000 0.0000 0.0000 0.0000 0.0000 0.0000 0.0000 -80.5775 -6.7316 -7.9373 -174.7863 27.5597 -320.9385 -522.4874 -47.0143 -173.5814 53.5922 -10.9061 3.4109 4.8118 0.0000 0.0000 29.4953 0.0000 0.0000 -10.1969 0.7790 -3.5413 11.0427 0.0000 0.0000 5.1116 0.0000 0.0000 -0.2877 -0.0019 -5.5413 4.4210 0.0000 0.0000 4.6829 0.0000 0.0000 6.4489 -0.8007 -5.2678 5.3109 0.0000 0.0000 4.9080 0.0000 0.0000 12.8917 -1.4923 -2.8304 10.0730 0.0000 0.0000 6.8158 0.0000 0.0000 0.0000 0.0000 0.0000 85.8950 -20.1910 21.6577 195.4194 43.8325 296.4709 -126.1844 -56.5391 109.4753 -64.6643 -12.8931 -7.2691 11.7080 0.0000 0.0000 15.3938 0.0000 0.0000 11.4572 0.7110 2.4801 14.3195 0.0000 0.0000 8.2597 0.0000 0.0000 0.3107 -0.0094 8.2275 7.6771 0.0000 0.0000 7.5235 0.0000 0.0000 -7.6227 -0.9349 6.9539 5.1225 0.0000 0.0000 2.5489 0.0000 0.0000 -14.3126 -2.2444 6.7723 4.4587 0.0000 0.0000 0.8870 0.0000 0.0000 0.0000 0.0000 0.0000 0.0000 0.0000 0.0000 0.0000 0.0000 0.0000 0.0000 0.0000 0.0000 0.0000 0.0000 0.0000 0.0000 0.0000 0.0000
0.0000 95.0000 0.0000 0.0000 0.0000 0.0000 0.0000 0.0000 0.0000 0.0000 0.0000 0.0000 0.0000 0.0000 0.0000 0.0000 0.0000 0.0000 0.0000 0.0000 0.0000 0.0000 0.0000 0.0000 -80.3981 -9.9694 -11.7857 -187.2660 35.6456 -315.3527 -522.2843 -49.7901 -168.8528 51.6503 -11.8389 -3.5782 7.0632 0.0000 0.0000 33.4275 0.0000 0.0000 -19.2691 0.9888 -11.5452 8.3735 0.0000 0.0000 3.3629 0.0000 0.0000 -5.6000 -0.4729 -14.4174 7.7422 0.0000 0.0000 3.1907 0.0000 0.0000 -1.3217 -1.8129 -12.3916 6.7387 0.0000 0.0000 3.2698 0.0000 0.0000 1.7660 -3.2636 -10.8064 9.7046 0.0000 0.0000 4.5583 0.0000 0.0000 0.0000 0.0000 0.0000 85.7194 -20.9155 22.4996 205.0366 44.4445 301.7178 -126.9321 -51.8139 112.7835 -64.5075 -13.0247 -5.0855 8.9575 0.0000 0.0000 15.1077 0.0000 0.0000 10.5335 0.9778 5.7549 12.7135 0.0000 0.0000 7.0807 0.0000 0.0000 -0.2809 0.0125 9.8515 6.3874 0.0000 0.0000 4.8404 0.0000 0.0000 -8.5093 -1.0488 8.7718 4.0890 0.0000 0.0000 0.5623 0.0000 0.0000 -15.9797 -2.4521 7.9607 3.8360 0.0000 0.0000 0.9384 0.0000 0.0000 0.0000 0.0000 0.0000 0.0000 0.0000 0.0000 0.0000 0.0000 0.0000 0.0000 0.0000 0.0000 0.0000 0.0000 0.0000 0.0000 0.0000 0.0000
0.0000 95.0000 0.0000 0.0000 0.0000 0.0000 0.0000 0.0000 0.0000 0.0000 0.0000 0.0000 0.0000 0.0000 0.0000 0.0000 0.0000 0.0000 0.0000 0.0000 0.0000 0.0000 0.0000 0.0000 -80.4310 -11.8965 -14.0498 -199.8866 38.3855 -317.3649 -524.0788 -45.6136 -177.7104 55.7767 -14.0483 -14.3195 7.5100 0.0000 0.0000 40.4054 0.0000 0.0000 -17.6723 1.3549 -22.3082 6.7548 0.0000 0.0000 3.8748 0.0000 0.0000 -4.2068 -0.7925 -26.1008 5.8778 0.0000 0.0000 3.3794 0.0000 0.0000 -0.1100 -3.5284 -24.8424 4.5030 0.0000 0.0000 3.9447 0.0000 0.0000 1.3902 -6.7225 -22.5480 10.0520 0.0000 0.0000 5.6675 0.0000 0.0000 0.0000 0.0000 0.0000 88.0544 -21.3084 22.0269 212.0187 42.7146 305.9399 -150.3490 -67.9438 151.7655 -78.4530 -15.0715 15.8455 5.0413 0.0000 0.0000 14.5653 0.0000 0.0000 1.8641 4.6684 27.5574 9.6395 0.0000 0.0000 0.7020 0.0000 0.0000 -7.0818 1.8885 34.6007 5.6605 0.0000 0.0000 4.6237 0.0000 0.0000 -13.1204 -1.5857 33.6667 2.7084 0.0000 0.0000 4.5200 0.0000 0.0000 -19.4069 -5.5267 31.6173 5.6802 0.0000 0.0000 7.6620 0.0000 0.0000 0.0000 0.0000 0.0000 0.0000 0.0000 0.0000 0.0000 0.0000 0.0000 0.0000 0.0000 0.0000 0.0000 0.0000 0.0000 0.0000 0.0000 0.0000
0.0000 95.0000 0.0000 0.0000 0.0000 0.0000 0.0000 0.0000 0.0000 0.0000 0.0000 0.0000 0.0000 0.0000 0.0000 0.0000 0.0000 0.0000 0.0000 0.0000 0.0000 0.0000 0.0000 0.0000 -79.9147 -13.7952 -16.4318 -212.7898 42.6016 -319.5458 -536.8050 -41.4622 -165.0530 56.4955 -14.3185 -15.9761 8.8190 0.0000 0.0000 34.5459 0.0000 0.0000 -17.7725 1.1544 -14.8271 8.0675 0.0000 0.0000 4.0219 0.0000 0.0000 -4.3094 -0.6333 -21.4835 6.9043 0.0000 0.0000 3.5627 0.0000 0.0000 -2.2906 -2.5436 -16.5884 5.9751 0.0000 0.0000 6.2027 0.0000 0.0000 -4.8973 -4.5879 -14.0548 13.9813 0.0000 0.0000 8.2704 0.0000 0.0000 0.0000 0.0000 0.0000 88.7831 -21.1959 21.6403 218.3682 44.0246 309.3399 -135.8715 -58.7647 135.1573 -70.8349 -14.8018 15.6519 7.9699 0.0000 0.0000 17.4472 0.0000 0.0000 4.3164 2.2476 14.3543 12.7555 0.0000 0.0000 6.8848 0.0000 0.0000 -1.9068 0.3091 23.1877 7.1601 0.0000 0.0000 5.3508 0.0000 0.0000 -7.7436 -1.9345 20.7653 10.7926 0.0000 0.0000 0.2883 0.0000 0.0000 -11.1879 -4.7612 19.3922 13.4227 0.0000 0.0000 1.5344 0.0000 0.0000 0.0000 0.0000 0.0000 0.0000 0.0000 0.0000 0.0000 0.0000 0.0000 0.0000 0.0000 0.0000 0.0000 0.0000 0.0000 0.0000 0.0000 0.0000
0.0000 95.0000 0.0000 0.0000 0.0000 0.0000 0.0000 0.0000 0.0000 0.0000 0.0000 0.0000 0.0000 0.0000 0.0000 0.0000 0.0000 0.0000 0.0000 0.0000 0.0000 0.0000 0.0000 0.0000 -79.4533 -15.1028 -18.1275 -221.4060 44.1034 -321.9171 -535.0395 -50.1296 -166.6630 57.1370 -14.5187 -17.2845 6.6828 0.0000 0.0000 27.2432 0.0000 0.0000 -22.0601 0.7210 -19.8685 4.3340 0.0000 0.0000 4.1014 0.0000 0.0000 -6.1846 -1.1274 -25.4157 5.4116 0.0000 0.0000 2.4051 0.0000 0.0000 -4.8409 -3.8567 -22.3802 11.0029 0.0000 0.0000 6.1352 0.0000 0.0000 -6.1418 -7.1090 -20.7307 19.7358 0.0000 0.0000 10.2750 0.0000 0.0000 0.0000 0.0000 0.0000 88.4547 -21.6922 22.2707 223.1285 45.3932 311.1991 -129.9386 -56.8722 130.0830 -70.1106 -14.7361 14.1107 11.4626 0.0000 0.0000 17.0192 0.0000 0.0000 2.3467 2.3793 14.1539 14.7599 0.0000 0.0000 7.0798 0.0000 0.0000 -2.2110 0.2827 19.3424 9.4293 0.0000 0.0000 4.6500 0.0000 0.0000 -7.6754 -1.7063 17.5445 12.5435 0.0000 0.0000 1.3329 0.0000 0.0000 -10.0823 -4.2299 16.3626 14.6780 0.0000 0.0000 2.6401 0.0000 0.0000 0.0000 0.0000 0.0000 0.0000 0.0000 0.0000 0.0000 0.0000 0.0000 0.0000 0.0000 0.0000 0.0000 0.0000 0.0000 0.0000 0.0000 0.0000
0.0000 95.0000 0.0000 0.0000 0.0000 0.0000 0.0000 0.0000 0.0000 0.0000 0.0000 0.0000 0.0000 0.0000 0.0000 0.0000 0.0000 0.0000 0.0000 0.0000 0.0000 0.0000 0.0000 0.0000 -79.0702 -15.7696 -19.0503 -225.8749 45.0457 -323.2244 -548.6330 -51.6247 -159.1483 59.4703 -14.6007 -17.5258 9.4199 0.0000 0.0000 26.2578 0.0000 0.0000 -18.5001 1.2047 -20.9832 2.5258 0.0000 0.0000 2.7792 0.0000 0.0000 -4.0676 -0.7109 -24.5908 4.8293 0.0000 0.0000 3.4220 0.0000 0.0000 -0.2165 -2.9730 -20.8949 10.5450 0.0000 0.0000 5.4293 0.0000 0.0000 0.0232 -5.1973 -16.9782 17.1882 0.0000 0.0000 6.6296 0.0000 0.0000 0.0000 0.0000 0.0000 88.5799 -21.3170 21.8393 224.3303 45.8302 312.2468 -126.0585 -67.6320 132.2801 -76.2219 -14.8012 23.1779 6.9793 0.0000 0.0000 7.7994 0.0000 0.0000 1.5080 4.2644 24.8078 11.3601 0.0000 0.0000 5.1103 0.0000 0.0000 -4.5536 1.1863 33.9610 4.3385 0.0000 0.0000 2.6929 0.0000 0.0000 -10.1811 -2.1959 31.6937 6.1224 0.0000 0.0000 1.7495 0.0000 0.0000 -15.2240 -6.1892 30.3046 11.1932 0.0000 0.0000 2.9468 0.0000 0.0000 0.0000 0.0000 0.0000 0.0000 0.0000 0.0000 0.0000 0.0000 0.0000 0.0000 0.0000 0.0000 0.0000 0.0000 0.0000 0.0000 0.0000 0.0000
0.0000 95.0000 0.0000 0.0000 0.0000 0.0000 0.0000 0.0000 0.0000 0.0000 0.0000 0.0000 0.0000 0.0000 0.0000 0.0000 0.0000 0.0000 0.0000 0.0000 0.0000 0.0000 0.0000 0.0000 -78.5109 -16.4345 -20.0430 -228.4595 46.2753 -323.5069 -563.6439 -48.0205 -146.6686 58.3618 -14.1191 -13.8772 7.1982 0.0000 0.0000 24.6408 0.0000 0.0000 -15.3008 1.3659 -14.8180 1.3184 0.0000 0.0000 2.6321 0.0000 0.0000 -2.6760 -0.2983 -17.4898 4.6591 0.0000 0.0000 4.7084 0.0000 0.0000 3.4373 -1.6057 -12.8389 10.4592 0.0000 0.0000 4.3518 0.0000 0.0000 5.3408 -2.6306 -8.6908 17.0793 0.0000 0.0000 6.5717 0.0000 0.0000 0.0000 0.0000 0.0000 88.2821 -21.3681 22.0029 225.4402 46.0761 312.8585 -122.1225 -67.5106 128.6278 -74.2229 -14.8605 22.6077 7.9995 0.0000 0.0000 7.8201 0.0000 0.0000 1.7067 4.1039 24.0755 11.4499 0.0000 0.0000 5.2407 0.0000 0.0000 -4.6802 1.1657 32.7310 4.6027 0.0000 0.0000 2.6269 0.0000 0.0000 -11.2586 -1.9079 30.6506 6.1956 0.0000 0.0000 1.8265 0.0000 0.0000 -16.1276 -5.8097 29.0870 10.6639 0.0000 0.0000 3.1577 0.0000 0.0000 0.0000 0.0000 0.0000 0.0000 0.0000 0.0000 0.0000 0.0000 0.0000 0.0000 0.0000 0.0000 0.0000 0.0000 0.0000 0.0000 0.0000 0.0000
0.0000 95.0000 0.0000 0.0000 0.0000 0.0000 0.0000 0.0000 0.0000 0.0000 0.0000 0.0000 0.0000 0.0000 0.0000 0.0000 0.0000 0.0000 0.0000 0.0000 0.0000 0.0000 0.0000 0.0000 -78.7478 -15.6079 -18.9625 -225.8956 46.8998 -322.9863 -565.9955 -49.2690 -143.2405 61.4034 -13.8719 -9.8100 8.4554 0.0000 0.0000 20.3454 0.0000 0.0000 -11.6821 1.2975 -9.9603 9.2671 0.0000 0.0000 4.6267 0.0000 0.0000 -1.9396 -0.1324 -12.5826 6.2468 0.0000 0.0000 5.0249 0.0000 0.0000 -0.0901 -1.2262 -8.7129 9.3972 0.0000 0.0000 5.4869 0.0000 0.0000 -2.3380 -2.1857 -7.1916 14.4078 0.0000 0.0000 12.8670 0.0000 0.0000 0.0000 0.0000 0.0000 88.3662 -21.3444 21.9471 225.4064 46.1966 312.8030 -117.2602 -67.4918 123.8284 -70.7755 -14.9170 21.6034 9.7186 0.0000 0.0000 7.7558 0.0000 0.0000 2.0578 3.8402 22.8581 11.7464 0.0000 0.0000 5.5188 0.0000 0.0000 -4.9148 1.1314 30.6856 5.0640 0.0000 0.0000 2.7518 0.0000 0.0000 -13.0793 -1.4678 28.8610 6.4581 0.0000 0.0000 2.1388 0.0000 0.0000 -17.6679 -5.1978 26.9165 9.7128 0.0000 0.0000 3.6819 0.0000 0.0000 0.0000 0.0000 0.0000 0.0000 0.0000 0.0000 0.0000 0.0000 0.0000 0.0000 0.0000 0.0000 0.0000 0.0000 0.0000 0.0000 0.0000 0.0000
0.0000 95.0000 0.0000 0.0000 0.0000 0.0000 0.0000 0.0000 0.0000 0.0000 0.0000 0.0000 0.0000 0.0000 0.0000 0.0000 0.0000 0.0000 0.0000 0.0000 0.0000 0.0000 0.0000 0.0000 -79.5912 -15.2727 -18.2862 -223.7758 46.0056 -322.3300 -559.3635 -50.6127 -151.5269 60.0949 -14.2894 -14.5926 8.2216 0.0000 0.0000 17.9184 0.0000 0.0000 -14.2388 1.4744 -15.1316 5.1849 0.0000 0.0000 2.5521 0.0000 0.0000 -3.3373 -0.3908 -18.1262 2.9715 0.0000 0.0000 4.4459 0.0000 0.0000 -0.8172 -1.9164 -13.2755 8.7533 0.0000 0.0000 4.4824 0.0000 0.0000 -0.8467 -3.3105 -10.7371 12.1054 0.0000 0.0000 9.2131 0.0000 0.0000 0.0000 0.0000 0.0000 88.8559 -21.1997 21.6173 224.9846 45.6057 312.8222 -106.0321 -59.5306 111.8514 -67.6728 -14.7363 16.7449 13.0971 0.0000 0.0000 7.3615 0.0000 0.0000 -0.3812 2.9199 15.8562 10.4943 0.0000 0.0000 5.0584 0.0000 0.0000 -7.2390 1.2524 24.3780 3.3425 0.0000 0.0000 2.9365 0.0000 0.0000 -13.8668 -1.1879 22.3960 4.9049 0.0000 0.0000 1.8768 0.0000 0.0000 -19.8613 -4.0808 21.0066 9.2201 0.0000 0.0000 2.7083 0.0000 0.0000 0.0000 0.0000 0.0000 0.0000 0.0000 0.0000 0.0000 0.0000 0.0000 0.0000 0.0000 0.0000 0.0000 0.0000 0.0000 0.0000 0.0000 0.0000
0.0000 95.0000 0.0000 0.0000 0.0000 0.0000 0.0000 0.0000 0.0000 0.0000 0.0000 0.0000 0.0000 0.0000 0.0000 0.0000 0.0000 0.0000 0.0000 0.0000 0.0000 0.0000 0.0000 0.0000 -80.1691 -14.7838 -17.5261 -221.6837 45.0586 -322.0239 -559.9882 -48.4846 -150.2037 58.4107 -14.0612 -13.3955 6.2407 0.0000 0.0000 22.3762 0.0000 0.0000 -13.0038 1.5047 -13.9433 4.4442 0.0000 0.0000 4.1333 0.0000 0.0000 -1.8480 -0.1949 -16.8096 4.8430 0.0000 0.0000 5.0641 0.0000 0.0000 4.5183 -1.3757 -11.1712 10.4545 0.0000 0.0000 1.9156 0.0000 0.0000 6.7831 -2.2101 -6.9902 15.1378 0.0000 0.0000 3.4455 0.0000 0.0000 0.0000 0.0000 0.0000 89.6746 -20.7203 20.8358 224.6809 44.8203 313.3438 -133.1513 -76.7574 145.8761 -82.6014 -14.3272 26.9209 8.8364 0.0000 0.0000 3.8613 0.0000 0.0000 -1.2329 5.6191 29.1359 13.3782 0.0000 0.0000 6.8002 0.0000 0.0000 -7.9437 2.6193 41.2216 8.7021 0.0000 0.0000 2.5893 0.0000 0.0000 -14.9887 -1.1787 38.7705 10.4678 0.0000 0.0000 1.6074 0.0000 0.0000 -19.6024 -5.9400 35.0508 12.8141 0.0000 0.0000 4.0544 0.0000 0.0000 0.0000 0.0000 0.0000 0.0000 0.0000 0.0000 0.0000 0.0000 0.0000 0.0000 0.0000 0.0000 0.0000 0.0000 0.0000 0.0000 0.0000 0.0000
0.0000 95.0000 0.0000 0.0000 0.0000 0.0000 0.0000 0.0000 0.0000 0.0000 0.0000 0.0000 0.0000 0.0000 0.0000 0.0000 0.0000 0.0000 0.0000 0.0000 0.0000 0.0000 0.0000 0.0000 -80.2898 -14.6585 -17.3417 -221.1070 45.1480 -321.8168 -557.6554 -48.1416 -152.2633 57.2478 -14.0797 -14.0195 5.6855 0.0000 0.0000 24.0517 0.0000 0.0000 -12.8551 1.4509 -12.9778 5.2206 0.0000 0.0000 5.1736 0.0000 0.0000 -1.9806 -0.2101 -16.8785 5.6932 0.0000 0.0000 5.1187 0.0000 0.0000 4.6679 -1.3825 -11.3039 11.0689 0.0000 0.0000 1.3130 0.0000 0.0000 6.3629 -2.2739 -7.2660 14.5157 0.0000 0.0000 2.9929 0.0000 0.0000 0.0000 0.0000 0.0000 90.0363 -20.3456 20.3330 224.3703 44.7000 313.5900 -127.3318 -75.4728 139.8957 -90.0359 -15.6166 14.8898 6.3646 0.0000 0.0000 9.6728 0.0000 0.0000 -4.4285 4.1557 19.5923 17.0823 0.0000 0.0000 9.8249 0.0000 0.0000 -9.6413 2.9335 38.5497 6.7351 0.0000 0.0000 3.1490 0.0000 0.0000 -13.3709 -1.5977 36.6684 10.6246 0.0000 0.0000 0.5489 0.0000 0.0000 -14.5235 -6.4881 31.1914 17.7743 0.0000 0.0000 4.3018 0.0000 0.0000 0.0000 0.0000 0.0000 0.0000 0.0000 0.0000 0.0000 0.0000 0.0000 0.0000 0.0000 0.0000 0.0000 0.0000 0.0000 0.0000 0.0000 0.0000
0.0000 95.0000 0.0000 0.0000 0.0000 0.0000 0.0000 0.0000 0.0000 0.0000 0.0000 0.0000 0.0000 0.0000 0.0000 0.0000 0.0000 0.0000 0.0000 0.0000 0.0000 0.0000 0.0000 0.0000 -79.9736 -14.6191 -17.3910 -221.4069 46.3989 -321.6825 -552.7885 -54.5903 -152.5659 57.8724 -14.1408 -14.2415 8.7108 0.0000 0.0000 21.6705 0.0000 0.0000 -18.0249 1.2356 -19.4040 3.2595 0.0000 0.0000 2.7362 0.0000 0.0000 -4.7153 -0.7138 -21.9794 3.5413 0.0000 0.0000 3.7363 0.0000 0.0000 -0.0864 -2.5108 -17.7792 9.7471 0.0000 0.0000 3.6564 0.0000 0.0000 2.6167 -4.4565 -15.1275 14.4626 0.0000 0.0000 3.4029 0.0000 0.0000 0.0000 0.0000 0.0000 89.8486 -20.2862 20.3387 224.3156 44.8823 313.6123 -163.1823 -77.2643 181.1726 -80.7337 -13.7159 37.9504 10.5418 0.0000 0.0000 5.0879 0.0000 0.0000 -0.2212 7.3685 39.2385 12.5478 0.0000 0.0000 5.7005 0.0000 0.0000 -7.5247 3.0266 48.5460 8.2089 0.0000 0.0000 2.6228 0.0000 0.0000 -15.6923 -0.9953 46.2781 10.1428 0.0000 0.0000 2.1905 0.0000 0.0000 -22.5075 -6.1480 43.4631 11.3845 0.0000 0.0000 3.6468 0.0000 0.0000 0.0000 0.0000 0.0000 0.0000 0.0000 0.0000 0.0000 0.0000 0.0000 0.0000 0.0000 0.0000 0.0000 0.0000 0.0000 0.0000 0.0000 0.0000
0.0000 95.0000 0.0000 0.0000 0.0000 0.0000 0.0000 0.0000 0.0000 0.0000 0.0000 0.0000 0.0000 0.0000 0.0000 0.0000 0.0000 0.0000 0.0000 0.0000 0.0000 0.0000 0.0000 0.0000 -79.7270 -15.0514 -17.9799 -221.9418 46.7369 -321.3172 -532.4360 -54.2947 -173.8162 59.2655 -15.1966 -22.6391 10.3663 0.0000 0.0000 16.3100 0.0000 0.0000 -18.0272 1.4576 -29.1397 5.6660 0.0000 0.0000 3.2376 0.0000 0.0000 -5.1464 -1.3443 -34.0334 4.7435 0.0000 0.0000 4.2303 0.0000 0.0000 -1.4781 -4.6520 -30.4861 9.8928 0.0000 0.0000 2.6699 0.0000 0.0000 -1.7553 -8.2491 -25.8825 15.1065 0.0000 0.0000 3.7864 0.0000 0.0000 0.0000 0.0000 0.0000 90.0520 -20.5047 20.4865 224.2596 44.8294 313.2606 -117.5975 -68.4837 126.5255 -74.7737 -14.8780 20.4854 5.8658 0.0000 0.0000 4.0224 0.0000 0.0000 4.2141 4.0090 26.3382 9.0488 0.0000 0.0000 4.5067 0.0000 0.0000 -4.9770 1.3273 34.6191 5.4938 0.0000 0.0000 2.7191 0.0000 0.0000 -12.8077 -1.6284 32.5282 6.1335 0.0000 0.0000 1.3680 0.0000 0.0000 -19.4241 -5.3593 30.3858 8.4562 0.0000 0.0000 3.7931 0.0000 0.0000 0.0000 0.0000 0.0000 0.0000 0.0000 0.0000 0.0000 0.0000 0.0000 0.0000 0.0000 0.0000 0.0000 0.0000 0.0000 0.0000 0.0000 0.0000
0.0000 95.0000 0.0000 0.0000 0.0000 0.0000 0.0000 0.0000 0.0000 0.0000 0.0000 0.0000 0.0000 0.0000 0.0000 0.0000 0.0000 0.0000 0.0000 0.0000 0.0000 0.0000 0.0000 0.0000 -79.0674 -15.3702 -18.5713 -223.0183 47.8474 -321.2838 -535.8573 -54.1391 -165.2927 54.7910 -14.8744 -19.9148 8.8131 0.0000 0.0000 18.6743 0.0000 0.0000 -23.1636 0.3794 -28.3648 4.4322 0.0000 0.0000 2.4174 0.0000 0.0000 -9.8739 -2.3080 -31.0261 4.2475 0.0000 0.0000 4.3997 0.0000 0.0000 -4.6127 -4.5896 -26.4988 9.2341 0.0000 0.0000 1.8735 0.0000 0.0000 -3.9276 -7.2443 -21.9163 15.0666 0.0000 0.0000 4.4425 0.0000 0.0000 0.0000 0.0000 0.0000 89.8480 -20.7000 20.7538 224.5027 44.7574 313.2394 -112.4517 -64.7704 118.9348 -70.1819 -14.7515 14.5873 7.8592 0.0000 0.0000 10.3099 0.0000 0.0000 5.7720 2.8999 20.2429 10.3636 0.0000 0.0000 5.6204 0.0000 0.0000 -2.6034 0.5225 27.4667 6.6529 0.0000 0.0000 2.8724 0.0000 0.0000 -10.3744 -1.8551 25.8564 7.7818 0.0000 0.0000 1.8800 0.0000 0.0000 -16.4828 -4.9406 24.0087 9.6897 0.0000 0.0000 3.5201 0.0000 0.0000 0.0000 0.0000 0.0000 0.0000 0.0000 0.0000 0.0000 0.0000 0.0000 0.0000 0.0000 0.0000 0.0000 0.0000 0.0000 0.0000 0.0000 0.0000
0.0000 95.0000 0.0000 0.0000 0.0000 0.0000 0.0000 0.0000 0.0000 0.0000 0.0000 0.0000 0.0000 0.0000 0.0000 0.0000 0.0000 0.0000 0.0000 0.0000 0.0000 0.0000 0.0000 0.0000 -79.3794 -15.1081 -18.1572 -222.3448 47.3075 -321.3653 -566.9183 -46.3218 -137.8213 60.2375 -13.4769 -7.1652 10.0619 0.0000 0.0000 25.1641 0.0000 0.0000 -15.4068 1.1519 -10.2920 6.2178 0.0000 0.0000 1.3351 0.0000 0.0000 -4.0027 -0.2747 -12.6203 2.8482 0.0000 0.0000 3.9096 0.0000 0.0000 -0.2388 -1.2260 -8.6898 8.1059 0.0000 0.0000 6.1451 0.0000 0.0000 1.8199 -1.8108 -5.7756 14.8061 0.0000 0.0000 10.8769 0.0000 0.0000 0.0000 0.0000 0.0000 90.0430 -20.7993 20.7841 224.5541 43.7783 313.4713 -64.9680 37.7281 -40.9992 -69.3725 -14.0011 -7.4327 14.9262 0.0000 0.0000 17.0316 0.0000 0.0000 7.3523 0.3552 0.2101 25.1082 0.0000 0.0000 6.9040 0.0000 0.0000 1.2367 0.0958 -4.0890 16.3566 0.0000 0.0000 1.5473 0.0000 0.0000 1.1073 0.2860 -1.4817 14.4533 0.0000 0.0000 7.6530 0.0000 0.0000 10.0295 2.6943 -4.6510 18.6849 0.0000 0.0000 20.2100 0.0000 0.0000 0.0000 0.0000 0.0000 0.0000 0.0000 0.0000 0.0000 0.0000 0.0000 0.0000 0.0000 0.0000 0.0000 0.0000 0.0000 0.0000 0.0000 0.0000
0.0000 95.0000 0.0000 0.0000 0.0000 0.0000 0.0000 0.0000 0.0000 0.0000 0.0000 0.0000 0.0000 0.0000 0.0000 0.0000 0.0000 0.0000 0.0000 0.0000 0.0000 0.0000 0.0000 0.0000 -79.0317 -14.9646 -18.0952 -222.3434 48.3081 -321.3248 -563.1592 -49.1692 -142.1618 66.9112 -14.2535 -7.9815 15.5529 0.0000 0.0000 23.9528 0.0000 0.0000 -13.6058 1.2503 -10.5474 10.2864 0.0000 0.0000 2.3470 0.0000 0.0000 -2.2097 -0.1618 -13.1454 6.3921 0.0000 0.0000 3.4211 0.0000 0.0000 -1.3706 -1.1998 -8.3616 10.8356 0.0000 0.0000 6.4569 0.0000 0.0000 -1.5807 -2.1230 -6.9770 17.3153 0.0000 0.0000 15.5694 0.0000 0.0000 0.0000 0.0000 0.0000 89.9326 -20.7754 20.7993 223.9912 43.9275 313.1289 -104.7820 -67.0003 112.9094 -72.0792 -14.8434 15.2146 7.4826 0.0000 0.0000 6.6920 0.0000 0.0000 5.0192 3.4542 23.4869 7.3450 0.0000 0.0000 4.4159 0.0000 0.0000 -4.8980 1.1187 30.4877 5.5713 0.0000 0.0000 1.7433 0.0000 0.0000 -13.1143 -1.4834 29.7269 5.5554 0.0000 0.0000 1.9415 0.0000 0.0000 -21.4064 -4.7496 28.5121 6.7651 0.0000 0.0000 3.3602 0.0000 0.0000 0.0000 0.0000 0.0000 0.0000 0.0000 0.0000 0.0000 0.0000 0.0000 0.0000 0.0000 0.0000 0.0000 0.0000 0.0000 0.0000 0.0000 0.0000
0.0000 95.0000 0.0000 0.0000 0.0000 0.0000 0.0000 0.0000 0.0000 0.0000 0.0000 0.0000 0.0000 0.0000 0.0000 0.0000 0.0000 0.0000 0.0000 0.0000 0.0000 0.0000 0.0000 0.0000 -79.3195 -14.6501 -17.6279 -221.2364 47.9909 -321.1568 -555.0846 -66.0938 -158.1949 60.4075 -14.6907 -18.1775 12.4621 0.0000 0.0000 20.6811 0.0000 0.0000 -8.3512 3.2216 -26.3538 10.3835 0.0000 0.0000 4.0905 0.0000 0.0000 0.9579 0.2196 -30.5965 10.0874 0.0000 0.0000 2.1171 0.0000 0.0000 4.8403 -3.2257 -29.9497 6.7849 0.0000 0.0000 1.1487 0.0000 0.0000 5.9683 -7.1936 -26.8542 9.6217 0.0000 0.0000 3.2796 0.0000 0.0000 0.0000 0.0000 0.0000 90.1509 -20.4416 20.3890 223.6878 44.1098 313.2492 -75.6335 -76.5141 89.0540 -72.5643 -14.9131 26.0279 14.0847 0.0000 0.0000 9.4132 0.0000 0.0000 -0.3016 6.5165 34.8163 6.9750 0.0000 0.0000 4.0305 0.0000 0.0000 -11.2843 3.6383 40.4153 7.4112 0.0000 0.0000 0.8013 0.0000 0.0000 -19.4236 0.1642 40.3683 8.1879 0.0000 0.0000 3.3549 0.0000 0.0000 -26.0936 -4.7359 39.9786 9.7428 0.0000 0.0000 6.3754 0.0000 0.0000 0.0000 0.0000 0.0000 0.0000 0.0000 0.0000 0.0000 0.0000 0.0000 0.0000 0.0000 0.0000 0.0000 0.0000 0.0000 0.0000 0.0000 0.0000
0.0000 95.0000 0.0000 0.0000 0.0000 0.0000 0.0000 0.0000 0.0000 0.0000 0.0000 0.0000 0.0000 0.0000 0.0000 0.0000 0.0000 0.0000 0.0000 0.0000 0.0000 0.0000 0.0000 0.0000 -78.7018 -14.7968 -17.9970 -221.5706 48.8718 -321.0083 -530.7113 -76.2208 -189.3226 64.7384 -15.5383 -29.2097 10.2952 0.0000 0.0000 23.9363 0.0000 0.0000 -0.3102 6.9002 -37.6896 8.0379 0.0000 0.0000 3.2692 0.0000 0.0000 8.6287 2.9120 -42.0103 10.4954 0.0000 0.0000 1.8607 0.0000 0.0000 13.7311 -1.6212 -42.3249 7.4183 0.0000 0.0000 0.2514 0.0000 0.0000 16.5103 -7.5069 -40.0159 8.0011 0.0000 0.0000 1.3919 0.0000 0.0000 0.0000 0.0000 0.0000 89.2329 -20.2188 20.4856 223.6409 45.8708 313.0609 -21.3603 -77.2044 40.5131 -78.5263 -14.2725 33.3116 12.2499 0.0000 0.0000 7.3464 0.0000 0.0000 -8.8821 10.8768 41.7824 6.7035 0.0000 0.0000 4.3792 0.0000 0.0000 -19.5768 7.4484 46.1142 9.8287 0.0000 0.0000 1.4903 0.0000 0.0000 -29.1339 4.0439 47.2880 10.5362 0.0000 0.0000 6.4476 0.0000 0.0000 -37.8263 -1.0156 49.8615 10.6160 0.0000 0.0000 9.0788 0.0000 0.0000 0.0000 0.0000 0.0000 0.0000 0.0000 0.0000 0.0000 0.0000 0.0000 0.0000 0.0000 0.0000 0.0000 0.0000 0.0000 0.0000 0.0000 0.0000
0.0000 95.0000 0.0000 0.0000 0.0000 0.0000 0.0000 0.0000 0.0000 0.0000 0.0000 0.0000 0.0000 0.0000 0.0000 0.0000 0.0000 0.0000 0.0000 0.0000 0.0000 0.0000 0.0000 0.0000 -77.5993 -14.7385 -18.2764 -224.0773 52.7417 -321.6575 -604.1858 -76.7666 -109.9305 60.2405 -14.6878 -18.1749 9.2802 0.0000 0.0000 6.5981 0.0000 0.0000 -4.4854 4.2388 -28.2617 12.3774 0.0000 0.0000 6.3582 0.0000 0.0000 4.2648 1.0652 -32.8065 10.6374 0.0000 0.0000 5.1109 0.0000 0.0000 11.1928 -1.9980 -32.3787 9.5113 0.0000 0.0000 0.8318 0.0000 0.0000 16.7729 -5.9639 -30.8502 8.5461 0.0000 0.0000 1.2867 0.0000 0.0000 0.0000 0.0000 0.0000 87.2279 -20.0811 21.0552 225.2084 50.5989 313.0101 70.5394 -41.4037 -41.6148 -106.0551 -11.4614 31.8314 34.2342 0.0000 0.0000 16.4017 0.0000 0.0000 -18.0177 28.4347 75.2042 11.3360 0.0000 0.0000 2.3223 0.0000 0.0000 -26.0035 20.7230 81.5201 23.5451 0.0000 0.0000 4.4212 0.0000 0.0000 -29.3548 9.0084 79.1673 36.4723 0.0000 0.0000 7.5672 0.0000 0.0000 -22.2078 -6.0026 41.3236 74.9151 0.0000 0.0000 9.5803 0.0000 0.0000 0.0000 0.0000 0.0000 0.0000 0.0000 0.0000 0.0000 0.0000 0.0000 0.0000 0.0000 0.0000 0.0000 0.0000 0.0000 0.0000 0.0000 0.0000
0.0000 95.0000 0.0000 0.0000 0.0000 0.0000 0.0000 0.0000 0.0000 0.0000 0.0000 0.0000 0.0000 0.0000 0.0000 0.0000 0.0000 0.0000 0.0000 0.0000 0.0000 0.0000 0.0000 0.0000 -77.0315 -13.6266 -17.0750 -226.6904 57.1813 -323.7230 -619.7291 -70.5310 -90.0326 59.0915 -14.2307 -14.4900 10.2844 0.0000 0.0000 9.0101 0.0000 0.0000 -10.5403 3.0995 -29.5677 13.2139 0.0000 0.0000 8.7336 0.0000 0.0000 -0.8399 -0.2119 -33.0960 7.7031 0.0000 0.0000 9.0460 0.0000 0.0000 5.8106 -3.2137 -32.0147 7.3342 0.0000 0.0000 1.4878 0.0000 0.0000 13.1447 -6.4353 -29.3926 10.1715 0.0000 0.0000 1.2618 0.0000 0.0000 0.0000 0.0000 0.0000 85.2712 -19.1098 20.7216 227.5280 57.3785 314.0304 74.5999 -20.3069 -47.4833 -97.5449 -18.8380 1.0813 39.2551 0.0000 0.0000 27.7776 0.0000 0.0000 13.2740 -0.2532 -13.1298 113.4228 0.0000 0.0000 9.2056 0.0000 0.0000 11.8402 2.4002 -18.0707 141.9563 0.0000 0.0000 8.7943 0.0000 0.0000 5.5146 3.7090 -17.5436 109.2115 0.0000 0.0000 63.1741 0.0000 0.0000 -0.3790 4.8183 -15.6845 34.9443 0.0000 0.0000 33.1375 0.0000 0.0000 0.0000 0.0000 0.0000 0.0000 0.0000 0.0000 0.0000 0.0000 0.0000 0.0000 0.0000 0.0000 0.0000 0.0000 0.0000 0.0000 0.0000 0.0000
0.0000 95.0000 0.0000 0.0000 0.0000 0.0000 0.0000 0.0000 0.0000 0.0000 0.0000 0.0000 0.0000 0.0000 0.0000 0.0000 0.0000 0.0000 0.0000 0.0000 0.0000 0.0000 0.0000 0.0000 -76.2565 -13.4357 -17.0693 -238.3541 63.6642 -330.5562 -760.0292 -12.5125 -43.4263 112.7007 -14.0234 -22.4551 28.3123 0.0000 0.0000 50.8656 0.0000 0.0000 26.9139 -3.6840 5.3883 43.5262 0.0000 0.0000 20.7239 0.0000 0.0000 3.6722 -0.0193 -4.1709 30.7147 0.0000 0.0000 6.9700 0.0000 0.0000 1.9663 -0.6849 -4.6653 41.1312 0.0000 0.0000 14.0154 0.0000 0.0000 -0.5040 -1.4581 -4.8025 42.8576 0.0000 0.0000 12.2918 0.0000 0.0000 0.0000 0.0000 0.0000 83.8009 -17.9652 19.9828 234.0913 65.3643 318.2184 26.7640 -35.2835 -5.5624 -103.2321 -11.4619 32.9913 25.0162 0.0000 0.0000 32.0380 0.0000 0.0000 12.8674 3.1152 36.8970 29.5384 0.0000 0.0000 29.5096 0.0000 0.0000 18.3536 -5.5827 38.3602 74.3776 0.0000 0.0000 55.3507 0.0000 0.0000 14.8872 -8.1392 32.1969 102.1676 0.0000 0.0000 65.7078 0.0000 0.0000 10.0411 -12.1449 31.7789 118.9056 0.0000 0.0000 61.6870 0.0000 0.0000 0.0000 0.0000 0.0000 0.0000 0.0000 0.0000 0.0000 0.0000 0.0000 0.0000 0.0000 0.0000 0.0000 0.0000 0.0000 0.0000 0.0000 0.0000
0.0000 95.0000 0.0000 0.0000 0.0000 0.0000 0.0000 0.0000 0.0000 0.0000 0.0000 0.0000 0.0000 0.0000 0.0000 0.0000 0.0000 0.0000 0.0000 0.0000 0.0000 0.0000 0.0000 0.0000 -74.8958 -12.4411 -16.1995 -267.5709 73.0459 -353.7802 -674.9650 -49.9669 -36.1914 54.0966 -13.1548 -9.3662 14.9506 0.0000 0.0000 15.0229 0.0000 0.0000 -6.9948 2.9901 -22.3513 15.5391 0.0000 0.0000 5.9719 0.0000 0.0000 -5.9696 -1.1298 -26.1874 12.2516 0.0000 0.0000 6.5106 0.0000 0.0000 0.4171 -4.1615 -29.9446 23.4288 0.0000 0.0000 10.4676 0.0000 0.0000 7.6912 -9.1159 -36.0245 30.9092 0.0000 0.0000 10.8269 0.0000 0.0000 0.0000 0.0000 0.0000 81.5619 -15.6816 18.1408 265.0638 76.0380 344.7666 18.0212 -20.3156 16.6237 -98.4194 -10.6572 39.1093 37.0350 0.0000 0.0000 55.3081 0.0000 0.0000 -5.4988 8.0370 35.1649 24.0784 0.0000 0.0000 58.3263 0.0000 0.0000 -12.5142 4.6057 45.0550 51.2448 0.0000 0.0000 64.9092 0.0000 0.0000 -25.9095 3.1183 50.1981 60.4256 0.0000 0.0000 54.5170 0.0000 0.0000 -39.7898 0.1114 56.2288 53.4162 0.0000 0.0000 44.1023 0.0000 0.0000 0.0000 0.0000 0.0000 0.0000 0.0000 0.0000 0.0000 0.0000 0.0000 0.0000 0.0000 0.0000 0.0000 0.0000 0.0000 0.0000 0.0000 0.0000
0.0000 95.0000 0.0000 0.0000 0.0000 0.0000 0.0000 0.0000 0.0000 0.0000 0.0000 0.0000 0.0000 0.0000 0.0000 0.0000 0.0000 0.0000 0.0000 0.0000 0.0000 0.0000 0.0000 0.0000 -73.8206 -11.9490 -15.8643 -321.8556 71.4331 -398.8163 -699.3329 -39.0458 -15.9650 65.3285 -15.1561 -24.1065 18.7978 0.0000 0.0000 18.2755 0.0000 0.0000 -4.8235 5.4622 -37.1020 6.4594 0.0000 0.0000 5.1787 0.0000 0.0000 -4.5797 -1.4858 -40.7057 25.2565 0.0000 0.0000 10.5871 0.0000 0.0000 2.1355 -5.6720 -44.3057 37.5821 0.0000 0.0000 15.0644 0.0000 0.0000 9.2207 -12.1025 -50.1557 42.6642 0.0000 0.0000 14.7287 0.0000 0.0000 0.0000 0.0000 0.0000 80.1384 -14.4383 17.1274 323.6698 74.8459 396.3178 45.8105 -3.3916 7.4226 -94.9507 -8.3357 53.6231 56.1117 0.0000 0.0000 24.7124 0.0000 0.0000 -15.8537 11.8988 37.6708 42.8292 0.0000 0.0000 40.9698 0.0000 0.0000 -23.8147 10.4211 51.5457 60.1218 0.0000 0.0000 41.7977 0.0000 0.0000 -35.6802 9.5052 61.5706 64.2584 0.0000 0.0000 35.5584 0.0000 0.0000 -49.0529 6.4111 68.8943 55.5402 0.0000 0.0000 32.3400 0.0000 0.0000 0.0000 0.0000 0.0000 0.0000 0.0000 0.0000 0.0000 0.0000 0.0000 0.0000 0.0000 0.0000 0.0000 0.0000 0.0000 0.0000 0.0000 0.0000
0.0000 95.0000 0.0000 0.0000 0.0000 0.0000 0.0000 0.0000 0.0000 0.0000 0.0000 0.0000 0.0000 0.0000 0.0000 0.0000 0.0000 0.0000 0.0000 0.0000 0.0000 0.0000 0.0000 0.0000 -73.8784 -7.2881 -9.6829 -361.5360 44.8992 -415.1909 -752.9999 -10.3987 25.0685 54.1883 -17.3496 -35.2826 34.0478 0.0000 0.0000 8.3029 0.0000 0.0000 -29.7080 -2.9692 -51.0043 84.5042 0.0000 0.0000 22.9083 0.0000 0.0000 -22.0966 -9.4512 -50.6644 86.8162 0.0000 0.0000 20.9662 0.0000 0.0000 -15.9477 -14.6718 -52.2078 90.3166 0.0000 0.0000 22.9536 0.0000 0.0000 -11.7086 -23.3747 -55.6732 83.9755 0.0000 0.0000 23.0074 0.0000 0.0000 0.0000 0.0000 0.0000 80.0132 -8.9439 10.6474 367.6566 51.7002 422.4563 57.1772 38.6404 18.8957 -55.1768 -14.4678 17.2503 28.0953 0.0000 0.0000 5.9053 0.0000 0.0000 5.6555 2.5026 17.1289 134.7313 0.0000 0.0000 30.5602 0.0000 0.0000 -9.8421 1.7434 24.8146 125.9529 0.0000 0.0000 36.5673 0.0000 0.0000 -20.0111 -0.0911 28.7313 121.6697 0.0000 0.0000 40.3213 0.0000 0.0000 -35.5130 -2.1736 30.3339 110.0663 0.0000 0.0000 46.7029 0.0000 0.0000 0.0000 0.0000 0.0000 0.0000 0.0000 0.0000 0.0000 0.0000 0.0000 0.0000 0.0000 0.0000 0.0000 0.0000 0.0000 0.0000 0.0000 0.0000
0.0000 95.0000 0.0000 0.0000 0.0000 0.0000 0.0000 0.0000 0.0000 0.0000 0.0000 0.0000 0.0000 0.0000 0.0000 0.0000 0.0000 0.0000 0.0000 0.0000 0.0000 0.0000 0.0000 0.0000 -73.9194 -3.2395 -4.3044 -370.1055 21.8667 -394.6577 -735.5060 17.5441 14.9281 39.6115 -10.1284 -3.9061 13.3797 0.0000 0.0000 6.6224 0.0000 0.0000 -27.3222 -0.9048 -35.1688 116.6503 0.0000 0.0000 27.6751 0.0000 0.0000 -18.0210 -5.3706 -37.7255 114.3648 0.0000 0.0000 25.5571 0.0000 0.0000 -10.6259 -8.9570 -39.5727 116.0310 0.0000 0.0000 26.0115 0.0000 0.0000 -4.9126 -16.3092 -46.1613 106.4207 0.0000 0.0000 26.8460 0.0000 0.0000 0.0000 0.0000 0.0000 80.5109 -5.0663 5.9818 373.9808 29.1954 403.3431 79.1004 74.2371 52.9089 -52.0735 -12.7041 7.9350 19.7172 0.0000 0.0000 2.9320 0.0000 0.0000 -3.4782 3.6600 17.8821 141.8645 0.0000 0.0000 25.5508 0.0000 0.0000 -19.0112 3.2225 23.8442 133.0066 0.0000 0.0000 35.4022 0.0000 0.0000 -28.9487 1.5786 27.7862 127.9139 0.0000 0.0000 39.4762 0.0000 0.0000 -42.4650 -0.9565 28.3002 122.0195 0.0000 0.0000 36.9689 0.0000 0.0000 0.0000 0.0000 0.0000 0.0000 0.0000 0.0000 0.0000 0.0000 0.0000 0.0000 0.0000 0.0000 0.0000 0.0000 0.0000 0.0000 0.0000 0.0000
0.0000 95.0000 0.0000 0.0000 0.0000 0.0000 0.0000 0.0000 0.0000 0.0000 0.0000 0.0000 0.0000 0.0000 0.0000 0.0000 0.0000 0.0000 0.0000 0.0000 0.0000 0.0000 0.0000 0.0000 -74.9668 1.5027 1.9595 -370.9970 9.2162 -374.3077 -729.2972 59.3559 -0.2900 38.1630 -7.7457 2.8231 6.3473 0.0000 0.0000 6.8898 0.0000 0.0000 -14.7032 1.9965 -25.9206 126.0385 0.0000 0.0000 31.6959 0.0000 0.0000 -5.6510 -1.0706 -26.2118 125.2374 0.0000 0.0000 32.1867 0.0000 0.0000 3.6530 -2.9058 -24.8400 125.7998 0.0000 0.0000 33.4034 0.0000 0.0000 13.1179 -4.7521 -20.4099 124.7592 0.0000 0.0000 35.6357 0.0000 0.0000 0.0000 0.0000 0.0000 82.3669 -3.1828 3.6375 371.1726 18.8408 386.5111 170.3228 45.4981 150.8299 -57.1454 -11.3375 -5.5524 10.8289 0.0000 0.0000 7.8288 0.0000 0.0000 1.5338 -0.4968 -3.3657 5.9673 0.0000 0.0000 1.4760 0.0000 0.0000 -8.2988 -0.3435 0.0397 6.2259 0.0000 0.0000 2.3849 0.0000 0.0000 -16.3358 -0.9139 -1.8544 7.1872 0.0000 0.0000 1.3378 0.0000 0.0000 -24.4426 -1.5320 -3.0533 5.3946 0.0000 0.0000 2.1549 0.0000 0.0000 0.0000 0.0000 0.0000 0.0000 0.0000 0.0000 0.0000 0.0000 0.0000 0.0000 0.0000 0.0000 0.0000 0.0000 0.0000 0.0000 0.0000 0.0000
0.0000 95.0000 0.0000 0.0000 0.0000 0.0000 0.0000 0.0000 0.0000 0.0000 0.0000 0.0000 0.0000 0.0000 0.0000 0.0000 0.0000 0.0000 0.0000 0.0000 0.0000 0.0000 0.0000 0.0000 -75.5624 4.4118 5.6897 -370.4263 6.2802 -368.6267 -728.4473 66.9206 -7.6129 38.1630 -7.7457 2.8231 6.3473 0.0000 0.0000 6.8898 0.0000 0.0000 -14.7032 1.9965 -25.9206 126.0385 0.0000 0.0000 31.6959 0.0000 0.0000 -5.6510 -1.0706 -26.2118 125.2374 0.0000 0.0000 32.1867 0.0000 0.0000 3.6530 -2.9058 -24.8400 125.7998 0.0000 0.0000 33.4034 0.0000 0.0000 13.1179 -4.7521 -20.4099 124.7592 0.0000 0.0000 35.6357 0.0000 0.0000 0.0000 0.0000 0.0000 83.8263 -1.9611 2.1846 368.3392 14.6941 379.1387 174.8393 39.1377 160.9350 -57.1454 -11.3375 -5.5524 10.8289 0.0000 0.0000 7.8288 0.0000 0.0000 1.5338 -0.4968 -3.3657 5.9673 0.0000 0.0000 1.4760 0.0000 0.0000 -8.2988 -0.3435 0.0397 6.2259 0.0000 0.0000 2.3849 0.0000 0.0000 -16.3358 -0.9139 -1.8544 7.1872 0.0000 0.0000 1.3378 0.0000 0.0000 -24.4426 -1.5320 -3.0533 5.3946 0.0000 0.0000 2.1549 0.0000 0.0000 0.0000 0.0000 0.0000 0.0000 0.0000 0.0000 0.0000 0.0000 0.0000 0.0000 0.0000 0.0000 0.0000 0.0000 0.0000 0.0000 0.0000 0.0000
0.0000 95.0000 0.0000 0.0000 0.0000 0.0000 0.0000 0.0000 0.0000 0.0000 0.0000 0.0000 0.0000 0.0000 0.0000 0.0000 0.0000 0.0000 0.0000 0.0000 0.0000 0.0000 0.0000 0.0000 -76.0050 6.3131 8.0744 -369.8095 4.3897 -365.1116 -729.9445 71.6685 -14.1349 38.1630 -7.7457 2.8231 6.3473 0.0000 0.0000 6.8898 0.0000 0.0000 -14.7032 1.9965 -25.9206 126.0385 0.0000 0.0000 31.6959 0.0000 0.0000 -5.6510 -1.0706 -26.2118 125.2374 0.0000 0.0000 32.1867 0.0000 0.0000 3.6530 -2.9058 -24.8400 125.7998 0.0000 0.0000 33.4034 0.0000 0.0000 13.1179 -4.7521 -20.4099 124.7592 0.0000 0.0000 35.6357 0.0000 0.0000 0.0000 0.0000 0.0000 85.1457 -1.3542 1.4741 365.1924 12.1605 374.5742 175.2295 34.9760 165.5715 -57.1454 -11.3375 -5.5524 10.8289 0.0000 0.0000 7.8288 0.0000 0.0000 1.5338 -0.4968 -3.3657 5.9673 0.0000 0.0000 1.4760 0.0000 0.0000 -8.2988 -0.3435 0.0397 6.2259 0.0000 0.0000 2.3849 0.0000 0.0000 -16.3358 -0.9139 -1.8544 7.1872 0.0000 0.0000 1.3378 0.0000 0.0000 -24.4426 -1.5320 -3.0533 5.3946 0.0000 0.0000 2.1549 0.0000 0.0000 0.0000 0.0000 0.0000 0.0000 0.0000 0.0000 0.0000 0.0000 0.0000 0.0000 0.0000 0.0000 0.0000 0.0000 0.0000 0.0000 0.0000 0.0000
0.0000 95.0000 0.0000 0.0000 0.0000 0.0000 0.0000 0.0000 0.0000 0.0000 0.0000 0.0000 0.0000 0.0000 0.0000 0.0000 0.0000 0.0000 0.0000 0.0000 0.0000 0.0000 0.0000 0.0000 -76.5225 7.1123 9.0113 -368.9471 0.5527 -359.2154 -737.1479 76.9555 -27.1092 38.1630 -7.7457 2.8231 6.3473 0.0000 0.0000 6.8898 0.0000 0.0000 -14.7032 1.9965 -25.9206 126.0385 0.0000 0.0000 31.6959 0.0000 0.0000 -5.6510 -1.0706 -26.2118 125.2374 0.0000 0.0000 32.1867 0.0000 0.0000 3.6530 -2.9058 -24.8400 125.7998 0.0000 0.0000 33.4034 0.0000 0.0000 13.1179 -4.7521 -20.4099 124.7592 0.0000 0.0000 35.6357 0.0000 0.0000 0.0000 0.0000 0.0000 85.6299 -1.2378 1.3359 362.9764 9.8814 371.2739 174.6532 32.0542 168.3470 -57.1454 -11.3375 -5.5524 10.8289 0.0000 0.0000 7.8288 0.0000 0.0000 1.5338 -0.4968 -3.3657 5.9673 0.0000 0.0000 1.4760 0.0000 0.0000 -8.2988 -0.3435 0.0397 6.2259 0.0000 0.0000 2.3849 0.0000 0.0000 -16.3358 -0.9139 -1.8544 7.1872 0.0000 0.0000 1.3378 0.0000 0.0000 -24.4426 -1.5320 -3.0533 5.3946 0.0000 0.0000 2.1549 0.0000 0.0000 0.0000 0.0000 0.0000 0.0000 0.0000 0.0000 0.0000 0.0000 0.0000 0.0000 0.0000 0.0000 0.0000 0.0000 0.0000 0.0000 0.0000 0.0000
0.0000 95.0000 0.0000 0.0000 0.0000 0.0000 0.0000 0.0000 0.0000 0.0000 0.0000 0.0000 0.0000 0.0000 0.0000 0.0000 0.0000 0.0000 0.0000 0.0000 0.0000 0.0000 0.0000 0.0000 -76.5940 8.3455 10.5571 -367.7989 -2.1426 -355.3275 -755.1433 80.0774 -49.5842 38.1630 -7.7457 2.8231 6.3473 0.0000 0.0000 6.8898 0.0000 0.0000 -14.7032 1.9965 -25.9206 126.0385 0.0000 0.0000 31.6959 0.0000 0.0000 -5.6510 -1.0706 -26.2118 125.2374 0.0000 0.0000 32.1867 0.0000 0.0000 3.6530 -2.9058 -24.8400 125.7998 0.0000 0.0000 33.4034 0.0000 0.0000 13.1179 -4.7521 -20.4099 124.7592 0.0000 0.0000 35.6357 0.0000 0.0000 0.0000 0.0000 0.0000 85.9447 -1.3899 1.4919 361.2044 9.1145 369.9953 173.3804 31.0977 168.6990 -57.1454 -11.3375 -5.5524 10.8289 0.0000 0.0000 7.8288 0.0000 0.0000 1.5338 -0.4968 -3.3657 5.9673 0.0000 0.0000 1.4760 0.0000 0.0000 -8.2988 -0.3435 0.0397 6.2259 0.0000 0.0000 2.3849 0.0000 0.0000 -16.3358 -0.9139 -1.8544 7.1872 0.0000 0.0000 1.3378 0.0000 0.0000 -24.4426 -1.5320 -3.0533 5.3946 0.0000 0.0000 2.1549 0.0000 0.0000 0.0000 0.0000 0.0000 0.0000 0.0000 0.0000 0.0000 0.0000 0.0000 0.0000 0.0000 0.0000 0.0000 0.0000 0.0000 0.0000 0.0000 0.0000
0.0000 95.0000 0.0000 0.0000 0.0000 0.0000 0.0000 0.0000 0.0000 0.0000 0.0000 0.0000 0.0000 0.0000 0.0000 0.0000 0.0000 0.0000 0.0000 0.0000 0.0000 0.0000 0.0000 0.0000 -77.0079 9.0087 11.3104 -366.3739 -3.2923 -354.0905 -767.6318 80.3424 -63.7481 38.1630 -7.7457 2.8231 6.3473 0.0000 0.0000 6.8898 0.0000 0.0000 -14.7032 1.9965 -25.9206 126.0385 0.0000 0.0000 31.6959 0.0000 0.0000 -5.6510 -1.0706 -26.2118 125.2374 0.0000 0.0000 32.1867 0.0000 0.0000 3.6530 -2.9058 -24.8400 125.7998 0.0000 0.0000 33.4034 0.0000 0.0000 13.1179 -4.7521 -20.4099 124.7592 0.0000 0.0000 35.6357 0.0000 0.0000 0.0000 0.0000 0.0000 86.6374 -1.0566 1.1204 359.8039 7.6863 368.1059 173.2518 29.1476 170.7493 -57.1454 -11.3375 -5.5524 10.8289 0.0000 0.0000 7.8288 0.0000 0.0000 1.5338 -0.4968 -3.3657 5.9673 0.0000 0.0000 1.4760 0.0000 0.0000 -8.2988 -0.3435 0.0397 6.2259 0.0000 0.0000 2.3849 0.0000 0.0000 -16.3358 -0.9139 -1.8544 7.1872 0.0000 0.0000 1.3378 0.0000 0.0000 -24.4426 -1.5320 -3.0533 5.3946 0.0000 0.0000 2.1549 0.0000 0.0000 0.0000 0.0000 0.0000 0.0000 0.0000 0.0000 0.0000 0.0000 0.0000 0.0000 0.0000 0.0000 0.0000 0.0000 0.0000 0.0000 0.0000 0.0000
0.0000 95.0000 0.0000 0.0000 0.0000 0.0000 0.0000 0.0000 0.0000 0.0000 0.0000 0.0000 0.0000 0.0000 0.0000 0.0000 0.0000 0.0000 0.0000 0.0000 0.0000 0.0000 0.0000 0.0000 -77.0172 9.1907 11.5364 -365.7284 -3.8980 -353.4560 -773.7679 80.0912 -70.5729 38.1630 -7.7457 2.8231 6.3473 0.0000 0.0000 6.8898 0.0000 0.0000 -14.7032 1.9965 -25.9206 126.0385 0.0000 0.0000 31.6959 0.0000 0.0000 -5.6510 -1.0706 -26.2118 125.2374 0.0000 0.0000 32.1867 0.0000 0.0000 3.6530 -2.9058 -24.8400 125.7998 0.0000 0.0000 33.4034 0.0000 0.0000 13.1179 -4.7521 -20.4099 124.7592 0.0000 0.0000 35.6357 0.0000 0.0000 0.0000 0.0000 0.0000 86.7380 -1.1596 1.2275 358.9248 7.3581 367.6088 172.4902 28.7978 170.7527 -57.1454 -11.3375 -5.5524 10.8289 0.0000 0.0000 7.8288 0.0000 0.0000 1.5338 -0.4968 -3.3657 5.9673 0.0000 0.0000 1.4760 0.0000 0.0000 -8.2988 -0.3435 0.0397 6.2259 0.0000 0.0000 2.3849 0.0000 0.0000 -16.3358 -0.9139 -1.8544 7.1872 0.0000 0.0000 1.3378 0.0000 0.0000 -24.4426 -1.5320 -3.0533 5.3946 0.0000 0.0000 2.1549 0.0000 0.0000 0.0000 0.0000 0.0000 0.0000 0.0000 0.0000 0.0000 0.0000 0.0000 0.0000 0.0000 0.0000 0.0000 0.0000 0.0000 0.0000 0.0000 0.0000
0.0000 95.0000 0.0000 0.0000 0.0000 0.0000 0.0000 0.0000 0.0000 0.0000 0.0000 0.0000 0.0000 0.0000 0.0000 0.0000 0.0000 0.0000 0.0000 0.0000 0.0000 0.0000 0.0000 0.0000 -77.2851 9.0691 11.3300 -365.1628 -3.1312 -354.7023 -768.6753 79.4291 -64.2644 38.1630 -7.7457 2.8231 6.3473 0.0000 0.0000 6.8898 0.0000 0.0000 -14.7032 1.9965 -25.9206 126.0385 0.0000 0.0000 31.6959 0.0000 0.0000 -5.6510 -1.0706 -26.2118 125.2374 0.0000 0.0000 32.1867 0.0000 0.0000 3.6530 -2.9058 -24.8400 125.7998 0.0000 0.0000 33.4034 0.0000 0.0000 13.1179 -4.7521 -20.4099 124.7592 0.0000 0.0000 35.6357 0.0000 0.0000 0.0000 0.0000 0.0000 86.9687 -1.0999 1.1597 358.0712 7.5077 367.6035 171.7732 28.7510 170.4457 -57.1454 -11.3375 -5.5524 10.8289 0.0000 0.0000 7.8288 0.0000 0.0000 1.5338 -0.4968 -3.3657 5.9673 0.0000 0.0000 1.4760 0.0000 0.0000 -8.2988 -0.3435 0.0397 6.2259 0.0000 0.0000 2.3849 0.0000 0.0000 -16.3358 -0.9139 -1.8544 7.1872 0.0000 0.0000 1.3378 0.0000 0.0000 -24.4426 -1.5320 -3.0533 5.3946 0.0000 0.0000 2.1549 0.0000 0.0000 0.0000 0.0000 0.0000 0.0000 0.0000 0.0000 0.0000 0.0000 0.0000 0.0000 0.0000 0.0000 0.0000 0.0000 0.0000 0.0000 0.0000 0.0000
0.0000 95.0000 0.0000 0.0000 0.0000 0.0000 0.0000 0.0000 0.0000 0.0000 0.0000 0.0000 0.0000 0.0000 0.0000 0.0000 0.0000 0.0000 0.0000 0.0000 0.0000 0.0000 0.0000 0.0000 -77.6023 8.8505 10.9954 -364.3991 -2.9784 -355.1773 -767.4119 78.7673 -62.3176 38.1630 -7.7457 2.8231 6.3473 0.0000 0.0000 6.8898 0.0000 0.0000 -14.7032 1.9965 -25.9206 126.0385 0.0000 0.0000 31.6959 0.0000 0.0000 -5.6510 -1.0706 -26.2118 125.2374 0.0000 0.0000 32.1867 0.0000 0.0000 3.6530 -2.9058 -24.8400 125.7998 0.0000 0.0000 33.4034 0.0000 0.0000 13.1179 -4.7521 -20.4099 124.7592 0.0000 0.0000 35.6357 0.0000 0.0000 0.0000 0.0000 0.0000 87.1787 -1.1264 1.1833 357.5216 7.5924 367.5762 171.3760 28.7705 170.2234 -57.1454 -11.3375 -5.5524 10.8289 0.0000 0.0000 7.8288 0.0000 0.0000 1.5338 -0.4968 -3.3657 5.9673 0.0000 0.0000 1.4760 0.0000 0.0000 -8.2988 -0.3435 0.0397 6.2259 0.0000 0.0000 2.3849 0.0000 0.0000 -16.3358 -0.9139 -1.8544 7.1872 0.0000 0.0000 1.3378 0.0000 0.0000 -24.4426 -1.5320 -3.0533 5.3946 0.0000 0.0000 2.1549 0.0000 0.0000 0.0000 0.0000 0.0000 0.0000 0.0000 0.0000 0.0000 0.0000 0.0000 0.0000 0.0000 0.0000 0.0000 0.0000 0.0000 0.0000 0.0000 0.0000
0.0000 95.0000 0.0000 0.0000 0.0000 0.0000 0.0000 0.0000 0.0000 0.0000 0.0000 0.0000 0.0000 0.0000 0.0000 0.0000 0.0000 0.0000 0.0000 0.0000 0.0000 0.0000 0.0000 0.0000 -77.8561 9.1530 11.3193 -363.9497 -2.4286 -356.0152 -766.0696 78.5040 -60.5680 38.1630 -7.7457 2.8231 6.3473 0.0000 0.0000 6.8898 0.0000 0.0000 -14.7032 1.9965 -25.9206 126.0385 0.0000 0.0000 31.6959 0.0000 0.0000 -5.6510 -1.0706 -26.2118 125.2374 0.0000 0.0000 32.1867 0.0000 0.0000 3.6530 -2.9058 -24.8400 125.7998 0.0000 0.0000 33.4034 0.0000 0.0000 13.1179 -4.7521 -20.4099 124.7592 0.0000 0.0000 35.6357 0.0000 0.0000 0.0000 0.0000 0.0000 87.4107 -1.3211 1.3822 357.3309 7.9136 367.8251 171.2912 29.2196 169.6778 -57.1454 -11.3375 -5.5524 10.8289 0.0000 0.0000 7.8288 0.0000 0.0000 1.5338 -0.4968 -3.3657 5.9673 0.0000 0.0000 1.4760 0.0000 0.0000 -8.2988 -0.3435 0.0397 6.2259 0.0000 0.0000 2.3849 0.0000 0.0000 -16.3358 -0.9139 -1.8544 7.1872 0.0000 0.0000 1.3378 0.0000 0.0000 -24.4426 -1.5320 -3.0533 5.3946 0.0000 0.0000 2.1549 0.0000 0.0000 0.0000 0.0000 0.0000 0.0000 0.0000 0.0000 0.0000 0.0000 0.0000 0.0000 0.0000 0.0000 0.0000 0.0000 0.0000 0.0000 0.0000 0.0000
0.0000 95.0000 0.0000 0.0000 0.0000 0.0000 0.0000 0.0000 0.0000 0.0000 0.0000 0.0000 0.0000 0.0000 0.0000 0.0000 0.0000 0.0000 0.0000 0.0000 0.0000 0.0000 0.0000 0.0000 -78.1249 9.0344 11.1198 -363.8209 -2.1797 -356.3987 -763.7657 78.3664 -57.8104 38.1630 -7.7457 2.8231 6.3473 0.0000 0.0000 6.8898 0.0000 0.0000 -14.7032 1.9965 -25.9206 126.0385 0.0000 0.0000 31.6959 0.0000 0.0000 -5.6510 -1.0706 -26.2118 125.2374 0.0000 0.0000 32.1867 0.0000 0.0000 3.6530 -2.9058 -24.8400 125.7998 0.0000 0.0000 33.4034 0.0000 0.0000 13.1179 -4.7521 -20.4099 124.7592 0.0000 0.0000 35.6357 0.0000 0.0000 0.0000 0.0000 0.0000 87.5598 -1.2323 1.2859 357.1636 7.9711 367.8407 171.2737 29.1649 169.7300 -57.1454 -11.3375 -5.5524 10.8289 0.0000 0.0000 7.8288 0.0000 0.0000 1.5338 -0.4968 -3.3657 5.9673 0.0000 0.0000 1.4760 0.0000 0.0000 -8.2988 -0.3435 0.0397 6.2259 0.0000 0.0000 2.3849 0.0000 0.0000 -16.3358 -0.9139 -1.8544 7.1872 0.0000 0.0000 1.3378 0.0000 0.0000 -24.4426 -1.5320 -3.0533 5.3946 0.0000 0.0000 2.1549 0.0000 0.0000 0.0000 0.0000 0.0000 0.0000 0.0000 0.0000 0.0000 0.0000 0.0000 0.0000 0.0000 0.0000 0.0000 0.0000 0.0000 0.0000 0.0000 0.0000
