HIERARCHY
ROOT Hips
{
  OFFSET 0.000000 95.000000 0.000000
  CHANNELS 6 Xposition Yposition Zposition Zrotation Xrotation Yrotation
  JOINT Spine
  {
    OFFSET 0.000000 10.000000 0.000000
    CHANNELS 3 Zrotation Xrotation Yrotation
    JOINT Spine1
    {
      OFFSET 0.000000 12.000000 0.000000
      CHANNELS 3 Zrotation Xrotation Yrotation
      JOINT Spine2
      {
        OFFSET 0.000000 12.000000 0.000000
        CHANNELS 3 Zrotation Xrotation Yrotation
        JOINT Neck
        {
          OFFSET 0.000000 10.000000 0.000000
          CHANNELS 3 Zrotation Xrotation Yrotation
          JOINT Head
          {
            OFFSET 0.000000 8.000000 0.000000
            CHANNELS 3 Zrotation Xrotation Yrotation
            End Site
            {
              OFFSET 0.000000 10.000000 0.000000
            }
          }
        }
        JOINT LeftShoulder
        {
          OFFSET 6.000000 8.000000 0.000000
          CHANNELS 3 Zrotation Xrotation Yrotation
          JOINT LeftArm
          {
            OFFSET 12.000000 0.000000 0.000000
            CHANNELS 3 Zrotation Xrotation Yrotation
            JOINT LeftForeArm
            {
              OFFSET 24.000000 0.000000 0.000000
              CHANNELS 3 Zrotation Xrotation Yrotation
              JOINT LeftHand
              {
                OFFSET 22.000000 0.000000 0.000000
                CHANNELS 3 Zrotation Xrotation Yrotation
                JOINT LeftHandThumb1
                {
                  OFFSET 1.800000 -1.400000 0.500000
                  CHANNELS 3 Zrotation Xrotation Yrotation
                  JOINT LeftHandThumb2
                  {
                    OFFSET 2.400000 0.000000 0.000000
                    CHANNELS 3 Zrotation Xrotation Yrotation
                    JOINT LeftHandThumb3
                    {
                      OFFSET 1.900000 0.000000 0.000000
                      CHANNELS 3 Zrotation Xrotation Yrotation
                      End Site
                      {
                        OFFSET 1.600000 0.000000 0.000000
                      }
                    }
                  }
                }
                JOINT LeftHandIndex1
                {
                  OFFSET 6.600000 1.200000 0.300000
                  CHANNELS 3 Zrotation Xrotation Yrotation
                  JOINT LeftHandIndex2
                  {
                    OFFSET 2.000000 0.000000 0.000000
                    CHANNELS 3 Zrotation Xrotation Yrotation
                    JOINT LeftHandIndex3
                    {
                      OFFSET 1.200000 0.000000 0.000000
                      CHANNELS 3 Zrotation Xrotation Yrotation
                      End Site
                      {
                        OFFSET 1.000000 0.000000 0.000000
                      }
                    }
                  }
                }
                JOINT LeftHandMiddle1
                {
                  OFFSET 7.200000 0.000000 0.300000
                  CHANNELS 3 Zrotation Xrotation Yrotation
                  JOINT LeftHandMiddle2
                  {
                    OFFSET 3.000000 0.000000 0.000000
                    CHANNELS 3 Zrotation Xrotation Yrotation
                    JOINT LeftHandMiddle3
                    {
                      OFFSET 2.000000 0.000000 0.000000
                      CHANNELS 3 Zrotation Xrotation Yrotation
                      End Site
                      {
                        OFFSET 1.600000 0.000000 0.000000
                      }
                    }
                  }
                }
                JOINT LeftHandRing1
                {
                  OFFSET 7.100000 -1.000000 0.400000
                  CHANNELS 3 Zrotation Xrotation Yrotation
                  JOINT LeftHandRing2
                  {
                    OFFSET 2.600000 0.000000 0.000000
                    CHANNELS 3 Zrotation Xrotation Yrotation
                    JOINT LeftHandRing3
                    {
                      OFFSET 1.600000 0.000000 0.000000
                      CHANNELS 3 Zrotation Xrotation Yrotation
                      End Site
                      {
                        OFFSET 1.300000 0.000000 0.000000
                      }
                    }
                  }
                }
                JOINT LeftHandPinky1
                {
                  OFFSET 6.500000 -2.000000 0.500000
                  CHANNELS 3 Zrotation Xrotation Yrotation
                  JOINT LeftHandPinky2
                  {
                    OFFSET 1.900000 0.000000 0.000000
                    CHANNELS 3 Zrotation Xrotation Yrotation
                    JOINT LeftHandPinky3
                    {
                      OFFSET 1.400000 0.000000 0.000000
                      CHANNELS 3 Zrotation Xrotation Yrotation
                      End Site
                      {
                        OFFSET 1.300000 0.000000 0.000000
                      }
                    }
                  }
                }
              }
            }
          }
        }
        JOINT RightShoulder
        {
          OFFSET -6.000000 8.000000 0.000000
          CHANNELS 3 Zrotation Xrotation Yrotation
          JOINT RightArm
          {
            OFFSET -12.000000 0.000000 0.000000
            CHANNELS 3 Zrotation Xrotation Yrotation
            JOINT RightForeArm
            {
              OFFSET -24.000000 0.000000 0.000000
              CHANNELS 3 Zrotation Xrotation Yrotation
              JOINT RightHand
              {
                OFFSET -22.000000 0.000000 0.000000
                CHANNELS 3 Zrotation Xrotation Yrotation
                JOINT RightHandThumb1
                {
                  OFFSET -1.800000 -1.400000 0.500000
                  CHANNELS 3 Zrotation Xrotation Yrotation
                  JOINT RightHandThumb2
                  {
                    OFFSET -2.400000 0.000000 0.000000
                    CHANNELS 3 Zrotation Xrotation Yrotation
                    JOINT RightHandThumb3
                    {
                      OFFSET -1.900000 0.000000 0.000000
                      CHANNELS 3 Zrotation Xrotation Yrotation
                      End Site
                      {
                        OFFSET -1.600000 0.000000 0.000000
                      }
                    }
                  }
                }
                JOINT RightHandIndex1
                {
                  OFFSET -6.600000 1.200000 0.300000
                  CHANNELS 3 Zrotation Xrotation Yrotation
                  JOINT RightHandIndex2
                  {
                    OFFSET -2.000000 0.000000 0.000000
                    CHANNELS 3 Zrotation Xrotation Yrotation
                    JOINT RightHandIndex3
                    {
                      OFFSET -1.200000 0.000000 0.000000
                      CHANNELS 3 Zrotation Xrotation Yrotation
                      End Site
                      {
                        OFFSET -1.000000 0.000000 0.000000
                      }
                    }
                  }
                }
                JOINT RightHandMiddle1
                {
                  OFFSET -7.200000 0.000000 0.300000
                  CHANNELS 3 Zrotation Xrotation Yrotation
                  JOINT RightHandMiddle2
                  {
                    OFFSET -3.000000 0.000000 0.000000
                    CHANNELS 3 Zrotation Xrotation Yrotation
                    JOINT RightHandMiddle3
                    {
                      OFFSET -2.000000 0.000000 0.000000
                      CHANNELS 3 Zrotation Xrotation Yrotation
                      End Site
                      {
                        OFFSET -1.600000 0.000000 0.000000
                      }
                    }
                  }
                }
                JOINT RightHandRing1
                {
                  OFFSET -7.100000 -1.000000 0.400000
                  CHANNELS 3 Zrotation Xrotation Yrotation
                  JOINT RightHandRing2
                  {
                    OFFSET -2.600000 0.000000 0.000000
                    CHANNELS 3 Zrotation Xrotation Yrotation
                    JOINT RightHandRing3
                    {
                      OFFSET -1.600000 0.000000 0.000000
                      CHANNELS 3 Zrotation Xrotation Yrotation
                      End Site
                      {
                        OFFSET -1.300000 0.000000 0.000000
                      }
                    }
                  }
                }
                JOINT RightHandPinky1
                {
                  OFFSET -6.500000 -2.000000 0.500000
                  CHANNELS 3 Zrotation Xrotation Yrotation
                  JOINT RightHandPinky2
                  {
                    OFFSET -1.900000 0.000000 0.000000
                    CHANNELS 3 Zrotation Xrotation Yrotation
                    JOINT RightHandPinky3
                    {
                      OFFSET -1.400000 0.000000 0.000000
                      CHANNELS 3 Zrotation Xrotation Yrotation
                      End Site
                      {
                        OFFSET -1.300000 0.000000 0.000000
                      }
                    }
                  }
                }
              }
            }
          }
        }
      }
    }
  }
  JOINT LeftUpLeg
  {
    OFFSET 10.000000 -5.000000 0.000000
    CHANNELS 3 Zrotation Xrotation Yrotation
    JOINT LeftLeg
    {
      OFFSET 0.000000 -42.000000 0.000000
      CHANNELS 3 Zrotation Xrotation Yrotation
      JOINT LeftFoot
      {
        OFFSET 0.000000 -42.000000 4.000000
        CHANNELS 3 Zrotation Xrotation Yrotation
        End Site
        {
          OFFSET 0.000000 0.000000 12.000000
        }
      }
    }
  }
  JOINT RightUpLeg
  {
    OFFSET -10.000000 -5.000000 0.000000
    CHANNELS 3 Zrotation Xrotation Yrotation
    JOINT RightLeg
    {
      OFFSET 0.000000 -42.000000 0.000000
      CHANNELS 3 Zrotation Xrotation Yrotation
      JOINT RightFoot
      {
        OFFSET 0.000000 -42.000000 4.000000
        CHANNELS 3 Zrotation Xrotation Yrotation
        End Site
        {
          OFFSET 0.000000 0.000000 12.000000
        }
      }
    }
  }
}
MOTION
Frames: 60
Frame Time: 0.033333
0.0000 95.0000 0.0000 0.0000 0.0000 0.0000 0.0000 0.0000 0.0000 0.0000 0.0000 0.0000 0.0000 0.0000 0.0000 0.0000 0.0000 0.0000 0.0000 0.0000 0.0000 0.0000 0.0000 0.0000 -80.2937 5.1835 6.1437 -11.4795 -0.7285 2.4746 -151.3634 -8.6407 168.6442 60.0640 -11.6819 8.2073 26.5171 0.0000 0.0000 22.4787 0.0000 0.0000 -19.7792 0.8442 5.1985 95.7937 0.0000 0.0000 69.2569 0.0000 0.0000 -9.3396 0.5019 1.3663 110.0000 0.0000 0.0000 7.5326 0.0000 0.0000 1.8388 -0.0054 0.7867 110.0000 0.0000 0.0000 14.5750 0.0000 0.0000 14.2930 -1.1616 -0.5577 110.0000 0.0000 0.0000 18.8209 0.0000 0.0000 0.0000 0.0000 0.0000 87.0432 -1.7629 1.8563 -2.5541 11.6858 11.6442 149.7174 37.2547 154.8465 -66.1449 -13.7077 0.2262 12.6837 0.0000 0.0000 6.5342 0.0000 0.0000 -12.2066 0.2418 2.7504 44.6492 0.0000 0.0000 35.7568 0.0000 0.0000 -29.2597 2.1478 12.9867 38.4206 0.0000 0.0000 33.6645 0.0000 0.0000 -37.4417 -0.0040 10.9922 39.7191 0.0000 0.0000 23.5081 0.0000 0.0000 -45.7276 -2.4070 8.6106 29.3633 0.0000 0.0000 19.8251 0.0000 0.0000 0.0000 0.0000 0.0000 0.0000 0.0000 0.0000 0.0000 0.0000 0.0000 0.0000 0.0000 0.0000 0.0000 0.0000 0.0000 0.0000 0.0000 0.0000
0.0000 95.0000 0.0000 0.0000 0.0000 0.0000 0.0000 0.0000 0.0000 0.0000 0.0000 0.0000 0.0000 0.0000 0.0000 0.0000 0.0000 0.0000 0.0000 0.0000 0.0000 0.0000 0.0000 0.0000 -80.3044 5.1221 6.0698 -11.4889 -0.7715 2.5213 -151.3792 -8.6191 168.6685 60.0640 -11.6819 8.2073 26.5171 0.0000 0.0000 22.4787 0.0000 0.0000 -19.7792 0.8442 5.1985 95.7937 0.0000 0.0000 69.2569 0.0000 0.0000 -9.3396 0.5019 1.3663 110.0000 0.0000 0.0000 7.5326 0.0000 0.0000 1.8388 -0.0054 0.7867 110.0000 0.0000 0.0000 14.5750 0.0000 0.0000 14.2930 -1.1616 -0.5577 110.0000 0.0000 0.0000 18.8209 0.0000 0.0000 0.0000 0.0000 0.0000 87.0845 -1.8443 1.9406 -2.5130 11.5844 11.5382 149.8515 37.2700 154.9371 -66.1449 -13.7077 0.2262 12.6837 0.0000 0.0000 6.5342 0.0000 0.0000 -12.2066 0.2418 2.7504 44.6492 0.0000 0.0000 35.7568 0.0000 0.0000 -29.2597 2.1478 12.9867 38.4206 0.0000 0.0000 33.6645 0.0000 0.0000 -37.4417 -0.0040 10.9922 39.7191 0.0000 0.0000 23.5081 0.0000 0.0000 -45.7276 -2.4070 8.6106 29.3633 0.0000 0.0000 19.8251 0.0000 0.0000 0.0000 0.0000 0.0000 0.0000 0.0000 0.0000 0.0000 0.0000 0.0000 0.0000 0.0000 0.0000 0.0000 0.0000 0.0000 0.0000 0.0000 0.0000
0.0000 95.0000 0.0000 0.0000 0.0000 0.0000 0.0000 0.0000 0.0000 0.0000 0.0000 0.0000 0.0000 0.0000 0.0000 0.0000 0.0000 0.0000 0.0000 0.0000 0.0000 0.0000 0.0000 0.0000 -80.6817 5.0321 5.9236 -11.3496 -0.7854 2.4757 -151.6299 -8.5069 168.8305 60.0640 -11.6819 8.2073 26.5171 0.0000 0.0000 22.4787 0.0000 0.0000 -19.7792 0.8442 5.1985 95.7937 0.0000 0.0000 69.2569 0.0000 0.0000 -9.3396 0.5019 1.3663 110.0000 0.0000 0.0000 7.5326 0.0000 0.0000 1.8388 -0.0054 0.7867 110.0000 0.0000 0.0000 14.5750 0.0000 0.0000 14.2930 -1.1616 -0.5577 110.0000 0.0000 0.0000 18.8209 0.0000 0.0000 0.0000 0.0000 0.0000 87.0235 -2.0944 2.2061 -2.4459 11.3836 11.3471 149.8821 37.3404 154.8826 -66.1449 -13.7077 0.2262 12.6837 0.0000 0.0000 6.5342 0.0000 0.0000 -12.2066 0.2418 2.7504 44.6492 0.0000 0.0000 35.7568 0.0000 0.0000 -29.2597 2.1478 12.9867 38.4206 0.0000 0.0000 33.6645 0.0000 0.0000 -37.4417 -0.0040 10.9922 39.7191 0.0000 0.0000 23.5081 0.0000 0.0000 -45.7276 -2.4070 8.6106 29.3633 0.0000 0.0000 19.8251 0.0000 0.0000 0.0000 0.0000 0.0000 0.0000 0.0000 0.0000 0.0000 0.0000 0.0000 0.0000 0.0000 0.0000 0.0000 0.0000 0.0000 0.0000 0.0000 0.0000
0.0000 95.0000 0.0000 0.0000 0.0000 0.0000 0.0000 0.0000 0.0000 0.0000 0.0000 0.0000 0.0000 0.0000 0.0000 0.0000 0.0000 0.0000 0.0000 0.0000 0.0000 0.0000 0.0000 0.0000 -81.0932 4.8249 5.6387 -11.4085 -0.7694 2.3865 -152.1317 -8.2571 169.1755 60.0640 -11.6819 8.2073 26.5171 0.0000 0.0000 22.4787 0.0000 0.0000 -19.7792 0.8442 5.1985 95.7937 0.0000 0.0000 69.2569 0.0000 0.0000 -9.3396 0.5019 1.3663 110.0000 0.0000 0.0000 7.5326 0.0000 0.0000 1.8388 -0.0054 0.7867 110.0000 0.0000 0.0000 14.5750 0.0000 0.0000 14.2930 -1.1616 -0.5577 110.0000 0.0000 0.0000 18.8209 0.0000 0.0000 0.0000 0.0000 0.0000 86.8507 -2.1913 2.3152 -2.1531 11.4029 11.4630 149.9261 37.5189 154.7177 -66.1449 -13.7077 0.2262 12.6837 0.0000 0.0000 6.5342 0.0000 0.0000 -12.2066 0.2418 2.7504 44.6492 0.0000 0.0000 35.7568 0.0000 0.0000 -29.2597 2.1478 12.9867 38.4206 0.0000 0.0000 33.6645 0.0000 0.0000 -37.4417 -0.0040 10.9922 39.7191 0.0000 0.0000 23.5081 0.0000 0.0000 -45.7276 -2.4070 8.6106 29.3633 0.0000 0.0000 19.8251 0.0000 0.0000 0.0000 0.0000 0.0000 0.0000 0.0000 0.0000 0.0000 0.0000 0.0000 0.0000 0.0000 0.0000 0.0000 0.0000 0.0000 0.0000 0.0000 0.0000
0.0000 95.0000 0.0000 0.0000 0.0000 0.0000 0.0000 0.0000 0.0000 0.0000 0.0000 0.0000 0.0000 0.0000 0.0000 0.0000 0.0000 0.0000 0.0000 0.0000 0.0000 0.0000 0.0000 0.0000 -81.0577 4.9068 5.7380 -11.1138 -0.7619 2.3547 -151.7980 -8.2849 169.0799 60.0640 -11.6819 8.2073 26.5171 0.0000 0.0000 22.4787 0.0000 0.0000 -19.7792 0.8442 5.1985 95.7937 0.0000 0.0000 69.2569 0.0000 0.0000 -9.3396 0.5019 1.3663 110.0000 0.0000 0.0000 7.5326 0.0000 0.0000 1.8388 -0.0054 0.7867 110.0000 0.0000 0.0000 14.5750 0.0000 0.0000 14.2930 -1.1616 -0.5577 110.0000 0.0000 0.0000 18.8209 0.0000 0.0000 0.0000 0.0000 0.0000 86.8986 -2.1766 2.2976 -2.0159 11.4499 11.5346 150.1078 37.6078 154.7644 -66.1449 -13.7077 0.2262 12.6837 0.0000 0.0000 6.5342 0.0000 0.0000 -12.2066 0.2418 2.7504 44.6492 0.0000 0.0000 35.7568 0.0000 0.0000 -29.2597 2.1478 12.9867 38.4206 0.0000 0.0000 33.6645 0.0000 0.0000 -37.4417 -0.0040 10.9922 39.7191 0.0000 0.0000 23.5081 0.0000 0.0000 -45.7276 -2.4070 8.6106 29.3633 0.0000 0.0000 19.8251 0.0000 0.0000 0.0000 0.0000 0.0000 0.0000 0.0000 0.0000 0.0000 0.0000 0.0000 0.0000 0.0000 0.0000 0.0000 0.0000 0.0000 0.0000 0.0000 0.0000
0.0000 95.0000 0.0000 0.0000 0.0000 0.0000 0.0000 0.0000 0.0000 0.0000 0.0000 0.0000 0.0000 0.0000 0.0000 0.0000 0.0000 0.0000 0.0000 0.0000 0.0000 0.0000 0.0000 0.0000 -80.8806 5.0300 5.9004 -11.4813 -0.6699 2.3198 -151.9908 -8.3987 169.0105 60.0640 -11.6819 8.2073 26.5171 0.0000 0.0000 22.4787 0.0000 0.0000 -19.7792 0.8442 5.1985 95.7937 0.0000 0.0000 69.2569 0.0000 0.0000 -9.3396 0.5019 1.3663 110.0000 0.0000 0.0000 7.5326 0.0000 0.0000 1.8388 -0.0054 0.7867 110.0000 0.0000 0.0000 14.5750 0.0000 0.0000 14.2930 -1.1616 -0.5577 110.0000 0.0000 0.0000 18.8209 0.0000 0.0000 0.0000 0.0000 0.0000 86.9775 -2.1004 2.2142 -2.1184 11.6005 11.6513 150.0176 37.6360 154.6602 -66.1449 -13.7077 0.2262 12.6837 0.0000 0.0000 6.5342 0.0000 0.0000 -12.2066 0.2418 2.7504 44.6492 0.0000 0.0000 35.7568 0.0000 0.0000 -29.2597 2.1478 12.9867 38.4206 0.0000 0.0000 33.6645 0.0000 0.0000 -37.4417 -0.0040 10.9922 39.7191 0.0000 0.0000 23.5081 0.0000 0.0000 -45.7276 -2.4070 8.6106 29.3633 0.0000 0.0000 19.8251 0.0000 0.0000 0.0000 0.0000 0.0000 0.0000 0.0000 0.0000 0.0000 0.0000 0.0000 0.0000 0.0000 0.0000 0.0000 0.0000 0.0000 0.0000 0.0000 0.0000
0.0000 95.0000 0.0000 0.0000 0.0000 0.0000 0.0000 0.0000 0.0000 0.0000 0.0000 0.0000 0.0000 0.0000 0.0000 0.0000 0.0000 0.0000 0.0000 0.0000 0.0000 0.0000 0.0000 0.0000 -81.2592 4.8347 5.6337 -11.5612 -0.5062 2.0282 -152.5146 -7.9828 169.5151 60.0640 -11.6819 8.2073 26.5171 0.0000 0.0000 22.4787 0.0000 0.0000 -19.7792 0.8442 5.1985 95.7937 0.0000 0.0000 69.2569 0.0000 0.0000 -9.3396 0.5019 1.3663 110.0000 0.0000 0.0000 7.5326 0.0000 0.0000 1.8388 -0.0054 0.7867 110.0000 0.0000 0.0000 14.5750 0.0000 0.0000 14.2930 -1.1616 -0.5577 110.0000 0.0000 0.0000 18.8209 0.0000 0.0000 0.0000 0.0000 0.0000 86.8759 -2.2036 2.3271 -1.6660 11.6977 11.8734 150.2610 37.9618 154.4926 -66.1449 -13.7077 0.2262 12.6837 0.0000 0.0000 6.5342 0.0000 0.0000 -12.2066 0.2418 2.7504 44.6492 0.0000 0.0000 35.7568 0.0000 0.0000 -29.2597 2.1478 12.9867 38.4206 0.0000 0.0000 33.6645 0.0000 0.0000 -37.4417 -0.0040 10.9922 39.7191 0.0000 0.0000 23.5081 0.0000 0.0000 -45.7276 -2.4070 8.6106 29.3633 0.0000 0.0000 19.8251 0.0000 0.0000 0.0000 0.0000 0.0000 0.0000 0.0000 0.0000 0.0000 0.0000 0.0000 0.0000 0.0000 0.0000 0.0000 0.0000 0.0000 0.0000 0.0000 0.0000
0.0000 95.0000 0.0000 0.0000 0.0000 0.0000 0.0000 0.0000 0.0000 0.0000 0.0000 0.0000 0.0000 0.0000 0.0000 0.0000 0.0000 0.0000 0.0000 0.0000 0.0000 0.0000 0.0000 0.0000 -81.2986 4.6765 5.4456 -11.6637 -0.7373 2.3285 -152.6159 -8.0939 169.4298 60.0640 -11.6819 8.2073 26.5171 0.0000 0.0000 22.4787 0.0000 0.0000 -19.7792 0.8442 5.1985 95.7937 0.0000 0.0000 69.2569 0.0000 0.0000 -9.3396 0.5019 1.3663 110.0000 0.0000 0.0000 7.5326 0.0000 0.0000 1.8388 -0.0054 0.7867 110.0000 0.0000 0.0000 14.5750 0.0000 0.0000 14.2930 -1.1616 -0.5577 110.0000 0.0000 0.0000 18.8209 0.0000 0.0000 0.0000 0.0000 0.0000 86.7432 -2.2750 2.4081 -1.6589 11.4564 11.6522 150.2513 37.8088 154.6554 -66.1449 -13.7077 0.2262 12.6837 0.0000 0.0000 6.5342 0.0000 0.0000 -12.2066 0.2418 2.7504 44.6492 0.0000 0.0000 35.7568 0.0000 0.0000 -29.2597 2.1478 12.9867 38.4206 0.0000 0.0000 33.6645 0.0000 0.0000 -37.4417 -0.0040 10.9922 39.7191 0.0000 0.0000 23.5081 0.0000 0.0000 -45.7276 -2.4070 8.6106 29.3633 0.0000 0.0000 19.8251 0.0000 0.0000 0.0000 0.0000 0.0000 0.0000 0.0000 0.0000 0.0000 0.0000 0.0000 0.0000 0.0000 0.0000 0.0000 0.0000 0.0000 0.0000 0.0000 0.0000
0.0000 95.0000 0.0000 0.0000 0.0000 0.0000 0.0000 0.0000 0.0000 0.0000 0.0000 0.0000 0.0000 0.0000 0.0000 0.0000 0.0000 0.0000 0.0000 0.0000 0.0000 0.0000 0.0000 0.0000 -81.3219 4.5721 5.3219 -11.6827 -0.8322 2.4376 -152.6463 -8.0853 169.4441 60.0640 -11.6819 8.2073 26.5171 0.0000 0.0000 22.4787 0.0000 0.0000 -19.7792 0.8442 5.1985 95.7937 0.0000 0.0000 69.2569 0.0000 0.0000 -9.3396 0.5019 1.3663 110.0000 0.0000 0.0000 7.5326 0.0000 0.0000 1.8388 -0.0054 0.7867 110.0000 0.0000 0.0000 14.5750 0.0000 0.0000 14.2930 -1.1616 -0.5577 110.0000 0.0000 0.0000 18.8209 0.0000 0.0000 0.0000 0.0000 0.0000 86.7294 -2.2396 2.3712 -1.8168 11.3626 11.5236 150.1484 37.6380 154.7632 -66.1449 -13.7077 0.2262 12.6837 0.0000 0.0000 6.5342 0.0000 0.0000 -12.2066 0.2418 2.7504 44.6492 0.0000 0.0000 35.7568 0.0000 0.0000 -29.2597 2.1478 12.9867 38.4206 0.0000 0.0000 33.6645 0.0000 0.0000 -37.4417 -0.0040 10.9922 39.7191 0.0000 0.0000 23.5081 0.0000 0.0000 -45.7276 -2.4070 8.6106 29.3633 0.0000 0.0000 19.8251 0.0000 0.0000 0.0000 0.0000 0.0000 0.0000 0.0000 0.0000 0.0000 0.0000 0.0000 0.0000 0.0000 0.0000 0.0000 0.0000 0.0000 0.0000 0.0000 0.0000
0.0000 95.0000 0.0000 0.0000 0.0000 0.0000 0.0000 0.0000 0.0000 0.0000 0.0000 0.0000 0.0000 0.0000 0.0000 0.0000 0.0000 0.0000 0.0000 0.0000 0.0000 0.0000 0.0000 0.0000 -81.2901 4.4645 5.1996 -11.7600 -0.8124 2.3928 -152.7083 -7.9397 169.5946 60.0640 -11.6819 8.2073 26.5171 0.0000 0.0000 22.4787 0.0000 0.0000 -19.7792 0.8442 5.1985 95.7937 0.0000 0.0000 69.2569 0.0000 0.0000 -9.3396 0.5019 1.3663 110.0000 0.0000 0.0000 7.5326 0.0000 0.0000 1.8388 -0.0054 0.7867 110.0000 0.0000 0.0000 14.5750 0.0000 0.0000 14.2930 -1.1616 -0.5577 110.0000 0.0000 0.0000 18.8209 0.0000 0.0000 0.0000 0.0000 0.0000 86.6427 -2.0585 2.1828 -1.5271 11.7119 11.9785 150.1744 37.8555 154.5413 -66.1449 -13.7077 0.2262 12.6837 0.0000 0.0000 6.5342 0.0000 0.0000 -12.2066 0.2418 2.7504 44.6492 0.0000 0.0000 35.7568 0.0000 0.0000 -29.2597 2.1478 12.9867 38.4206 0.0000 0.0000 33.6645 0.0000 0.0000 -37.4417 -0.0040 10.9922 39.7191 0.0000 0.0000 23.5081 0.0000 0.0000 -45.7276 -2.4070 8.6106 29.3633 0.0000 0.0000 19.8251 0.0000 0.0000 0.0000 0.0000 0.0000 0.0000 0.0000 0.0000 0.0000 0.0000 0.0000 0.0000 0.0000 0.0000 0.0000 0.0000 0.0000 0.0000 0.0000 0.0000
0.0000 95.0000 0.0000 0.0000 0.0000 0.0000 0.0000 0.0000 0.0000 0.0000 0.0000 0.0000 0.0000 0.0000 0.0000 0.0000 0.0000 0.0000 0.0000 0.0000 0.0000 0.0000 0.0000 0.0000 -81.5334 4.1775 4.8446 -11.9035 -0.8853 2.4266 -153.1112 -7.7077 169.8931 60.0640 -11.6819 8.2073 26.5171 0.0000 0.0000 22.4787 0.0000 0.0000 -19.7792 0.8442 5.1985 95.7937 0.0000 0.0000 69.2569 0.0000 0.0000 -9.3396 0.5019 1.3663 110.0000 0.0000 0.0000 7.5326 0.0000 0.0000 1.8388 -0.0054 0.7867 110.0000 0.0000 0.0000 14.5750 0.0000 0.0000 14.2930 -1.1616 -0.5577 110.0000 0.0000 0.0000 18.8209 0.0000 0.0000 0.0000 0.0000 0.0000 86.5303 -2.1891 2.3258 -1.4285 11.5830 11.8862 150.1770 37.8835 154.5122 -66.1449 -13.7077 0.2262 12.6837 0.0000 0.0000 6.5342 0.0000 0.0000 -12.2066 0.2418 2.7504 44.6492 0.0000 0.0000 35.7568 0.0000 0.0000 -29.2597 2.1478 12.9867 38.4206 0.0000 0.0000 33.6645 0.0000 0.0000 -37.4417 -0.0040 10.9922 39.7191 0.0000 0.0000 23.5081 0.0000 0.0000 -45.7276 -2.4070 8.6106 29.3633 0.0000 0.0000 19.8251 0.0000 0.0000 0.0000 0.0000 0.0000 0.0000 0.0000 0.0000 0.0000 0.0000 0.0000 0.0000 0.0000 0.0000 0.0000 0.0000 0.0000 0.0000 0.0000 0.0000
0.0000 95.0000 0.0000 0.0000 0.0000 0.0000 0.0000 0.0000 0.0000 0.0000 0.0000 0.0000 0.0000 0.0000 0.0000 0.0000 0.0000 0.0000 0.0000 0.0000 0.0000 0.0000 0.0000 0.0000 -81.6132 3.9897 4.6204 -11.4683 -1.0949 2.6119 -152.7333 -7.6474 169.8769 60.0640 -11.6819 8.2073 26.5171 0.0000 0.0000 22.4787 0.0000 0.0000 -19.7792 0.8442 5.1985 95.7937 0.0000 0.0000 69.2569 0.0000 0.0000 -9.3396 0.5019 1.3663 110.0000 0.0000 0.0000 7.5326 0.0000 0.0000 1.8388 -0.0054 0.7867 110.0000 0.0000 0.0000 14.5750 0.0000 0.0000 14.2930 -1.1616 -0.5577 110.0000 0.0000 0.0000 18.8209 0.0000 0.0000 0.0000 0.0000 0.0000 86.5508 -2.2366 2.3754 -1.4304 11.4862 11.7795 150.2528 37.8515 154.6089 -66.1449 -13.7077 0.2262 12.6837 0.0000 0.0000 6.5342 0.0000 0.0000 -12.2066 0.2418 2.7504 44.6492 0.0000 0.0000 35.7568 0.0000 0.0000 -29.2597 2.1478 12.9867 38.4206 0.0000 0.0000 33.6645 0.0000 0.0000 -37.4417 -0.0040 10.9922 39.7191 0.0000 0.0000 23.5081 0.0000 0.0000 -45.7276 -2.4070 8.6106 29.3633 0.0000 0.0000 19.8251 0.0000 0.0000 0.0000 0.0000 0.0000 0.0000 0.0000 0.0000 0.0000 0.0000 0.0000 0.0000 0.0000 0.0000 0.0000 0.0000 0.0000 0.0000 0.0000 0.0000
0.0000 95.0000 0.0000 0.0000 0.0000 0.0000 0.0000 0.0000 0.0000 0.0000 0.0000 0.0000 0.0000 0.0000 0.0000 0.0000 0.0000 0.0000 0.0000 0.0000 0.0000 0.0000 0.0000 0.0000 -81.6138 3.9444 4.5679 -11.1860 -1.2088 2.7232 -152.4325 -7.6743 169.7927 60.0640 -11.6819 8.2073 26.5171 0.0000 0.0000 22.4787 0.0000 0.0000 -19.7792 0.8442 5.1985 95.7937 0.0000 0.0000 69.2569 0.0000 0.0000 -9.3396 0.5019 1.3663 110.0000 0.0000 0.0000 7.5326 0.0000 0.0000 1.8388 -0.0054 0.7867 110.0000 0.0000 0.0000 14.5750 0.0000 0.0000 14.2930 -1.1616 -0.5577 110.0000 0.0000 0.0000 18.8209 0.0000 0.0000 0.0000 0.0000 0.0000 86.5936 -2.2289 2.3655 -1.3420 11.5619 11.8707 150.3490 37.9493 154.5775 -66.1449 -13.7077 0.2262 12.6837 0.0000 0.0000 6.5342 0.0000 0.0000 -12.2066 0.2418 2.7504 44.6492 0.0000 0.0000 35.7568 0.0000 0.0000 -29.2597 2.1478 12.9867 38.4206 0.0000 0.0000 33.6645 0.0000 0.0000 -37.4417 -0.0040 10.9922 39.7191 0.0000 0.0000 23.5081 0.0000 0.0000 -45.7276 -2.4070 8.6106 29.3633 0.0000 0.0000 19.8251 0.0000 0.0000 0.0000 0.0000 0.0000 0.0000 0.0000 0.0000 0.0000 0.0000 0.0000 0.0000 0.0000 0.0000 0.0000 0.0000 0.0000 0.0000 0.0000 0.0000
0.0000 95.0000 0.0000 0.0000 0.0000 0.0000 0.0000 0.0000 0.0000 0.0000 0.0000 0.0000 0.0000 0.0000 0.0000 0.0000 0.0000 0.0000 0.0000 0.0000 0.0000 0.0000 0.0000 0.0000 -81.5987 3.9988 4.6321 -11.7534 -1.0940 2.6523 -152.9988 -7.7148 169.8646 60.0640 -11.6819 8.2073 26.5171 0.0000 0.0000 22.4787 0.0000 0.0000 -19.7792 0.8442 5.1985 95.7937 0.0000 0.0000 69.2569 0.0000 0.0000 -9.3396 0.5019 1.3663 110.0000 0.0000 0.0000 7.5326 0.0000 0.0000 1.8388 -0.0054 0.7867 110.0000 0.0000 0.0000 14.5750 0.0000 0.0000 14.2930 -1.1616 -0.5577 110.0000 0.0000 0.0000 18.8209 0.0000 0.0000 0.0000 0.0000 0.0000 86.7580 -2.2949 2.4285 -1.6883 11.5555 11.7418 150.1533 37.8954 154.4798 -66.1449 -13.7077 0.2262 12.6837 0.0000 0.0000 6.5342 0.0000 0.0000 -12.2066 0.2418 2.7504 44.6492 0.0000 0.0000 35.7568 0.0000 0.0000 -29.2597 2.1478 12.9867 38.4206 0.0000 0.0000 33.6645 0.0000 0.0000 -37.4417 -0.0040 10.9922 39.7191 0.0000 0.0000 23.5081 0.0000 0.0000 -45.7276 -2.4070 8.6106 29.3633 0.0000 0.0000 19.8251 0.0000 0.0000 0.0000 0.0000 0.0000 0.0000 0.0000 0.0000 0.0000 0.0000 0.0000 0.0000 0.0000 0.0000 0.0000 0.0000 0.0000 0.0000 0.0000 0.0000
0.0000 95.0000 0.0000 0.0000 0.0000 0.0000 0.0000 0.0000 0.0000 0.0000 0.0000 0.0000 0.0000 0.0000 0.0000 0.0000 0.0000 0.0000 0.0000 0.0000 0.0000 0.0000 0.0000 0.0000 -81.7059 3.8856 4.4925 -11.5329 -1.1145 2.6162 -152.8983 -7.5583 169.9931 60.0640 -11.6819 8.2073 26.5171 0.0000 0.0000 22.4787 0.0000 0.0000 -19.7792 0.8442 5.1985 95.7937 0.0000 0.0000 69.2569 0.0000 0.0000 -9.3396 0.5019 1.3663 110.0000 0.0000 0.0000 7.5326 0.0000 0.0000 1.8388 -0.0054 0.7867 110.0000 0.0000 0.0000 14.5750 0.0000 0.0000 14.2930 -1.1616 -0.5577 110.0000 0.0000 0.0000 18.8209 0.0000 0.0000 0.0000 0.0000 0.0000 86.7185 -2.6310 2.7861 -2.0728 11.2995 11.3745 149.7225 37.8204 154.2152 -66.1449 -13.7077 0.2262 12.6837 0.0000 0.0000 6.5342 0.0000 0.0000 -12.2066 0.2418 2.7504 44.6492 0.0000 0.0000 35.7568 0.0000 0.0000 -29.2597 2.1478 12.9867 38.4206 0.0000 0.0000 33.6645 0.0000 0.0000 -37.4417 -0.0040 10.9922 39.7191 0.0000 0.0000 23.5081 0.0000 0.0000 -45.7276 -2.4070 8.6106 29.3633 0.0000 0.0000 19.8251 0.0000 0.0000 0.0000 0.0000 0.0000 0.0000 0.0000 0.0000 0.0000 0.0000 0.0000 0.0000 0.0000 0.0000 0.0000 0.0000 0.0000 0.0000 0.0000 0.0000
0.0000 95.0000 0.0000 0.0000 0.0000 0.0000 0.0000 0.0000 0.0000 0.0000 0.0000 0.0000 0.0000 0.0000 0.0000 0.0000 0.0000 0.0000 0.0000 0.0000 0.0000 0.0000 0.0000 0.0000 -81.8504 3.8310 4.4182 -11.4505 -1.1717 2.6643 -152.9553 -7.5507 170.0112 60.0640 -11.6819 8.2073 26.5171 0.0000 0.0000 22.4787 0.0000 0.0000 -19.7792 0.8442 5.1985 95.7937 0.0000 0.0000 69.2569 0.0000 0.0000 -9.3396 0.5019 1.3663 110.0000 0.0000 0.0000 7.5326 0.0000 0.0000 1.8388 -0.0054 0.7867 110.0000 0.0000 0.0000 14.5750 0.0000 0.0000 14.2930 -1.1616 -0.5577 110.0000 0.0000 0.0000 18.8209 0.0000 0.0000 0.0000 0.0000 0.0000 86.5025 -2.5500 2.7106 -1.6017 11.5802 11.8250 149.7849 38.1174 153.9330 -66.1449 -13.7077 0.2262 12.6837 0.0000 0.0000 6.5342 0.0000 0.0000 -12.2066 0.2418 2.7504 44.6492 0.0000 0.0000 35.7568 0.0000 0.0000 -29.2597 2.1478 12.9867 38.4206 0.0000 0.0000 33.6645 0.0000 0.0000 -37.4417 -0.0040 10.9922 39.7191 0.0000 0.0000 23.5081 0.0000 0.0000 -45.7276 -2.4070 8.6106 29.3633 0.0000 0.0000 19.8251 0.0000 0.0000 0.0000 0.0000 0.0000 0.0000 0.0000 0.0000 0.0000 0.0000 0.0000 0.0000 0.0000 0.0000 0.0000 0.0000 0.0000 0.0000 0.0000 0.0000
0.0000 95.0000 0.0000 0.0000 0.0000 0.0000 0.0000 0.0000 0.0000 0.0000 0.0000 0.0000 0.0000 0.0000 0.0000 0.0000 0.0000 0.0000 0.0000 0.0000 0.0000 0.0000 0.0000 0.0000 -82.1769 3.8279 4.3893 -11.3691 -1.4311 2.9986 -153.1385 -7.8648 169.7504 60.0640 -11.6819 8.2073 26.5171 0.0000 0.0000 22.4787 0.0000 0.0000 -19.7792 0.8442 5.1985 95.7937 0.0000 0.0000 69.2569 0.0000 0.0000 -9.3396 0.5019 1.3663 110.0000 0.0000 0.0000 7.5326 0.0000 0.0000 1.8388 -0.0054 0.7867 110.0000 0.0000 0.0000 14.5750 0.0000 0.0000 14.2930 -1.1616 -0.5577 110.0000 0.0000 0.0000 18.8209 0.0000 0.0000 0.0000 0.0000 0.0000 85.6076 -2.8077 3.0315 -0.3940 10.3998 11.0596 150.7520 37.7068 155.1699 -66.1449 -13.7077 0.2262 12.6837 0.0000 0.0000 6.5342 0.0000 0.0000 -12.2066 0.2418 2.7504 44.6492 0.0000 0.0000 35.7568 0.0000 0.0000 -29.2597 2.1478 12.9867 38.4206 0.0000 0.0000 33.6645 0.0000 0.0000 -37.4417 -0.0040 10.9922 39.7191 0.0000 0.0000 23.5081 0.0000 0.0000 -45.7276 -2.4070 8.6106 29.3633 0.0000 0.0000 19.8251 0.0000 0.0000 0.0000 0.0000 0.0000 0.0000 0.0000 0.0000 0.0000 0.0000 0.0000 0.0000 0.0000 0.0000 0.0000 0.0000 0.0000 0.0000 0.0000 0.0000
0.0000 95.0000 0.0000 0.0000 0.0000 0.0000 0.0000 0.0000 0.0000 0.0000 0.0000 0.0000 0.0000 0.0000 0.0000 0.0000 0.0000 0.0000 0.0000 0.0000 0.0000 0.0000 0.0000 0.0000 -79.4018 4.4807 5.3956 -16.8651 0.1492 1.7323 -156.0790 -7.6770 170.4820 60.0640 -11.6819 8.2073 26.5171 0.0000 0.0000 22.4787 0.0000 0.0000 -19.7792 0.8442 5.1985 95.7937 0.0000 0.0000 69.2569 0.0000 0.0000 -9.3396 0.5019 1.3663 110.0000 0.0000 0.0000 7.5326 0.0000 0.0000 1.8388 -0.0054 0.7867 110.0000 0.0000 0.0000 14.5750 0.0000 0.0000 14.2930 -1.1616 -0.5577 110.0000 0.0000 0.0000 18.8209 0.0000 0.0000 0.0000 0.0000 0.0000 83.3706 -1.5549 1.7460 3.9309 10.9952 13.2942 152.7741 38.3822 156.0260 -66.1449 -13.7077 0.2262 12.6837 0.0000 0.0000 6.5342 0.0000 0.0000 -12.2066 0.2418 2.7504 44.6492 0.0000 0.0000 35.7568 0.0000 0.0000 -29.2597 2.1478 12.9867 38.4206 0.0000 0.0000 33.6645 0.0000 0.0000 -37.4417 -0.0040 10.9922 39.7191 0.0000 0.0000 23.5081 0.0000 0.0000 -45.7276 -2.4070 8.6106 29.3633 0.0000 0.0000 19.8251 0.0000 0.0000 0.0000 0.0000 0.0000 0.0000 0.0000 0.0000 0.0000 0.0000 0.0000 0.0000 0.0000 0.0000 0.0000 0.0000 0.0000 0.0000 0.0000 0.0000
0.0000 95.0000 0.0000 0.0000 0.0000 0.0000 0.0000 0.0000 0.0000 0.0000 0.0000 0.0000 0.0000 0.0000 0.0000 0.0000 0.0000 0.0000 0.0000 0.0000 0.0000 0.0000 0.0000 0.0000 -75.3591 3.4334 4.4447 -27.7319 1.5801 -0.2434 -270.3987 -55.9097 254.3923 23.7069 -11.2979 -11.9915 3.2440 0.0000 0.0000 8.5233 0.0000 0.0000 -35.8292 -5.7848 -52.2106 79.0965 0.0000 0.0000 26.3657 0.0000 0.0000 -26.7668 -14.6752 -61.6179 71.7358 0.0000 0.0000 26.2242 0.0000 0.0000 -21.4164 -22.1272 -64.4354 70.3304 0.0000 0.0000 24.6305 0.0000 0.0000 -16.1060 -28.4468 -61.0440 65.2507 0.0000 0.0000 25.3699 0.0000 0.0000 0.0000 0.0000 0.0000 77.8254 -1.4583 1.8064 15.7066 11.9798 20.2716 149.6045 43.0244 155.0788 -83.2140 -15.7068 10.3665 21.8247 0.0000 0.0000 5.5028 0.0000 0.0000 -20.1511 0.9993 5.2665 17.8777 0.0000 0.0000 58.8148 0.0000 0.0000 -36.1683 3.2092 14.5782 13.0177 0.0000 0.0000 55.9086 0.0000 0.0000 -42.5314 0.8315 13.6070 23.2451 0.0000 0.0000 34.8583 0.0000 0.0000 -49.6863 -1.9454 11.8252 17.6959 0.0000 0.0000 22.8221 0.0000 0.0000 0.0000 0.0000 0.0000 0.0000 0.0000 0.0000 0.0000 0.0000 0.0000 0.0000 0.0000 0.0000 0.0000 0.0000 0.0000 0.0000 0.0000 0.0000
0.0000 95.0000 0.0000 0.0000 0.0000 0.0000 0.0000 0.0000 0.0000 0.0000 0.0000 0.0000 0.0000 0.0000 0.0000 0.0000 0.0000 0.0000 0.0000 0.0000 0.0000 0.0000 0.0000 0.0000 -69.3503 -0.0907 -0.1311 -45.6899 1.5957 -7.9072 -311.2660 -47.6311 218.1698 82.5355 -13.9774 -31.3184 36.3159 0.0000 0.0000 56.2249 0.0000 0.0000 -28.2604 -1.6851 -42.3415 79.9149 0.0000 0.0000 43.4991 0.0000 0.0000 -14.0175 -4.6065 -41.0041 92.0744 0.0000 0.0000 45.9553 0.0000 0.0000 -16.8985 -9.9562 -36.4424 82.9157 0.0000 0.0000 49.2271 0.0000 0.0000 -32.9823 -9.6568 -18.9264 30.7387 0.0000 0.0000 5.9937 0.0000 0.0000 0.0000 0.0000 0.0000 70.3478 -5.6461 8.0050 24.0023 19.1846 45.6565 81.5780 59.1899 107.2314 -110.2111 -12.7714 26.4630 22.9386 0.0000 0.0000 17.5890 0.0000 0.0000 -17.7597 2.5995 9.8855 90.7802 0.0000 0.0000 73.2017 0.0000 0.0000 -29.9327 2.9979 15.9534 106.5006 0.0000 0.0000 64.6311 0.0000 0.0000 -35.3800 0.9726 17.1842 108.2014 0.0000 0.0000 54.3274 0.0000 0.0000 -42.1547 -1.8354 16.9006 108.1714 0.0000 0.0000 39.9053 0.0000 0.0000 0.0000 0.0000 0.0000 0.0000 0.0000 0.0000 0.0000 0.0000 0.0000 0.0000 0.0000 0.0000 0.0000 0.0000 0.0000 0.0000 0.0000 0.0000
0.0000 95.0000 0.0000 0.0000 0.0000 0.0000 0.0000 0.0000 0.0000 0.0000 0.0000 0.0000 0.0000 0.0000 0.0000 0.0000 0.0000 0.0000 0.0000 0.0000 0.0000 0.0000 0.0000 0.0000 -65.0738 -3.3321 -5.2208 -63.7438 -2.9907 -23.6168 -153.2571 29.3530 182.1311 94.2164 -17.7731 -3.9345 22.2674 0.0000 0.0000 41.4690 0.0000 0.0000 -11.9894 0.1025 5.7600 110.0000 0.0000 0.0000 12.3058 0.0000 0.0000 8.4381 -0.0595 -3.9657 110.0000 0.0000 0.0000 21.4816 0.0000 0.0000 14.3170 -0.8477 -3.4981 110.0000 0.0000 0.0000 24.8961 0.0000 0.0000 37.6325 -2.5420 -5.5940 110.0000 0.0000 0.0000 22.7104 0.0000 0.0000 0.0000 0.0000 0.0000 61.1562 -8.5616 14.4397 24.3575 34.4929 82.6447 -19.1509 30.7514 43.3682 -80.9135 -15.8208 5.8223 10.2148 0.0000 0.0000 11.9652 0.0000 0.0000 12.1792 1.4288 12.0379 110.0000 0.0000 0.0000 28.4844 0.0000 0.0000 1.8447 -0.1645 14.9628 110.0000 0.0000 0.0000 17.5495 0.0000 0.0000 -5.9333 -1.7856 16.4964 110.0000 0.0000 0.0000 13.4171 0.0000 0.0000 -14.7057 -3.8647 16.2610 110.0000 0.0000 0.0000 8.4902 0.0000 0.0000 0.0000 0.0000 0.0000 0.0000 0.0000 0.0000 0.0000 0.0000 0.0000 0.0000 0.0000 0.0000 0.0000 0.0000 0.0000 0.0000 0.0000 0.0000
0.0000 95.0000 0.0000 0.0000 0.0000 0.0000 0.0000 0.0000 0.0000 0.0000 0.0000 0.0000 0.0000 0.0000 0.0000 0.0000 0.0000 0.0000 0.0000 0.0000 0.0000 0.0000 0.0000 0.0000 -61.7334 -7.5416 -12.5851 -59.7807 -5.1695 -88.8294 -16.8907 74.9708 307.3276 71.3103 -14.4708 6.7391 7.7602 0.0000 0.0000 26.7848 0.0000 0.0000 -65.8728 3.5744 1.3314 102.4358 0.0000 0.0000 46.9421 0.0000 0.0000 -58.7113 -0.1713 -5.0764 110.0000 0.0000 0.0000 29.8005 0.0000 0.0000 -47.4788 2.2408 -1.2667 110.0000 0.0000 0.0000 25.4833 0.0000 0.0000 -30.8267 2.6595 0.0071 110.0000 0.0000 0.0000 14.9435 0.0000 0.0000 0.0000 0.0000 0.0000 54.2629 -11.2743 21.8062 8.2637 59.7495 90.8406 -40.7198 -6.6430 53.4012 -68.7491 -13.8851 -6.6211 2.4803 0.0000 0.0000 6.2341 0.0000 0.0000 21.8347 0.9607 0.8980 110.0000 0.0000 0.0000 8.4590 0.0000 0.0000 7.2084 0.0221 4.4211 110.0000 0.0000 0.0000 1.3153 0.0000 0.0000 -10.3024 -0.8755 6.0559 110.0000 0.0000 0.0000 6.0507 0.0000 0.0000 -24.4699 -2.1579 4.3687 110.0000 0.0000 0.0000 17.4120 0.0000 0.0000 0.0000 0.0000 0.0000 0.0000 0.0000 0.0000 0.0000 0.0000 0.0000 0.0000 0.0000 0.0000 0.0000 0.0000 0.0000 0.0000 0.0000 0.0000
0.0000 95.0000 0.0000 0.0000 0.0000 0.0000 0.0000 0.0000 0.0000 0.0000 0.0000 0.0000 0.0000 0.0000 0.0000 0.0000 0.0000 0.0000 0.0000 0.0000 0.0000 0.0000 0.0000 0.0000 -52.8569 -13.2428 -26.2922 -85.2770 59.7261 -202.0916 42.8558 -47.9796 341.3392 62.8359 -12.2448 9.5449 11.7332 0.0000 0.0000 8.2870 0.0000 0.0000 -89.0115 5.9255 2.3285 75.5001 0.0000 0.0000 44.7247 0.0000 0.0000 -93.8601 0.2351 -4.5521 85.8372 0.0000 0.0000 47.2301 0.0000 0.0000 -89.3391 6.9013 -0.3833 94.2383 0.0000 0.0000 49.8562 0.0000 0.0000 -88.7118 10.1934 -1.1399 89.3025 0.0000 0.0000 44.4628 0.0000 0.0000 0.0000 0.0000 0.0000 43.5922 -13.0661 31.9610 9.3658 37.2031 77.3761 6.3478 8.7904 40.7703 -104.4211 -16.7553 13.0547 25.2524 0.0000 0.0000 22.9168 0.0000 0.0000 -13.7782 1.5603 7.1275 110.0000 0.0000 0.0000 22.7555 0.0000 0.0000 -30.6892 2.0447 12.2136 110.0000 0.0000 0.0000 34.5794 0.0000 0.0000 -42.5679 1.2234 15.2471 110.0000 0.0000 0.0000 38.2898 0.0000 0.0000 -52.7953 -1.0354 16.6835 110.0000 0.0000 0.0000 37.7366 0.0000 0.0000 0.0000 0.0000 0.0000 0.0000 0.0000 0.0000 0.0000 0.0000 0.0000 0.0000 0.0000 0.0000 0.0000 0.0000 0.0000 0.0000 0.0000 0.0000
0.0000 95.0000 0.0000 0.0000 0.0000 0.0000 0.0000 0.0000 0.0000 0.0000 0.0000 0.0000 0.0000 0.0000 0.0000 0.0000 0.0000 0.0000 0.0000 0.0000 0.0000 0.0000 0.0000 0.0000 -46.5659 -13.5746 -30.9211 -154.6493 41.5318 -290.9277 183.7414 -73.4997 192.6716 63.6381 -12.4937 9.0737 10.1393 0.0000 0.0000 14.6251 0.0000 0.0000 -92.2208 3.7226 -1.1486 73.7314 0.0000 0.0000 37.6265 0.0000 0.0000 -99.9435 -2.6734 -7.0175 83.3634 0.0000 0.0000 38.6755 0.0000 0.0000 -98.4925 2.9617 -3.8468 88.0459 0.0000 0.0000 42.9439 0.0000 0.0000 -97.5365 5.9838 -4.2461 81.6128 0.0000 0.0000 41.7329 0.0000 0.0000 0.0000 0.0000 0.0000 37.2935 -10.8256 31.3691 24.8422 4.6344 70.6264 60.7548 41.5572 52.7475 -108.4460 -17.2125 12.3907 20.9352 0.0000 0.0000 30.3869 0.0000 0.0000 -44.2410 -0.5872 2.6730 110.0000 0.0000 0.0000 31.3628 0.0000 0.0000 -71.1466 4.8255 11.5149 94.6859 0.0000 0.0000 44.6031 0.0000 0.0000 -84.3290 6.3425 16.9505 87.6664 0.0000 0.0000 49.5103 0.0000 0.0000 -91.2544 4.4594 20.6801 83.4145 0.0000 0.0000 45.7279 0.0000 0.0000 0.0000 0.0000 0.0000 0.0000 0.0000 0.0000 0.0000 0.0000 0.0000 0.0000 0.0000 0.0000 0.0000 0.0000 0.0000 0.0000 0.0000 0.0000
0.0000 95.0000 0.0000 0.0000 0.0000 0.0000 0.0000 0.0000 0.0000 0.0000 0.0000 0.0000 0.0000 0.0000 0.0000 0.0000 0.0000 0.0000 0.0000 0.0000 0.0000 0.0000 0.0000 0.0000 -43.3598 -15.0560 -36.7755 -120.0115 62.1412 -241.7764 6.6743 -73.3158 352.9773 79.9761 -16.2299 2.9852 16.2467 0.0000 0.0000 15.3136 0.0000 0.0000 -23.4024 5.0500 106.1802 33.6262 0.0000 0.0000 10.0299 0.0000 0.0000 -74.0599 58.7156 68.6485 31.5824 0.0000 0.0000 16.7440 0.0000 0.0000 -73.2601 57.3431 52.1365 60.3014 0.0000 0.0000 10.5477 0.0000 0.0000 -68.6387 67.9688 49.4590 65.2978 0.0000 0.0000 11.1136 0.0000 0.0000 0.0000 0.0000 0.0000 29.8346 -10.8204 39.1411 19.4358 3.8619 70.0454 6.7102 30.8467 42.6729 -97.3404 -16.6374 11.5156 11.8132 0.0000 0.0000 6.4491 0.0000 0.0000 -14.4392 1.4050 6.5932 110.0000 0.0000 0.0000 15.3632 0.0000 0.0000 -31.8104 2.0090 11.8138 110.0000 0.0000 0.0000 24.4458 0.0000 0.0000 -45.5698 1.4499 15.1628 110.0000 0.0000 0.0000 34.8361 0.0000 0.0000 -55.8409 -1.2147 14.5299 110.0000 0.0000 0.0000 42.9155 0.0000 0.0000 0.0000 0.0000 0.0000 0.0000 0.0000 0.0000 0.0000 0.0000 0.0000 0.0000 0.0000 0.0000 0.0000 0.0000 0.0000 0.0000 0.0000 0.0000
0.0000 95.0000 0.0000 0.0000 0.0000 0.0000 0.0000 0.0000 0.0000 0.0000 0.0000 0.0000 0.0000 0.0000 0.0000 0.0000 0.0000 0.0000 0.0000 0.0000 0.0000 0.0000 0.0000 0.0000 -46.6655 -15.8166 -35.7008 -53.2060 49.4444 -155.8832 10.4534 -25.5938 339.3653 69.3126 -14.0198 6.4663 27.5839 0.0000 0.0000 42.3983 0.0000 0.0000 -77.0176 1.8663 -3.2663 110.0000 0.0000 0.0000 17.5970 0.0000 0.0000 -64.1447 -35.4689 -58.8476 99.4698 0.0000 0.0000 22.8060 0.0000 0.0000 -26.4093 -45.5375 -99.9691 75.1329 0.0000 0.0000 21.8779 0.0000 0.0000 35.9248 1.0617 228.4056 28.6459 0.0000 0.0000 8.4498 0.0000 0.0000 0.0000 0.0000 0.0000 27.9730 -10.4614 40.3613 10.9212 16.6762 74.5597 -25.2294 12.7524 39.1148 -78.4081 -15.8599 -1.6221 3.1190 0.0000 0.0000 7.4170 0.0000 0.0000 12.9446 1.1116 7.9897 110.0000 0.0000 0.0000 8.3760 0.0000 0.0000 -3.3758 0.2377 12.8251 110.0000 0.0000 0.0000 5.0265 0.0000 0.0000 -21.3510 -0.4453 15.7695 110.0000 0.0000 0.0000 14.7925 0.0000 0.0000 -32.6464 -2.5439 14.5621 110.0000 0.0000 0.0000 24.8606 0.0000 0.0000 0.0000 0.0000 0.0000 0.0000 0.0000 0.0000 0.0000 0.0000 0.0000 0.0000 0.0000 0.0000 0.0000 0.0000 0.0000 0.0000 0.0000 0.0000
0.0000 95.0000 0.0000 0.0000 0.0000 0.0000 0.0000 0.0000 0.0000 0.0000 0.0000 0.0000 0.0000 0.0000 0.0000 0.0000 0.0000 0.0000 0.0000 0.0000 0.0000 0.0000 0.0000 0.0000 -42.3997 -16.1404 -40.1607 -63.2752 62.3132 -169.8417 20.5605 -42.6281 349.1158 77.5601 -15.7949 3.9605 21.5872 0.0000 0.0000 8.3795 0.0000 0.0000 -88.7969 14.5997 15.0912 73.8886 0.0000 0.0000 19.2564 0.0000 0.0000 -106.7194 5.8281 -0.4355 68.8014 0.0000 0.0000 18.2608 0.0000 0.0000 -101.4914 16.2067 4.0803 81.6792 0.0000 0.0000 20.2466 0.0000 0.0000 -103.2917 26.7184 363.4535 80.5708 0.0000 0.0000 20.4336 0.0000 0.0000 0.0000 0.0000 0.0000 25.0606 -10.1542 43.5785 16.4567 2.5900 68.2794 23.5409 32.3231 44.8538 -110.4334 -17.8938 10.7177 16.7104 0.0000 0.0000 10.8819 0.0000 0.0000 -19.7384 -1.5231 -1.5960 110.0000 0.0000 0.0000 26.5416 0.0000 0.0000 -31.3748 -0.6555 2.4382 110.0000 0.0000 0.0000 42.1546 0.0000 0.0000 -39.6364 -1.1303 5.1712 110.0000 0.0000 0.0000 50.0229 0.0000 0.0000 -52.6469 -2.1919 9.7110 110.0000 0.0000 0.0000 55.0233 0.0000 0.0000 0.0000 0.0000 0.0000 0.0000 0.0000 0.0000 0.0000 0.0000 0.0000 0.0000 0.0000 0.0000 0.0000 0.0000 0.0000 0.0000 0.0000 0.0000
0.0000 95.0000 0.0000 0.0000 0.0000 0.0000 0.0000 0.0000 0.0000 0.0000 0.0000 0.0000 0.0000 0.0000 0.0000 0.0000 0.0000 0.0000 0.0000 0.0000 0.0000 0.0000 0.0000 0.0000 -37.6011 -16.1257 -45.1853 -132.7901 69.6056 -245.1618 57.3465 -72.4192 327.1813 64.3741 -12.6844 9.0327 9.9064 0.0000 0.0000 16.6211 0.0000 0.0000 -93.6204 4.8725 0.3061 67.5303 0.0000 0.0000 28.3783 0.0000 0.0000 -107.3051 -7.3786 -10.2049 75.5446 0.0000 0.0000 30.3503 0.0000 0.0000 -107.6364 2.0629 -4.7424 75.9314 0.0000 0.0000 28.9002 0.0000 0.0000 -111.2812 5.5862 354.4700 70.7394 0.0000 0.0000 27.0659 0.0000 0.0000 0.0000 0.0000 0.0000 23.0580 -9.8689 45.8817 23.2665 -10.1408 60.0216 54.2079 42.8554 47.8057 -116.4613 -17.0386 14.3518 22.4572 0.0000 0.0000 15.4273 0.0000 0.0000 -58.7834 -1.3026 2.3665 101.1071 0.0000 0.0000 31.2723 0.0000 0.0000 -84.2769 5.7178 11.0903 82.1698 0.0000 0.0000 45.7946 0.0000 0.0000 -96.0745 8.0105 16.8930 75.9168 0.0000 0.0000 48.6343 0.0000 0.0000 -100.5968 6.5422 21.6940 72.4125 0.0000 0.0000 46.0591 0.0000 0.0000 0.0000 0.0000 0.0000 0.0000 0.0000 0.0000 0.0000 0.0000 0.0000 0.0000 0.0000 0.0000 0.0000 0.0000 0.0000 0.0000 0.0000 0.0000
0.0000 95.0000 0.0000 0.0000 0.0000 0.0000 0.0000 0.0000 0.0000 0.0000 0.0000 0.0000 0.0000 0.0000 0.0000 0.0000 0.0000 0.0000 0.0000 0.0000 0.0000 0.0000 0.0000 0.0000 -37.7363 -15.9070 -44.4707 -74.0755 67.3518 -183.5155 25.7878 -52.6339 338.9329 68.1648 -13.6276 9.3826 58.6552 0.0000 0.0000 36.2412 0.0000 0.0000 -88.4070 10.2096 8.7660 66.8675 0.0000 0.0000 27.3059 0.0000 0.0000 -96.2995 3.6991 -1.4584 70.9375 0.0000 0.0000 37.0705 0.0000 0.0000 -93.7549 8.3915 0.2052 87.1772 0.0000 0.0000 38.8699 0.0000 0.0000 -98.0586 7.2614 356.2750 86.3153 0.0000 0.0000 33.1672 0.0000 0.0000 0.0000 0.0000 0.0000 21.5834 -9.4235 46.7681 18.4006 -4.5752 67.0260 8.8577 31.5553 46.3341 -98.5130 -17.8177 6.4858 10.3719 0.0000 0.0000 6.0724 0.0000 0.0000 -4.9663 0.1811 1.8013 110.0000 0.0000 0.0000 17.1422 0.0000 0.0000 -24.3537 0.2081 5.7365 110.0000 0.0000 0.0000 21.4097 0.0000 0.0000 -41.1837 -0.3652 8.6669 110.0000 0.0000 0.0000 29.8479 0.0000 0.0000 -49.8441 -2.5230 7.6252 110.0000 0.0000 0.0000 41.4719 0.0000 0.0000 0.0000 0.0000 0.0000 0.0000 0.0000 0.0000 0.0000 0.0000 0.0000 0.0000 0.0000 0.0000 0.0000 0.0000 0.0000 0.0000 0.0000 0.0000
0.0000 95.0000 0.0000 0.0000 0.0000 0.0000 0.0000 0.0000 0.0000 0.0000 0.0000 0.0000 0.0000 0.0000 0.0000 0.0000 0.0000 0.0000 0.0000 0.0000 0.0000 0.0000 0.0000 0.0000 -40.9443 -16.1685 -41.6605 -49.1807 52.5178 -152.1672 6.0069 -31.0425 344.1947 79.1599 -16.0807 3.1856 32.3037 0.0000 0.0000 15.0892 0.0000 0.0000 -67.2483 22.0395 41.8334 78.9151 0.0000 0.0000 5.8220 0.0000 0.0000 -96.0698 -63.4783 -62.9436 48.1811 0.0000 0.0000 21.3737 0.0000 0.0000 -165.7306 82.1260 -7.8222 26.2272 0.0000 0.0000 18.0104 0.0000 0.0000 59.4330 78.3244 202.6354 37.7247 0.0000 0.0000 6.0393 0.0000 0.0000 0.0000 0.0000 0.0000 20.4655 -8.8892 46.5920 12.5250 4.7979 73.0014 -29.5092 16.5120 31.1117 -77.3685 -15.4462 4.4290 1.2056 0.0000 0.0000 9.1341 0.0000 0.0000 25.0643 0.7786 8.5136 110.0000 0.0000 0.0000 25.7662 0.0000 0.0000 4.8468 -0.2820 11.4281 110.0000 0.0000 0.0000 6.7438 0.0000 0.0000 -11.6743 -1.1099 12.1942 110.0000 0.0000 0.0000 13.2587 0.0000 0.0000 -25.9436 -2.8824 13.9469 110.0000 0.0000 0.0000 13.6783 0.0000 0.0000 0.0000 0.0000 0.0000 0.0000 0.0000 0.0000 0.0000 0.0000 0.0000 0.0000 0.0000 0.0000 0.0000 0.0000 0.0000 0.0000 0.0000 0.0000
0.0000 95.0000 0.0000 0.0000 0.0000 0.0000 0.0000 0.0000 0.0000 0.0000 0.0000 0.0000 0.0000 0.0000 0.0000 0.0000 0.0000 0.0000 0.0000 0.0000 0.0000 0.0000 0.0000 0.0000 -39.8270 -16.0053 -42.4210 -49.6896 53.5389 -153.8826 19.3990 -33.0542 351.7510 75.4238 -15.3748 4.7816 28.2788 0.0000 0.0000 3.1540 0.0000 0.0000 -91.8008 27.8002 32.0013 60.4535 0.0000 0.0000 7.7694 0.0000 0.0000 -129.7253 10.1021 -0.0221 54.6524 0.0000 0.0000 13.4784 0.0000 0.0000 -115.9657 38.7472 11.8297 64.6609 0.0000 0.0000 10.2861 0.0000 0.0000 -118.0925 43.3031 363.7160 68.5796 0.0000 0.0000 7.2686 0.0000 0.0000 0.0000 0.0000 0.0000 18.7174 -8.3243 47.6479 14.0114 -0.2722 71.8153 2.3119 23.6962 29.9916 -103.3813 -17.1553 11.2674 8.3065 0.0000 0.0000 4.8232 0.0000 0.0000 -7.0011 0.1301 1.8411 110.0000 0.0000 0.0000 15.2227 0.0000 0.0000 -25.8683 0.1522 5.4346 110.0000 0.0000 0.0000 19.2615 0.0000 0.0000 -40.6764 -0.8136 6.6679 110.0000 0.0000 0.0000 19.6006 0.0000 0.0000 -51.2130 -2.3087 9.0792 110.0000 0.0000 0.0000 23.2546 0.0000 0.0000 0.0000 0.0000 0.0000 0.0000 0.0000 0.0000 0.0000 0.0000 0.0000 0.0000 0.0000 0.0000 0.0000 0.0000 0.0000 0.0000 0.0000 0.0000
0.0000 95.0000 0.0000 0.0000 0.0000 0.0000 0.0000 0.0000 0.0000 0.0000 0.0000 0.0000 0.0000 0.0000 0.0000 0.0000 0.0000 0.0000 0.0000 0.0000 0.0000 0.0000 0.0000 0.0000 -38.1538 -15.3248 -42.5147 -126.9906 64.5239 -245.9538 80.3956 -76.8985 311.4032 61.2620 -11.9616 8.3780 14.5189 0.0000 0.0000 16.4357 0.0000 0.0000 -133.9369 5.1856 -2.2293 47.5658 0.0000 0.0000 7.2396 0.0000 0.0000 -22.1738 -50.5920 -139.7321 32.5415 0.0000 0.0000 17.4543 0.0000 0.0000 -168.2742 -4.0542 -6.2064 21.1407 0.0000 0.0000 14.3980 0.0000 0.0000 -179.9303 80.5149 322.7646 36.1509 0.0000 0.0000 5.2899 0.0000 0.0000 0.0000 0.0000 0.0000 19.3358 -8.2193 45.7363 23.3060 -13.8719 65.0596 61.8282 41.2597 48.5214 -108.9048 -17.6947 10.9380 11.8262 0.0000 0.0000 30.1117 0.0000 0.0000 -44.9959 1.0845 5.3024 110.0000 0.0000 0.0000 36.5647 0.0000 0.0000 -65.1233 3.2766 9.9009 99.9926 0.0000 0.0000 49.1691 0.0000 0.0000 -79.1300 4.8114 15.5812 91.0145 0.0000 0.0000 54.1207 0.0000 0.0000 -85.4965 2.4354 18.1810 88.3152 0.0000 0.0000 46.9272 0.0000 0.0000 0.0000 0.0000 0.0000 0.0000 0.0000 0.0000 0.0000 0.0000 0.0000 0.0000 0.0000 0.0000 0.0000 0.0000 0.0000 0.0000 0.0000 0.0000
0.0000 95.0000 0.0000 0.0000 0.0000 0.0000 0.0000 0.0000 0.0000 0.0000 0.0000 0.0000 0.0000 0.0000 0.0000 0.0000 0.0000 0.0000 0.0000 0.0000 0.0000 0.0000 0.0000 0.0000 -37.0952 -15.3356 -43.7280 -96.4651 67.3575 -211.8589 18.5301 -66.1340 343.0328 77.4176 -15.7051 2.3518 35.2622 0.0000 0.0000 11.1722 0.0000 0.0000 -92.2932 20.8479 22.3646 70.2340 0.0000 0.0000 13.5968 0.0000 0.0000 -124.2228 1.5633 -3.9445 63.7717 0.0000 0.0000 13.7754 0.0000 0.0000 -84.6766 51.6236 37.8724 70.9995 0.0000 0.0000 9.9905 0.0000 0.0000 -357.7942 19.2578 419.4500 110.0000 0.0000 0.0000 5.7659 0.0000 0.0000 0.0000 0.0000 0.0000 18.8739 -8.3008 47.1705 21.9784 -13.0712 67.6041 12.4231 38.7815 32.3290 -108.8565 -17.3168 12.1465 12.2502 0.0000 0.0000 5.5746 0.0000 0.0000 -42.7020 -0.9064 2.0835 106.8208 0.0000 0.0000 37.0864 0.0000 0.0000 -62.9591 1.7526 7.6338 101.9285 0.0000 0.0000 45.9638 0.0000 0.0000 -74.5587 2.4869 12.3372 95.3774 0.0000 0.0000 50.6009 0.0000 0.0000 -80.7136 0.1806 14.1690 87.1640 0.0000 0.0000 50.5516 0.0000 0.0000 0.0000 0.0000 0.0000 0.0000 0.0000 0.0000 0.0000 0.0000 0.0000 0.0000 0.0000 0.0000 0.0000 0.0000 0.0000 0.0000 0.0000 0.0000
0.0000 95.0000 0.0000 0.0000 0.0000 0.0000 0.0000 0.0000 0.0000 0.0000 0.0000 0.0000 0.0000 0.0000 0.0000 0.0000 0.0000 0.0000 0.0000 0.0000 0.0000 0.0000 0.0000 0.0000 -39.4817 -15.8285 -42.3510 -59.4132 58.5465 -167.9472 13.9993 -42.6384 348.0609 71.1098 -14.4581 4.8630 33.2772 0.0000 0.0000 21.8605 0.0000 0.0000 -78.0370 12.9316 16.7338 96.0866 0.0000 0.0000 17.9493 0.0000 0.0000 -120.0850 -12.7298 -12.1291 75.9626 0.0000 0.0000 15.5717 0.0000 0.0000 -147.8254 46.2236 0.7256 48.6558 0.0000 0.0000 14.9995 0.0000 0.0000 -326.1131 2.5966 528.6695 32.6287 0.0000 0.0000 7.6018 0.0000 0.0000 0.0000 0.0000 0.0000 18.4960 -8.0711 46.8530 13.9779 0.2906 76.4217 -25.4240 21.6325 34.4781 -77.5570 -15.8140 -4.4667 4.8287 0.0000 0.0000 5.1699 0.0000 0.0000 22.1535 0.8887 6.9383 110.0000 0.0000 0.0000 11.7970 0.0000 0.0000 3.0660 -0.1885 11.8059 110.0000 0.0000 0.0000 8.7044 0.0000 0.0000 -17.7293 -0.7766 13.6873 110.0000 0.0000 0.0000 14.5763 0.0000 0.0000 -30.8741 -2.5500 11.1257 110.0000 0.0000 0.0000 21.9858 0.0000 0.0000 0.0000 0.0000 0.0000 0.0000 0.0000 0.0000 0.0000 0.0000 0.0000 0.0000 0.0000 0.0000 0.0000 0.0000 0.0000 0.0000 0.0000 0.0000
0.0000 95.0000 0.0000 0.0000 0.0000 0.0000 0.0000 0.0000 0.0000 0.0000 0.0000 0.0000 0.0000 0.0000 0.0000 0.0000 0.0000 0.0000 0.0000 0.0000 0.0000 0.0000 0.0000 0.0000 -37.4376 -15.8929 -44.7783 -73.6571 67.6924 -182.8588 -104.6499 -30.3845 292.0078 -44.0864 23.3095 2.6643 4.7550 0.0000 0.0000 5.6409 0.0000 0.0000 -61.2134 27.8056 60.8542 53.9002 0.0000 0.0000 7.2091 0.0000 0.0000 -78.1433 44.1926 48.3644 46.3595 0.0000 0.0000 35.2772 0.0000 0.0000 -92.4973 39.5306 23.2126 48.2537 0.0000 0.0000 29.9010 0.0000 0.0000 -450.0592 37.2536 373.3536 43.5606 0.0000 0.0000 21.9238 0.0000 0.0000 0.0000 0.0000 0.0000 18.5943 -8.2652 47.6296 19.0199 -8.9571 69.7523 28.0158 34.4835 40.3233 -113.5018 -17.5091 12.5650 13.6120 0.0000 0.0000 14.9328 0.0000 0.0000 -27.3262 -0.8951 0.9656 110.0000 0.0000 0.0000 28.7836 0.0000 0.0000 -39.8878 0.4492 6.0098 110.0000 0.0000 0.0000 36.9213 0.0000 0.0000 -52.2664 0.2089 9.6739 110.0000 0.0000 0.0000 41.6281 0.0000 0.0000 -61.9007 -1.4683 12.0610 105.0152 0.0000 0.0000 41.7909 0.0000 0.0000 0.0000 0.0000 0.0000 0.0000 0.0000 0.0000 0.0000 0.0000 0.0000 0.0000 0.0000 0.0000 0.0000 0.0000 0.0000 0.0000 0.0000 0.0000
0.0000 95.0000 0.0000 0.0000 0.0000 0.0000 0.0000 0.0000 0.0000 0.0000 0.0000 0.0000 0.0000 0.0000 0.0000 0.0000 0.0000 0.0000 0.0000 0.0000 0.0000 0.0000 0.0000 0.0000 -34.9681 -14.9768 -45.3016 -95.0651 71.2017 -208.2104 17.4341 -67.4664 351.8041 80.0749 -16.0635 -0.0832 22.2392 0.0000 0.0000 25.1595 0.0000 0.0000 24.0633 -40.9962 80.6512 48.2525 0.0000 0.0000 7.2744 0.0000 0.0000 -241.4798 -30.3483 13.5525 44.1805 0.0000 0.0000 22.0138 0.0000 0.0000 -255.8451 -29.0599 22.8353 45.2401 0.0000 0.0000 19.4422 0.0000 0.0000 -615.1734 -37.8583 400.9550 40.9752 0.0000 0.0000 19.9680 0.0000 0.0000 0.0000 0.0000 0.0000 19.1293 -8.6241 48.2151 22.5222 -13.9064 67.3346 23.8916 38.3986 28.1837 -113.2125 -15.9317 17.0090 16.2026 0.0000 0.0000 8.5163 0.0000 0.0000 -42.2186 1.7318 6.3779 110.0000 0.0000 0.0000 31.9820 0.0000 0.0000 -68.6370 4.6536 11.5847 99.9686 0.0000 0.0000 45.4341 0.0000 0.0000 -79.7900 6.5448 18.2289 95.2665 0.0000 0.0000 52.1673 0.0000 0.0000 -85.3474 4.4185 22.2927 85.7343 0.0000 0.0000 48.9873 0.0000 0.0000 0.0000 0.0000 0.0000 0.0000 0.0000 0.0000 0.0000 0.0000 0.0000 0.0000 0.0000 0.0000 0.0000 0.0000 0.0000 0.0000 0.0000 0.0000
0.0000 95.0000 0.0000 0.0000 0.0000 0.0000 0.0000 0.0000 0.0000 0.0000 0.0000 0.0000 0.0000 0.0000 0.0000 0.0000 0.0000 0.0000 0.0000 0.0000 0.0000 0.0000 0.0000 0.0000 -36.6464 -15.2909 -44.1295 -67.7692 66.6907 -177.7397 17.8611 -51.2209 360.7150 63.5876 -12.7173 6.3335 66.9738 0.0000 0.0000 39.2028 0.0000 0.0000 -66.3330 16.5657 31.1142 78.8545 0.0000 0.0000 25.4814 0.0000 0.0000 -93.2588 18.0841 12.3270 78.7706 0.0000 0.0000 31.0360 0.0000 0.0000 -104.1724 27.9837 10.4666 84.8538 0.0000 0.0000 35.4055 0.0000 0.0000 -497.1551 29.6441 354.4691 61.1788 0.0000 0.0000 31.7672 0.0000 0.0000 0.0000 0.0000 0.0000 21.5757 -9.5381 47.2925 18.4868 -4.3984 71.0415 -5.5198 29.3523 40.2024 -87.5232 -17.2721 0.5233 1.2423 0.0000 0.0000 10.6125 0.0000 0.0000 -7.3922 0.2721 2.4575 110.0000 0.0000 0.0000 14.9937 0.0000 0.0000 -22.0095 0.4901 7.2920 110.0000 0.0000 0.0000 16.9145 0.0000 0.0000 -39.4823 -0.0655 10.2819 110.0000 0.0000 0.0000 28.0601 0.0000 0.0000 -52.2145 -2.3256 8.9156 110.0000 0.0000 0.0000 40.0080 0.0000 0.0000 0.0000 0.0000 0.0000 0.0000 0.0000 0.0000 0.0000 0.0000 0.0000 0.0000 0.0000 0.0000 0.0000 0.0000 0.0000 0.0000 0.0000 0.0000
0.0000 95.0000 0.0000 0.0000 0.0000 0.0000 0.0000 0.0000 0.0000 0.0000 0.0000 0.0000 0.0000 0.0000 0.0000 0.0000 0.0000 0.0000 0.0000 0.0000 0.0000 0.0000 0.0000 0.0000 -36.7041 -14.9160 -43.0705 -71.0334 66.4897 -183.1233 24.4302 -57.6920 339.5258 75.9415 -15.4528 3.5097 16.3261 0.0000 0.0000 27.8740 0.0000 0.0000 -31.7651 2.3386 9.4140 110.0000 0.0000 0.0000 13.7874 0.0000 0.0000 -17.1795 0.4390 -1.8665 18.7969 0.0000 0.0000 18.7330 0.0000 0.0000 -18.9643 1.6102 1.6008 14.3339 0.0000 0.0000 7.1505 0.0000 0.0000 -373.1259 2.4474 363.1731 21.8561 0.0000 0.0000 3.9390 0.0000 0.0000 0.0000 0.0000 0.0000 21.3724 -9.4666 47.3822 18.5341 -4.8614 69.7000 12.0769 32.4537 32.7517 -104.8627 -17.2761 11.2503 6.9545 0.0000 0.0000 9.7684 0.0000 0.0000 -8.1278 1.5814 7.6445 110.0000 0.0000 0.0000 36.7464 0.0000 0.0000 -31.8509 1.7716 10.9750 110.0000 0.0000 0.0000 47.3488 0.0000 0.0000 -49.5687 1.0497 12.7414 108.2200 0.0000 0.0000 46.9035 0.0000 0.0000 -59.7662 -1.0705 14.1453 102.2393 0.0000 0.0000 48.9339 0.0000 0.0000 0.0000 0.0000 0.0000 0.0000 0.0000 0.0000 0.0000 0.0000 0.0000 0.0000 0.0000 0.0000 0.0000 0.0000 0.0000 0.0000 0.0000 0.0000
0.0000 95.0000 0.0000 0.0000 0.0000 0.0000 0.0000 0.0000 0.0000 0.0000 0.0000 0.0000 0.0000 0.0000 0.0000 0.0000 0.0000 0.0000 0.0000 0.0000 0.0000 0.0000 0.0000 0.0000 -37.7848 -14.9413 -41.9305 -72.4628 66.2104 -184.8703 21.9772 -55.1975 345.0191 74.4006 -15.1477 3.8666 25.0190 0.0000 0.0000 33.5355 0.0000 0.0000 -124.6578 48.5904 33.2496 29.7114 0.0000 0.0000 10.7659 0.0000 0.0000 -172.0639 -36.5977 -7.4001 15.3811 0.0000 0.0000 19.5904 0.0000 0.0000 15.9338 34.6975 173.5153 17.4941 0.0000 0.0000 16.8726 0.0000 0.0000 -326.7162 8.6825 524.2755 28.6420 0.0000 0.0000 2.1796 0.0000 0.0000 0.0000 0.0000 0.0000 23.1462 -10.0069 46.2961 17.0530 -0.1567 70.3136 6.4033 27.4416 37.2465 -99.3162 -17.5568 8.0717 4.0494 0.0000 0.0000 10.0433 0.0000 0.0000 -10.6454 1.2879 6.3745 110.0000 0.0000 0.0000 25.3260 0.0000 0.0000 -31.0927 1.4770 10.0776 110.0000 0.0000 0.0000 41.3778 0.0000 0.0000 -46.3935 0.7316 12.2812 110.0000 0.0000 0.0000 42.9468 0.0000 0.0000 -54.4055 -1.5769 12.9857 109.6489 0.0000 0.0000 48.2016 0.0000 0.0000 0.0000 0.0000 0.0000 0.0000 0.0000 0.0000 0.0000 0.0000 0.0000 0.0000 0.0000 0.0000 0.0000 0.0000 0.0000 0.0000 0.0000 0.0000
0.0000 95.0000 0.0000 0.0000 0.0000 0.0000 0.0000 0.0000 0.0000 0.0000 0.0000 0.0000 0.0000 0.0000 0.0000 0.0000 0.0000 0.0000 0.0000 0.0000 0.0000 0.0000 0.0000 0.0000 -38.8955 -14.2859 -39.0811 -71.3921 64.7902 -185.9046 29.9915 -52.8288 339.9369 71.0016 -14.4282 5.2246 22.6863 0.0000 0.0000 28.5007 0.0000 0.0000 -119.1879 -4.6877 -9.8544 63.9303 0.0000 0.0000 12.1935 0.0000 0.0000 -105.6656 -55.5341 -48.2921 49.4281 0.0000 0.0000 17.7229 0.0000 0.0000 -143.4308 -29.0541 348.4384 52.3124 0.0000 0.0000 20.1952 0.0000 0.0000 -151.2275 7.5978 351.4950 48.9849 0.0000 0.0000 2.2133 0.0000 0.0000 0.0000 0.0000 0.0000 26.1370 -10.7377 44.0820 16.0242 5.6506 72.3047 1.1153 22.2695 34.4540 -95.4457 -16.9840 8.9596 2.5825 0.0000 0.0000 11.1172 0.0000 0.0000 -9.7058 2.3616 10.3850 110.0000 0.0000 0.0000 18.4428 0.0000 0.0000 -27.7514 2.4602 14.7076 110.0000 0.0000 0.0000 35.2559 0.0000 0.0000 -43.0920 1.9428 18.0292 110.0000 0.0000 0.0000 41.7559 0.0000 0.0000 -52.2555 -0.8478 18.1047 107.8370 0.0000 0.0000 49.0664 0.0000 0.0000 0.0000 0.0000 0.0000 0.0000 0.0000 0.0000 0.0000 0.0000 0.0000 0.0000 0.0000 0.0000 0.0000 0.0000 0.0000 0.0000 0.0000 0.0000
0.0000 95.0000 0.0000 0.0000 0.0000 0.0000 0.0000 0.0000 0.0000 0.0000 0.0000 0.0000 0.0000 0.0000 0.0000 0.0000 0.0000 0.0000 0.0000 0.0000 0.0000 0.0000 0.0000 0.0000 -39.8125 -14.0840 -37.6719 -58.9650 59.5615 -171.4353 18.7135 -42.2335 344.2284 75.6518 -15.4490 5.9386 14.8213 0.0000 0.0000 27.2820 0.0000 0.0000 -52.5315 2.8784 1.8122 110.0000 0.0000 0.0000 18.8523 0.0000 0.0000 -43.5708 -2.2344 -10.3586 110.0000 0.0000 0.0000 9.5278 0.0000 0.0000 -15.6441 0.5818 358.8644 110.0000 0.0000 0.0000 14.6343 0.0000 0.0000 -326.9085 -2.3327 367.9952 110.0000 0.0000 0.0000 8.1580 0.0000 0.0000 0.0000 0.0000 0.0000 30.1249 -11.5432 41.1704 16.1223 11.2796 75.1738 11.5207 21.6071 31.7318 -99.0115 -16.6472 12.0331 3.1092 0.0000 0.0000 10.5628 0.0000 0.0000 -13.2058 3.3080 12.9142 110.0000 0.0000 0.0000 24.3156 0.0000 0.0000 -32.3510 4.0706 18.7417 110.0000 0.0000 0.0000 40.6926 0.0000 0.0000 -46.7641 3.4808 22.0994 109.6254 0.0000 0.0000 40.3260 0.0000 0.0000 -54.2133 -0.0938 21.3107 91.4367 0.0000 0.0000 41.9224 0.0000 0.0000 0.0000 0.0000 0.0000 0.0000 0.0000 0.0000 0.0000 0.0000 0.0000 0.0000 0.0000 0.0000 0.0000 0.0000 0.0000 0.0000 0.0000 0.0000
0.0000 95.0000 0.0000 0.0000 0.0000 0.0000 0.0000 0.0000 0.0000 0.0000 0.0000 0.0000 0.0000 0.0000 0.0000 0.0000 0.0000 0.0000 0.0000 0.0000 0.0000 0.0000 0.0000 0.0000 -44.1848 -12.7633 -30.8103 -39.5412 16.9590 -131.2348 -12.3335 13.9178 356.0830 93.1414 -17.5284 -4.4908 17.2879 0.0000 0.0000 35.2921 0.0000 0.0000 -34.7227 1.7569 1.7367 110.0000 0.0000 0.0000 32.6498 0.0000 0.0000 -28.3142 0.2044 -3.9614 110.0000 0.0000 0.0000 27.9751 0.0000 0.0000 -19.8461 0.5652 358.1709 110.0000 0.0000 0.0000 23.2418 0.0000 0.0000 -362.8097 -0.3524 358.2955 110.0000 0.0000 0.0000 9.0189 0.0000 0.0000 0.0000 0.0000 0.0000 37.1113 -12.4911 36.1148 18.8654 14.1908 74.2201 18.2446 29.7595 24.5332 -104.3120 -14.9887 19.5988 14.3101 0.0000 0.0000 7.5989 0.0000 0.0000 -17.5335 3.4917 12.4950 110.0000 0.0000 0.0000 16.7582 0.0000 0.0000 -29.4200 3.7856 19.1211 110.0000 0.0000 0.0000 19.9792 0.0000 0.0000 -37.5207 2.8139 25.6095 110.0000 0.0000 0.0000 18.6619 0.0000 0.0000 -39.7032 -1.5835 25.7121 110.0000 0.0000 0.0000 17.1972 0.0000 0.0000 0.0000 0.0000 0.0000 0.0000 0.0000 0.0000 0.0000 0.0000 0.0000 0.0000 0.0000 0.0000 0.0000 0.0000 0.0000 0.0000 0.0000 0.0000
0.0000 95.0000 0.0000 0.0000 0.0000 0.0000 0.0000 0.0000 0.0000 0.0000 0.0000 0.0000 0.0000 0.0000 0.0000 0.0000 0.0000 0.0000 0.0000 0.0000 0.0000 0.0000 0.0000 0.0000 -50.9011 -10.7893 -22.4463 -68.6829 -24.9882 -56.9520 145.6612 71.9354 533.9452 96.2856 -16.1417 -13.6285 37.3155 0.0000 0.0000 38.8868 0.0000 0.0000 -14.4074 0.8819 -4.4252 110.0000 0.0000 0.0000 12.5460 0.0000 0.0000 -1.9369 -0.0774 -9.3461 110.0000 0.0000 0.0000 8.0910 0.0000 0.0000 4.5203 -1.1303 351.2710 110.0000 0.0000 0.0000 15.4991 0.0000 0.0000 -345.3905 -2.1923 353.5522 110.0000 0.0000 0.0000 15.8346 0.0000 0.0000 0.0000 0.0000 0.0000 47.5010 -10.8264 24.3065 30.4407 7.2350 68.3252 64.6020 58.9460 50.2495 -105.5296 -15.7119 17.0348 27.1425 0.0000 0.0000 8.3347 0.0000 0.0000 -0.2641 0.0274 0.2141 110.0000 0.0000 0.0000 23.6514 0.0000 0.0000 -8.8608 -0.0251 4.4473 110.0000 0.0000 0.0000 18.6106 0.0000 0.0000 -16.6610 -0.8820 7.4792 110.0000 0.0000 0.0000 13.8860 0.0000 0.0000 -22.3692 -2.2999 6.4238 110.0000 0.0000 0.0000 13.3972 0.0000 0.0000 0.0000 0.0000 0.0000 0.0000 0.0000 0.0000 0.0000 0.0000 0.0000 0.0000 0.0000 0.0000 0.0000 0.0000 0.0000 0.0000 0.0000 0.0000
0.0000 95.0000 0.0000 0.0000 0.0000 0.0000 0.0000 0.0000 0.0000 0.0000 0.0000 0.0000 0.0000 0.0000 0.0000 0.0000 0.0000 0.0000 0.0000 0.0000 0.0000 0.0000 0.0000 0.0000 -57.2183 -6.0013 -10.9794 -76.6070 -9.4197 -9.0052 156.4054 21.4070 532.3612 82.5527 -15.9058 -7.2130 39.0004 0.0000 0.0000 20.4387 0.0000 0.0000 -5.3926 0.3665 -0.9240 110.0000 0.0000 0.0000 15.9163 0.0000 0.0000 5.2037 0.0409 -5.6714 110.0000 0.0000 0.0000 19.9913 0.0000 0.0000 9.9150 -0.8674 354.0803 110.0000 0.0000 0.0000 19.9496 0.0000 0.0000 -340.2831 -2.0869 354.9703 110.0000 0.0000 0.0000 19.9578 0.0000 0.0000 0.0000 0.0000 0.0000 57.7235 -7.5081 13.5781 41.1392 2.0851 46.1664 160.0572 58.2108 134.8310 -77.8915 -15.7558 -1.4030 14.2212 0.0000 0.0000 1.6684 0.0000 0.0000 0.7433 -0.4616 -2.8253 10.2900 0.0000 0.0000 5.2596 0.0000 0.0000 -8.1907 -0.2284 1.5824 11.5538 0.0000 0.0000 5.6771 0.0000 0.0000 -13.8597 -0.7668 -0.2478 18.3934 0.0000 0.0000 5.3689 0.0000 0.0000 -20.9092 -1.2494 -2.5015 12.9077 0.0000 0.0000 5.5427 0.0000 0.0000 0.0000 0.0000 0.0000 0.0000 0.0000 0.0000 0.0000 0.0000 0.0000 0.0000 0.0000 0.0000 0.0000 0.0000 0.0000 0.0000 0.0000 0.0000
0.0000 95.0000 0.0000 0.0000 0.0000 0.0000 0.0000 0.0000 0.0000 0.0000 0.0000 0.0000 0.0000 0.0000 0.0000 0.0000 0.0000 0.0000 0.0000 0.0000 0.0000 0.0000 0.0000 0.0000 -62.6752 -2.8318 -4.6491 -60.4329 -2.8050 3.2734 172.7727 7.4779 527.3266 82.5527 -15.9058 -7.2130 39.0004 0.0000 0.0000 20.4387 0.0000 0.0000 -5.3926 0.3665 -0.9240 110.0000 0.0000 0.0000 15.9163 0.0000 0.0000 5.2037 0.0409 -5.6714 110.0000 0.0000 0.0000 19.9913 0.0000 0.0000 9.9150 -0.8674 354.0803 110.0000 0.0000 0.0000 19.9496 0.0000 0.0000 -340.2831 -2.0869 354.9703 110.0000 0.0000 0.0000 19.9578 0.0000 0.0000 0.0000 0.0000 0.0000 65.6522 -6.0855 9.4210 33.9973 5.6249 30.1623 170.7116 45.4606 156.1842 -77.8915 -15.7558 -1.4030 14.2212 0.0000 0.0000 1.6684 0.0000 0.0000 0.7433 -0.4616 -2.8253 10.2900 0.0000 0.0000 5.2596 0.0000 0.0000 -8.1907 -0.2284 1.5824 11.5538 0.0000 0.0000 5.6771 0.0000 0.0000 -13.8597 -0.7668 -0.2478 18.3934 0.0000 0.0000 5.3689 0.0000 0.0000 -20.9092 -1.2494 -2.5015 12.9077 0.0000 0.0000 5.5427 0.0000 0.0000 0.0000 0.0000 0.0000 0.0000 0.0000 0.0000 0.0000 0.0000 0.0000 0.0000 0.0000 0.0000 0.0000 0.0000 0.0000 0.0000 0.0000 0.0000
0.0000 95.0000 0.0000 0.0000 0.0000 0.0000 0.0000 0.0000 0.0000 0.0000 0.0000 0.0000 0.0000 0.0000 0.0000 0.0000 0.0000 0.0000 0.0000 0.0000 0.0000 0.0000 0.0000 0.0000 -67.1391 -0.5316 -0.8011 -46.4911 -1.4701 5.9501 183.5487 4.1642 525.1660 82.5527 -15.9058 -7.2130 39.0004 0.0000 0.0000 20.4387 0.0000 0.0000 -5.3926 0.3665 -0.9240 110.0000 0.0000 0.0000 15.9163 0.0000 0.0000 5.2037 0.0409 -5.6714 110.0000 0.0000 0.0000 19.9913 0.0000 0.0000 9.9150 -0.8674 354.0803 110.0000 0.0000 0.0000 19.9496 0.0000 0.0000 -340.2831 -2.0869 354.9703 110.0000 0.0000 0.0000 19.9578 0.0000 0.0000 0.0000 0.0000 0.0000 71.8948 -5.4204 7.4700 23.4111 7.5218 20.6377 168.2191 37.5229 162.4802 -77.8915 -15.7558 -1.4030 14.2212 0.0000 0.0000 1.6684 0.0000 0.0000 0.7433 -0.4616 -2.8253 10.2900 0.0000 0.0000 5.2596 0.0000 0.0000 -8.1907 -0.2284 1.5824 11.5538 0.0000 0.0000 5.6771 0.0000 0.0000 -13.8597 -0.7668 -0.2478 18.3934 0.0000 0.0000 5.3689 0.0000 0.0000 -20.9092 -1.2494 -2.5015 12.9077 0.0000 0.0000 5.5427 0.0000 0.0000 0.0000 0.0000 0.0000 0.0000 0.0000 0.0000 0.0000 0.0000 0.0000 0.0000 0.0000 0.0000 0.0000 0.0000 0.0000 0.0000 0.0000 0.0000
0.0000 95.0000 0.0000 0.0000 0.0000 0.0000 0.0000 0.0000 0.0000 0.0000 0.0000 0.0000 0.0000 0.0000 0.0000 0.0000 0.0000 0.0000 0.0000 0.0000 0.0000 0.0000 0.0000 0.0000 -70.2797 1.3666 1.9415 -36.1857 -1.1988 6.4095 191.1745 3.0300 523.9856 82.5527 -15.9058 -7.2130 39.0004 0.0000 0.0000 20.4387 0.0000 0.0000 -5.3926 0.3665 -0.9240 110.0000 0.0000 0.0000 15.9163 0.0000 0.0000 5.2037 0.0409 -5.6714 110.0000 0.0000 0.0000 19.9913 0.0000 0.0000 9.9150 -0.8674 354.0803 110.0000 0.0000 0.0000 19.9496 0.0000 0.0000 -340.2831 -2.0869 354.9703 110.0000 0.0000 0.0000 19.9578 0.0000 0.0000 0.0000 0.0000 0.0000 76.4203 -4.6480 5.9024 15.8498 8.4387 16.1917 165.7370 33.5128 165.2131 -77.8915 -15.7558 -1.4030 14.2212 0.0000 0.0000 1.6684 0.0000 0.0000 0.7433 -0.4616 -2.8253 10.2900 0.0000 0.0000 5.2596 0.0000 0.0000 -8.1907 -0.2284 1.5824 11.5538 0.0000 0.0000 5.6771 0.0000 0.0000 -13.8597 -0.7668 -0.2478 18.3934 0.0000 0.0000 5.3689 0.0000 0.0000 -20.9092 -1.2494 -2.5015 12.9077 0.0000 0.0000 5.5427 0.0000 0.0000 0.0000 0.0000 0.0000 0.0000 0.0000 0.0000 0.0000 0.0000 0.0000 0.0000 0.0000 0.0000 0.0000 0.0000 0.0000 0.0000 0.0000 0.0000
0.0000 95.0000 0.0000 0.0000 0.0000 0.0000 0.0000 0.0000 0.0000 0.0000 0.0000 0.0000 0.0000 0.0000 0.0000 0.0000 0.0000 0.0000 0.0000 0.0000 0.0000 0.0000 0.0000 0.0000 -72.7441 2.4589 3.3381 -28.7601 -1.1354 5.5429 196.0836 3.4942 524.0515 82.5527 -15.9058 -7.2130 39.0004 0.0000 0.0000 20.4387 0.0000 0.0000 -5.3926 0.3665 -0.9240 110.0000 0.0000 0.0000 15.9163 0.0000 0.0000 5.2037 0.0409 -5.6714 110.0000 0.0000 0.0000 19.9913 0.0000 0.0000 9.9150 -0.8674 354.0803 110.0000 0.0000 0.0000 19.9496 0.0000 0.0000 -340.2831 -2.0869 354.9703 110.0000 0.0000 0.0000 19.9578 0.0000 0.0000 0.0000 0.0000 0.0000 79.7437 -4.0645 4.8651 9.5640 9.0351 13.5964 162.9115 31.1414 166.2878 -77.8915 -15.7558 -1.4030 14.2212 0.0000 0.0000 1.6684 0.0000 0.0000 0.7433 -0.4616 -2.8253 10.2900 0.0000 0.0000 5.2596 0.0000 0.0000 -8.1907 -0.2284 1.5824 11.5538 0.0000 0.0000 5.6771 0.0000 0.0000 -13.8597 -0.7668 -0.2478 18.3934 0.0000 0.0000 5.3689 0.0000 0.0000 -20.9092 -1.2494 -2.5015 12.9077 0.0000 0.0000 5.5427 0.0000 0.0000 0.0000 0.0000 0.0000 0.0000 0.0000 0.0000 0.0000 0.0000 0.0000 0.0000 0.0000 0.0000 0.0000 0.0000 0.0000 0.0000 0.0000 0.0000
0.0000 95.0000 0.0000 0.0000 0.0000 0.0000 0.0000 0.0000 0.0000 0.0000 0.0000 0.0000 0.0000 0.0000 0.0000 0.0000 0.0000 0.0000 0.0000 0.0000 0.0000 0.0000 0.0000 0.0000 -74.8464 3.3801 4.4164 -22.9579 -1.1149 4.8020 199.7424 3.7922 524.0888 82.5527 -15.9058 -7.2130 39.0004 0.0000 0.0000 20.4387 0.0000 0.0000 -5.3926 0.3665 -0.9240 110.0000 0.0000 0.0000 15.9163 0.0000 0.0000 5.2037 0.0409 -5.6714 110.0000 0.0000 0.0000 19.9913 0.0000 0.0000 9.9150 -0.8674 354.0803 110.0000 0.0000 0.0000 19.9496 0.0000 0.0000 -340.2831 -2.0869 354.9703 110.0000 0.0000 0.0000 19.9578 0.0000 0.0000 0.0000 0.0000 0.0000 81.7156 -3.4121 3.9445 6.0529 8.8886 11.7837 161.7206 29.2116 167.7940 -77.8915 -15.7558 -1.4030 14.2212 0.0000 0.0000 1.6684 0.0000 0.0000 0.7433 -0.4616 -2.8253 10.2900 0.0000 0.0000 5.2596 0.0000 0.0000 -8.1907 -0.2284 1.5824 11.5538 0.0000 0.0000 5.6771 0.0000 0.0000 -13.8597 -0.7668 -0.2478 18.3934 0.0000 0.0000 5.3689 0.0000 0.0000 -20.9092 -1.2494 -2.5015 12.9077 0.0000 0.0000 5.5427 0.0000 0.0000 0.0000 0.0000 0.0000 0.0000 0.0000 0.0000 0.0000 0.0000 0.0000 0.0000 0.0000 0.0000 0.0000 0.0000 0.0000 0.0000 0.0000 0.0000
0.0000 95.0000 0.0000 0.0000 0.0000 0.0000 0.0000 0.0000 0.0000 0.0000 0.0000 0.0000 0.0000 0.0000 0.0000 0.0000 0.0000 0.0000 0.0000 0.0000 0.0000 0.0000 0.0000 0.0000 -77.1324 4.4015 5.5188 -19.1924 -0.7578 3.7814 201.1478 3.8138 524.0262 82.5527 -15.9058 -7.2130 39.0004 0.0000 0.0000 20.4387 0.0000 0.0000 -5.3926 0.3665 -0.9240 110.0000 0.0000 0.0000 15.9163 0.0000 0.0000 5.2037 0.0409 -5.6714 110.0000 0.0000 0.0000 19.9913 0.0000 0.0000 9.9150 -0.8674 354.0803 110.0000 0.0000 0.0000 19.9496 0.0000 0.0000 -340.2831 -2.0869 354.9703 110.0000 0.0000 0.0000 19.9578 0.0000 0.0000 0.0000 0.0000 0.0000 82.9995 -2.8869 3.2628 4.1669 10.2031 12.5604 160.6601 29.5061 166.9723 -77.8915 -15.7558 -1.4030 14.2212 0.0000 0.0000 1.6684 0.0000 0.0000 0.7433 -0.4616 -2.8253 10.2900 0.0000 0.0000 5.2596 0.0000 0.0000 -8.1907 -0.2284 1.5824 11.5538 0.0000 0.0000 5.6771 0.0000 0.0000 -13.8597 -0.7668 -0.2478 18.3934 0.0000 0.0000 5.3689 0.0000 0.0000 -20.9092 -1.2494 -2.5015 12.9077 0.0000 0.0000 5.5427 0.0000 0.0000 0.0000 0.0000 0.0000 0.0000 0.0000 0.0000 0.0000 0.0000 0.0000 0.0000 0.0000 0.0000 0.0000 0.0000 0.0000 0.0000 0.0000 0.0000
0.0000 95.0000 0.0000 0.0000 0.0000 0.0000 0.0000 0.0000 0.0000 0.0000 0.0000 0.0000 0.0000 0.0000 0.0000 0.0000 0.0000 0.0000 0.0000 0.0000 0.0000 0.0000 0.0000 0.0000 -78.9527 4.7836 5.8063 -16.4734 -0.7846 3.3560 202.0158 3.9391 524.0883 82.5527 -15.9058 -7.2130 39.0004 0.0000 0.0000 20.4387 0.0000 0.0000 -5.3926 0.3665 -0.9240 110.0000 0.0000 0.0000 15.9163 0.0000 0.0000 5.2037 0.0409 -5.6714 110.0000 0.0000 0.0000 19.9913 0.0000 0.0000 9.9150 -0.8674 354.0803 110.0000 0.0000 0.0000 19.9496 0.0000 0.0000 -340.2831 -2.0869 354.9703 110.0000 0.0000 0.0000 19.9578 0.0000 0.0000 0.0000 0.0000 0.0000 83.8555 -2.6188 2.9157 2.8524 9.7004 11.4317 160.5618 28.4009 168.1446 -77.8915 -15.7558 -1.4030 14.2212 0.0000 0.0000 1.6684 0.0000 0.0000 0.7433 -0.4616 -2.8253 10.2900 0.0000 0.0000 5.2596 0.0000 0.0000 -8.1907 -0.2284 1.5824 11.5538 0.0000 0.0000 5.6771 0.0000 0.0000 -13.8597 -0.7668 -0.2478 18.3934 0.0000 0.0000 5.3689 0.0000 0.0000 -20.9092 -1.2494 -2.5015 12.9077 0.0000 0.0000 5.5427 0.0000 0.0000 0.0000 0.0000 0.0000 0.0000 0.0000 0.0000 0.0000 0.0000 0.0000 0.0000 0.0000 0.0000 0.0000 0.0000 0.0000 0.0000 0.0000 0.0000
0.0000 95.0000 0.0000 0.0000 0.0000 0.0000 0.0000 0.0000 0.0000 0.0000 0.0000 0.0000 0.0000 0.0000 0.0000 0.0000 0.0000 0.0000 0.0000 0.0000 0.0000 0.0000 0.0000 0.0000 -79.4515 5.1065 6.1433 -14.4351 -0.6959 2.9455 203.4970 4.2128 524.2564 82.5527 -15.9058 -7.2130 39.0004 0.0000 0.0000 20.4387 0.0000 0.0000 -5.3926 0.3665 -0.9240 110.0000 0.0000 0.0000 15.9163 0.0000 0.0000 5.2037 0.0409 -5.6714 110.0000 0.0000 0.0000 19.9913 0.0000 0.0000 9.9150 -0.8674 354.0803 110.0000 0.0000 0.0000 19.9496 0.0000 0.0000 -340.2831 -2.0869 354.9703 110.0000 0.0000 0.0000 19.9578 0.0000 0.0000 0.0000 0.0000 0.0000 84.8912 -2.8587 3.1256 1.5508 9.5684 10.7651 160.3915 28.2061 168.2817 -77.8915 -15.7558 -1.4030 14.2212 0.0000 0.0000 1.6684 0.0000 0.0000 0.7433 -0.4616 -2.8253 10.2900 0.0000 0.0000 5.2596 0.0000 0.0000 -8.1907 -0.2284 1.5824 11.5538 0.0000 0.0000 5.6771 0.0000 0.0000 -13.8597 -0.7668 -0.2478 18.3934 0.0000 0.0000 5.3689 0.0000 0.0000 -20.9092 -1.2494 -2.5015 12.9077 0.0000 0.0000 5.5427 0.0000 0.0000 0.0000 0.0000 0.0000 0.0000 0.0000 0.0000 0.0000 0.0000 0.0000 0.0000 0.0000 0.0000 0.0000 0.0000 0.0000 0.0000 0.0000 0.0000
0.0000 95.0000 0.0000 0.0000 0.0000 0.0000 0.0000 0.0000 0.0000 0.0000 0.0000 0.0000 0.0000 0.0000 0.0000 0.0000 0.0000 0.0000 0.0000 0.0000 0.0000 0.0000 0.0000 0.0000 -79.5837 5.1829 6.2206 -13.4709 -0.4770 2.4632 204.2195 4.6763 524.6531 82.5527 -15.9058 -7.2130 39.0004 0.0000 0.0000 20.4387 0.0000 0.0000 -5.3926 0.3665 -0.9240 110.0000 0.0000 0.0000 15.9163 0.0000 0.0000 5.2037 0.0409 -5.6714 110.0000 0.0000 0.0000 19.9913 0.0000 0.0000 9.9150 -0.8674 354.0803 110.0000 0.0000 0.0000 19.9496 0.0000 0.0000 -340.2831 -2.0869 354.9703 110.0000 0.0000 0.0000 19.9578 0.0000 0.0000 0.0000 0.0000 0.0000 85.4612 -2.8602 3.0961 0.8274 9.7888 10.7264 160.1807 28.2557 168.1299 -77.8915 -15.7558 -1.4030 14.2212 0.0000 0.0000 1.6684 0.0000 0.0000 0.7433 -0.4616 -2.8253 10.2900 0.0000 0.0000 5.2596 0.0000 0.0000 -8.1907 -0.2284 1.5824 11.5538 0.0000 0.0000 5.6771 0.0000 0.0000 -13.8597 -0.7668 -0.2478 18.3934 0.0000 0.0000 5.3689 0.0000 0.0000 -20.9092 -1.2494 -2.5015 12.9077 0.0000 0.0000 5.5427 0.0000 0.0000 0.0000 0.0000 0.0000 0.0000 0.0000 0.0000 0.0000 0.0000 0.0000 0.0000 0.0000 0.0000 0.0000 0.0000 0.0000 0.0000 0.0000 0.0000
0.0000 95.0000 0.0000 0.0000 0.0000 0.0000 0.0000 0.0000 0.0000 0.0000 0.0000 0.0000 0.0000 0.0000 0.0000 0.0000 0.0000 0.0000 0.0000 0.0000 0.0000 0.0000 0.0000 0.0000 -80.3049 4.7628 5.6442 -12.0632 -0.4987 2.1117 204.7715 5.5213 525.4309 82.5527 -15.9058 -7.2130 39.0004 0.0000 0.0000 20.4387 0.0000 0.0000 -5.3926 0.3665 -0.9240 110.0000 0.0000 0.0000 15.9163 0.0000 0.0000 5.2037 0.0409 -5.6714 110.0000 0.0000 0.0000 19.9913 0.0000 0.0000 9.9150 -0.8674 354.0803 110.0000 0.0000 0.0000 19.9496 0.0000 0.0000 -340.2831 -2.0869 354.9703 110.0000 0.0000 0.0000 19.9578 0.0000 0.0000 0.0000 0.0000 0.0000 85.9178 -3.2949 3.5383 -0.3166 9.4776 10.0303 159.5504 28.1408 167.9669 -77.8915 -15.7558 -1.4030 14.2212 0.0000 0.0000 1.6684 0.0000 0.0000 0.7433 -0.4616 -2.8253 10.2900 0.0000 0.0000 5.2596 0.0000 0.0000 -8.1907 -0.2284 1.5824 11.5538 0.0000 0.0000 5.6771 0.0000 0.0000 -13.8597 -0.7668 -0.2478 18.3934 0.0000 0.0000 5.3689 0.0000 0.0000 -20.9092 -1.2494 -2.5015 12.9077 0.0000 0.0000 5.5427 0.0000 0.0000 0.0000 0.0000 0.0000 0.0000 0.0000 0.0000 0.0000 0.0000 0.0000 0.0000 0.0000 0.0000 0.0000 0.0000 0.0000 0.0000 0.0000 0.0000
0.0000 95.0000 0.0000 0.0000 0.0000 0.0000 0.0000 0.0000 0.0000 0.0000 0.0000 0.0000 0.0000 0.0000 0.0000 0.0000 0.0000 0.0000 0.0000 0.0000 0.0000 0.0000 0.0000 0.0000 -80.2047 5.0100 5.9475 -11.7990 -0.4960 2.1431 205.1748 5.2982 525.2033 82.5527 -15.9058 -7.2130 39.0004 0.0000 0.0000 20.4387 0.0000 0.0000 -5.3926 0.3665 -0.9240 110.0000 0.0000 0.0000 15.9163 0.0000 0.0000 5.2037 0.0409 -5.6714 110.0000 0.0000 0.0000 19.9913 0.0000 0.0000 9.9150 -0.8674 354.0803 110.0000 0.0000 0.0000 19.9496 0.0000 0.0000 -340.2831 -2.0869 354.9703 110.0000 0.0000 0.0000 19.9578 0.0000 0.0000 0.0000 0.0000 0.0000 86.0507 -3.2906 3.5255 -0.3271 9.2519 9.7676 159.7875 27.9197 168.3233 -77.8915 -15.7558 -1.4030 14.2212 0.0000 0.0000 1.6684 0.0000 0.0000 0.7433 -0.4616 -2.8253 10.2900 0.0000 0.0000 5.2596 0.0000 0.0000 -8.1907 -0.2284 1.5824 11.5538 0.0000 0.0000 5.6771 0.0000 0.0000 -13.8597 -0.7668 -0.2478 18.3934 0.0000 0.0000 5.3689 0.0000 0.0000 -20.9092 -1.2494 -2.5015 12.9077 0.0000 0.0000 5.5427 0.0000 0.0000 0.0000 0.0000 0.0000 0.0000 0.0000 0.0000 0.0000 0.0000 0.0000 0.0000 0.0000 0.0000 0.0000 0.0000 0.0000 0.0000 0.0000 0.0000
0.0000 95.0000 0.0000 0.0000 0.0000 0.0000 0.0000 0.0000 0.0000 0.0000 0.0000 0.0000 0.0000 0.0000 0.0000 0.0000 0.0000 0.0000 0.0000 0.0000 0.0000 0.0000 0.0000 0.0000 -80.1335 5.0132 5.9588 -11.6931 -0.7301 2.4729 205.4289 5.0444 524.9494 82.5527 -15.9058 -7.2130 39.0004 0.0000 0.0000 20.4387 0.0000 0.0000 -5.3926 0.3665 -0.9240 110.0000 0.0000 0.0000 15.9163 0.0000 0.0000 5.2037 0.0409 -5.6714 110.0000 0.0000 0.0000 19.9913 0.0000 0.0000 9.9150 -0.8674 354.0803 110.0000 0.0000 0.0000 19.9496 0.0000 0.0000 -340.2831 -2.0869 354.9703 110.0000 0.0000 0.0000 19.9578 0.0000 0.0000 0.0000 0.0000 0.0000 86.3351 -3.2715 3.4876 -1.0184 8.6007 8.8889 159.6347 27.1556 169.1083 -77.8915 -15.7558 -1.4030 14.2212 0.0000 0.0000 1.6684 0.0000 0.0000 0.7433 -0.4616 -2.8253 10.2900 0.0000 0.0000 5.2596 0.0000 0.0000 -8.1907 -0.2284 1.5824 11.5538 0.0000 0.0000 5.6771 0.0000 0.0000 -13.8597 -0.7668 -0.2478 18.3934 0.0000 0.0000 5.3689 0.0000 0.0000 -20.9092 -1.2494 -2.5015 12.9077 0.0000 0.0000 5.5427 0.0000 0.0000 0.0000 0.0000 0.0000 0.0000 0.0000 0.0000 0.0000 0.0000 0.0000 0.0000 0.0000 0.0000 0.0000 0.0000 0.0000 0.0000 0.0000 0.0000
0.0000 95.0000 0.0000 0.0000 0.0000 0.0000 0.0000 0.0000 0.0000 0.0000 0.0000 0.0000 0.0000 0.0000 0.0000 0.0000 0.0000 0.0000 0.0000 0.0000 0.0000 0.0000 0.0000 0.0000 -80.2211 5.1228 6.0795 -11.2229 -0.6086 2.2482 205.7732 5.1820 525.0681 82.5527 -15.9058 -7.2130 39.0004 0.0000 0.0000 20.4387 0.0000 0.0000 -5.3926 0.3665 -0.9240 110.0000 0.0000 0.0000 15.9163 0.0000 0.0000 5.2037 0.0409 -5.6714 110.0000 0.0000 0.0000 19.9913 0.0000 0.0000 9.9150 -0.8674 354.0803 110.0000 0.0000 0.0000 19.9496 0.0000 0.0000 -340.2831 -2.0869 354.9703 110.0000 0.0000 0.0000 19.9578 0.0000 0.0000 0.0000 0.0000 0.0000 86.3519 -3.4038 3.6275 -1.2013 8.4126 8.6473 159.5110 27.0727 169.1461 -77.8915 -15.7558 -1.4030 14.2212 0.0000 0.0000 1.6684 0.0000 0.0000 0.7433 -0.4616 -2.8253 10.2900 0.0000 0.0000 5.2596 0.0000 0.0000 -8.1907 -0.2284 1.5824 11.5538 0.0000 0.0000 5.6771 0.0000 0.0000 -13.8597 -0.7668 -0.2478 18.3934 0.0000 0.0000 5.3689 0.0000 0.0000 -20.9092 -1.2494 -2.5015 12.9077 0.0000 0.0000 5.5427 0.0000 0.0000 0.0000 0.0000 0.0000 0.0000 0.0000 0.0000 0.0000 0.0000 0.0000 0.0000 0.0000 0.0000 0.0000 0.0000 0.0000 0.0000 0.0000 0.0000
0.0000 95.0000 0.0000 0.0000 0.0000 0.0000 0.0000 0.0000 0.0000 0.0000 0.0000 0.0000 0.0000 0.0000 0.0000 0.0000 0.0000 0.0000 0.0000 0.0000 0.0000 0.0000 0.0000 0.0000 -80.5496 5.2746 6.2234 -10.5605 -0.7072 2.3084 206.1457 5.0308 524.9058 82.5527 -15.9058 -7.2130 39.0004 0.0000 0.0000 20.4387 0.0000 0.0000 -5.3926 0.3665 -0.9240 110.0000 0.0000 0.0000 15.9163 0.0000 0.0000 5.2037 0.0409 -5.6714 110.0000 0.0000 0.0000 19.9913 0.0000 0.0000 9.9150 -0.8674 354.0803 110.0000 0.0000 0.0000 19.9496 0.0000 0.0000 -340.2831 -2.0869 354.9703 110.0000 0.0000 0.0000 19.9578 0.0000 0.0000 0.0000 0.0000 0.0000 86.4410 -3.4156 3.6345 -1.5509 8.3766 8.5225 159.2498 26.9864 169.1267 -77.8915 -15.7558 -1.4030 14.2212 0.0000 0.0000 1.6684 0.0000 0.0000 0.7433 -0.4616 -2.8253 10.2900 0.0000 0.0000 5.2596 0.0000 0.0000 -8.1907 -0.2284 1.5824 11.5538 0.0000 0.0000 5.6771 0.0000 0.0000 -13.8597 -0.7668 -0.2478 18.3934 0.0000 0.0000 5.3689 0.0000 0.0000 -20.9092 -1.2494 -2.5015 12.9077 0.0000 0.0000 5.5427 0.0000 0.0000 0.0000 0.0000 0.0000 0.0000 0.0000 0.0000 0.0000 0.0000 0.0000 0.0000 0.0000 0.0000 0.0000 0.0000 0.0000 0.0000 0.0000 0.0000
0.0000 95.0000 0.0000 0.0000 0.0000 0.0000 0.0000 0.0000 0.0000 0.0000 0.0000 0.0000 0.0000 0.0000 0.0000 0.0000 0.0000 0.0000 0.0000 0.0000 0.0000 0.0000 0.0000 0.0000 -80.7255 4.6458 5.4648 -10.3044 -0.8423 2.3014 206.1389 5.6903 525.5491 82.5527 -15.9058 -7.2130 39.0004 0.0000 0.0000 20.4387 0.0000 0.0000 -5.3926 0.3665 -0.9240 110.0000 0.0000 0.0000 15.9163 0.0000 0.0000 5.2037 0.0409 -5.6714 110.0000 0.0000 0.0000 19.9913 0.0000 0.0000 9.9150 -0.8674 354.0803 110.0000 0.0000 0.0000 19.9496 0.0000 0.0000 -340.2831 -2.0869 354.9703 110.0000 0.0000 0.0000 19.9578 0.0000 0.0000 0.0000 0.0000 0.0000 86.4910 -3.5201 3.7424 -1.6582 8.4736 8.5863 159.1415 27.1545 168.8889 -77.8915 -15.7558 -1.4030 14.2212 0.0000 0.0000 1.6684 0.0000 0.0000 0.7433 -0.4616 -2.8253 10.2900 0.0000 0.0000 5.2596 0.0000 0.0000 -8.1907 -0.2284 1.5824 11.5538 0.0000 0.0000 5.6771 0.0000 0.0000 -13.8597 -0.7668 -0.2478 18.3934 0.0000 0.0000 5.3689 0.0000 0.0000 -20.9092 -1.2494 -2.5015 12.9077 0.0000 0.0000 5.5427 0.0000 0.0000 0.0000 0.0000 0.0000 0.0000 0.0000 0.0000 0.0000 0.0000 0.0000 0.0000 0.0000 0.0000 0.0000 0.0000 0.0000 0.0000 0.0000 0.0000
0.0000 95.0000 0.0000 0.0000 0.0000 0.0000 0.0000 0.0000 0.0000 0.0000 0.0000 0.0000 0.0000 0.0000 0.0000 0.0000 0.0000 0.0000 0.0000 0.0000 0.0000 0.0000 0.0000 0.0000 -80.5425 4.7759 5.6359 -10.6596 -0.7198 2.2194 205.9639 5.6001 525.4669 82.5527 -15.9058 -7.2130 39.0004 0.0000 0.0000 20.4387 0.0000 0.0000 -5.3926 0.3665 -0.9240 110.0000 0.0000 0.0000 15.9163 0.0000 0.0000 5.2037 0.0409 -5.6714 110.0000 0.0000 0.0000 19.9913 0.0000 0.0000 9.9150 -0.8674 354.0803 110.0000 0.0000 0.0000 19.9496 0.0000 0.0000 -340.2831 -2.0869 354.9703 110.0000 0.0000 0.0000 19.9578 0.0000 0.0000 0.0000 0.0000 0.0000 86.5930 -3.4734 3.6862 -1.7129 8.7008 8.7933 159.1190 27.3082 168.7054 -77.8915 -15.7558 -1.4030 14.2212 0.0000 0.0000 1.6684 0.0000 0.0000 0.7433 -0.4616 -2.8253 10.2900 0.0000 0.0000 5.2596 0.0000 0.0000 -8.1907 -0.2284 1.5824 11.5538 0.0000 0.0000 5.6771 0.0000 0.0000 -13.8597 -0.7668 -0.2478 18.3934 0.0000 0.0000 5.3689 0.0000 0.0000 -20.9092 -1.2494 -2.5015 12.9077 0.0000 0.0000 5.5427 0.0000 0.0000 0.0000 0.0000 0.0000 0.0000 0.0000 0.0000 0.0000 0.0000 0.0000 0.0000 0.0000 0.0000 0.0000 0.0000 0.0000 0.0000 0.0000 0.0000
