HIERARCHY
ROOT Hips
{
  OFFSET 0.000000 95.000000 0.000000
  CHANNELS 6 Xposition Yposition Zposition Zrotation Xrotation Yrotation
  JOINT Spine
  {
    OFFSET 0.000000 10.000000 0.000000
    CHANNELS 3 Zrotation Xrotation Yrotation
    JOINT Spine1
    {
      OFFSET 0.000000 12.000000 0.000000
      CHANNELS 3 Zrotation Xrotation Yrotation
      JOINT Spine2
      {
        OFFSET 0.000000 12.000000 0.000000
        CHANNELS 3 Zrotation Xrotation Yrotation
        JOINT Neck
        {
          OFFSET 0.000000 10.000000 0.000000
          CHANNELS 3 Zrotation Xrotation Yrotation
          JOINT Head
          {
            OFFSET 0.000000 8.000000 0.000000
            CHANNELS 3 Zrotation Xrotation Yrotation
            End Site
            {
              OFFSET 0.000000 10.000000 0.000000
            }
          }
        }
        JOINT LeftShoulder
        {
          OFFSET 6.000000 8.000000 0.000000
          CHANNELS 3 Zrotation Xrotation Yrotation
          JOINT LeftArm
          {
            OFFSET 12.000000 0.000000 0.000000
            CHANNELS 3 Zrotation Xrotation Yrotation
            JOINT LeftForeArm
            {
              OFFSET 24.000000 0.000000 0.000000
              CHANNELS 3 Zrotation Xrotation Yrotation
              JOINT LeftHand
              {
                OFFSET 22.000000 0.000000 0.000000
                CHANNELS 3 Zrotation Xrotation Yrotation
                JOINT LeftHandThumb1
                {
                  OFFSET 1.800000 -1.400000 0.500000
                  CHANNELS 3 Zrotation Xrotation Yrotation
                  JOINT LeftHandThumb2
                  {
                    OFFSET 2.400000 0.000000 0.000000
                    CHANNELS 3 Zrotation Xrotation Yrotation
                    JOINT LeftHandThumb3
                    {
                      OFFSET 1.900000 0.000000 0.000000
                      CHANNELS 3 Zrotation Xrotation Yrotation
                      End Site
                      {
                        OFFSET 1.600000 0.000000 0.000000
                      }
                    }
                  }
                }
                JOINT LeftHandIndex1
                {
                  OFFSET 6.600000 1.200000 0.300000
                  CHANNELS 3 Zrotation Xrotation Yrotation
                  JOINT LeftHandIndex2
                  {
                    OFFSET 2.000000 0.000000 0.000000
                    CHANNELS 3 Zrotation Xrotation Yrotation
                    JOINT LeftHandIndex3
                    {
                      OFFSET 1.200000 0.000000 0.000000
                      CHANNELS 3 Zrotation Xrotation Yrotation
                      End Site
                      {
                        OFFSET 1.000000 0.000000 0.000000
                      }
                    }
                  }
                }
                JOINT LeftHandMiddle1
                {
                  OFFSET 7.200000 0.000000 0.300000
                  CHANNELS 3 Zrotation Xrotation Yrotation
                  JOINT LeftHandMiddle2
                  {
                    OFFSET 3.000000 0.000000 0.000000
                    CHANNELS 3 Zrotation Xrotation Yrotation
                    JOINT LeftHandMiddle3
                    {
                      OFFSET 2.000000 0.000000 0.000000
                      CHANNELS 3 Zrotation Xrotation Yrotation
                      End Site
                      {
                        OFFSET 1.600000 0.000000 0.000000
                      }
                    }
                  }
                }
                JOINT LeftHandRing1
                {
                  OFFSET 7.100000 -1.000000 0.400000
                  CHANNELS 3 Zrotation Xrotation Yrotation
                  JOINT LeftHandRing2
                  {
                    OFFSET 2.600000 0.000000 0.000000
                    CHANNELS 3 Zrotation Xrotation Yrotation
                    JOINT LeftHandRing3
                    {
                      OFFSET 1.600000 0.000000 0.000000
                      CHANNELS 3 Zrotation Xrotation Yrotation
                      End Site
                      {
                        OFFSET 1.300000 0.000000 0.000000
                      }
                    }
                  }
                }
                JOINT LeftHandPinky1
                {
                  OFFSET 6.500000 -2.000000 0.500000
                  CHANNELS 3 Zrotation Xrotation Yrotation
                  JOINT LeftHandPinky2
                  {
                    OFFSET 1.900000 0.000000 0.000000
                    CHANNELS 3 Zrotation Xrotation Yrotation
                    JOINT LeftHandPinky3
                    {
                      OFFSET 1.400000 0.000000 0.000000
                      CHANNELS 3 Zrotation Xrotation Yrotation
                      End Site
                      {
                        OFFSET 1.300000 0.000000 0.000000
                      }
                    }
                  }
                }
              }
            }
          }
        }
        JOINT RightShoulder
        {
          OFFSET -6.000000 8.000000 0.000000
          CHANNELS 3 Zrotation Xrotation Yrotation
          JOINT RightArm
          {
            OFFSET -12.000000 0.000000 0.000000
            CHANNELS 3 Zrotation Xrotation Yrotation
            JOINT RightForeArm
            {
              OFFSET -24.000000 0.000000 0.000000
              CHANNELS 3 Zrotation Xrotation Yrotation
              JOINT RightHand
              {
                OFFSET -22.000000 0.000000 0.000000
                CHANNELS 3 Zrotation Xrotation Yrotation
                JOINT RightHandThumb1
                {
                  OFFSET -1.800000 -1.400000 0.500000
                  CHANNELS 3 Zrotation Xrotation Yrotation
                  JOINT RightHandThumb2
                  {
                    OFFSET -2.400000 0.000000 0.000000
                    CHANNELS 3 Zrotation Xrotation Yrotation
                    JOINT RightHandThumb3
                    {
                      OFFSET -1.900000 0.000000 0.000000
                      CHANNELS 3 Zrotation Xrotation Yrotation
                      End Site
                      {
                        OFFSET -1.600000 0.000000 0.000000
                      }
                    }
                  }
                }
                JOINT RightHandIndex1
                {
                  OFFSET -6.600000 1.200000 0.300000
                  CHANNELS 3 Zrotation Xrotation Yrotation
                  JOINT RightHandIndex2
                  {
                    OFFSET -2.000000 0.000000 0.000000
                    CHANNELS 3 Zrotation Xrotation Yrotation
                    JOINT RightHandIndex3
                    {
                      OFFSET -1.200000 0.000000 0.000000
                      CHANNELS 3 Zrotation Xrotation Yrotation
                      End Site
                      {
                        OFFSET -1.000000 0.000000 0.000000
                      }
                    }
                  }
                }
                JOINT RightHandMiddle1
                {
                  OFFSET -7.200000 0.000000 0.300000
                  CHANNELS 3 Zrotation Xrotation Yrotation
                  JOINT RightHandMiddle2
                  {
                    OFFSET -3.000000 0.000000 0.000000
                    CHANNELS 3 Zrotation Xrotation Yrotation
                    JOINT RightHandMiddle3
                    {
                      OFFSET -2.000000 0.000000 0.000000
                      CHANNELS 3 Zrotation Xrotation Yrotation
                      End Site
                      {
                        OFFSET -1.600000 0.000000 0.000000
                      }
                    }
                  }
                }
                JOINT RightHandRing1
                {
                  OFFSET -7.100000 -1.000000 0.400000
                  CHANNELS 3 Zrotation Xrotation Yrotation
                  JOINT RightHandRing2
                  {
                    OFFSET -2.600000 0.000000 0.000000
                    CHANNELS 3 Zrotation Xrotation Yrotation
                    JOINT RightHandRing3
                    {
                      OFFSET -1.600000 0.000000 0.000000
                      CHANNELS 3 Zrotation Xrotation Yrotation
                      End Site
                      {
                        OFFSET -1.300000 0.000000 0.000000
                      }
                    }
                  }
                }
                JOINT RightHandPinky1
                {
                  OFFSET -6.500000 -2.000000 0.500000
                  CHANNELS 3 Zrotation Xrotation Yrotation
                  JOINT RightHandPinky2
                  {
                    OFFSET -1.900000 0.000000 0.000000
                    CHANNELS 3 Zrotation Xrotation Yrotation
                    JOINT RightHandPinky3
                    {
                      OFFSET -1.400000 0.000000 0.000000
                      CHANNELS 3 Zrotation Xrotation Yrotation
                      End Site
                      {
                        OFFSET -1.300000 0.000000 0.000000
                      }
                    }
                  }
                }
              }
            }
          }
        }
      }
    }
  }
  JOINT LeftUpLeg
  {
    OFFSET 10.000000 -5.000000 0.000000
    CHANNELS 3 Zrotation Xrotation Yrotation
    JOINT LeftLeg
    {
      OFFSET 0.000000 -42.000000 0.000000
      CHANNELS 3 Zrotation Xrotation Yrotation
      JOINT LeftFoot
      {
        OFFSET 0.000000 -42.000000 4.000000
        CHANNELS 3 Zrotation Xrotation Yrotation
        End Site
        {
          OFFSET 0.000000 0.000000 12.000000
        }
      }
    }
  }
  JOINT RightUpLeg
  {
    OFFSET -10.000000 -5.000000 0.000000
    CHANNELS 3 Zrotation Xrotation Yrotation
    JOINT RightLeg
    {
      OFFSET 0.000000 -42.000000 0.000000
      CHANNELS 3 Zrotation Xrotation Yrotation
      JOINT RightFoot
      {
        OFFSET 0.000000 -42.000000 4.000000
        CHANNELS 3 Zrotation Xrotation Yrotation
        End Site
        {
          OFFSET 0.000000 0.000000 12.000000
        }
      }
    }
  }
}
MOTION
Frames: 60
Frame Time: 0.033333
0.0000 95.0000 0.0000 0.0000 0.0000 0.0000 0.0000 0.0000 0.0000 0.0000 0.0000 0.0000 0.0000 0.0000 0.0000 0.0000 0.0000 0.0000 0.0000 0.0000 0.0000 0.0000 0.0000 0.0000 -78.7685 -1.0251 -1.2487 -12.9186 -6.8381 10.2246 0.0000 0.0000 0.0000 0.0000 0.0000 0.0000 0.0000 0.0000 0.0000 0.0000 0.0000 0.0000 0.0000 0.0000 0.0000 0.0000 0.0000 0.0000 0.0000 0.0000 0.0000 0.0000 0.0000 0.0000 0.0000 0.0000 0.0000 0.0000 0.0000 0.0000 0.0000 0.0000 0.0000 0.0000 0.0000 0.0000 0.0000 0.0000 0.0000 0.0000 0.0000 0.0000 0.0000 0.0000 0.0000 0.0000 0.0000 0.0000 0.0000 0.0000 0.0000 90.0215 -0.5985 0.5983 -0.8140 9.1464 8.9982 140.7535 13.6115 172.9747 -81.3412 -16.4586 -2.4475 29.1369 0.0000 0.0000 15.5321 0.0000 0.0000 27.1402 1.1999 0.0768 2.4046 0.0000 0.0000 3.1432 0.0000 0.0000 14.2589 0.6164 -0.1531 35.0204 0.0000 0.0000 60.4785 0.0000 0.0000 6.5530 1.1122 -3.6925 60.2545 0.0000 0.0000 65.4846 0.0000 0.0000 -2.3178 1.2016 -4.8103 93.4660 0.0000 0.0000 63.9485 0.0000 0.0000 0.0000 0.0000 0.0000 0.0000 0.0000 0.0000 0.0000 0.0000 0.0000 0.0000 0.0000 0.0000 0.0000 0.0000 0.0000 0.0000 0.0000 0.0000
0.0000 95.0000 0.0000 0.0000 0.0000 0.0000 0.0000 0.0000 0.0000 0.0000 0.0000 0.0000 0.0000 0.0000 0.0000 0.0000 0.0000 0.0000 0.0000 0.0000 0.0000 0.0000 0.0000 0.0000 -78.7609 -1.1163 -1.3599 -12.7200 -7.2470 10.7923 0.0000 0.0000 0.0000 0.0000 0.0000 0.0000 0.0000 0.0000 0.0000 0.0000 0.0000 0.0000 0.0000 0.0000 0.0000 0.0000 0.0000 0.0000 0.0000 0.0000 0.0000 0.0000 0.0000 0.0000 0.0000 0.0000 0.0000 0.0000 0.0000 0.0000 0.0000 0.0000 0.0000 0.0000 0.0000 0.0000 0.0000 0.0000 0.0000 0.0000 0.0000 0.0000 0.0000 0.0000 0.0000 0.0000 0.0000 0.0000 0.0000 0.0000 0.0000 90.1475 -0.3416 0.3407 -1.2645 9.7976 9.5479 140.2773 13.9270 172.5521 -81.3412 -16.4586 -2.4475 29.1369 0.0000 0.0000 15.5321 0.0000 0.0000 27.1402 1.1999 0.0768 2.4046 0.0000 0.0000 3.1432 0.0000 0.0000 14.2589 0.6164 -0.1531 35.0204 0.0000 0.0000 60.4785 0.0000 0.0000 6.5530 1.1122 -3.6925 60.2545 0.0000 0.0000 65.4846 0.0000 0.0000 -2.3178 1.2016 -4.8103 93.4660 0.0000 0.0000 63.9485 0.0000 0.0000 0.0000 0.0000 0.0000 0.0000 0.0000 0.0000 0.0000 0.0000 0.0000 0.0000 0.0000 0.0000 0.0000 0.0000 0.0000 0.0000 0.0000 0.0000
0.0000 95.0000 0.0000 0.0000 0.0000 0.0000 0.0000 0.0000 0.0000 0.0000 0.0000 0.0000 0.0000 0.0000 0.0000 0.0000 0.0000 0.0000 0.0000 0.0000 0.0000 0.0000 0.0000 0.0000 -78.7753 -1.3669 -1.6647 -12.4204 -7.4943 11.0392 0.0000 0.0000 0.0000 0.0000 0.0000 0.0000 0.0000 0.0000 0.0000 0.0000 0.0000 0.0000 0.0000 0.0000 0.0000 0.0000 0.0000 0.0000 0.0000 0.0000 0.0000 0.0000 0.0000 0.0000 0.0000 0.0000 0.0000 0.0000 0.0000 0.0000 0.0000 0.0000 0.0000 0.0000 0.0000 0.0000 0.0000 0.0000 0.0000 0.0000 0.0000 0.0000 0.0000 0.0000 0.0000 0.0000 0.0000 0.0000 0.0000 0.0000 0.0000 90.1945 -0.3638 0.3626 -1.4852 9.8927 9.5937 140.0760 14.0092 172.4254 -81.3412 -16.4586 -2.4475 29.1369 0.0000 0.0000 15.5321 0.0000 0.0000 27.1402 1.1999 0.0768 2.4046 0.0000 0.0000 3.1432 0.0000 0.0000 14.2589 0.6164 -0.1531 35.0204 0.0000 0.0000 60.4785 0.0000 0.0000 6.5530 1.1122 -3.6925 60.2545 0.0000 0.0000 65.4846 0.0000 0.0000 -2.3178 1.2016 -4.8103 93.4660 0.0000 0.0000 63.9485 0.0000 0.0000 0.0000 0.0000 0.0000 0.0000 0.0000 0.0000 0.0000 0.0000 0.0000 0.0000 0.0000 0.0000 0.0000 0.0000 0.0000 0.0000 0.0000 0.0000
0.0000 95.0000 0.0000 0.0000 0.0000 0.0000 0.0000 0.0000 0.0000 0.0000 0.0000 0.0000 0.0000 0.0000 0.0000 0.0000 0.0000 0.0000 0.0000 0.0000 0.0000 0.0000 0.0000 0.0000 -78.4980 -1.2652 -1.5485 -12.8129 -7.3898 11.0374 0.0000 0.0000 0.0000 0.0000 0.0000 0.0000 0.0000 0.0000 0.0000 0.0000 0.0000 0.0000 0.0000 0.0000 0.0000 0.0000 0.0000 0.0000 0.0000 0.0000 0.0000 0.0000 0.0000 0.0000 0.0000 0.0000 0.0000 0.0000 0.0000 0.0000 0.0000 0.0000 0.0000 0.0000 0.0000 0.0000 0.0000 0.0000 0.0000 0.0000 0.0000 0.0000 0.0000 0.0000 0.0000 0.0000 0.0000 0.0000 0.0000 0.0000 0.0000 90.4398 -0.2402 0.2383 -1.6986 9.6228 9.2615 140.2147 13.6014 172.8815 -81.3412 -16.4586 -2.4475 29.1369 0.0000 0.0000 15.5321 0.0000 0.0000 27.1402 1.1999 0.0768 2.4046 0.0000 0.0000 3.1432 0.0000 0.0000 14.2589 0.6164 -0.1531 35.0204 0.0000 0.0000 60.4785 0.0000 0.0000 6.5530 1.1122 -3.6925 60.2545 0.0000 0.0000 65.4846 0.0000 0.0000 -2.3178 1.2016 -4.8103 93.4660 0.0000 0.0000 63.9485 0.0000 0.0000 0.0000 0.0000 0.0000 0.0000 0.0000 0.0000 0.0000 0.0000 0.0000 0.0000 0.0000 0.0000 0.0000 0.0000 0.0000 0.0000 0.0000 0.0000
0.0000 95.0000 0.0000 0.0000 0.0000 0.0000 0.0000 0.0000 0.0000 0.0000 0.0000 0.0000 0.0000 0.0000 0.0000 0.0000 0.0000 0.0000 0.0000 0.0000 0.0000 0.0000 0.0000 0.0000 -78.3950 -0.8249 -1.0115 -12.8118 -7.0793 10.7146 0.0000 0.0000 0.0000 0.0000 0.0000 0.0000 0.0000 0.0000 0.0000 0.0000 0.0000 0.0000 0.0000 0.0000 0.0000 0.0000 0.0000 0.0000 0.0000 0.0000 0.0000 0.0000 0.0000 0.0000 0.0000 0.0000 0.0000 0.0000 0.0000 0.0000 0.0000 0.0000 0.0000 0.0000 0.0000 0.0000 0.0000 0.0000 0.0000 0.0000 0.0000 0.0000 0.0000 0.0000 0.0000 0.0000 0.0000 0.0000 0.0000 0.0000 0.0000 90.5815 -0.5269 0.5215 -1.9600 9.1223 8.7039 140.2102 13.3662 173.1274 -81.3412 -16.4586 -2.4475 29.1369 0.0000 0.0000 15.5321 0.0000 0.0000 27.1402 1.1999 0.0768 2.4046 0.0000 0.0000 3.1432 0.0000 0.0000 14.2589 0.6164 -0.1531 35.0204 0.0000 0.0000 60.4785 0.0000 0.0000 6.5530 1.1122 -3.6925 60.2545 0.0000 0.0000 65.4846 0.0000 0.0000 -2.3178 1.2016 -4.8103 93.4660 0.0000 0.0000 63.9485 0.0000 0.0000 0.0000 0.0000 0.0000 0.0000 0.0000 0.0000 0.0000 0.0000 0.0000 0.0000 0.0000 0.0000 0.0000 0.0000 0.0000 0.0000 0.0000 0.0000
0.0000 95.0000 0.0000 0.0000 0.0000 0.0000 0.0000 0.0000 0.0000 0.0000 0.0000 0.0000 0.0000 0.0000 0.0000 0.0000 0.0000 0.0000 0.0000 0.0000 0.0000 0.0000 0.0000 0.0000 -78.1791 -0.6184 -0.7612 -13.2264 -7.0285 10.8234 0.0000 0.0000 0.0000 0.0000 0.0000 0.0000 0.0000 0.0000 0.0000 0.0000 0.0000 0.0000 0.0000 0.0000 0.0000 0.0000 0.0000 0.0000 0.0000 0.0000 0.0000 0.0000 0.0000 0.0000 0.0000 0.0000 0.0000 0.0000 0.0000 0.0000 0.0000 0.0000 0.0000 0.0000 0.0000 0.0000 0.0000 0.0000 0.0000 0.0000 0.0000 0.0000 0.0000 0.0000 0.0000 0.0000 0.0000 0.0000 0.0000 0.0000 0.0000 90.8113 -0.3162 0.3118 -2.4366 8.9266 8.4197 140.0486 12.9232 173.5629 -81.3412 -16.4586 -2.4475 29.1369 0.0000 0.0000 15.5321 0.0000 0.0000 27.1402 1.1999 0.0768 2.4046 0.0000 0.0000 3.1432 0.0000 0.0000 14.2589 0.6164 -0.1531 35.0204 0.0000 0.0000 60.4785 0.0000 0.0000 6.5530 1.1122 -3.6925 60.2545 0.0000 0.0000 65.4846 0.0000 0.0000 -2.3178 1.2016 -4.8103 93.4660 0.0000 0.0000 63.9485 0.0000 0.0000 0.0000 0.0000 0.0000 0.0000 0.0000 0.0000 0.0000 0.0000 0.0000 0.0000 0.0000 0.0000 0.0000 0.0000 0.0000 0.0000 0.0000 0.0000
0.0000 95.0000 0.0000 0.0000 0.0000 0.0000 0.0000 0.0000 0.0000 0.0000 0.0000 0.0000 0.0000 0.0000 0.0000 0.0000 0.0000 0.0000 0.0000 0.0000 0.0000 0.0000 0.0000 0.0000 -78.2220 0.1336 0.1643 -12.6784 -6.9581 10.8304 0.0000 0.0000 0.0000 0.0000 0.0000 0.0000 0.0000 0.0000 0.0000 0.0000 0.0000 0.0000 0.0000 0.0000 0.0000 0.0000 0.0000 0.0000 0.0000 0.0000 0.0000 0.0000 0.0000 0.0000 0.0000 0.0000 0.0000 0.0000 0.0000 0.0000 0.0000 0.0000 0.0000 0.0000 0.0000 0.0000 0.0000 0.0000 0.0000 0.0000 0.0000 0.0000 0.0000 0.0000 0.0000 0.0000 0.0000 0.0000 0.0000 0.0000 0.0000 91.0072 -0.6407 0.6295 -2.7530 9.1876 8.5685 139.8330 13.4298 172.9886 -81.3412 -16.4586 -2.4475 29.1369 0.0000 0.0000 15.5321 0.0000 0.0000 27.1402 1.1999 0.0768 2.4046 0.0000 0.0000 3.1432 0.0000 0.0000 14.2589 0.6164 -0.1531 35.0204 0.0000 0.0000 60.4785 0.0000 0.0000 6.5530 1.1122 -3.6925 60.2545 0.0000 0.0000 65.4846 0.0000 0.0000 -2.3178 1.2016 -4.8103 93.4660 0.0000 0.0000 63.9485 0.0000 0.0000 0.0000 0.0000 0.0000 0.0000 0.0000 0.0000 0.0000 0.0000 0.0000 0.0000 0.0000 0.0000 0.0000 0.0000 0.0000 0.0000 0.0000 0.0000
0.0000 95.0000 0.0000 0.0000 0.0000 0.0000 0.0000 0.0000 0.0000 0.0000 0.0000 0.0000 0.0000 0.0000 0.0000 0.0000 0.0000 0.0000 0.0000 0.0000 0.0000 0.0000 0.0000 0.0000 -78.2170 0.6970 0.8574 -11.9983 -6.7543 10.5390 0.0000 0.0000 0.0000 0.0000 0.0000 0.0000 0.0000 0.0000 0.0000 0.0000 0.0000 0.0000 0.0000 0.0000 0.0000 0.0000 0.0000 0.0000 0.0000 0.0000 0.0000 0.0000 0.0000 0.0000 0.0000 0.0000 0.0000 0.0000 0.0000 0.0000 0.0000 0.0000 0.0000 0.0000 0.0000 0.0000 0.0000 0.0000 0.0000 0.0000 0.0000 0.0000 0.0000 0.0000 0.0000 0.0000 0.0000 0.0000 0.0000 0.0000 0.0000 90.7557 -0.5639 0.5565 -2.4983 9.3405 8.7958 139.7915 13.5382 172.8660 -81.3412 -16.4586 -2.4475 29.1369 0.0000 0.0000 15.5321 0.0000 0.0000 27.1402 1.1999 0.0768 2.4046 0.0000 0.0000 3.1432 0.0000 0.0000 14.2589 0.6164 -0.1531 35.0204 0.0000 0.0000 60.4785 0.0000 0.0000 6.5530 1.1122 -3.6925 60.2545 0.0000 0.0000 65.4846 0.0000 0.0000 -2.3178 1.2016 -4.8103 93.4660 0.0000 0.0000 63.9485 0.0000 0.0000 0.0000 0.0000 0.0000 0.0000 0.0000 0.0000 0.0000 0.0000 0.0000 0.0000 0.0000 0.0000 0.0000 0.0000 0.0000 0.0000 0.0000 0.0000
0.0000 95.0000 0.0000 0.0000 0.0000 0.0000 0.0000 0.0000 0.0000 0.0000 0.0000 0.0000 0.0000 0.0000 0.0000 0.0000 0.0000 0.0000 0.0000 0.0000 0.0000 0.0000 0.0000 0.0000 -77.9678 0.7908 0.9771 -12.2188 -6.6226 10.4622 0.0000 0.0000 0.0000 0.0000 0.0000 0.0000 0.0000 0.0000 0.0000 0.0000 0.0000 0.0000 0.0000 0.0000 0.0000 0.0000 0.0000 0.0000 0.0000 0.0000 0.0000 0.0000 0.0000 0.0000 0.0000 0.0000 0.0000 0.0000 0.0000 0.0000 0.0000 0.0000 0.0000 0.0000 0.0000 0.0000 0.0000 0.0000 0.0000 0.0000 0.0000 0.0000 0.0000 0.0000 0.0000 0.0000 0.0000 0.0000 0.0000 0.0000 0.0000 90.8694 -0.4321 0.4256 -2.6436 8.9744 8.4182 139.8781 13.0530 173.3949 -81.3412 -16.4586 -2.4475 29.1369 0.0000 0.0000 15.5321 0.0000 0.0000 27.1402 1.1999 0.0768 2.4046 0.0000 0.0000 3.1432 0.0000 0.0000 14.2589 0.6164 -0.1531 35.0204 0.0000 0.0000 60.4785 0.0000 0.0000 6.5530 1.1122 -3.6925 60.2545 0.0000 0.0000 65.4846 0.0000 0.0000 -2.3178 1.2016 -4.8103 93.4660 0.0000 0.0000 63.9485 0.0000 0.0000 0.0000 0.0000 0.0000 0.0000 0.0000 0.0000 0.0000 0.0000 0.0000 0.0000 0.0000 0.0000 0.0000 0.0000 0.0000 0.0000 0.0000 0.0000
0.0000 95.0000 0.0000 0.0000 0.0000 0.0000 0.0000 0.0000 0.0000 0.0000 0.0000 0.0000 0.0000 0.0000 0.0000 0.0000 0.0000 0.0000 0.0000 0.0000 0.0000 0.0000 0.0000 0.0000 -77.7447 1.4705 1.8242 -12.3904 -6.4057 10.4101 0.0000 0.0000 0.0000 0.0000 0.0000 0.0000 0.0000 0.0000 0.0000 0.0000 0.0000 0.0000 0.0000 0.0000 0.0000 0.0000 0.0000 0.0000 0.0000 0.0000 0.0000 0.0000 0.0000 0.0000 0.0000 0.0000 0.0000 0.0000 0.0000 0.0000 0.0000 0.0000 0.0000 0.0000 0.0000 0.0000 0.0000 0.0000 0.0000 0.0000 0.0000 0.0000 0.0000 0.0000 0.0000 0.0000 0.0000 0.0000 0.0000 0.0000 0.0000 90.8431 -0.5746 0.5662 -2.3321 8.4819 7.9974 140.2730 12.7589 173.7758 -81.3412 -16.4586 -2.4475 29.1369 0.0000 0.0000 15.5321 0.0000 0.0000 27.1402 1.1999 0.0768 2.4046 0.0000 0.0000 3.1432 0.0000 0.0000 14.2589 0.6164 -0.1531 35.0204 0.0000 0.0000 60.4785 0.0000 0.0000 6.5530 1.1122 -3.6925 60.2545 0.0000 0.0000 65.4846 0.0000 0.0000 -2.3178 1.2016 -4.8103 93.4660 0.0000 0.0000 63.9485 0.0000 0.0000 0.0000 0.0000 0.0000 0.0000 0.0000 0.0000 0.0000 0.0000 0.0000 0.0000 0.0000 0.0000 0.0000 0.0000 0.0000 0.0000 0.0000 0.0000
0.0000 95.0000 0.0000 0.0000 0.0000 0.0000 0.0000 0.0000 0.0000 0.0000 0.0000 0.0000 0.0000 0.0000 0.0000 0.0000 0.0000 0.0000 0.0000 0.0000 0.0000 0.0000 0.0000 0.0000 -77.3014 2.0877 2.6104 -12.7645 -6.4570 10.8575 0.0000 0.0000 0.0000 0.0000 0.0000 0.0000 0.0000 0.0000 0.0000 0.0000 0.0000 0.0000 0.0000 0.0000 0.0000 0.0000 0.0000 0.0000 0.0000 0.0000 0.0000 0.0000 0.0000 0.0000 0.0000 0.0000 0.0000 0.0000 0.0000 0.0000 0.0000 0.0000 0.0000 0.0000 0.0000 0.0000 0.0000 0.0000 0.0000 0.0000 0.0000 0.0000 0.0000 0.0000 0.0000 0.0000 0.0000 0.0000 0.0000 0.0000 0.0000 90.9328 -0.3024 0.2975 -2.2113 8.1487 7.7007 140.5916 12.1948 174.4203 -81.3412 -16.4586 -2.4475 29.1369 0.0000 0.0000 15.5321 0.0000 0.0000 27.1402 1.1999 0.0768 2.4046 0.0000 0.0000 3.1432 0.0000 0.0000 14.2589 0.6164 -0.1531 35.0204 0.0000 0.0000 60.4785 0.0000 0.0000 6.5530 1.1122 -3.6925 60.2545 0.0000 0.0000 65.4846 0.0000 0.0000 -2.3178 1.2016 -4.8103 93.4660 0.0000 0.0000 63.9485 0.0000 0.0000 0.0000 0.0000 0.0000 0.0000 0.0000 0.0000 0.0000 0.0000 0.0000 0.0000 0.0000 0.0000 0.0000 0.0000 0.0000 0.0000 0.0000 0.0000
0.0000 95.0000 0.0000 0.0000 0.0000 0.0000 0.0000 0.0000 0.0000 0.0000 0.0000 0.0000 0.0000 0.0000 0.0000 0.0000 0.0000 0.0000 0.0000 0.0000 0.0000 0.0000 0.0000 0.0000 -77.3342 1.9510 2.4380 -12.8157 -6.4912 10.8755 0.0000 0.0000 0.0000 0.0000 0.0000 0.0000 0.0000 0.0000 0.0000 0.0000 0.0000 0.0000 0.0000 0.0000 0.0000 0.0000 0.0000 0.0000 0.0000 0.0000 0.0000 0.0000 0.0000 0.0000 0.0000 0.0000 0.0000 0.0000 0.0000 0.0000 0.0000 0.0000 0.0000 0.0000 0.0000 0.0000 0.0000 0.0000 0.0000 0.0000 0.0000 0.0000 0.0000 0.0000 0.0000 0.0000 0.0000 0.0000 0.0000 0.0000 0.0000 90.9165 -0.2965 0.2918 -2.1694 7.9954 7.5637 140.6525 12.0485 174.5827 -81.3412 -16.4586 -2.4475 29.1369 0.0000 0.0000 15.5321 0.0000 0.0000 27.1402 1.1999 0.0768 2.4046 0.0000 0.0000 3.1432 0.0000 0.0000 14.2589 0.6164 -0.1531 35.0204 0.0000 0.0000 60.4785 0.0000 0.0000 6.5530 1.1122 -3.6925 60.2545 0.0000 0.0000 65.4846 0.0000 0.0000 -2.3178 1.2016 -4.8103 93.4660 0.0000 0.0000 63.9485 0.0000 0.0000 0.0000 0.0000 0.0000 0.0000 0.0000 0.0000 0.0000 0.0000 0.0000 0.0000 0.0000 0.0000 0.0000 0.0000 0.0000 0.0000 0.0000 0.0000
0.0000 95.0000 0.0000 0.0000 0.0000 0.0000 0.0000 0.0000 0.0000 0.0000 0.0000 0.0000 0.0000 0.0000 0.0000 0.0000 0.0000 0.0000 0.0000 0.0000 0.0000 0.0000 0.0000 0.0000 -77.2509 1.9724 2.4684 -13.0341 -6.4548 10.8986 0.0000 0.0000 0.0000 0.0000 0.0000 0.0000 0.0000 0.0000 0.0000 0.0000 0.0000 0.0000 0.0000 0.0000 0.0000 0.0000 0.0000 0.0000 0.0000 0.0000 0.0000 0.0000 0.0000 0.0000 0.0000 0.0000 0.0000 0.0000 0.0000 0.0000 0.0000 0.0000 0.0000 0.0000 0.0000 0.0000 0.0000 0.0000 0.0000 0.0000 0.0000 0.0000 0.0000 0.0000 0.0000 0.0000 0.0000 0.0000 0.0000 0.0000 0.0000 90.8593 -0.3135 0.3088 -2.0604 7.7100 7.3143 140.7646 11.8057 174.8532 -81.3412 -16.4586 -2.4475 29.1369 0.0000 0.0000 15.5321 0.0000 0.0000 27.1402 1.1999 0.0768 2.4046 0.0000 0.0000 3.1432 0.0000 0.0000 14.2589 0.6164 -0.1531 35.0204 0.0000 0.0000 60.4785 0.0000 0.0000 6.5530 1.1122 -3.6925 60.2545 0.0000 0.0000 65.4846 0.0000 0.0000 -2.3178 1.2016 -4.8103 93.4660 0.0000 0.0000 63.9485 0.0000 0.0000 0.0000 0.0000 0.0000 0.0000 0.0000 0.0000 0.0000 0.0000 0.0000 0.0000 0.0000 0.0000 0.0000 0.0000 0.0000 0.0000 0.0000 0.0000
0.0000 95.0000 0.0000 0.0000 0.0000 0.0000 0.0000 0.0000 0.0000 0.0000 0.0000 0.0000 0.0000 0.0000 0.0000 0.0000 0.0000 0.0000 0.0000 0.0000 0.0000 0.0000 0.0000 0.0000 -77.2689 1.7008 2.1279 -13.2230 -6.3515 10.6933 0.0000 0.0000 0.0000 0.0000 0.0000 0.0000 0.0000 0.0000 0.0000 0.0000 0.0000 0.0000 0.0000 0.0000 0.0000 0.0000 0.0000 0.0000 0.0000 0.0000 0.0000 0.0000 0.0000 0.0000 0.0000 0.0000 0.0000 0.0000 0.0000 0.0000 0.0000 0.0000 0.0000 0.0000 0.0000 0.0000 0.0000 0.0000 0.0000 0.0000 0.0000 0.0000 0.0000 0.0000 0.0000 0.0000 0.0000 0.0000 0.0000 0.0000 0.0000 90.8536 -0.3920 0.3862 -2.1072 7.5737 7.1759 140.7350 11.7474 174.9091 -81.3412 -16.4586 -2.4475 29.1369 0.0000 0.0000 15.5321 0.0000 0.0000 27.1402 1.1999 0.0768 2.4046 0.0000 0.0000 3.1432 0.0000 0.0000 14.2589 0.6164 -0.1531 35.0204 0.0000 0.0000 60.4785 0.0000 0.0000 6.5530 1.1122 -3.6925 60.2545 0.0000 0.0000 65.4846 0.0000 0.0000 -2.3178 1.2016 -4.8103 93.4660 0.0000 0.0000 63.9485 0.0000 0.0000 0.0000 0.0000 0.0000 0.0000 0.0000 0.0000 0.0000 0.0000 0.0000 0.0000 0.0000 0.0000 0.0000 0.0000 0.0000 0.0000 0.0000 0.0000
0.0000 95.0000 0.0000 0.0000 0.0000 0.0000 0.0000 0.0000 0.0000 0.0000 0.0000 0.0000 0.0000 0.0000 0.0000 0.0000 0.0000 0.0000 0.0000 0.0000 0.0000 0.0000 0.0000 0.0000 -77.2301 1.5148 1.8965 -13.4416 -6.3579 10.7046 0.0000 0.0000 0.0000 0.0000 0.0000 0.0000 0.0000 0.0000 0.0000 0.0000 0.0000 0.0000 0.0000 0.0000 0.0000 0.0000 0.0000 0.0000 0.0000 0.0000 0.0000 0.0000 0.0000 0.0000 0.0000 0.0000 0.0000 0.0000 0.0000 0.0000 0.0000 0.0000 0.0000 0.0000 0.0000 0.0000 0.0000 0.0000 0.0000 0.0000 0.0000 0.0000 0.0000 0.0000 0.0000 0.0000 0.0000 0.0000 0.0000 0.0000 0.0000 90.8761 -0.4728 0.4656 -2.2667 7.3991 6.9832 140.6294 11.6446 174.9993 -81.3412 -16.4586 -2.4475 29.1369 0.0000 0.0000 15.5321 0.0000 0.0000 27.1402 1.1999 0.0768 2.4046 0.0000 0.0000 3.1432 0.0000 0.0000 14.2589 0.6164 -0.1531 35.0204 0.0000 0.0000 60.4785 0.0000 0.0000 6.5530 1.1122 -3.6925 60.2545 0.0000 0.0000 65.4846 0.0000 0.0000 -2.3178 1.2016 -4.8103 93.4660 0.0000 0.0000 63.9485 0.0000 0.0000 0.0000 0.0000 0.0000 0.0000 0.0000 0.0000 0.0000 0.0000 0.0000 0.0000 0.0000 0.0000 0.0000 0.0000 0.0000 0.0000 0.0000 0.0000
0.0000 95.0000 0.0000 0.0000 0.0000 0.0000 0.0000 0.0000 0.0000 0.0000 0.0000 0.0000 0.0000 0.0000 0.0000 0.0000 0.0000 0.0000 0.0000 0.0000 0.0000 0.0000 0.0000 0.0000 -77.3648 1.6550 2.0670 -13.0755 -6.5147 10.8795 0.0000 0.0000 0.0000 0.0000 0.0000 0.0000 0.0000 0.0000 0.0000 0.0000 0.0000 0.0000 0.0000 0.0000 0.0000 0.0000 0.0000 0.0000 0.0000 0.0000 0.0000 0.0000 0.0000 0.0000 0.0000 0.0000 0.0000 0.0000 0.0000 0.0000 0.0000 0.0000 0.0000 0.0000 0.0000 0.0000 0.0000 0.0000 0.0000 0.0000 0.0000 0.0000 0.0000 0.0000 0.0000 0.0000 0.0000 0.0000 0.0000 0.0000 0.0000 90.9140 -0.2751 0.2707 -2.3357 7.4757 7.0514 140.5986 11.5223 175.1218 -81.3412 -16.4586 -2.4475 29.1369 0.0000 0.0000 15.5321 0.0000 0.0000 27.1402 1.1999 0.0768 2.4046 0.0000 0.0000 3.1432 0.0000 0.0000 14.2589 0.6164 -0.1531 35.0204 0.0000 0.0000 60.4785 0.0000 0.0000 6.5530 1.1122 -3.6925 60.2545 0.0000 0.0000 65.4846 0.0000 0.0000 -2.3178 1.2016 -4.8103 93.4660 0.0000 0.0000 63.9485 0.0000 0.0000 0.0000 0.0000 0.0000 0.0000 0.0000 0.0000 0.0000 0.0000 0.0000 0.0000 0.0000 0.0000 0.0000 0.0000 0.0000 0.0000 0.0000 0.0000
0.0000 95.0000 0.0000 0.0000 0.0000 0.0000 0.0000 0.0000 0.0000 0.0000 0.0000 0.0000 0.0000 0.0000 0.0000 0.0000 0.0000 0.0000 0.0000 0.0000 0.0000 0.0000 0.0000 0.0000 -77.3416 1.8697 2.3361 -13.2128 -6.1735 10.4488 0.0000 0.0000 0.0000 0.0000 0.0000 0.0000 0.0000 0.0000 0.0000 0.0000 0.0000 0.0000 0.0000 0.0000 0.0000 0.0000 0.0000 0.0000 0.0000 0.0000 0.0000 0.0000 0.0000 0.0000 0.0000 0.0000 0.0000 0.0000 0.0000 0.0000 0.0000 0.0000 0.0000 0.0000 0.0000 0.0000 0.0000 0.0000 0.0000 0.0000 0.0000 0.0000 0.0000 0.0000 0.0000 0.0000 0.0000 0.0000 0.0000 0.0000 0.0000 90.9493 -0.4286 0.4215 -2.3613 7.4705 7.0315 140.5983 11.6595 174.9789 -81.3412 -16.4586 -2.4475 29.1369 0.0000 0.0000 15.5321 0.0000 0.0000 27.1402 1.1999 0.0768 2.4046 0.0000 0.0000 3.1432 0.0000 0.0000 14.2589 0.6164 -0.1531 35.0204 0.0000 0.0000 60.4785 0.0000 0.0000 6.5530 1.1122 -3.6925 60.2545 0.0000 0.0000 65.4846 0.0000 0.0000 -2.3178 1.2016 -4.8103 93.4660 0.0000 0.0000 63.9485 0.0000 0.0000 0.0000 0.0000 0.0000 0.0000 0.0000 0.0000 0.0000 0.0000 0.0000 0.0000 0.0000 0.0000 0.0000 0.0000 0.0000 0.0000 0.0000 0.0000
0.0000 95.0000 0.0000 0.0000 0.0000 0.0000 0.0000 0.0000 0.0000 0.0000 0.0000 0.0000 0.0000 0.0000 0.0000 0.0000 0.0000 0.0000 0.0000 0.0000 0.0000 0.0000 0.0000 0.0000 -77.0048 1.9639 2.4686 -13.7309 -6.0381 10.4622 0.0000 0.0000 0.0000 0.0000 0.0000 0.0000 0.0000 0.0000 0.0000 0.0000 0.0000 0.0000 0.0000 0.0000 0.0000 0.0000 0.0000 0.0000 0.0000 0.0000 0.0000 0.0000 0.0000 0.0000 0.0000 0.0000 0.0000 0.0000 0.0000 0.0000 0.0000 0.0000 0.0000 0.0000 0.0000 0.0000 0.0000 0.0000 0.0000 0.0000 0.0000 0.0000 0.0000 0.0000 0.0000 0.0000 0.0000 0.0000 0.0000 0.0000 0.0000 90.9625 -0.4011 0.3945 -2.3194 7.3318 6.9057 140.6848 11.5049 175.1532 -81.3412 -16.4586 -2.4475 29.1369 0.0000 0.0000 15.5321 0.0000 0.0000 27.1402 1.1999 0.0768 2.4046 0.0000 0.0000 3.1432 0.0000 0.0000 14.2589 0.6164 -0.1531 35.0204 0.0000 0.0000 60.4785 0.0000 0.0000 6.5530 1.1122 -3.6925 60.2545 0.0000 0.0000 65.4846 0.0000 0.0000 -2.3178 1.2016 -4.8103 93.4660 0.0000 0.0000 63.9485 0.0000 0.0000 0.0000 0.0000 0.0000 0.0000 0.0000 0.0000 0.0000 0.0000 0.0000 0.0000 0.0000 0.0000 0.0000 0.0000 0.0000 0.0000 0.0000 0.0000
0.0000 95.0000 0.0000 0.0000 0.0000 0.0000 0.0000 0.0000 0.0000 0.0000 0.0000 0.0000 0.0000 0.0000 0.0000 0.0000 0.0000 0.0000 0.0000 0.0000 0.0000 0.0000 0.0000 0.0000 -77.0496 1.7931 2.2522 -13.8028 -6.0038 10.3577 0.0000 0.0000 0.0000 0.0000 0.0000 0.0000 0.0000 0.0000 0.0000 0.0000 0.0000 0.0000 0.0000 0.0000 0.0000 0.0000 0.0000 0.0000 0.0000 0.0000 0.0000 0.0000 0.0000 0.0000 0.0000 0.0000 0.0000 0.0000 0.0000 0.0000 0.0000 0.0000 0.0000 0.0000 0.0000 0.0000 0.0000 0.0000 0.0000 0.0000 0.0000 0.0000 0.0000 0.0000 0.0000 0.0000 0.0000 0.0000 0.0000 0.0000 0.0000 90.9704 -0.4141 0.4071 -2.2339 7.2609 6.8480 140.7920 11.4562 175.2202 -81.3412 -16.4586 -2.4475 29.1369 0.0000 0.0000 15.5321 0.0000 0.0000 27.1402 1.1999 0.0768 2.4046 0.0000 0.0000 3.1432 0.0000 0.0000 14.2589 0.6164 -0.1531 35.0204 0.0000 0.0000 60.4785 0.0000 0.0000 6.5530 1.1122 -3.6925 60.2545 0.0000 0.0000 65.4846 0.0000 0.0000 -2.3178 1.2016 -4.8103 93.4660 0.0000 0.0000 63.9485 0.0000 0.0000 0.0000 0.0000 0.0000 0.0000 0.0000 0.0000 0.0000 0.0000 0.0000 0.0000 0.0000 0.0000 0.0000 0.0000 0.0000 0.0000 0.0000 0.0000
0.0000 95.0000 0.0000 0.0000 0.0000 0.0000 0.0000 0.0000 0.0000 0.0000 0.0000 0.0000 0.0000 0.0000 0.0000 0.0000 0.0000 0.0000 0.0000 0.0000 0.0000 0.0000 0.0000 0.0000 -76.9599 2.4615 3.0965 -13.7019 -6.0452 10.6432 0.0000 0.0000 0.0000 0.0000 0.0000 0.0000 0.0000 0.0000 0.0000 0.0000 0.0000 0.0000 0.0000 0.0000 0.0000 0.0000 0.0000 0.0000 0.0000 0.0000 0.0000 0.0000 0.0000 0.0000 0.0000 0.0000 0.0000 0.0000 0.0000 0.0000 0.0000 0.0000 0.0000 0.0000 0.0000 0.0000 0.0000 0.0000 0.0000 0.0000 0.0000 0.0000 0.0000 0.0000 0.0000 0.0000 0.0000 0.0000 0.0000 0.0000 0.0000 90.8271 -0.0554 0.0546 -1.9018 7.4238 7.0771 140.9712 11.3005 175.4087 -81.3412 -16.4586 -2.4475 29.1369 0.0000 0.0000 15.5321 0.0000 0.0000 27.1402 1.1999 0.0768 2.4046 0.0000 0.0000 3.1432 0.0000 0.0000 14.2589 0.6164 -0.1531 35.0204 0.0000 0.0000 60.4785 0.0000 0.0000 6.5530 1.1122 -3.6925 60.2545 0.0000 0.0000 65.4846 0.0000 0.0000 -2.3178 1.2016 -4.8103 93.4660 0.0000 0.0000 63.9485 0.0000 0.0000 0.0000 0.0000 0.0000 0.0000 0.0000 0.0000 0.0000 0.0000 0.0000 0.0000 0.0000 0.0000 0.0000 0.0000 0.0000 0.0000 0.0000 0.0000
0.0000 95.0000 0.0000 0.0000 0.0000 0.0000 0.0000 0.0000 0.0000 0.0000 0.0000 0.0000 0.0000 0.0000 0.0000 0.0000 0.0000 0.0000 0.0000 0.0000 0.0000 0.0000 0.0000 0.0000 -77.4746 2.0671 2.5766 -12.7393 -5.0942 8.6822 0.0000 0.0000 0.0000 0.0000 0.0000 0.0000 0.0000 0.0000 0.0000 0.0000 0.0000 0.0000 0.0000 0.0000 0.0000 0.0000 0.0000 0.0000 0.0000 0.0000 0.0000 0.0000 0.0000 0.0000 0.0000 0.0000 0.0000 0.0000 0.0000 0.0000 0.0000 0.0000 0.0000 0.0000 0.0000 0.0000 0.0000 0.0000 0.0000 0.0000 0.0000 0.0000 0.0000 0.0000 0.0000 0.0000 0.0000 0.0000 0.0000 0.0000 0.0000 89.6828 -0.6582 0.6619 0.1005 8.8322 8.8892 141.3929 13.4870 173.2249 -81.3412 -16.4586 -2.4475 29.1369 0.0000 0.0000 15.5321 0.0000 0.0000 27.1402 1.1999 0.0768 2.4046 0.0000 0.0000 3.1432 0.0000 0.0000 14.2589 0.6164 -0.1531 35.0204 0.0000 0.0000 60.4785 0.0000 0.0000 6.5530 1.1122 -3.6925 60.2545 0.0000 0.0000 65.4846 0.0000 0.0000 -2.3178 1.2016 -4.8103 93.4660 0.0000 0.0000 63.9485 0.0000 0.0000 0.0000 0.0000 0.0000 0.0000 0.0000 0.0000 0.0000 0.0000 0.0000 0.0000 0.0000 0.0000 0.0000 0.0000 0.0000 0.0000 0.0000 0.0000
0.0000 95.0000 0.0000 0.0000 0.0000 0.0000 0.0000 0.0000 0.0000 0.0000 0.0000 0.0000 0.0000 0.0000 0.0000 0.0000 0.0000 0.0000 0.0000 0.0000 0.0000 0.0000 0.0000 0.0000 -77.5201 2.7704 3.4503 -11.3420 -3.2075 5.7001 0.0000 0.0000 0.0000 0.0000 0.0000 0.0000 0.0000 0.0000 0.0000 0.0000 0.0000 0.0000 0.0000 0.0000 0.0000 0.0000 0.0000 0.0000 0.0000 0.0000 0.0000 0.0000 0.0000 0.0000 0.0000 0.0000 0.0000 0.0000 0.0000 0.0000 0.0000 0.0000 0.0000 0.0000 0.0000 0.0000 0.0000 0.0000 0.0000 0.0000 0.0000 0.0000 0.0000 0.0000 0.0000 0.0000 0.0000 0.0000 0.0000 0.0000 0.0000 87.6710 -2.8812 3.0007 5.5439 14.0658 16.2885 141.9057 22.0544 164.5543 -81.3412 -16.4586 -2.4475 29.1369 0.0000 0.0000 15.5321 0.0000 0.0000 27.1402 1.1999 0.0768 2.4046 0.0000 0.0000 3.1432 0.0000 0.0000 14.2589 0.6164 -0.1531 35.0204 0.0000 0.0000 60.4785 0.0000 0.0000 6.5530 1.1122 -3.6925 60.2545 0.0000 0.0000 65.4846 0.0000 0.0000 -2.3178 1.2016 -4.8103 93.4660 0.0000 0.0000 63.9485 0.0000 0.0000 0.0000 0.0000 0.0000 0.0000 0.0000 0.0000 0.0000 0.0000 0.0000 0.0000 0.0000 0.0000 0.0000 0.0000 0.0000 0.0000 0.0000 0.0000
0.0000 95.0000 0.0000 0.0000 0.0000 0.0000 0.0000 0.0000 0.0000 0.0000 0.0000 0.0000 0.0000 0.0000 0.0000 0.0000 0.0000 0.0000 0.0000 0.0000 0.0000 0.0000 0.0000 0.0000 -75.7501 8.5626 10.9957 -9.0303 0.9033 0.6291 0.0000 0.0000 0.0000 0.0000 0.0000 0.0000 0.0000 0.0000 0.0000 0.0000 0.0000 0.0000 0.0000 0.0000 0.0000 0.0000 0.0000 0.0000 0.0000 0.0000 0.0000 0.0000 0.0000 0.0000 0.0000 0.0000 0.0000 0.0000 0.0000 0.0000 0.0000 0.0000 0.0000 0.0000 0.0000 0.0000 0.0000 0.0000 0.0000 0.0000 0.0000 0.0000 0.0000 0.0000 0.0000 0.0000 0.0000 0.0000 0.0000 0.0000 0.0000 84.7394 -9.5519 10.4669 6.4298 41.6054 47.3017 53.2396 62.9279 106.0429 -62.7377 -13.1044 -0.0230 25.3361 0.0000 0.0000 1.8114 0.0000 0.0000 40.5186 4.0744 -12.7952 29.3894 0.0000 0.0000 7.0424 0.0000 0.0000 55.0900 -3.1604 10.8273 16.1015 0.0000 0.0000 21.2539 0.0000 0.0000 46.4192 -2.2458 8.5652 28.7980 0.0000 0.0000 24.1750 0.0000 0.0000 35.4617 -2.5006 8.0941 34.4837 0.0000 0.0000 43.0335 0.0000 0.0000 0.0000 0.0000 0.0000 0.0000 0.0000 0.0000 0.0000 0.0000 0.0000 0.0000 0.0000 0.0000 0.0000 0.0000 0.0000 0.0000 0.0000 0.0000
0.0000 95.0000 0.0000 0.0000 0.0000 0.0000 0.0000 0.0000 0.0000 0.0000 0.0000 0.0000 0.0000 0.0000 0.0000 0.0000 0.0000 0.0000 0.0000 0.0000 0.0000 0.0000 0.0000 0.0000 -74.2232 11.7445 15.4822 -7.0710 2.7523 -1.9043 0.0000 0.0000 0.0000 0.0000 0.0000 0.0000 0.0000 0.0000 0.0000 0.0000 0.0000 0.0000 0.0000 0.0000 0.0000 0.0000 0.0000 0.0000 0.0000 0.0000 0.0000 0.0000 0.0000 0.0000 0.0000 0.0000 0.0000 0.0000 0.0000 0.0000 0.0000 0.0000 0.0000 0.0000 0.0000 0.0000 0.0000 0.0000 0.0000 0.0000 0.0000 0.0000 0.0000 0.0000 0.0000 0.0000 0.0000 0.0000 0.0000 0.0000 0.0000 80.2610 -14.9861 17.7363 -11.3135 79.0706 62.3101 -85.1519 16.7725 -64.4881 -58.4098 -13.0246 5.2081 8.4408 0.0000 0.0000 30.5112 0.0000 0.0000 20.7487 0.9447 -13.7946 79.2840 0.0000 0.0000 53.8893 0.0000 0.0000 31.6699 -16.2297 58.1505 81.1682 0.0000 0.0000 4.7459 0.0000 0.0000 17.3977 -17.7697 59.0940 90.2814 0.0000 0.0000 5.5484 0.0000 0.0000 -2.7488 -15.8832 53.8671 96.9034 0.0000 0.0000 13.2785 0.0000 0.0000 0.0000 0.0000 0.0000 0.0000 0.0000 0.0000 0.0000 0.0000 0.0000 0.0000 0.0000 0.0000 0.0000 0.0000 0.0000 0.0000 0.0000 0.0000
0.0000 95.0000 0.0000 0.0000 0.0000 0.0000 0.0000 0.0000 0.0000 0.0000 0.0000 0.0000 0.0000 0.0000 0.0000 0.0000 0.0000 0.0000 0.0000 0.0000 0.0000 0.0000 0.0000 0.0000 -73.7152 13.3883 17.7963 -5.2995 2.9440 -2.3901 0.0000 0.0000 0.0000 0.0000 0.0000 0.0000 0.0000 0.0000 0.0000 0.0000 0.0000 0.0000 0.0000 0.0000 0.0000 0.0000 0.0000 0.0000 0.0000 0.0000 0.0000 0.0000 0.0000 0.0000 0.0000 0.0000 0.0000 0.0000 0.0000 0.0000 0.0000 0.0000 0.0000 0.0000 0.0000 0.0000 0.0000 0.0000 0.0000 0.0000 0.0000 0.0000 0.0000 0.0000 0.0000 0.0000 0.0000 0.0000 0.0000 0.0000 0.0000 75.2919 -18.6888 24.0839 -143.6812 73.9567 -56.3091 -47.4260 1.6502 -33.4134 -47.5931 -12.6804 9.9854 8.7512 0.0000 0.0000 11.1394 0.0000 0.0000 18.6866 0.6992 -8.0329 65.3081 0.0000 0.0000 61.8294 0.0000 0.0000 3.6712 -3.9866 99.4924 69.1564 0.0000 0.0000 54.7065 0.0000 0.0000 -3.9403 -15.4331 107.2782 74.7038 0.0000 0.0000 79.9840 0.0000 0.0000 -18.3910 -21.5161 109.8994 72.0854 0.0000 0.0000 91.2917 0.0000 0.0000 0.0000 0.0000 0.0000 0.0000 0.0000 0.0000 0.0000 0.0000 0.0000 0.0000 0.0000 0.0000 0.0000 0.0000 0.0000 0.0000 0.0000 0.0000
0.0000 95.0000 0.0000 0.0000 0.0000 0.0000 0.0000 0.0000 0.0000 0.0000 0.0000 0.0000 0.0000 0.0000 0.0000 0.0000 0.0000 0.0000 0.0000 0.0000 0.0000 0.0000 0.0000 0.0000 -73.6920 13.9397 18.5314 -3.7927 2.4555 -2.0719 0.0000 0.0000 0.0000 0.0000 0.0000 0.0000 0.0000 0.0000 0.0000 0.0000 0.0000 0.0000 0.0000 0.0000 0.0000 0.0000 0.0000 0.0000 0.0000 0.0000 0.0000 0.0000 0.0000 0.0000 0.0000 0.0000 0.0000 0.0000 0.0000 0.0000 0.0000 0.0000 0.0000 0.0000 0.0000 0.0000 0.0000 0.0000 0.0000 0.0000 0.0000 0.0000 0.0000 0.0000 0.0000 0.0000 0.0000 0.0000 0.0000 0.0000 0.0000 69.1762 -21.2963 30.5035 -143.1720 65.5592 -54.7977 -32.9676 -16.6933 -10.5839 -50.3194 -12.8347 9.5361 2.7241 0.0000 0.0000 5.1146 0.0000 0.0000 17.4058 0.7475 -1.0196 45.3670 0.0000 0.0000 28.2562 0.0000 0.0000 26.5837 -21.3744 82.0113 74.9100 0.0000 0.0000 62.5073 0.0000 0.0000 19.5827 -27.9816 80.3611 104.7793 0.0000 0.0000 64.8246 0.0000 0.0000 2.6590 -30.4342 82.5032 134.4458 0.0000 0.0000 47.8369 0.0000 0.0000 0.0000 0.0000 0.0000 0.0000 0.0000 0.0000 0.0000 0.0000 0.0000 0.0000 0.0000 0.0000 0.0000 0.0000 0.0000 0.0000 0.0000 0.0000
0.0000 95.0000 0.0000 0.0000 0.0000 0.0000 0.0000 0.0000 0.0000 0.0000 0.0000 0.0000 0.0000 0.0000 0.0000 0.0000 0.0000 0.0000 0.0000 0.0000 0.0000 0.0000 0.0000 0.0000 -73.5289 14.5740 19.4244 -2.9118 2.5220 -2.3755 0.0000 0.0000 0.0000 0.0000 0.0000 0.0000 0.0000 0.0000 0.0000 0.0000 0.0000 0.0000 0.0000 0.0000 0.0000 0.0000 0.0000 0.0000 0.0000 0.0000 0.0000 0.0000 0.0000 0.0000 0.0000 0.0000 0.0000 0.0000 0.0000 0.0000 0.0000 0.0000 0.0000 0.0000 0.0000 0.0000 0.0000 0.0000 0.0000 0.0000 0.0000 0.0000 0.0000 0.0000 0.0000 0.0000 0.0000 0.0000 0.0000 0.0000 0.0000 64.3066 -22.1199 34.5469 -140.5788 62.8460 -52.6103 -39.6140 -41.6004 28.3953 -49.3543 -11.9453 5.6924 5.2911 0.0000 0.0000 18.4377 0.0000 0.0000 21.3255 0.9540 -0.8734 33.6330 0.0000 0.0000 25.9540 0.0000 0.0000 53.1701 -13.9603 32.2670 82.0303 0.0000 0.0000 65.6835 0.0000 0.0000 48.2404 -17.6955 32.8764 144.1932 0.0000 0.0000 27.3285 0.0000 0.0000 30.8123 -20.6253 36.5027 157.4056 0.0000 0.0000 21.9050 0.0000 0.0000 0.0000 0.0000 0.0000 0.0000 0.0000 0.0000 0.0000 0.0000 0.0000 0.0000 0.0000 0.0000 0.0000 0.0000 0.0000 0.0000 0.0000 0.0000
0.0000 95.0000 0.0000 0.0000 0.0000 0.0000 0.0000 0.0000 0.0000 0.0000 0.0000 0.0000 0.0000 0.0000 0.0000 0.0000 0.0000 0.0000 0.0000 0.0000 0.0000 0.0000 0.0000 0.0000 -74.2563 14.2941 18.8087 -1.9782 2.1441 -2.1479 0.0000 0.0000 0.0000 0.0000 0.0000 0.0000 0.0000 0.0000 0.0000 0.0000 0.0000 0.0000 0.0000 0.0000 0.0000 0.0000 0.0000 0.0000 0.0000 0.0000 0.0000 0.0000 0.0000 0.0000 0.0000 0.0000 0.0000 0.0000 0.0000 0.0000 0.0000 0.0000 0.0000 0.0000 0.0000 0.0000 0.0000 0.0000 0.0000 0.0000 0.0000 0.0000 0.0000 0.0000 0.0000 0.0000 0.0000 0.0000 0.0000 0.0000 0.0000 60.0840 -22.5434 38.0305 -137.2641 58.7593 -49.9692 -66.4649 -50.6870 59.0316 -54.4326 -10.8567 -4.7438 2.9184 0.0000 0.0000 23.0260 0.0000 0.0000 21.0517 0.9511 -3.5396 12.6084 0.0000 0.0000 5.3620 0.0000 0.0000 36.1384 -4.2838 17.8512 4.6145 0.0000 0.0000 1.5253 0.0000 0.0000 32.0261 -5.1773 15.9424 3.1203 0.0000 0.0000 6.3189 0.0000 0.0000 27.8295 -7.5460 16.5363 6.8571 0.0000 0.0000 10.1433 0.0000 0.0000 0.0000 0.0000 0.0000 0.0000 0.0000 0.0000 0.0000 0.0000 0.0000 0.0000 0.0000 0.0000 0.0000 0.0000 0.0000 0.0000 0.0000 0.0000
0.0000 95.0000 0.0000 0.0000 0.0000 0.0000 0.0000 0.0000 0.0000 0.0000 0.0000 0.0000 0.0000 0.0000 0.0000 0.0000 0.0000 0.0000 0.0000 0.0000 0.0000 0.0000 0.0000 0.0000 -73.7926 14.5741 19.3333 -2.1664 2.1592 -2.1078 0.0000 0.0000 0.0000 0.0000 0.0000 0.0000 0.0000 0.0000 0.0000 0.0000 0.0000 0.0000 0.0000 0.0000 0.0000 0.0000 0.0000 0.0000 0.0000 0.0000 0.0000 0.0000 0.0000 0.0000 0.0000 0.0000 0.0000 0.0000 0.0000 0.0000 0.0000 0.0000 0.0000 0.0000 0.0000 0.0000 0.0000 0.0000 0.0000 0.0000 0.0000 0.0000 0.0000 0.0000 0.0000 0.0000 0.0000 0.0000 0.0000 0.0000 0.0000 56.7916 -23.3574 41.8491 -128.6998 62.0834 -45.7994 -25.3164 -39.3452 71.2063 -101.6495 -20.6121 -3.3261 6.4846 0.0000 0.0000 15.7988 0.0000 0.0000 79.3430 8.2261 -7.9201 14.0877 0.0000 0.0000 2.1283 0.0000 0.0000 79.1691 5.7255 -2.1502 2.0900 0.0000 0.0000 1.4801 0.0000 0.0000 62.9366 7.1844 -3.4658 8.2512 0.0000 0.0000 4.5358 0.0000 0.0000 48.9152 5.8895 -1.3836 14.0347 0.0000 0.0000 3.1884 0.0000 0.0000 0.0000 0.0000 0.0000 0.0000 0.0000 0.0000 0.0000 0.0000 0.0000 0.0000 0.0000 0.0000 0.0000 0.0000 0.0000 0.0000 0.0000 0.0000
0.0000 95.0000 0.0000 0.0000 0.0000 0.0000 0.0000 0.0000 0.0000 0.0000 0.0000 0.0000 0.0000 0.0000 0.0000 0.0000 0.0000 0.0000 0.0000 0.0000 0.0000 0.0000 0.0000 0.0000 -73.4167 15.2239 20.3234 -1.9942 2.6557 -2.7985 0.0000 0.0000 0.0000 0.0000 0.0000 0.0000 0.0000 0.0000 0.0000 0.0000 0.0000 0.0000 0.0000 0.0000 0.0000 0.0000 0.0000 0.0000 0.0000 0.0000 0.0000 0.0000 0.0000 0.0000 0.0000 0.0000 0.0000 0.0000 0.0000 0.0000 0.0000 0.0000 0.0000 0.0000 0.0000 0.0000 0.0000 0.0000 0.0000 0.0000 0.0000 0.0000 0.0000 0.0000 0.0000 0.0000 0.0000 0.0000 0.0000 0.0000 0.0000 55.7519 -23.3694 42.7107 -121.1083 67.7997 -40.2878 -2.7537 -39.2247 49.1539 -98.7883 -18.4112 3.9408 10.4343 0.0000 0.0000 18.6974 0.0000 0.0000 70.9203 0.6327 5.6397 8.2093 0.0000 0.0000 3.9394 0.0000 0.0000 59.1587 -3.5254 10.9789 10.1452 0.0000 0.0000 5.0253 0.0000 0.0000 50.7912 -3.7863 10.7214 9.3619 0.0000 0.0000 4.6190 0.0000 0.0000 38.4039 -5.5471 12.2590 13.5493 0.0000 0.0000 5.0443 0.0000 0.0000 0.0000 0.0000 0.0000 0.0000 0.0000 0.0000 0.0000 0.0000 0.0000 0.0000 0.0000 0.0000 0.0000 0.0000 0.0000 0.0000 0.0000 0.0000
0.0000 95.0000 0.0000 0.0000 0.0000 0.0000 0.0000 0.0000 0.0000 0.0000 0.0000 0.0000 0.0000 0.0000 0.0000 0.0000 0.0000 0.0000 0.0000 0.0000 0.0000 0.0000 0.0000 0.0000 -73.1543 15.2890 20.5052 -2.0191 2.6303 -2.7635 0.0000 0.0000 0.0000 0.0000 0.0000 0.0000 0.0000 0.0000 0.0000 0.0000 0.0000 0.0000 0.0000 0.0000 0.0000 0.0000 0.0000 0.0000 0.0000 0.0000 0.0000 0.0000 0.0000 0.0000 0.0000 0.0000 0.0000 0.0000 0.0000 0.0000 0.0000 0.0000 0.0000 0.0000 0.0000 0.0000 0.0000 0.0000 0.0000 0.0000 0.0000 0.0000 0.0000 0.0000 0.0000 0.0000 0.0000 0.0000 0.0000 0.0000 0.0000 55.7531 -23.3654 42.7028 -117.4211 70.5065 -37.2596 -12.9728 -35.7597 56.0527 -91.4602 -17.5266 3.0741 16.2825 0.0000 0.0000 21.7922 0.0000 0.0000 70.7149 0.5805 5.7540 14.6703 0.0000 0.0000 6.6288 0.0000 0.0000 59.2980 -2.4932 9.1505 11.7050 0.0000 0.0000 6.9563 0.0000 0.0000 48.0834 -2.8022 9.3829 13.0291 0.0000 0.0000 7.4241 0.0000 0.0000 33.0432 -5.4549 12.5614 16.5827 0.0000 0.0000 8.8556 0.0000 0.0000 0.0000 0.0000 0.0000 0.0000 0.0000 0.0000 0.0000 0.0000 0.0000 0.0000 0.0000 0.0000 0.0000 0.0000 0.0000 0.0000 0.0000 0.0000
0.0000 95.0000 0.0000 0.0000 0.0000 0.0000 0.0000 0.0000 0.0000 0.0000 0.0000 0.0000 0.0000 0.0000 0.0000 0.0000 0.0000 0.0000 0.0000 0.0000 0.0000 0.0000 0.0000 0.0000 -72.9994 15.2602 20.5237 -1.8415 2.4952 -2.6472 0.0000 0.0000 0.0000 0.0000 0.0000 0.0000 0.0000 0.0000 0.0000 0.0000 0.0000 0.0000 0.0000 0.0000 0.0000 0.0000 0.0000 0.0000 0.0000 0.0000 0.0000 0.0000 0.0000 0.0000 0.0000 0.0000 0.0000 0.0000 0.0000 0.0000 0.0000 0.0000 0.0000 0.0000 0.0000 0.0000 0.0000 0.0000 0.0000 0.0000 0.0000 0.0000 0.0000 0.0000 0.0000 0.0000 0.0000 0.0000 0.0000 0.0000 0.0000 55.4224 -23.8684 43.8380 -119.2712 68.4818 -39.6988 -37.7060 -38.5062 42.2229 -66.6552 -13.6176 -2.8880 11.1675 0.0000 0.0000 18.5861 0.0000 0.0000 60.4208 -2.9899 15.7790 49.8668 0.0000 0.0000 7.5875 0.0000 0.0000 58.6004 -8.8573 20.4876 32.6908 0.0000 0.0000 8.1549 0.0000 0.0000 51.8173 -10.0109 19.8822 30.7723 0.0000 0.0000 8.0978 0.0000 0.0000 36.1802 -13.2452 23.4077 26.2302 0.0000 0.0000 7.7150 0.0000 0.0000 0.0000 0.0000 0.0000 0.0000 0.0000 0.0000 0.0000 0.0000 0.0000 0.0000 0.0000 0.0000 0.0000 0.0000 0.0000 0.0000 0.0000 0.0000
0.0000 95.0000 0.0000 0.0000 0.0000 0.0000 0.0000 0.0000 0.0000 0.0000 0.0000 0.0000 0.0000 0.0000 0.0000 0.0000 0.0000 0.0000 0.0000 0.0000 0.0000 0.0000 0.0000 0.0000 -73.1548 14.9588 20.0663 -1.7793 2.6777 -2.9253 0.0000 0.0000 0.0000 0.0000 0.0000 0.0000 0.0000 0.0000 0.0000 0.0000 0.0000 0.0000 0.0000 0.0000 0.0000 0.0000 0.0000 0.0000 0.0000 0.0000 0.0000 0.0000 0.0000 0.0000 0.0000 0.0000 0.0000 0.0000 0.0000 0.0000 0.0000 0.0000 0.0000 0.0000 0.0000 0.0000 0.0000 0.0000 0.0000 0.0000 0.0000 0.0000 0.0000 0.0000 0.0000 0.0000 0.0000 0.0000 0.0000 0.0000 0.0000 56.1014 -24.1969 43.8279 -123.7682 66.8767 -43.7280 -46.2213 -41.2352 47.0246 -65.1052 -13.2228 -4.1337 8.2088 0.0000 0.0000 24.6049 0.0000 0.0000 76.8336 -0.6172 7.9040 40.6470 0.0000 0.0000 9.5039 0.0000 0.0000 76.3247 -6.5531 13.1050 23.1331 0.0000 0.0000 13.1147 0.0000 0.0000 59.6409 -5.7946 12.6482 32.1390 0.0000 0.0000 21.2345 0.0000 0.0000 45.2732 -10.9698 18.3377 27.4601 0.0000 0.0000 5.5008 0.0000 0.0000 0.0000 0.0000 0.0000 0.0000 0.0000 0.0000 0.0000 0.0000 0.0000 0.0000 0.0000 0.0000 0.0000 0.0000 0.0000 0.0000 0.0000 0.0000
0.0000 95.0000 0.0000 0.0000 0.0000 0.0000 0.0000 0.0000 0.0000 0.0000 0.0000 0.0000 0.0000 0.0000 0.0000 0.0000 0.0000 0.0000 0.0000 0.0000 0.0000 0.0000 0.0000 0.0000 -72.9257 15.1164 20.3589 -1.6282 3.1860 -3.6597 0.0000 0.0000 0.0000 0.0000 0.0000 0.0000 0.0000 0.0000 0.0000 0.0000 0.0000 0.0000 0.0000 0.0000 0.0000 0.0000 0.0000 0.0000 0.0000 0.0000 0.0000 0.0000 0.0000 0.0000 0.0000 0.0000 0.0000 0.0000 0.0000 0.0000 0.0000 0.0000 0.0000 0.0000 0.0000 0.0000 0.0000 0.0000 0.0000 0.0000 0.0000 0.0000 0.0000 0.0000 0.0000 0.0000 0.0000 0.0000 0.0000 0.0000 0.0000 57.5035 -24.1051 42.5279 -123.6074 69.9440 -43.4103 -1.3259 -37.8781 55.2916 -104.1129 -18.0010 8.3100 11.1016 0.0000 0.0000 23.7988 0.0000 0.0000 64.2638 1.7535 2.9472 8.6676 0.0000 0.0000 4.9269 0.0000 0.0000 52.6426 -1.1335 7.0630 8.2750 0.0000 0.0000 4.5687 0.0000 0.0000 39.1928 -1.1214 6.7693 10.8996 0.0000 0.0000 5.4428 0.0000 0.0000 23.7436 -3.0242 9.0574 14.2425 0.0000 0.0000 5.5761 0.0000 0.0000 0.0000 0.0000 0.0000 0.0000 0.0000 0.0000 0.0000 0.0000 0.0000 0.0000 0.0000 0.0000 0.0000 0.0000 0.0000 0.0000 0.0000 0.0000
0.0000 95.0000 0.0000 0.0000 0.0000 0.0000 0.0000 0.0000 0.0000 0.0000 0.0000 0.0000 0.0000 0.0000 0.0000 0.0000 0.0000 0.0000 0.0000 0.0000 0.0000 0.0000 0.0000 0.0000 -71.8951 15.6450 21.4558 -1.7361 3.2201 -3.6996 0.0000 0.0000 0.0000 0.0000 0.0000 0.0000 0.0000 0.0000 0.0000 0.0000 0.0000 0.0000 0.0000 0.0000 0.0000 0.0000 0.0000 0.0000 0.0000 0.0000 0.0000 0.0000 0.0000 0.0000 0.0000 0.0000 0.0000 0.0000 0.0000 0.0000 0.0000 0.0000 0.0000 0.0000 0.0000 0.0000 0.0000 0.0000 0.0000 0.0000 0.0000 0.0000 0.0000 0.0000 0.0000 0.0000 0.0000 0.0000 0.0000 0.0000 0.0000 58.3281 -24.2875 42.1721 -124.0501 71.0477 -44.0875 1.6557 -34.2079 32.9099 -93.6268 -16.7177 9.4875 14.9206 0.0000 0.0000 19.4077 0.0000 0.0000 66.7246 -4.7446 18.2650 10.6375 0.0000 0.0000 5.8358 0.0000 0.0000 51.9222 -8.1235 21.3673 12.7114 0.0000 0.0000 6.4307 0.0000 0.0000 39.3189 -9.7802 23.2273 13.9193 0.0000 0.0000 9.0320 0.0000 0.0000 25.2906 -12.9759 26.4812 15.5391 0.0000 0.0000 10.1393 0.0000 0.0000 0.0000 0.0000 0.0000 0.0000 0.0000 0.0000 0.0000 0.0000 0.0000 0.0000 0.0000 0.0000 0.0000 0.0000 0.0000 0.0000 0.0000 0.0000
0.0000 95.0000 0.0000 0.0000 0.0000 0.0000 0.0000 0.0000 0.0000 0.0000 0.0000 0.0000 0.0000 0.0000 0.0000 0.0000 0.0000 0.0000 0.0000 0.0000 0.0000 0.0000 0.0000 0.0000 -71.4332 15.5262 21.4720 -2.1070 3.1410 -3.5046 0.0000 0.0000 0.0000 0.0000 0.0000 0.0000 0.0000 0.0000 0.0000 0.0000 0.0000 0.0000 0.0000 0.0000 0.0000 0.0000 0.0000 0.0000 0.0000 0.0000 0.0000 0.0000 0.0000 0.0000 0.0000 0.0000 0.0000 0.0000 0.0000 0.0000 0.0000 0.0000 0.0000 0.0000 0.0000 0.0000 0.0000 0.0000 0.0000 0.0000 0.0000 0.0000 0.0000 0.0000 0.0000 0.0000 0.0000 0.0000 0.0000 0.0000 0.0000 58.9571 -24.5634 42.1254 -129.6811 67.6349 -48.8218 -32.9139 -41.4661 37.8512 -72.5991 -14.7986 0.2568 8.7055 0.0000 0.0000 25.3732 0.0000 0.0000 40.2133 0.7656 5.9021 36.6144 0.0000 0.0000 22.0310 0.0000 0.0000 36.7455 -4.9480 19.5958 24.7940 0.0000 0.0000 36.4418 0.0000 0.0000 25.8253 -6.3357 20.5339 31.9917 0.0000 0.0000 28.4186 0.0000 0.0000 17.6946 -12.1485 27.9543 24.4824 0.0000 0.0000 12.3264 0.0000 0.0000 0.0000 0.0000 0.0000 0.0000 0.0000 0.0000 0.0000 0.0000 0.0000 0.0000 0.0000 0.0000 0.0000 0.0000 0.0000 0.0000 0.0000 0.0000
0.0000 95.0000 0.0000 0.0000 0.0000 0.0000 0.0000 0.0000 0.0000 0.0000 0.0000 0.0000 0.0000 0.0000 0.0000 0.0000 0.0000 0.0000 0.0000 0.0000 0.0000 0.0000 0.0000 0.0000 -71.2989 15.5377 21.5397 -1.9519 2.9023 -3.2297 0.0000 0.0000 0.0000 0.0000 0.0000 0.0000 0.0000 0.0000 0.0000 0.0000 0.0000 0.0000 0.0000 0.0000 0.0000 0.0000 0.0000 0.0000 0.0000 0.0000 0.0000 0.0000 0.0000 0.0000 0.0000 0.0000 0.0000 0.0000 0.0000 0.0000 0.0000 0.0000 0.0000 0.0000 0.0000 0.0000 0.0000 0.0000 0.0000 0.0000 0.0000 0.0000 0.0000 0.0000 0.0000 0.0000 0.0000 0.0000 0.0000 0.0000 0.0000 58.8938 -24.7509 42.4777 -131.9666 65.2244 -50.6712 -43.6564 -43.0650 48.6758 -69.1399 -14.1213 -2.4692 8.3338 0.0000 0.0000 24.3190 0.0000 0.0000 44.5193 2.1128 -0.6057 25.2385 0.0000 0.0000 23.8983 0.0000 0.0000 45.1312 -1.6138 8.6540 11.5229 0.0000 0.0000 26.1580 0.0000 0.0000 30.8681 -1.6464 8.0728 24.9331 0.0000 0.0000 1.5038 0.0000 0.0000 28.3313 -7.5315 16.4288 29.7903 0.0000 0.0000 14.8963 0.0000 0.0000 0.0000 0.0000 0.0000 0.0000 0.0000 0.0000 0.0000 0.0000 0.0000 0.0000 0.0000 0.0000 0.0000 0.0000 0.0000 0.0000 0.0000 0.0000
0.0000 95.0000 0.0000 0.0000 0.0000 0.0000 0.0000 0.0000 0.0000 0.0000 0.0000 0.0000 0.0000 0.0000 0.0000 0.0000 0.0000 0.0000 0.0000 0.0000 0.0000 0.0000 0.0000 0.0000 -71.6572 15.0041 20.6741 -2.0933 3.0102 -3.3549 0.0000 0.0000 0.0000 0.0000 0.0000 0.0000 0.0000 0.0000 0.0000 0.0000 0.0000 0.0000 0.0000 0.0000 0.0000 0.0000 0.0000 0.0000 0.0000 0.0000 0.0000 0.0000 0.0000 0.0000 0.0000 0.0000 0.0000 0.0000 0.0000 0.0000 0.0000 0.0000 0.0000 0.0000 0.0000 0.0000 0.0000 0.0000 0.0000 0.0000 0.0000 0.0000 0.0000 0.0000 0.0000 0.0000 0.0000 0.0000 0.0000 0.0000 0.0000 60.0324 -24.6869 41.4911 -133.4455 65.6931 -51.7197 -26.7340 -41.9729 49.1479 -79.7006 -15.9205 1.4840 11.5353 0.0000 0.0000 22.0408 0.0000 0.0000 75.2444 -1.4964 9.7007 12.9524 0.0000 0.0000 4.2361 0.0000 0.0000 66.2180 -4.6032 11.8256 6.9721 0.0000 0.0000 6.8916 0.0000 0.0000 48.1730 -4.0762 11.4102 17.0294 0.0000 0.0000 8.2058 0.0000 0.0000 35.5372 -7.0781 14.6977 15.7376 0.0000 0.0000 7.9339 0.0000 0.0000 0.0000 0.0000 0.0000 0.0000 0.0000 0.0000 0.0000 0.0000 0.0000 0.0000 0.0000 0.0000 0.0000 0.0000 0.0000 0.0000 0.0000 0.0000
0.0000 95.0000 0.0000 0.0000 0.0000 0.0000 0.0000 0.0000 0.0000 0.0000 0.0000 0.0000 0.0000 0.0000 0.0000 0.0000 0.0000 0.0000 0.0000 0.0000 0.0000 0.0000 0.0000 0.0000 -71.6502 15.2247 20.9776 -2.0321 2.8825 -3.1807 0.0000 0.0000 0.0000 0.0000 0.0000 0.0000 0.0000 0.0000 0.0000 0.0000 0.0000 0.0000 0.0000 0.0000 0.0000 0.0000 0.0000 0.0000 0.0000 0.0000 0.0000 0.0000 0.0000 0.0000 0.0000 0.0000 0.0000 0.0000 0.0000 0.0000 0.0000 0.0000 0.0000 0.0000 0.0000 0.0000 0.0000 0.0000 0.0000 0.0000 0.0000 0.0000 0.0000 0.0000 0.0000 0.0000 0.0000 0.0000 0.0000 0.0000 0.0000 60.4282 -24.7378 41.2702 -132.5127 66.1373 -51.1443 -31.3623 -42.5675 57.4285 -79.6927 -15.8267 3.1176 8.8661 0.0000 0.0000 26.8606 0.0000 0.0000 75.2568 1.6237 3.6682 6.8254 0.0000 0.0000 2.7745 0.0000 0.0000 66.6887 -0.6871 5.8161 2.7936 0.0000 0.0000 6.5082 0.0000 0.0000 46.1554 1.3718 2.5739 12.3446 0.0000 0.0000 7.0917 0.0000 0.0000 25.6475 -2.0129 7.2540 15.6261 0.0000 0.0000 8.4072 0.0000 0.0000 0.0000 0.0000 0.0000 0.0000 0.0000 0.0000 0.0000 0.0000 0.0000 0.0000 0.0000 0.0000 0.0000 0.0000 0.0000 0.0000 0.0000 0.0000
0.0000 95.0000 0.0000 0.0000 0.0000 0.0000 0.0000 0.0000 0.0000 0.0000 0.0000 0.0000 0.0000 0.0000 0.0000 0.0000 0.0000 0.0000 0.0000 0.0000 0.0000 0.0000 0.0000 0.0000 -71.4979 15.4749 21.3770 -2.0274 2.7939 -3.0481 0.0000 0.0000 0.0000 0.0000 0.0000 0.0000 0.0000 0.0000 0.0000 0.0000 0.0000 0.0000 0.0000 0.0000 0.0000 0.0000 0.0000 0.0000 0.0000 0.0000 0.0000 0.0000 0.0000 0.0000 0.0000 0.0000 0.0000 0.0000 0.0000 0.0000 0.0000 0.0000 0.0000 0.0000 0.0000 0.0000 0.0000 0.0000 0.0000 0.0000 0.0000 0.0000 0.0000 0.0000 0.0000 0.0000 0.0000 0.0000 0.0000 0.0000 0.0000 61.0557 -24.9661 41.1541 -133.0398 65.7239 -51.8733 -29.2017 -42.0209 41.5956 -74.3274 -15.0739 1.6914 9.9740 0.0000 0.0000 28.9270 0.0000 0.0000 78.0061 -1.1102 8.7339 12.7714 0.0000 0.0000 2.8404 0.0000 0.0000 70.6735 -1.3558 6.6840 10.5983 0.0000 0.0000 6.2250 0.0000 0.0000 49.1049 -0.2593 5.3376 20.1527 0.0000 0.0000 9.1662 0.0000 0.0000 35.6012 -5.3791 12.2405 18.0538 0.0000 0.0000 9.4235 0.0000 0.0000 0.0000 0.0000 0.0000 0.0000 0.0000 0.0000 0.0000 0.0000 0.0000 0.0000 0.0000 0.0000 0.0000 0.0000 0.0000 0.0000 0.0000 0.0000
0.0000 95.0000 0.0000 0.0000 0.0000 0.0000 0.0000 0.0000 0.0000 0.0000 0.0000 0.0000 0.0000 0.0000 0.0000 0.0000 0.0000 0.0000 0.0000 0.0000 0.0000 0.0000 0.0000 0.0000 -71.3659 15.3960 21.3198 -2.3161 2.8873 -3.0944 0.0000 0.0000 0.0000 0.0000 0.0000 0.0000 0.0000 0.0000 0.0000 0.0000 0.0000 0.0000 0.0000 0.0000 0.0000 0.0000 0.0000 0.0000 0.0000 0.0000 0.0000 0.0000 0.0000 0.0000 0.0000 0.0000 0.0000 0.0000 0.0000 0.0000 0.0000 0.0000 0.0000 0.0000 0.0000 0.0000 0.0000 0.0000 0.0000 0.0000 0.0000 0.0000 0.0000 0.0000 0.0000 0.0000 0.0000 0.0000 0.0000 0.0000 0.0000 61.6896 -25.1557 40.9738 -133.8886 65.3780 -52.7901 -36.0837 -42.2600 47.0150 -69.6096 -14.3056 0.5914 7.7467 0.0000 0.0000 29.9144 0.0000 0.0000 82.6922 -0.8541 7.9754 13.0689 0.0000 0.0000 2.8999 0.0000 0.0000 77.5057 -1.9925 7.2541 6.7536 0.0000 0.0000 5.4703 0.0000 0.0000 60.2540 0.0231 5.1620 13.4555 0.0000 0.0000 10.1205 0.0000 0.0000 48.7504 -3.8618 9.6299 13.4198 0.0000 0.0000 6.0564 0.0000 0.0000 0.0000 0.0000 0.0000 0.0000 0.0000 0.0000 0.0000 0.0000 0.0000 0.0000 0.0000 0.0000 0.0000 0.0000 0.0000 0.0000 0.0000 0.0000
0.0000 95.0000 0.0000 0.0000 0.0000 0.0000 0.0000 0.0000 0.0000 0.0000 0.0000 0.0000 0.0000 0.0000 0.0000 0.0000 0.0000 0.0000 0.0000 0.0000 0.0000 0.0000 0.0000 0.0000 -71.4154 15.5523 21.5147 -2.4186 2.9105 -3.0768 0.0000 0.0000 0.0000 0.0000 0.0000 0.0000 0.0000 0.0000 0.0000 0.0000 0.0000 0.0000 0.0000 0.0000 0.0000 0.0000 0.0000 0.0000 0.0000 0.0000 0.0000 0.0000 0.0000 0.0000 0.0000 0.0000 0.0000 0.0000 0.0000 0.0000 0.0000 0.0000 0.0000 0.0000 0.0000 0.0000 0.0000 0.0000 0.0000 0.0000 0.0000 0.0000 0.0000 0.0000 0.0000 0.0000 0.0000 0.0000 0.0000 0.0000 0.0000 62.4150 -24.9499 40.1241 -134.9326 65.7516 -53.3341 -31.4373 -41.4412 43.3356 -72.1674 -14.7375 1.6466 9.5861 0.0000 0.0000 30.9044 0.0000 0.0000 80.8797 -2.1511 10.3125 12.3586 0.0000 0.0000 3.8719 0.0000 0.0000 72.3532 -4.0646 10.3282 5.9984 0.0000 0.0000 6.3415 0.0000 0.0000 53.0688 -2.8607 9.1913 14.2917 0.0000 0.0000 11.2764 0.0000 0.0000 41.8483 -7.2769 14.2295 15.1636 0.0000 0.0000 9.4940 0.0000 0.0000 0.0000 0.0000 0.0000 0.0000 0.0000 0.0000 0.0000 0.0000 0.0000 0.0000 0.0000 0.0000 0.0000 0.0000 0.0000 0.0000 0.0000 0.0000
0.0000 95.0000 0.0000 0.0000 0.0000 0.0000 0.0000 0.0000 0.0000 0.0000 0.0000 0.0000 0.0000 0.0000 0.0000 0.0000 0.0000 0.0000 0.0000 0.0000 0.0000 0.0000 0.0000 0.0000 -71.5908 15.3877 21.2224 -2.5352 2.9281 -3.0680 0.0000 0.0000 0.0000 0.0000 0.0000 0.0000 0.0000 0.0000 0.0000 0.0000 0.0000 0.0000 0.0000 0.0000 0.0000 0.0000 0.0000 0.0000 0.0000 0.0000 0.0000 0.0000 0.0000 0.0000 0.0000 0.0000 0.0000 0.0000 0.0000 0.0000 0.0000 0.0000 0.0000 0.0000 0.0000 0.0000 0.0000 0.0000 0.0000 0.0000 0.0000 0.0000 0.0000 0.0000 0.0000 0.0000 0.0000 0.0000 0.0000 0.0000 0.0000 63.0564 -24.8157 39.4581 -135.7361 65.8279 -53.7791 -30.5011 -40.7511 46.5319 -75.0190 -15.1872 1.3402 10.1210 0.0000 0.0000 26.2147 0.0000 0.0000 75.7922 -0.6255 7.9835 12.4406 0.0000 0.0000 2.3635 0.0000 0.0000 70.9383 -3.6658 9.9154 8.5789 0.0000 0.0000 3.2248 0.0000 0.0000 51.0607 -1.6678 7.5003 13.6032 0.0000 0.0000 4.5260 0.0000 0.0000 38.7578 -5.3197 11.9226 13.3238 0.0000 0.0000 3.0407 0.0000 0.0000 0.0000 0.0000 0.0000 0.0000 0.0000 0.0000 0.0000 0.0000 0.0000 0.0000 0.0000 0.0000 0.0000 0.0000 0.0000 0.0000 0.0000 0.0000
0.0000 95.0000 0.0000 0.0000 0.0000 0.0000 0.0000 0.0000 0.0000 0.0000 0.0000 0.0000 0.0000 0.0000 0.0000 0.0000 0.0000 0.0000 0.0000 0.0000 0.0000 0.0000 0.0000 0.0000 -71.5019 15.5525 21.4815 -2.4775 2.6757 -2.7240 0.0000 0.0000 0.0000 0.0000 0.0000 0.0000 0.0000 0.0000 0.0000 0.0000 0.0000 0.0000 0.0000 0.0000 0.0000 0.0000 0.0000 0.0000 0.0000 0.0000 0.0000 0.0000 0.0000 0.0000 0.0000 0.0000 0.0000 0.0000 0.0000 0.0000 0.0000 0.0000 0.0000 0.0000 0.0000 0.0000 0.0000 0.0000 0.0000 0.0000 0.0000 0.0000 0.0000 0.0000 0.0000 0.0000 0.0000 0.0000 0.0000 0.0000 0.0000 63.8315 -24.6243 38.6239 -136.6658 65.8982 -54.2525 -32.4042 -43.0031 46.8284 -71.2252 -14.6383 4.5902 5.8167 0.0000 0.0000 26.9702 0.0000 0.0000 66.2603 -1.7173 11.2806 11.2894 0.0000 0.0000 4.6925 0.0000 0.0000 53.3360 -6.3216 17.3209 4.0575 0.0000 0.0000 4.1486 0.0000 0.0000 36.3960 -5.9407 16.5826 9.6191 0.0000 0.0000 0.4538 0.0000 0.0000 26.7102 -8.4588 18.2853 10.1407 0.0000 0.0000 2.6690 0.0000 0.0000 0.0000 0.0000 0.0000 0.0000 0.0000 0.0000 0.0000 0.0000 0.0000 0.0000 0.0000 0.0000 0.0000 0.0000 0.0000 0.0000 0.0000 0.0000
0.0000 95.0000 0.0000 0.0000 0.0000 0.0000 0.0000 0.0000 0.0000 0.0000 0.0000 0.0000 0.0000 0.0000 0.0000 0.0000 0.0000 0.0000 0.0000 0.0000 0.0000 0.0000 0.0000 0.0000 -71.9345 15.1227 20.7323 -2.6935 2.7937 -2.8353 0.0000 0.0000 0.0000 0.0000 0.0000 0.0000 0.0000 0.0000 0.0000 0.0000 0.0000 0.0000 0.0000 0.0000 0.0000 0.0000 0.0000 0.0000 0.0000 0.0000 0.0000 0.0000 0.0000 0.0000 0.0000 0.0000 0.0000 0.0000 0.0000 0.0000 0.0000 0.0000 0.0000 0.0000 0.0000 0.0000 0.0000 0.0000 0.0000 0.0000 0.0000 0.0000 0.0000 0.0000 0.0000 0.0000 0.0000 0.0000 0.0000 0.0000 0.0000 65.6320 -24.0671 36.5846 -139.2463 66.6076 -55.6979 -22.6027 -42.4829 35.6772 -71.8763 -14.7729 9.2689 2.5751 0.0000 0.0000 24.7922 0.0000 0.0000 54.5479 -2.1536 15.0564 10.0771 0.0000 0.0000 5.8983 0.0000 0.0000 42.4263 -6.3686 21.0857 7.0199 0.0000 0.0000 3.0153 0.0000 0.0000 27.5179 -6.2155 19.6353 10.5257 0.0000 0.0000 2.4944 0.0000 0.0000 19.0644 -8.1842 19.4960 11.5537 0.0000 0.0000 3.1173 0.0000 0.0000 0.0000 0.0000 0.0000 0.0000 0.0000 0.0000 0.0000 0.0000 0.0000 0.0000 0.0000 0.0000 0.0000 0.0000 0.0000 0.0000 0.0000 0.0000
0.0000 95.0000 0.0000 0.0000 0.0000 0.0000 0.0000 0.0000 0.0000 0.0000 0.0000 0.0000 0.0000 0.0000 0.0000 0.0000 0.0000 0.0000 0.0000 0.0000 0.0000 0.0000 0.0000 0.0000 -71.9189 15.0892 20.6926 -3.0080 2.8851 -2.8641 0.0000 0.0000 0.0000 0.0000 0.0000 0.0000 0.0000 0.0000 0.0000 0.0000 0.0000 0.0000 0.0000 0.0000 0.0000 0.0000 0.0000 0.0000 0.0000 0.0000 0.0000 0.0000 0.0000 0.0000 0.0000 0.0000 0.0000 0.0000 0.0000 0.0000 0.0000 0.0000 0.0000 0.0000 0.0000 0.0000 0.0000 0.0000 0.0000 0.0000 0.0000 0.0000 0.0000 0.0000 0.0000 0.0000 0.0000 0.0000 0.0000 0.0000 0.0000 66.8312 -23.6455 35.2055 -136.4687 69.5797 -53.6916 -14.0887 -37.4800 20.4198 -71.8924 -14.8473 16.3175 0.4435 0.0000 0.0000 23.7847 0.0000 0.0000 40.6658 -3.7870 31.1157 8.7609 0.0000 0.0000 5.1356 0.0000 0.0000 31.9541 -8.9254 35.2677 12.7473 0.0000 0.0000 6.0631 0.0000 0.0000 21.1755 -10.7816 35.2401 17.3550 0.0000 0.0000 13.7301 0.0000 0.0000 9.4835 -13.5435 35.4921 16.2524 0.0000 0.0000 14.8908 0.0000 0.0000 0.0000 0.0000 0.0000 0.0000 0.0000 0.0000 0.0000 0.0000 0.0000 0.0000 0.0000 0.0000 0.0000 0.0000 0.0000 0.0000 0.0000 0.0000
0.0000 95.0000 0.0000 0.0000 0.0000 0.0000 0.0000 0.0000 0.0000 0.0000 0.0000 0.0000 0.0000 0.0000 0.0000 0.0000 0.0000 0.0000 0.0000 0.0000 0.0000 0.0000 0.0000 0.0000 -72.2480 15.1420 20.6420 -2.8279 2.7785 -2.7548 0.0000 0.0000 0.0000 0.0000 0.0000 0.0000 0.0000 0.0000 0.0000 0.0000 0.0000 0.0000 0.0000 0.0000 0.0000 0.0000 0.0000 0.0000 0.0000 0.0000 0.0000 0.0000 0.0000 0.0000 0.0000 0.0000 0.0000 0.0000 0.0000 0.0000 0.0000 0.0000 0.0000 0.0000 0.0000 0.0000 0.0000 0.0000 0.0000 0.0000 0.0000 0.0000 0.0000 0.0000 0.0000 0.0000 0.0000 0.0000 0.0000 0.0000 0.0000 68.2625 -23.0062 33.4225 -132.1771 72.9711 -50.2353 -4.7292 -34.4305 13.2696 -77.4695 -14.7841 22.7296 7.9126 0.0000 0.0000 31.7337 0.0000 0.0000 38.6898 -4.4545 37.7931 9.5883 0.0000 0.0000 6.7523 0.0000 0.0000 24.5275 -8.6158 42.9987 23.5145 0.0000 0.0000 16.8643 0.0000 0.0000 13.2684 -11.1092 44.2062 35.1184 0.0000 0.0000 22.7419 0.0000 0.0000 -9.6375 -10.8231 45.5379 25.5429 0.0000 0.0000 19.4543 0.0000 0.0000 0.0000 0.0000 0.0000 0.0000 0.0000 0.0000 0.0000 0.0000 0.0000 0.0000 0.0000 0.0000 0.0000 0.0000 0.0000 0.0000 0.0000 0.0000
0.0000 95.0000 0.0000 0.0000 0.0000 0.0000 0.0000 0.0000 0.0000 0.0000 0.0000 0.0000 0.0000 0.0000 0.0000 0.0000 0.0000 0.0000 0.0000 0.0000 0.0000 0.0000 0.0000 0.0000 -71.8608 15.3237 21.0328 -3.6492 3.4449 -3.4255 0.0000 0.0000 0.0000 0.0000 0.0000 0.0000 0.0000 0.0000 0.0000 0.0000 0.0000 0.0000 0.0000 0.0000 0.0000 0.0000 0.0000 0.0000 0.0000 0.0000 0.0000 0.0000 0.0000 0.0000 0.0000 0.0000 0.0000 0.0000 0.0000 0.0000 0.0000 0.0000 0.0000 0.0000 0.0000 0.0000 0.0000 0.0000 0.0000 0.0000 0.0000 0.0000 0.0000 0.0000 0.0000 0.0000 0.0000 0.0000 0.0000 0.0000 0.0000 69.8536 -21.9495 31.0405 -92.1295 80.7592 -14.8619 3.8604 -26.4523 48.6525 -104.4919 -14.6170 20.9701 10.9242 0.0000 0.0000 33.0106 0.0000 0.0000 -10.4901 2.9578 12.3842 37.1559 0.0000 0.0000 28.9854 0.0000 0.0000 -26.1275 3.0262 17.7607 43.3469 0.0000 0.0000 29.7154 0.0000 0.0000 -34.3826 1.0215 18.0788 49.8967 0.0000 0.0000 21.1271 0.0000 0.0000 -48.7329 -0.9925 19.4260 40.8227 0.0000 0.0000 20.5265 0.0000 0.0000 0.0000 0.0000 0.0000 0.0000 0.0000 0.0000 0.0000 0.0000 0.0000 0.0000 0.0000 0.0000 0.0000 0.0000 0.0000 0.0000 0.0000 0.0000
0.0000 95.0000 0.0000 0.0000 0.0000 0.0000 0.0000 0.0000 0.0000 0.0000 0.0000 0.0000 0.0000 0.0000 0.0000 0.0000 0.0000 0.0000 0.0000 0.0000 0.0000 0.0000 0.0000 0.0000 -71.9936 15.5909 21.3447 -4.0074 4.2130 -4.3701 0.0000 0.0000 0.0000 0.0000 0.0000 0.0000 0.0000 0.0000 0.0000 0.0000 0.0000 0.0000 0.0000 0.0000 0.0000 0.0000 0.0000 0.0000 0.0000 0.0000 0.0000 0.0000 0.0000 0.0000 0.0000 0.0000 0.0000 0.0000 0.0000 0.0000 0.0000 0.0000 0.0000 0.0000 0.0000 0.0000 0.0000 0.0000 0.0000 0.0000 0.0000 0.0000 0.0000 0.0000 0.0000 0.0000 0.0000 0.0000 0.0000 0.0000 0.0000 71.7348 -20.8489 28.5527 -26.4665 76.4402 44.0794 -33.9595 -28.3201 30.7627 -73.2232 -14.8911 13.4389 5.9140 0.0000 0.0000 9.0183 0.0000 0.0000 -4.5140 3.8010 17.9670 18.5701 0.0000 0.0000 14.2483 0.0000 0.0000 -20.2245 3.6595 25.0823 20.8440 0.0000 0.0000 15.3749 0.0000 0.0000 -27.1901 0.9883 25.2850 26.6288 0.0000 0.0000 11.1464 0.0000 0.0000 -30.4082 -3.1589 29.7362 26.3963 0.0000 0.0000 10.5765 0.0000 0.0000 0.0000 0.0000 0.0000 0.0000 0.0000 0.0000 0.0000 0.0000 0.0000 0.0000 0.0000 0.0000 0.0000 0.0000 0.0000 0.0000 0.0000 0.0000
0.0000 95.0000 0.0000 0.0000 0.0000 0.0000 0.0000 0.0000 0.0000 0.0000 0.0000 0.0000 0.0000 0.0000 0.0000 0.0000 0.0000 0.0000 0.0000 0.0000 0.0000 0.0000 0.0000 0.0000 -74.2173 13.2287 17.4285 -4.1877 4.2698 -4.5579 0.0000 0.0000 0.0000 0.0000 0.0000 0.0000 0.0000 0.0000 0.0000 0.0000 0.0000 0.0000 0.0000 0.0000 0.0000 0.0000 0.0000 0.0000 0.0000 0.0000 0.0000 0.0000 0.0000 0.0000 0.0000 0.0000 0.0000 0.0000 0.0000 0.0000 0.0000 0.0000 0.0000 0.0000 0.0000 0.0000 0.0000 0.0000 0.0000 0.0000 0.0000 0.0000 0.0000 0.0000 0.0000 0.0000 0.0000 0.0000 0.0000 0.0000 0.0000 74.2602 -19.2027 25.1892 -1.8660 58.7763 55.7989 60.1657 -9.6861 -30.7901 -46.9471 -17.7153 32.6187 29.5604 0.0000 0.0000 6.5436 0.0000 0.0000 10.7726 3.4306 33.7925 82.6726 0.0000 0.0000 33.4421 0.0000 0.0000 0.6899 -0.2720 47.8062 80.5491 0.0000 0.0000 21.9416 0.0000 0.0000 -6.3365 -6.1158 63.1754 72.6347 0.0000 0.0000 15.2502 0.0000 0.0000 -21.7781 -12.9643 89.4417 47.1289 0.0000 0.0000 13.6006 0.0000 0.0000 0.0000 0.0000 0.0000 0.0000 0.0000 0.0000 0.0000 0.0000 0.0000 0.0000 0.0000 0.0000 0.0000 0.0000 0.0000 0.0000 0.0000 0.0000
0.0000 95.0000 0.0000 0.0000 0.0000 0.0000 0.0000 0.0000 0.0000 0.0000 0.0000 0.0000 0.0000 0.0000 0.0000 0.0000 0.0000 0.0000 0.0000 0.0000 0.0000 0.0000 0.0000 0.0000 -76.8874 8.3677 10.5299 -5.0275 2.4480 -2.3423 0.0000 0.0000 0.0000 0.0000 0.0000 0.0000 0.0000 0.0000 0.0000 0.0000 0.0000 0.0000 0.0000 0.0000 0.0000 0.0000 0.0000 0.0000 0.0000 0.0000 0.0000 0.0000 0.0000 0.0000 0.0000 0.0000 0.0000 0.0000 0.0000 0.0000 0.0000 0.0000 0.0000 0.0000 0.0000 0.0000 0.0000 0.0000 0.0000 0.0000 0.0000 0.0000 0.0000 0.0000 0.0000 0.0000 0.0000 0.0000 0.0000 0.0000 0.0000 79.2862 -14.2225 17.1258 11.9411 35.2334 47.9976 62.4066 47.8257 17.2467 -44.0695 -9.6606 -0.4324 10.1561 0.0000 0.0000 2.7650 0.0000 0.0000 -23.8484 11.3323 30.2509 82.8228 0.0000 0.0000 22.1065 0.0000 0.0000 -36.1440 14.1289 46.3637 70.8664 0.0000 0.0000 19.5576 0.0000 0.0000 -45.9833 12.0653 52.1842 70.0414 0.0000 0.0000 16.4327 0.0000 0.0000 -55.0975 7.8517 59.7065 62.2934 0.0000 0.0000 15.9069 0.0000 0.0000 0.0000 0.0000 0.0000 0.0000 0.0000 0.0000 0.0000 0.0000 0.0000 0.0000 0.0000 0.0000 0.0000 0.0000 0.0000 0.0000 0.0000 0.0000
0.0000 95.0000 0.0000 0.0000 0.0000 0.0000 0.0000 0.0000 0.0000 0.0000 0.0000 0.0000 0.0000 0.0000 0.0000 0.0000 0.0000 0.0000 0.0000 0.0000 0.0000 0.0000 0.0000 0.0000 -78.0189 4.9468 6.1047 -6.6414 0.1077 0.6291 0.0000 0.0000 0.0000 0.0000 0.0000 0.0000 0.0000 0.0000 0.0000 0.0000 0.0000 0.0000 0.0000 0.0000 0.0000 0.0000 0.0000 0.0000 0.0000 0.0000 0.0000 0.0000 0.0000 0.0000 0.0000 0.0000 0.0000 0.0000 0.0000 0.0000 0.0000 0.0000 0.0000 0.0000 0.0000 0.0000 0.0000 0.0000 0.0000 0.0000 0.0000 0.0000 0.0000 0.0000 0.0000 0.0000 0.0000 0.0000 0.0000 0.0000 0.0000 83.1583 -9.1738 10.3343 13.4808 16.4538 25.0810 76.6862 79.7884 51.9421 -44.0695 -9.6606 -0.4324 10.1561 0.0000 0.0000 2.7650 0.0000 0.0000 -23.8484 11.3323 30.2509 82.8228 0.0000 0.0000 22.1065 0.0000 0.0000 -36.1440 14.1289 46.3637 70.8664 0.0000 0.0000 19.5576 0.0000 0.0000 -45.9833 12.0653 52.1842 70.0414 0.0000 0.0000 16.4327 0.0000 0.0000 -55.0975 7.8517 59.7065 62.2934 0.0000 0.0000 15.9069 0.0000 0.0000 0.0000 0.0000 0.0000 0.0000 0.0000 0.0000 0.0000 0.0000 0.0000 0.0000 0.0000 0.0000 0.0000 0.0000 0.0000 0.0000 0.0000 0.0000
0.0000 95.0000 0.0000 0.0000 0.0000 0.0000 0.0000 0.0000 0.0000 0.0000 0.0000 0.0000 0.0000 0.0000 0.0000 0.0000 0.0000 0.0000 0.0000 0.0000 0.0000 0.0000 0.0000 0.0000 -78.0054 4.2066 5.1930 -7.8768 -2.4697 4.2930 0.0000 0.0000 0.0000 0.0000 0.0000 0.0000 0.0000 0.0000 0.0000 0.0000 0.0000 0.0000 0.0000 0.0000 0.0000 0.0000 0.0000 0.0000 0.0000 0.0000 0.0000 0.0000 0.0000 0.0000 0.0000 0.0000 0.0000 0.0000 0.0000 0.0000 0.0000 0.0000 0.0000 0.0000 0.0000 0.0000 0.0000 0.0000 0.0000 0.0000 0.0000 0.0000 0.0000 0.0000 0.0000 0.0000 0.0000 0.0000 0.0000 0.0000 0.0000 84.8927 -5.7576 6.2941 10.5249 9.4857 13.5506 154.1459 78.4275 140.8636 -44.0695 -9.6606 -0.4324 10.1561 0.0000 0.0000 2.7650 0.0000 0.0000 -23.8484 11.3323 30.2509 82.8228 0.0000 0.0000 22.1065 0.0000 0.0000 -36.1440 14.1289 46.3637 70.8664 0.0000 0.0000 19.5576 0.0000 0.0000 -45.9833 12.0653 52.1842 70.0414 0.0000 0.0000 16.4327 0.0000 0.0000 -55.0975 7.8517 59.7065 62.2934 0.0000 0.0000 15.9069 0.0000 0.0000 0.0000 0.0000 0.0000 0.0000 0.0000 0.0000 0.0000 0.0000 0.0000 0.0000 0.0000 0.0000 0.0000 0.0000 0.0000 0.0000 0.0000 0.0000
0.0000 95.0000 0.0000 0.0000 0.0000 0.0000 0.0000 0.0000 0.0000 0.0000 0.0000 0.0000 0.0000 0.0000 0.0000 0.0000 0.0000 0.0000 0.0000 0.0000 0.0000 0.0000 0.0000 0.0000 -78.0594 3.9093 4.8216 -8.6386 -4.5392 7.3186 0.0000 0.0000 0.0000 0.0000 0.0000 0.0000 0.0000 0.0000 0.0000 0.0000 0.0000 0.0000 0.0000 0.0000 0.0000 0.0000 0.0000 0.0000 0.0000 0.0000 0.0000 0.0000 0.0000 0.0000 0.0000 0.0000 0.0000 0.0000 0.0000 0.0000 0.0000 0.0000 0.0000 0.0000 0.0000 0.0000 0.0000 0.0000 0.0000 0.0000 0.0000 0.0000 0.0000 0.0000 0.0000 0.0000 0.0000 0.0000 0.0000 0.0000 0.0000 86.0772 -2.7679 2.9641 7.5682 6.7926 8.6888 163.4027 71.5950 156.7829 -44.0695 -9.6606 -0.4324 10.1561 0.0000 0.0000 2.7650 0.0000 0.0000 -23.8484 11.3323 30.2509 82.8228 0.0000 0.0000 22.1065 0.0000 0.0000 -36.1440 14.1289 46.3637 70.8664 0.0000 0.0000 19.5576 0.0000 0.0000 -45.9833 12.0653 52.1842 70.0414 0.0000 0.0000 16.4327 0.0000 0.0000 -55.0975 7.8517 59.7065 62.2934 0.0000 0.0000 15.9069 0.0000 0.0000 0.0000 0.0000 0.0000 0.0000 0.0000 0.0000 0.0000 0.0000 0.0000 0.0000 0.0000 0.0000 0.0000 0.0000 0.0000 0.0000 0.0000 0.0000
0.0000 95.0000 0.0000 0.0000 0.0000 0.0000 0.0000 0.0000 0.0000 0.0000 0.0000 0.0000 0.0000 0.0000 0.0000 0.0000 0.0000 0.0000 0.0000 0.0000 0.0000 0.0000 0.0000 0.0000 -78.1840 2.9974 3.6889 -9.9123 -4.8865 7.8926 0.0000 0.0000 0.0000 0.0000 0.0000 0.0000 0.0000 0.0000 0.0000 0.0000 0.0000 0.0000 0.0000 0.0000 0.0000 0.0000 0.0000 0.0000 0.0000 0.0000 0.0000 0.0000 0.0000 0.0000 0.0000 0.0000 0.0000 0.0000 0.0000 0.0000 0.0000 0.0000 0.0000 0.0000 0.0000 0.0000 0.0000 0.0000 0.0000 0.0000 0.0000 0.0000 0.0000 0.0000 0.0000 0.0000 0.0000 0.0000 0.0000 0.0000 0.0000 86.8858 -2.3771 2.5099 4.6651 7.3293 8.5751 157.5514 70.6213 151.6829 -44.0695 -9.6606 -0.4324 10.1561 0.0000 0.0000 2.7650 0.0000 0.0000 -23.8484 11.3323 30.2509 82.8228 0.0000 0.0000 22.1065 0.0000 0.0000 -36.1440 14.1289 46.3637 70.8664 0.0000 0.0000 19.5576 0.0000 0.0000 -45.9833 12.0653 52.1842 70.0414 0.0000 0.0000 16.4327 0.0000 0.0000 -55.0975 7.8517 59.7065 62.2934 0.0000 0.0000 15.9069 0.0000 0.0000 0.0000 0.0000 0.0000 0.0000 0.0000 0.0000 0.0000 0.0000 0.0000 0.0000 0.0000 0.0000 0.0000 0.0000 0.0000 0.0000 0.0000 0.0000
0.0000 95.0000 0.0000 0.0000 0.0000 0.0000 0.0000 0.0000 0.0000 0.0000 0.0000 0.0000 0.0000 0.0000 0.0000 0.0000 0.0000 0.0000 0.0000 0.0000 0.0000 0.0000 0.0000 0.0000 -78.2225 3.0411 3.7401 -10.3695 -5.3728 8.7107 0.0000 0.0000 0.0000 0.0000 0.0000 0.0000 0.0000 0.0000 0.0000 0.0000 0.0000 0.0000 0.0000 0.0000 0.0000 0.0000 0.0000 0.0000 0.0000 0.0000 0.0000 0.0000 0.0000 0.0000 0.0000 0.0000 0.0000 0.0000 0.0000 0.0000 0.0000 0.0000 0.0000 0.0000 0.0000 0.0000 0.0000 0.0000 0.0000 0.0000 0.0000 0.0000 0.0000 0.0000 0.0000 0.0000 0.0000 0.0000 0.0000 0.0000 0.0000 87.7349 -1.6695 1.7368 2.6956 7.2932 8.0157 156.0590 69.2511 151.4236 -44.0695 -9.6606 -0.4324 10.1561 0.0000 0.0000 2.7650 0.0000 0.0000 -23.8484 11.3323 30.2509 82.8228 0.0000 0.0000 22.1065 0.0000 0.0000 -36.1440 14.1289 46.3637 70.8664 0.0000 0.0000 19.5576 0.0000 0.0000 -45.9833 12.0653 52.1842 70.0414 0.0000 0.0000 16.4327 0.0000 0.0000 -55.0975 7.8517 59.7065 62.2934 0.0000 0.0000 15.9069 0.0000 0.0000 0.0000 0.0000 0.0000 0.0000 0.0000 0.0000 0.0000 0.0000 0.0000 0.0000 0.0000 0.0000 0.0000 0.0000 0.0000 0.0000 0.0000 0.0000
0.0000 95.0000 0.0000 0.0000 0.0000 0.0000 0.0000 0.0000 0.0000 0.0000 0.0000 0.0000 0.0000 0.0000 0.0000 0.0000 0.0000 0.0000 0.0000 0.0000 0.0000 0.0000 0.0000 0.0000 -78.1797 2.9372 3.6151 -11.0003 -5.6899 9.3112 0.0000 0.0000 0.0000 0.0000 0.0000 0.0000 0.0000 0.0000 0.0000 0.0000 0.0000 0.0000 0.0000 0.0000 0.0000 0.0000 0.0000 0.0000 0.0000 0.0000 0.0000 0.0000 0.0000 0.0000 0.0000 0.0000 0.0000 0.0000 0.0000 0.0000 0.0000 0.0000 0.0000 0.0000 0.0000 0.0000 0.0000 0.0000 0.0000 0.0000 0.0000 0.0000 0.0000 0.0000 0.0000 0.0000 0.0000 0.0000 0.0000 0.0000 0.0000 88.3602 -1.1386 1.1717 1.3783 7.2794 7.6890 155.2902 68.3406 151.4858 -44.0695 -9.6606 -0.4324 10.1561 0.0000 0.0000 2.7650 0.0000 0.0000 -23.8484 11.3323 30.2509 82.8228 0.0000 0.0000 22.1065 0.0000 0.0000 -36.1440 14.1289 46.3637 70.8664 0.0000 0.0000 19.5576 0.0000 0.0000 -45.9833 12.0653 52.1842 70.0414 0.0000 0.0000 16.4327 0.0000 0.0000 -55.0975 7.8517 59.7065 62.2934 0.0000 0.0000 15.9069 0.0000 0.0000 0.0000 0.0000 0.0000 0.0000 0.0000 0.0000 0.0000 0.0000 0.0000 0.0000 0.0000 0.0000 0.0000 0.0000 0.0000 0.0000 0.0000 0.0000
0.0000 95.0000 0.0000 0.0000 0.0000 0.0000 0.0000 0.0000 0.0000 0.0000 0.0000 0.0000 0.0000 0.0000 0.0000 0.0000 0.0000 0.0000 0.0000 0.0000 0.0000 0.0000 0.0000 0.0000 -78.2633 3.2619 4.0087 -10.6683 -6.0318 9.7970 0.0000 0.0000 0.0000 0.0000 0.0000 0.0000 0.0000 0.0000 0.0000 0.0000 0.0000 0.0000 0.0000 0.0000 0.0000 0.0000 0.0000 0.0000 0.0000 0.0000 0.0000 0.0000 0.0000 0.0000 0.0000 0.0000 0.0000 0.0000 0.0000 0.0000 0.0000 0.0000 0.0000 0.0000 0.0000 0.0000 0.0000 0.0000 0.0000 0.0000 0.0000 0.0000 0.0000 0.0000 0.0000 0.0000 0.0000 0.0000 0.0000 0.0000 0.0000 88.8049 -1.0777 1.1004 0.3583 7.7201 7.9268 153.4169 68.3109 149.5199 -44.0695 -9.6606 -0.4324 10.1561 0.0000 0.0000 2.7650 0.0000 0.0000 -23.8484 11.3323 30.2509 82.8228 0.0000 0.0000 22.1065 0.0000 0.0000 -36.1440 14.1289 46.3637 70.8664 0.0000 0.0000 19.5576 0.0000 0.0000 -45.9833 12.0653 52.1842 70.0414 0.0000 0.0000 16.4327 0.0000 0.0000 -55.0975 7.8517 59.7065 62.2934 0.0000 0.0000 15.9069 0.0000 0.0000 0.0000 0.0000 0.0000 0.0000 0.0000 0.0000 0.0000 0.0000 0.0000 0.0000 0.0000 0.0000 0.0000 0.0000 0.0000 0.0000 0.0000 0.0000
0.0000 95.0000 0.0000 0.0000 0.0000 0.0000 0.0000 0.0000 0.0000 0.0000 0.0000 0.0000 0.0000 0.0000 0.0000 0.0000 0.0000 0.0000 0.0000 0.0000 0.0000 0.0000 0.0000 0.0000 -78.4051 3.4216 4.1943 -10.4358 -6.1923 9.9819 0.0000 0.0000 0.0000 0.0000 0.0000 0.0000 0.0000 0.0000 0.0000 0.0000 0.0000 0.0000 0.0000 0.0000 0.0000 0.0000 0.0000 0.0000 0.0000 0.0000 0.0000 0.0000 0.0000 0.0000 0.0000 0.0000 0.0000 0.0000 0.0000 0.0000 0.0000 0.0000 0.0000 0.0000 0.0000 0.0000 0.0000 0.0000 0.0000 0.0000 0.0000 0.0000 0.0000 0.0000 0.0000 0.0000 0.0000 0.0000 0.0000 0.0000 0.0000 89.3450 -1.0581 1.0703 -0.5898 7.9931 7.9795 152.1931 68.2345 148.2778 -44.0695 -9.6606 -0.4324 10.1561 0.0000 0.0000 2.7650 0.0000 0.0000 -23.8484 11.3323 30.2509 82.8228 0.0000 0.0000 22.1065 0.0000 0.0000 -36.1440 14.1289 46.3637 70.8664 0.0000 0.0000 19.5576 0.0000 0.0000 -45.9833 12.0653 52.1842 70.0414 0.0000 0.0000 16.4327 0.0000 0.0000 -55.0975 7.8517 59.7065 62.2934 0.0000 0.0000 15.9069 0.0000 0.0000 0.0000 0.0000 0.0000 0.0000 0.0000 0.0000 0.0000 0.0000 0.0000 0.0000 0.0000 0.0000 0.0000 0.0000 0.0000 0.0000 0.0000 0.0000
0.0000 95.0000 0.0000 0.0000 0.0000 0.0000 0.0000 0.0000 0.0000 0.0000 0.0000 0.0000 0.0000 0.0000 0.0000 0.0000 0.0000 0.0000 0.0000 0.0000 0.0000 0.0000 0.0000 0.0000 -78.6684 2.7552 3.3617 -10.2647 -6.6169 10.3544 0.0000 0.0000 0.0000 0.0000 0.0000 0.0000 0.0000 0.0000 0.0000 0.0000 0.0000 0.0000 0.0000 0.0000 0.0000 0.0000 0.0000 0.0000 0.0000 0.0000 0.0000 0.0000 0.0000 0.0000 0.0000 0.0000 0.0000 0.0000 0.0000 0.0000 0.0000 0.0000 0.0000 0.0000 0.0000 0.0000 0.0000 0.0000 0.0000 0.0000 0.0000 0.0000 0.0000 0.0000 0.0000 0.0000 0.0000 0.0000 0.0000 0.0000 0.0000 89.5790 -0.8988 0.9054 -0.8807 8.3220 8.2316 151.7737 68.2944 147.7670 -44.0695 -9.6606 -0.4324 10.1561 0.0000 0.0000 2.7650 0.0000 0.0000 -23.8484 11.3323 30.2509 82.8228 0.0000 0.0000 22.1065 0.0000 0.0000 -36.1440 14.1289 46.3637 70.8664 0.0000 0.0000 19.5576 0.0000 0.0000 -45.9833 12.0653 52.1842 70.0414 0.0000 0.0000 16.4327 0.0000 0.0000 -55.0975 7.8517 59.7065 62.2934 0.0000 0.0000 15.9069 0.0000 0.0000 0.0000 0.0000 0.0000 0.0000 0.0000 0.0000 0.0000 0.0000 0.0000 0.0000 0.0000 0.0000 0.0000 0.0000 0.0000 0.0000 0.0000 0.0000
