HIERARCHY
ROOT Hips
{
  OFFSET 0.000000 95.000000 0.000000
  CHANNELS 6 Xposition Yposition Zposition Zrotation Xrotation Yrotation
  JOINT Spine
  {
    OFFSET 0.000000 10.000000 0.000000
    CHANNELS 3 Zrotation Xrotation Yrotation
    JOINT Spine1
    {
      OFFSET 0.000000 12.000000 0.000000
      CHANNELS 3 Zrotation Xrotation Yrotation
      JOINT Spine2
      {
        OFFSET 0.000000 12.000000 0.000000
        CHANNELS 3 Zrotation Xrotation Yrotation
        JOINT Neck
        {
          OFFSET 0.000000 10.000000 0.000000
          CHANNELS 3 Zrotation Xrotation Yrotation
          JOINT Head
          {
            OFFSET 0.000000 8.000000 0.000000
            CHANNELS 3 Zrotation Xrotation Yrotation
            End Site
            {
              OFFSET 0.000000 10.000000 0.000000
            }
          }
        }
        JOINT LeftShoulder
        {
          OFFSET 6.000000 8.000000 0.000000
          CHANNELS 3 Zrotation Xrotation Yrotation
          JOINT LeftArm
          {
            OFFSET 12.000000 0.000000 0.000000
            CHANNELS 3 Zrotation Xrotation Yrotation
            JOINT LeftForeArm
            {
              OFFSET 24.000000 0.000000 0.000000
              CHANNELS 3 Zrotation Xrotation Yrotation
              JOINT LeftHand
              {
                OFFSET 22.000000 0.000000 0.000000
                CHANNELS 3 Zrotation Xrotation Yrotation
                JOINT LeftHandThumb1
                {
                  OFFSET 1.800000 -1.400000 0.500000
                  CHANNELS 3 Zrotation Xrotation Yrotation
                  JOINT LeftHandThumb2
                  {
                    OFFSET 2.400000 0.000000 0.000000
                    CHANNELS 3 Zrotation Xrotation Yrotation
                    JOINT LeftHandThumb3
                    {
                      OFFSET 1.900000 0.000000 0.000000
                      CHANNELS 3 Zrotation Xrotation Yrotation
                      End Site
                      {
                        OFFSET 1.600000 0.000000 0.000000
                      }
                    }
                  }
                }
                JOINT LeftHandIndex1
                {
                  OFFSET 6.600000 1.200000 0.300000
                  CHANNELS 3 Zrotation Xrotation Yrotation
                  JOINT LeftHandIndex2
                  {
                    OFFSET 2.000000 0.000000 0.000000
                    CHANNELS 3 Zrotation Xrotation Yrotation
                    JOINT LeftHandIndex3
                    {
                      OFFSET 1.200000 0.000000 0.000000
                      CHANNELS 3 Zrotation Xrotation Yrotation
                      End Site
                      {
                        OFFSET 1.000000 0.000000 0.000000
                      }
                    }
                  }
                }
                JOINT LeftHandMiddle1
                {
                  OFFSET 7.200000 0.000000 0.300000
                  CHANNELS 3 Zrotation Xrotation Yrotation
                  JOINT LeftHandMiddle2
                  {
                    OFFSET 3.000000 0.000000 0.000000
                    CHANNELS 3 Zrotation Xrotation Yrotation
                    JOINT LeftHandMiddle3
                    {
                      OFFSET 2.000000 0.000000 0.000000
                      CHANNELS 3 Zrotation Xrotation Yrotation
                      End Site
                      {
                        OFFSET 1.600000 0.000000 0.000000
                      }
                    }
                  }
                }
                JOINT LeftHandRing1
                {
                  OFFSET 7.100000 -1.000000 0.400000
                  CHANNELS 3 Zrotation Xrotation Yrotation
                  JOINT LeftHandRing2
                  {
                    OFFSET 2.600000 0.000000 0.000000
                    CHANNELS 3 Zrotation Xrotation Yrotation
                    JOINT LeftHandRing3
                    {
                      OFFSET 1.600000 0.000000 0.000000
                      CHANNELS 3 Zrotation Xrotation Yrotation
                      End Site
                      {
                        OFFSET 1.300000 0.000000 0.000000
                      }
                    }
                  }
                }
                JOINT LeftHandPinky1
                {
                  OFFSET 6.500000 -2.000000 0.500000
                  CHANNELS 3 Zrotation Xrotation Yrotation
                  JOINT LeftHandPinky2
                  {
                    OFFSET 1.900000 0.000000 0.000000
                    CHANNELS 3 Zrotation Xrotation Yrotation
                    JOINT LeftHandPinky3
                    {
                      OFFSET 1.400000 0.000000 0.000000
                      CHANNELS 3 Zrotation Xrotation Yrotation
                      End Site
                      {
                        OFFSET 1.300000 0.000000 0.000000
                      }
                    }
                  }
                }
              }
            }
          }
        }
        JOINT RightShoulder
        {
          OFFSET -6.000000 8.000000 0.000000
          CHANNELS 3 Zrotation Xrotation Yrotation
          JOINT RightArm
          {
            OFFSET -12.000000 0.000000 0.000000
            CHANNELS 3 Zrotation Xrotation Yrotation
            JOINT RightForeArm
            {
              OFFSET -24.000000 0.000000 0.000000
              CHANNELS 3 Zrotation Xrotation Yrotation
              JOINT RightHand
              {
                OFFSET -22.000000 0.000000 0.000000
                CHANNELS 3 Zrotation Xrotation Yrotation
                JOINT RightHandThumb1
                {
                  OFFSET -1.800000 -1.400000 0.500000
                  CHANNELS 3 Zrotation Xrotation Yrotation
                  JOINT RightHandThumb2
                  {
                    OFFSET -2.400000 0.000000 0.000000
                    CHANNELS 3 Zrotation Xrotation Yrotation
                    JOINT RightHandThumb3
                    {
                      OFFSET -1.900000 0.000000 0.000000
                      CHANNELS 3 Zrotation Xrotation Yrotation
                      End Site
                      {
                        OFFSET -1.600000 0.000000 0.000000
                      }
                    }
                  }
                }
                JOINT RightHandIndex1
                {
                  OFFSET -6.600000 1.200000 0.300000
                  CHANNELS 3 Zrotation Xrotation Yrotation
                  JOINT RightHandIndex2
                  {
                    OFFSET -2.000000 0.000000 0.000000
                    CHANNELS 3 Zrotation Xrotation Yrotation
                    JOINT RightHandIndex3
                    {
                      OFFSET -1.200000 0.000000 0.000000
                      CHANNELS 3 Zrotation Xrotation Yrotation
                      End Site
                      {
                        OFFSET -1.000000 0.000000 0.000000
                      }
                    }
                  }
                }
                JOINT RightHandMiddle1
                {
                  OFFSET -7.200000 0.000000 0.300000
                  CHANNELS 3 Zrotation Xrotation Yrotation
                  JOINT RightHandMiddle2
                  {
                    OFFSET -3.000000 0.000000 0.000000
                    CHANNELS 3 Zrotation Xrotation Yrotation
                    JOINT RightHandMiddle3
                    {
                      OFFSET -2.000000 0.000000 0.000000
                      CHANNELS 3 Zrotation Xrotation Yrotation
                      End Site
                      {
                        OFFSET -1.600000 0.000000 0.000000
                      }
                    }
                  }
                }
                JOINT RightHandRing1
                {
                  OFFSET -7.100000 -1.000000 0.400000
                  CHANNELS 3 Zrotation Xrotation Yrotation
                  JOINT RightHandRing2
                  {
                    OFFSET -2.600000 0.000000 0.000000
                    CHANNELS 3 Zrotation Xrotation Yrotation
                    JOINT RightHandRing3
                    {
                      OFFSET -1.600000 0.000000 0.000000
                      CHANNELS 3 Zrotation Xrotation Yrotation
                      End Site
                      {
                        OFFSET -1.300000 0.000000 0.000000
                      }
                    }
                  }
                }
                JOINT RightHandPinky1
                {
                  OFFSET -6.500000 -2.000000 0.500000
                  CHANNELS 3 Zrotation Xrotation Yrotation
                  JOINT RightHandPinky2
                  {
                    OFFSET -1.900000 0.000000 0.000000
                    CHANNELS 3 Zrotation Xrotation Yrotation
                    JOINT RightHandPinky3
                    {
                      OFFSET -1.400000 0.000000 0.000000
                      CHANNELS 3 Zrotation Xrotation Yrotation
                      End Site
                      {
                        OFFSET -1.300000 0.000000 0.000000
                      }
                    }
                  }
                }
              }
            }
          }
        }
      }
    }
  }
  JOINT LeftUpLeg
  {
    OFFSET 10.000000 -5.000000 0.000000
    CHANNELS 3 Zrotation Xrotation Yrotation
    JOINT LeftLeg
    {
      OFFSET 0.000000 -42.000000 0.000000
      CHANNELS 3 Zrotation Xrotation Yrotation
      JOINT LeftFoot
      {
        OFFSET 0.000000 -42.000000 4.000000
        CHANNELS 3 Zrotation Xrotation Yrotation
        End Site
        {
          OFFSET 0.000000 0.000000 12.000000
        }
      }
    }
  }
  JOINT RightUpLeg
  {
    OFFSET -10.000000 -5.000000 0.000000
    CHANNELS 3 Zrotation Xrotation Yrotation
    JOINT RightLeg
    {
      OFFSET 0.000000 -42.000000 0.000000
      CHANNELS 3 Zrotation Xrotation Yrotation
      JOINT RightFoot
      {
        OFFSET 0.000000 -42.000000 4.000000
        CHANNELS 3 Zrotation Xrotation Yrotation
        End Site
        {
          OFFSET 0.000000 0.000000 12.000000
        }
      }
    }
  }
}
MOTION
Frames: 60
Frame Time: 0.033333
0.0000 95.0000 0.0000 0.0000 0.0000 0.0000 0.0000 0.0000 0.0000 0.0000 0.0000 0.0000 0.0000 0.0000 0.0000 0.0000 0.0000 0.0000 0.0000 0.0000 0.0000 0.0000 0.0000 0.0000 -75.5834 -3.3216 -4.2827 -14.2196 -6.5693 9.7719 0.0000 0.0000 0.0000 0.0000 0.0000 0.0000 0.0000 0.0000 0.0000 0.0000 0.0000 0.0000 0.0000 0.0000 0.0000 0.0000 0.0000 0.0000 0.0000 0.0000 0.0000 0.0000 0.0000 0.0000 0.0000 0.0000 0.0000 0.0000 0.0000 0.0000 0.0000 0.0000 0.0000 0.0000 0.0000 0.0000 0.0000 0.0000 0.0000 0.0000 0.0000 0.0000 0.0000 0.0000 0.0000 0.0000 0.0000 0.0000 0.0000 0.0000 0.0000 85.4847 -2.8844 3.1210 -3.5594 10.0581 9.9797 30.9677 35.3644 157.5376 -44.5854 -9.5696 -1.1598 43.7533 0.0000 0.0000 32.2418 0.0000 0.0000 16.5435 0.9779 6.8302 9.4936 0.0000 0.0000 1.6231 0.0000 0.0000 36.1408 -0.1708 5.2953 149.9547 0.0000 0.0000 23.6275 0.0000 0.0000 21.5348 -0.8986 6.3530 158.6264 0.0000 0.0000 11.2627 0.0000 0.0000 1.3148 -3.0776 9.9673 153.8391 0.0000 0.0000 8.5784 0.0000 0.0000 0.0000 0.0000 0.0000 0.0000 0.0000 0.0000 0.0000 0.0000 0.0000 0.0000 0.0000 0.0000 0.0000 0.0000 0.0000 0.0000 0.0000 0.0000
0.0000 95.0000 0.0000 0.0000 0.0000 0.0000 0.0000 0.0000 0.0000 0.0000 0.0000 0.0000 0.0000 0.0000 0.0000 0.0000 0.0000 0.0000 0.0000 0.0000 0.0000 0.0000 0.0000 0.0000 -75.6442 -3.2946 -4.2432 -14.3803 -6.4618 9.6066 0.0000 0.0000 0.0000 0.0000 0.0000 0.0000 0.0000 0.0000 0.0000 0.0000 0.0000 0.0000 0.0000 0.0000 0.0000 0.0000 0.0000 0.0000 0.0000 0.0000 0.0000 0.0000 0.0000 0.0000 0.0000 0.0000 0.0000 0.0000 0.0000 0.0000 0.0000 0.0000 0.0000 0.0000 0.0000 0.0000 0.0000 0.0000 0.0000 0.0000 0.0000 0.0000 0.0000 0.0000 0.0000 0.0000 0.0000 0.0000 0.0000 0.0000 0.0000 85.5089 -2.9898 3.2337 -3.4849 10.1045 10.0298 31.0102 35.5227 157.3840 -44.5854 -9.5696 -1.1598 43.7533 0.0000 0.0000 32.2418 0.0000 0.0000 16.5435 0.9779 6.8302 9.4936 0.0000 0.0000 1.6231 0.0000 0.0000 36.1408 -0.1708 5.2953 149.9547 0.0000 0.0000 23.6275 0.0000 0.0000 21.5348 -0.8986 6.3530 158.6264 0.0000 0.0000 11.2627 0.0000 0.0000 1.3148 -3.0776 9.9673 153.8391 0.0000 0.0000 8.5784 0.0000 0.0000 0.0000 0.0000 0.0000 0.0000 0.0000 0.0000 0.0000 0.0000 0.0000 0.0000 0.0000 0.0000 0.0000 0.0000 0.0000 0.0000 0.0000 0.0000
0.0000 95.0000 0.0000 0.0000 0.0000 0.0000 0.0000 0.0000 0.0000 0.0000 0.0000 0.0000 0.0000 0.0000 0.0000 0.0000 0.0000 0.0000 0.0000 0.0000 0.0000 0.0000 0.0000 0.0000 -75.7485 -3.1318 -4.0260 -14.3959 -6.3277 9.4274 0.0000 0.0000 0.0000 0.0000 0.0000 0.0000 0.0000 0.0000 0.0000 0.0000 0.0000 0.0000 0.0000 0.0000 0.0000 0.0000 0.0000 0.0000 0.0000 0.0000 0.0000 0.0000 0.0000 0.0000 0.0000 0.0000 0.0000 0.0000 0.0000 0.0000 0.0000 0.0000 0.0000 0.0000 0.0000 0.0000 0.0000 0.0000 0.0000 0.0000 0.0000 0.0000 0.0000 0.0000 0.0000 0.0000 0.0000 0.0000 0.0000 0.0000 0.0000 85.5313 -3.0487 3.2961 -3.2499 10.0522 10.0220 31.3072 35.6189 157.4957 -44.5854 -9.5696 -1.1598 43.7533 0.0000 0.0000 32.2418 0.0000 0.0000 16.5435 0.9779 6.8302 9.4936 0.0000 0.0000 1.6231 0.0000 0.0000 36.1408 -0.1708 5.2953 149.9547 0.0000 0.0000 23.6275 0.0000 0.0000 21.5348 -0.8986 6.3530 158.6264 0.0000 0.0000 11.2627 0.0000 0.0000 1.3148 -3.0776 9.9673 153.8391 0.0000 0.0000 8.5784 0.0000 0.0000 0.0000 0.0000 0.0000 0.0000 0.0000 0.0000 0.0000 0.0000 0.0000 0.0000 0.0000 0.0000 0.0000 0.0000 0.0000 0.0000 0.0000 0.0000
0.0000 95.0000 0.0000 0.0000 0.0000 0.0000 0.0000 0.0000 0.0000 0.0000 0.0000 0.0000 0.0000 0.0000 0.0000 0.0000 0.0000 0.0000 0.0000 0.0000 0.0000 0.0000 0.0000 0.0000 -75.8281 -2.5540 -3.2787 -14.1188 -6.4773 9.8578 0.0000 0.0000 0.0000 0.0000 0.0000 0.0000 0.0000 0.0000 0.0000 0.0000 0.0000 0.0000 0.0000 0.0000 0.0000 0.0000 0.0000 0.0000 0.0000 0.0000 0.0000 0.0000 0.0000 0.0000 0.0000 0.0000 0.0000 0.0000 0.0000 0.0000 0.0000 0.0000 0.0000 0.0000 0.0000 0.0000 0.0000 0.0000 0.0000 0.0000 0.0000 0.0000 0.0000 0.0000 0.0000 0.0000 0.0000 0.0000 0.0000 0.0000 0.0000 85.4904 -3.1194 3.3750 -2.6217 9.5252 9.6310 32.2564 35.4656 158.3838 -44.5854 -9.5696 -1.1598 43.7533 0.0000 0.0000 32.2418 0.0000 0.0000 16.5435 0.9779 6.8302 9.4936 0.0000 0.0000 1.6231 0.0000 0.0000 36.1408 -0.1708 5.2953 149.9547 0.0000 0.0000 23.6275 0.0000 0.0000 21.5348 -0.8986 6.3530 158.6264 0.0000 0.0000 11.2627 0.0000 0.0000 1.3148 -3.0776 9.9673 153.8391 0.0000 0.0000 8.5784 0.0000 0.0000 0.0000 0.0000 0.0000 0.0000 0.0000 0.0000 0.0000 0.0000 0.0000 0.0000 0.0000 0.0000 0.0000 0.0000 0.0000 0.0000 0.0000 0.0000
0.0000 95.0000 0.0000 0.0000 0.0000 0.0000 0.0000 0.0000 0.0000 0.0000 0.0000 0.0000 0.0000 0.0000 0.0000 0.0000 0.0000 0.0000 0.0000 0.0000 0.0000 0.0000 0.0000 0.0000 -75.9127 -2.0989 -2.6904 -13.7746 -5.8289 8.8890 0.0000 0.0000 0.0000 0.0000 0.0000 0.0000 0.0000 0.0000 0.0000 0.0000 0.0000 0.0000 0.0000 0.0000 0.0000 0.0000 0.0000 0.0000 0.0000 0.0000 0.0000 0.0000 0.0000 0.0000 0.0000 0.0000 0.0000 0.0000 0.0000 0.0000 0.0000 0.0000 0.0000 0.0000 0.0000 0.0000 0.0000 0.0000 0.0000 0.0000 0.0000 0.0000 0.0000 0.0000 0.0000 0.0000 0.0000 0.0000 0.0000 0.0000 0.0000 85.2498 -3.1915 3.4676 -2.6352 9.6485 9.7892 31.8420 35.5877 157.9339 -44.5854 -9.5696 -1.1598 43.7533 0.0000 0.0000 32.2418 0.0000 0.0000 16.5435 0.9779 6.8302 9.4936 0.0000 0.0000 1.6231 0.0000 0.0000 36.1408 -0.1708 5.2953 149.9547 0.0000 0.0000 23.6275 0.0000 0.0000 21.5348 -0.8986 6.3530 158.6264 0.0000 0.0000 11.2627 0.0000 0.0000 1.3148 -3.0776 9.9673 153.8391 0.0000 0.0000 8.5784 0.0000 0.0000 0.0000 0.0000 0.0000 0.0000 0.0000 0.0000 0.0000 0.0000 0.0000 0.0000 0.0000 0.0000 0.0000 0.0000 0.0000 0.0000 0.0000 0.0000
0.0000 95.0000 0.0000 0.0000 0.0000 0.0000 0.0000 0.0000 0.0000 0.0000 0.0000 0.0000 0.0000 0.0000 0.0000 0.0000 0.0000 0.0000 0.0000 0.0000 0.0000 0.0000 0.0000 0.0000 -75.9383 -1.7159 -2.1986 -13.3338 -5.1091 7.7835 0.0000 0.0000 0.0000 0.0000 0.0000 0.0000 0.0000 0.0000 0.0000 0.0000 0.0000 0.0000 0.0000 0.0000 0.0000 0.0000 0.0000 0.0000 0.0000 0.0000 0.0000 0.0000 0.0000 0.0000 0.0000 0.0000 0.0000 0.0000 0.0000 0.0000 0.0000 0.0000 0.0000 0.0000 0.0000 0.0000 0.0000 0.0000 0.0000 0.0000 0.0000 0.0000 0.0000 0.0000 0.0000 0.0000 0.0000 0.0000 0.0000 0.0000 0.0000 84.8630 -3.1297 3.4235 -2.2136 9.9766 10.2978 31.6385 35.8896 157.4300 -44.5854 -9.5696 -1.1598 43.7533 0.0000 0.0000 32.2418 0.0000 0.0000 16.5435 0.9779 6.8302 9.4936 0.0000 0.0000 1.6231 0.0000 0.0000 36.1408 -0.1708 5.2953 149.9547 0.0000 0.0000 23.6275 0.0000 0.0000 21.5348 -0.8986 6.3530 158.6264 0.0000 0.0000 11.2627 0.0000 0.0000 1.3148 -3.0776 9.9673 153.8391 0.0000 0.0000 8.5784 0.0000 0.0000 0.0000 0.0000 0.0000 0.0000 0.0000 0.0000 0.0000 0.0000 0.0000 0.0000 0.0000 0.0000 0.0000 0.0000 0.0000 0.0000 0.0000 0.0000
0.0000 95.0000 0.0000 0.0000 0.0000 0.0000 0.0000 0.0000 0.0000 0.0000 0.0000 0.0000 0.0000 0.0000 0.0000 0.0000 0.0000 0.0000 0.0000 0.0000 0.0000 0.0000 0.0000 0.0000 -76.2163 -1.7273 -2.2021 -12.7939 -4.4800 6.6611 0.0000 0.0000 0.0000 0.0000 0.0000 0.0000 0.0000 0.0000 0.0000 0.0000 0.0000 0.0000 0.0000 0.0000 0.0000 0.0000 0.0000 0.0000 0.0000 0.0000 0.0000 0.0000 0.0000 0.0000 0.0000 0.0000 0.0000 0.0000 0.0000 0.0000 0.0000 0.0000 0.0000 0.0000 0.0000 0.0000 0.0000 0.0000 0.0000 0.0000 0.0000 0.0000 0.0000 0.0000 0.0000 0.0000 0.0000 0.0000 0.0000 0.0000 0.0000 84.2134 -2.9111 3.2208 -0.3919 10.8487 11.8126 32.3052 36.9804 156.6740 -44.5854 -9.5696 -1.1598 43.7533 0.0000 0.0000 32.2418 0.0000 0.0000 16.5435 0.9779 6.8302 9.4936 0.0000 0.0000 1.6231 0.0000 0.0000 36.1408 -0.1708 5.2953 149.9547 0.0000 0.0000 23.6275 0.0000 0.0000 21.5348 -0.8986 6.3530 158.6264 0.0000 0.0000 11.2627 0.0000 0.0000 1.3148 -3.0776 9.9673 153.8391 0.0000 0.0000 8.5784 0.0000 0.0000 0.0000 0.0000 0.0000 0.0000 0.0000 0.0000 0.0000 0.0000 0.0000 0.0000 0.0000 0.0000 0.0000 0.0000 0.0000 0.0000 0.0000 0.0000
0.0000 95.0000 0.0000 0.0000 0.0000 0.0000 0.0000 0.0000 0.0000 0.0000 0.0000 0.0000 0.0000 0.0000 0.0000 0.0000 0.0000 0.0000 0.0000 0.0000 0.0000 0.0000 0.0000 0.0000 -76.3421 -1.3880 -1.7656 -12.0261 -4.2441 6.3111 0.0000 0.0000 0.0000 0.0000 0.0000 0.0000 0.0000 0.0000 0.0000 0.0000 0.0000 0.0000 0.0000 0.0000 0.0000 0.0000 0.0000 0.0000 0.0000 0.0000 0.0000 0.0000 0.0000 0.0000 0.0000 0.0000 0.0000 0.0000 0.0000 0.0000 0.0000 0.0000 0.0000 0.0000 0.0000 0.0000 0.0000 0.0000 0.0000 0.0000 0.0000 0.0000 0.0000 0.0000 0.0000 0.0000 0.0000 0.0000 0.0000 0.0000 0.0000 83.0517 -4.8984 5.5307 -0.4194 15.1756 16.6654 25.8924 41.7050 145.7486 -44.5854 -9.5696 -1.1598 43.7533 0.0000 0.0000 32.2418 0.0000 0.0000 16.5435 0.9779 6.8302 9.4936 0.0000 0.0000 1.6231 0.0000 0.0000 36.1408 -0.1708 5.2953 149.9547 0.0000 0.0000 23.6275 0.0000 0.0000 21.5348 -0.8986 6.3530 158.6264 0.0000 0.0000 11.2627 0.0000 0.0000 1.3148 -3.0776 9.9673 153.8391 0.0000 0.0000 8.5784 0.0000 0.0000 0.0000 0.0000 0.0000 0.0000 0.0000 0.0000 0.0000 0.0000 0.0000 0.0000 0.0000 0.0000 0.0000 0.0000 0.0000 0.0000 0.0000 0.0000
0.0000 95.0000 0.0000 0.0000 0.0000 0.0000 0.0000 0.0000 0.0000 0.0000 0.0000 0.0000 0.0000 0.0000 0.0000 0.0000 0.0000 0.0000 0.0000 0.0000 0.0000 0.0000 0.0000 0.0000 -76.4500 0.5665 0.7192 -10.7950 -3.0143 4.8272 0.0000 0.0000 0.0000 0.0000 0.0000 0.0000 0.0000 0.0000 0.0000 0.0000 0.0000 0.0000 0.0000 0.0000 0.0000 0.0000 0.0000 0.0000 0.0000 0.0000 0.0000 0.0000 0.0000 0.0000 0.0000 0.0000 0.0000 0.0000 0.0000 0.0000 0.0000 0.0000 0.0000 0.0000 0.0000 0.0000 0.0000 0.0000 0.0000 0.0000 0.0000 0.0000 0.0000 0.0000 0.0000 0.0000 0.0000 0.0000 0.0000 0.0000 0.0000 81.2714 -8.5476 9.9535 0.5151 30.3328 33.5058 -1.3381 47.5551 106.5373 -44.5854 -9.5696 -1.1598 43.7533 0.0000 0.0000 32.2418 0.0000 0.0000 16.5435 0.9779 6.8302 9.4936 0.0000 0.0000 1.6231 0.0000 0.0000 36.1408 -0.1708 5.2953 149.9547 0.0000 0.0000 23.6275 0.0000 0.0000 21.5348 -0.8986 6.3530 158.6264 0.0000 0.0000 11.2627 0.0000 0.0000 1.3148 -3.0776 9.9673 153.8391 0.0000 0.0000 8.5784 0.0000 0.0000 0.0000 0.0000 0.0000 0.0000 0.0000 0.0000 0.0000 0.0000 0.0000 0.0000 0.0000 0.0000 0.0000 0.0000 0.0000 0.0000 0.0000 0.0000
0.0000 95.0000 0.0000 0.0000 0.0000 0.0000 0.0000 0.0000 0.0000 0.0000 0.0000 0.0000 0.0000 0.0000 0.0000 0.0000 0.0000 0.0000 0.0000 0.0000 0.0000 0.0000 0.0000 0.0000 -76.0254 4.2678 5.4585 -8.8185 0.0585 0.8728 0.0000 0.0000 0.0000 0.0000 0.0000 0.0000 0.0000 0.0000 0.0000 0.0000 0.0000 0.0000 0.0000 0.0000 0.0000 0.0000 0.0000 0.0000 0.0000 0.0000 0.0000 0.0000 0.0000 0.0000 0.0000 0.0000 0.0000 0.0000 0.0000 0.0000 0.0000 0.0000 0.0000 0.0000 0.0000 0.0000 0.0000 0.0000 0.0000 0.0000 0.0000 0.0000 0.0000 0.0000 0.0000 0.0000 0.0000 0.0000 0.0000 0.0000 0.0000 78.6305 -12.1355 14.7916 -0.9229 50.1085 51.7856 -30.9901 31.1648 68.4650 -44.5854 -9.5696 -1.1598 43.7533 0.0000 0.0000 32.2418 0.0000 0.0000 16.5435 0.9779 6.8302 9.4936 0.0000 0.0000 1.6231 0.0000 0.0000 36.1408 -0.1708 5.2953 149.9547 0.0000 0.0000 23.6275 0.0000 0.0000 21.5348 -0.8986 6.3530 158.6264 0.0000 0.0000 11.2627 0.0000 0.0000 1.3148 -3.0776 9.9673 153.8391 0.0000 0.0000 8.5784 0.0000 0.0000 0.0000 0.0000 0.0000 0.0000 0.0000 0.0000 0.0000 0.0000 0.0000 0.0000 0.0000 0.0000 0.0000 0.0000 0.0000 0.0000 0.0000 0.0000
0.0000 95.0000 0.0000 0.0000 0.0000 0.0000 0.0000 0.0000 0.0000 0.0000 0.0000 0.0000 0.0000 0.0000 0.0000 0.0000 0.0000 0.0000 0.0000 0.0000 0.0000 0.0000 0.0000 0.0000 -74.8972 7.8859 10.2848 -7.2494 1.0810 -0.1304 0.0000 0.0000 0.0000 0.0000 0.0000 0.0000 0.0000 0.0000 0.0000 0.0000 0.0000 0.0000 0.0000 0.0000 0.0000 0.0000 0.0000 0.0000 0.0000 0.0000 0.0000 0.0000 0.0000 0.0000 0.0000 0.0000 0.0000 0.0000 0.0000 0.0000 0.0000 0.0000 0.0000 0.0000 0.0000 0.0000 0.0000 0.0000 0.0000 0.0000 0.0000 0.0000 0.0000 0.0000 0.0000 0.0000 0.0000 0.0000 0.0000 0.0000 0.0000 76.3001 -14.4054 18.2795 -5.8601 69.0843 63.0992 -42.2876 6.5588 54.6321 -44.5854 -9.5696 -1.1598 43.7533 0.0000 0.0000 32.2418 0.0000 0.0000 16.5435 0.9779 6.8302 9.4936 0.0000 0.0000 1.6231 0.0000 0.0000 36.1408 -0.1708 5.2953 149.9547 0.0000 0.0000 23.6275 0.0000 0.0000 21.5348 -0.8986 6.3530 158.6264 0.0000 0.0000 11.2627 0.0000 0.0000 1.3148 -3.0776 9.9673 153.8391 0.0000 0.0000 8.5784 0.0000 0.0000 0.0000 0.0000 0.0000 0.0000 0.0000 0.0000 0.0000 0.0000 0.0000 0.0000 0.0000 0.0000 0.0000 0.0000 0.0000 0.0000 0.0000 0.0000
0.0000 95.0000 0.0000 0.0000 0.0000 0.0000 0.0000 0.0000 0.0000 0.0000 0.0000 0.0000 0.0000 0.0000 0.0000 0.0000 0.0000 0.0000 0.0000 0.0000 0.0000 0.0000 0.0000 0.0000 -74.0885 9.2457 12.2297 -5.7538 1.2861 -0.5041 0.0000 0.0000 0.0000 0.0000 0.0000 0.0000 0.0000 0.0000 0.0000 0.0000 0.0000 0.0000 0.0000 0.0000 0.0000 0.0000 0.0000 0.0000 0.0000 0.0000 0.0000 0.0000 0.0000 0.0000 0.0000 0.0000 0.0000 0.0000 0.0000 0.0000 0.0000 0.0000 0.0000 0.0000 0.0000 0.0000 0.0000 0.0000 0.0000 0.0000 0.0000 0.0000 0.0000 0.0000 0.0000 0.0000 0.0000 0.0000 0.0000 0.0000 0.0000 73.3995 -15.7300 20.9989 -22.4351 83.9529 58.6275 -32.1789 -8.7069 52.0562 -44.5186 -9.4840 -1.4377 35.9791 0.0000 0.0000 31.6095 0.0000 0.0000 4.7298 0.4006 1.3427 5.6097 0.0000 0.0000 1.7711 0.0000 0.0000 35.1250 0.4228 3.4362 130.0625 0.0000 0.0000 36.2901 0.0000 0.0000 22.1598 0.2682 2.9785 147.5773 0.0000 0.0000 21.1883 0.0000 0.0000 0.6217 -3.1227 10.1531 150.4954 0.0000 0.0000 6.7763 0.0000 0.0000 0.0000 0.0000 0.0000 0.0000 0.0000 0.0000 0.0000 0.0000 0.0000 0.0000 0.0000 0.0000 0.0000 0.0000 0.0000 0.0000 0.0000 0.0000
0.0000 95.0000 0.0000 0.0000 0.0000 0.0000 0.0000 0.0000 0.0000 0.0000 0.0000 0.0000 0.0000 0.0000 0.0000 0.0000 0.0000 0.0000 0.0000 0.0000 0.0000 0.0000 0.0000 0.0000 -73.4542 10.6996 14.3074 -4.3020 1.2292 -0.5742 0.0000 0.0000 0.0000 0.0000 0.0000 0.0000 0.0000 0.0000 0.0000 0.0000 0.0000 0.0000 0.0000 0.0000 0.0000 0.0000 0.0000 0.0000 0.0000 0.0000 0.0000 0.0000 0.0000 0.0000 0.0000 0.0000 0.0000 0.0000 0.0000 0.0000 0.0000 0.0000 0.0000 0.0000 0.0000 0.0000 0.0000 0.0000 0.0000 0.0000 0.0000 0.0000 0.0000 0.0000 0.0000 0.0000 0.0000 0.0000 0.0000 0.0000 0.0000 70.1926 -16.9984 24.0108 -123.1771 86.2573 -36.7546 -14.9969 -15.5645 52.4112 -46.7431 -9.9457 -1.3491 46.3375 0.0000 0.0000 24.0839 0.0000 0.0000 10.5110 0.6766 2.3308 5.6644 0.0000 0.0000 3.2350 0.0000 0.0000 44.2394 0.4504 3.6638 127.2977 0.0000 0.0000 37.4518 0.0000 0.0000 33.0586 0.2349 3.8611 145.9651 0.0000 0.0000 17.9484 0.0000 0.0000 10.1121 -4.1821 12.2822 145.8088 0.0000 0.0000 8.6269 0.0000 0.0000 0.0000 0.0000 0.0000 0.0000 0.0000 0.0000 0.0000 0.0000 0.0000 0.0000 0.0000 0.0000 0.0000 0.0000 0.0000 0.0000 0.0000 0.0000
0.0000 95.0000 0.0000 0.0000 0.0000 0.0000 0.0000 0.0000 0.0000 0.0000 0.0000 0.0000 0.0000 0.0000 0.0000 0.0000 0.0000 0.0000 0.0000 0.0000 0.0000 0.0000 0.0000 0.0000 -72.3139 11.8278 16.1363 -3.8005 1.3217 -0.7232 0.0000 0.0000 0.0000 0.0000 0.0000 0.0000 0.0000 0.0000 0.0000 0.0000 0.0000 0.0000 0.0000 0.0000 0.0000 0.0000 0.0000 0.0000 0.0000 0.0000 0.0000 0.0000 0.0000 0.0000 0.0000 0.0000 0.0000 0.0000 0.0000 0.0000 0.0000 0.0000 0.0000 0.0000 0.0000 0.0000 0.0000 0.0000 0.0000 0.0000 0.0000 0.0000 0.0000 0.0000 0.0000 0.0000 0.0000 0.0000 0.0000 0.0000 0.0000 67.3080 -17.5405 26.0938 -151.8730 83.4459 -62.3339 -3.2474 -19.9776 53.9937 -49.7795 -10.6741 -0.6961 44.0674 0.0000 0.0000 21.7802 0.0000 0.0000 9.6751 0.6944 2.7263 11.0032 0.0000 0.0000 2.4174 0.0000 0.0000 40.3153 -0.0373 4.8734 118.4236 0.0000 0.0000 48.8038 0.0000 0.0000 32.2575 -0.6106 5.7028 137.4074 0.0000 0.0000 30.7966 0.0000 0.0000 11.8123 -4.5118 12.8886 141.5009 0.0000 0.0000 17.2396 0.0000 0.0000 0.0000 0.0000 0.0000 0.0000 0.0000 0.0000 0.0000 0.0000 0.0000 0.0000 0.0000 0.0000 0.0000 0.0000 0.0000 0.0000 0.0000 0.0000
0.0000 95.0000 0.0000 0.0000 0.0000 0.0000 0.0000 0.0000 0.0000 0.0000 0.0000 0.0000 0.0000 0.0000 0.0000 0.0000 0.0000 0.0000 0.0000 0.0000 0.0000 0.0000 0.0000 0.0000 -71.0847 13.1412 18.3180 -2.8835 0.6814 0.0246 0.0000 0.0000 0.0000 0.0000 0.0000 0.0000 0.0000 0.0000 0.0000 0.0000 0.0000 0.0000 0.0000 0.0000 0.0000 0.0000 0.0000 0.0000 0.0000 0.0000 0.0000 0.0000 0.0000 0.0000 0.0000 0.0000 0.0000 0.0000 0.0000 0.0000 0.0000 0.0000 0.0000 0.0000 0.0000 0.0000 0.0000 0.0000 0.0000 0.0000 0.0000 0.0000 0.0000 0.0000 0.0000 0.0000 0.0000 0.0000 0.0000 0.0000 0.0000 64.1958 -17.8555 28.1206 -145.4624 82.7781 -55.2727 14.7067 -23.0125 54.4977 -40.6448 -9.3800 0.8326 34.9977 0.0000 0.0000 14.1647 0.0000 0.0000 17.4210 0.9420 6.0232 8.0406 0.0000 0.0000 2.7697 0.0000 0.0000 22.9121 0.0311 4.6185 158.8845 0.0000 0.0000 15.3936 0.0000 0.0000 12.7491 -0.3426 4.1919 159.6904 0.0000 0.0000 11.0562 0.0000 0.0000 -4.9942 -3.2080 10.9143 154.3502 0.0000 0.0000 6.6125 0.0000 0.0000 0.0000 0.0000 0.0000 0.0000 0.0000 0.0000 0.0000 0.0000 0.0000 0.0000 0.0000 0.0000 0.0000 0.0000 0.0000 0.0000 0.0000 0.0000
0.0000 95.0000 0.0000 0.0000 0.0000 0.0000 0.0000 0.0000 0.0000 0.0000 0.0000 0.0000 0.0000 0.0000 0.0000 0.0000 0.0000 0.0000 0.0000 0.0000 0.0000 0.0000 0.0000 0.0000 -70.7849 13.4380 18.8303 -2.4594 1.0212 -0.5792 0.0000 0.0000 0.0000 0.0000 0.0000 0.0000 0.0000 0.0000 0.0000 0.0000 0.0000 0.0000 0.0000 0.0000 0.0000 0.0000 0.0000 0.0000 0.0000 0.0000 0.0000 0.0000 0.0000 0.0000 0.0000 0.0000 0.0000 0.0000 0.0000 0.0000 0.0000 0.0000 0.0000 0.0000 0.0000 0.0000 0.0000 0.0000 0.0000 0.0000 0.0000 0.0000 0.0000 0.0000 0.0000 0.0000 0.0000 0.0000 0.0000 0.0000 0.0000 62.3940 -18.2780 29.7554 -140.6771 81.9835 -50.6535 15.5147 -21.6787 49.3956 -39.9918 -10.5110 4.9948 35.5353 0.0000 0.0000 10.6878 0.0000 0.0000 23.3932 0.7123 13.2481 4.6280 0.0000 0.0000 1.8021 0.0000 0.0000 23.4273 -1.3549 11.2999 140.6893 0.0000 0.0000 24.5983 0.0000 0.0000 12.0430 -2.5038 12.7905 150.2079 0.0000 0.0000 15.1393 0.0000 0.0000 -2.5348 -4.8458 16.4864 150.5894 0.0000 0.0000 11.9020 0.0000 0.0000 0.0000 0.0000 0.0000 0.0000 0.0000 0.0000 0.0000 0.0000 0.0000 0.0000 0.0000 0.0000 0.0000 0.0000 0.0000 0.0000 0.0000 0.0000
0.0000 95.0000 0.0000 0.0000 0.0000 0.0000 0.0000 0.0000 0.0000 0.0000 0.0000 0.0000 0.0000 0.0000 0.0000 0.0000 0.0000 0.0000 0.0000 0.0000 0.0000 0.0000 0.0000 0.0000 -71.3799 13.0196 18.0529 -2.4135 1.5276 -1.3336 0.0000 0.0000 0.0000 0.0000 0.0000 0.0000 0.0000 0.0000 0.0000 0.0000 0.0000 0.0000 0.0000 0.0000 0.0000 0.0000 0.0000 0.0000 0.0000 0.0000 0.0000 0.0000 0.0000 0.0000 0.0000 0.0000 0.0000 0.0000 0.0000 0.0000 0.0000 0.0000 0.0000 0.0000 0.0000 0.0000 0.0000 0.0000 0.0000 0.0000 0.0000 0.0000 0.0000 0.0000 0.0000 0.0000 0.0000 0.0000 0.0000 0.0000 0.0000 60.9431 -18.4968 30.9385 -130.6234 79.2938 -41.0512 -46.8324 20.2301 -66.7868 -51.5131 -10.8563 -1.4234 31.9504 0.0000 0.0000 21.0821 0.0000 0.0000 23.1529 1.0940 -2.8924 5.9581 0.0000 0.0000 4.9904 0.0000 0.0000 8.2970 -4.4765 61.4090 88.1506 0.0000 0.0000 3.1463 0.0000 0.0000 -13.0890 -4.4969 108.8587 50.6622 0.0000 0.0000 6.3796 0.0000 0.0000 -32.3793 -5.1499 124.9146 36.1901 0.0000 0.0000 8.8598 0.0000 0.0000 0.0000 0.0000 0.0000 0.0000 0.0000 0.0000 0.0000 0.0000 0.0000 0.0000 0.0000 0.0000 0.0000 0.0000 0.0000 0.0000 0.0000 0.0000
0.0000 95.0000 0.0000 0.0000 0.0000 0.0000 0.0000 0.0000 0.0000 0.0000 0.0000 0.0000 0.0000 0.0000 0.0000 0.0000 0.0000 0.0000 0.0000 0.0000 0.0000 0.0000 0.0000 0.0000 -71.6413 12.5572 17.3343 -2.5496 1.6187 -1.4504 0.0000 0.0000 0.0000 0.0000 0.0000 0.0000 0.0000 0.0000 0.0000 0.0000 0.0000 0.0000 0.0000 0.0000 0.0000 0.0000 0.0000 0.0000 0.0000 0.0000 0.0000 0.0000 0.0000 0.0000 0.0000 0.0000 0.0000 0.0000 0.0000 0.0000 0.0000 0.0000 0.0000 0.0000 0.0000 0.0000 0.0000 0.0000 0.0000 0.0000 0.0000 0.0000 0.0000 0.0000 0.0000 0.0000 0.0000 0.0000 0.0000 0.0000 0.0000 60.3705 -18.6008 31.4481 -130.1603 75.0319 -40.1699 -38.1161 24.3132 -71.0099 -52.7122 -10.6467 -3.8148 22.7601 0.0000 0.0000 18.3738 0.0000 0.0000 16.6198 0.6898 -1.4832 2.0819 0.0000 0.0000 2.5050 0.0000 0.0000 3.4921 -1.3956 48.3285 112.3769 0.0000 0.0000 5.8344 0.0000 0.0000 -17.5234 0.4119 86.7569 80.6426 0.0000 0.0000 15.5852 0.0000 0.0000 -43.7154 3.6186 72.1780 88.8848 0.0000 0.0000 27.2680 0.0000 0.0000 0.0000 0.0000 0.0000 0.0000 0.0000 0.0000 0.0000 0.0000 0.0000 0.0000 0.0000 0.0000 0.0000 0.0000 0.0000 0.0000 0.0000 0.0000
0.0000 95.0000 0.0000 0.0000 0.0000 0.0000 0.0000 0.0000 0.0000 0.0000 0.0000 0.0000 0.0000 0.0000 0.0000 0.0000 0.0000 0.0000 0.0000 0.0000 0.0000 0.0000 0.0000 0.0000 -72.0642 12.3706 16.9483 -2.2797 1.2935 -1.0787 0.0000 0.0000 0.0000 0.0000 0.0000 0.0000 0.0000 0.0000 0.0000 0.0000 0.0000 0.0000 0.0000 0.0000 0.0000 0.0000 0.0000 0.0000 0.0000 0.0000 0.0000 0.0000 0.0000 0.0000 0.0000 0.0000 0.0000 0.0000 0.0000 0.0000 0.0000 0.0000 0.0000 0.0000 0.0000 0.0000 0.0000 0.0000 0.0000 0.0000 0.0000 0.0000 0.0000 0.0000 0.0000 0.0000 0.0000 0.0000 0.0000 0.0000 0.0000 60.2503 -18.4218 31.2268 -129.5225 72.6028 -39.0647 -37.3960 23.8520 -70.5004 -52.0323 -10.3485 -4.6097 23.2440 0.0000 0.0000 17.9187 0.0000 0.0000 15.5992 0.6833 -0.2958 2.1770 0.0000 0.0000 3.8431 0.0000 0.0000 6.8468 -1.8842 35.5133 126.6425 0.0000 0.0000 5.6926 0.0000 0.0000 -13.8334 -2.2162 69.6736 98.3630 0.0000 0.0000 15.2248 0.0000 0.0000 -38.0871 -0.7342 54.2715 109.8843 0.0000 0.0000 21.4812 0.0000 0.0000 0.0000 0.0000 0.0000 0.0000 0.0000 0.0000 0.0000 0.0000 0.0000 0.0000 0.0000 0.0000 0.0000 0.0000 0.0000 0.0000 0.0000 0.0000
0.0000 95.0000 0.0000 0.0000 0.0000 0.0000 0.0000 0.0000 0.0000 0.0000 0.0000 0.0000 0.0000 0.0000 0.0000 0.0000 0.0000 0.0000 0.0000 0.0000 0.0000 0.0000 0.0000 0.0000 -72.3929 11.8939 16.2028 -2.2598 0.8442 -0.4871 0.0000 0.0000 0.0000 0.0000 0.0000 0.0000 0.0000 0.0000 0.0000 0.0000 0.0000 0.0000 0.0000 0.0000 0.0000 0.0000 0.0000 0.0000 0.0000 0.0000 0.0000 0.0000 0.0000 0.0000 0.0000 0.0000 0.0000 0.0000 0.0000 0.0000 0.0000 0.0000 0.0000 0.0000 0.0000 0.0000 0.0000 0.0000 0.0000 0.0000 0.0000 0.0000 0.0000 0.0000 0.0000 0.0000 0.0000 0.0000 0.0000 0.0000 0.0000 60.6833 -18.2465 30.6842 -131.9432 70.2584 -40.5036 -35.6640 24.4261 -68.4548 -52.2844 -10.3974 -4.6475 23.2556 0.0000 0.0000 16.9410 0.0000 0.0000 15.7405 0.6879 -0.3420 2.6312 0.0000 0.0000 3.9380 0.0000 0.0000 7.6106 -2.0550 34.9543 126.6496 0.0000 0.0000 6.4065 0.0000 0.0000 -13.0114 -2.6977 68.9590 98.5694 0.0000 0.0000 14.8328 0.0000 0.0000 -37.2970 -0.9303 58.4052 106.0321 0.0000 0.0000 23.0693 0.0000 0.0000 0.0000 0.0000 0.0000 0.0000 0.0000 0.0000 0.0000 0.0000 0.0000 0.0000 0.0000 0.0000 0.0000 0.0000 0.0000 0.0000 0.0000 0.0000
0.0000 95.0000 0.0000 0.0000 0.0000 0.0000 0.0000 0.0000 0.0000 0.0000 0.0000 0.0000 0.0000 0.0000 0.0000 0.0000 0.0000 0.0000 0.0000 0.0000 0.0000 0.0000 0.0000 0.0000 -72.0076 11.8937 16.3159 -2.6580 0.6622 -0.1173 0.0000 0.0000 0.0000 0.0000 0.0000 0.0000 0.0000 0.0000 0.0000 0.0000 0.0000 0.0000 0.0000 0.0000 0.0000 0.0000 0.0000 0.0000 0.0000 0.0000 0.0000 0.0000 0.0000 0.0000 0.0000 0.0000 0.0000 0.0000 0.0000 0.0000 0.0000 0.0000 0.0000 0.0000 0.0000 0.0000 0.0000 0.0000 0.0000 0.0000 0.0000 0.0000 0.0000 0.0000 0.0000 0.0000 0.0000 0.0000 0.0000 0.0000 0.0000 61.3167 -18.0337 29.9735 -133.4535 68.5570 -41.1998 -32.0824 25.5778 -67.2057 -53.7385 -10.7292 -4.5938 22.4883 0.0000 0.0000 17.0772 0.0000 0.0000 13.0084 0.6322 0.7621 3.0998 0.0000 0.0000 3.6592 0.0000 0.0000 3.4201 -1.3248 47.1100 115.1597 0.0000 0.0000 7.1623 0.0000 0.0000 -15.3906 -1.3830 85.7960 83.9830 0.0000 0.0000 17.4813 0.0000 0.0000 -43.4229 3.2207 70.2966 93.2318 0.0000 0.0000 28.5624 0.0000 0.0000 0.0000 0.0000 0.0000 0.0000 0.0000 0.0000 0.0000 0.0000 0.0000 0.0000 0.0000 0.0000 0.0000 0.0000 0.0000 0.0000 0.0000 0.0000
0.0000 95.0000 0.0000 0.0000 0.0000 0.0000 0.0000 0.0000 0.0000 0.0000 0.0000 0.0000 0.0000 0.0000 0.0000 0.0000 0.0000 0.0000 0.0000 0.0000 0.0000 0.0000 0.0000 0.0000 -72.1377 11.5992 15.8769 -2.8481 0.4730 0.1829 0.0000 0.0000 0.0000 0.0000 0.0000 0.0000 0.0000 0.0000 0.0000 0.0000 0.0000 0.0000 0.0000 0.0000 0.0000 0.0000 0.0000 0.0000 0.0000 0.0000 0.0000 0.0000 0.0000 0.0000 0.0000 0.0000 0.0000 0.0000 0.0000 0.0000 0.0000 0.0000 0.0000 0.0000 0.0000 0.0000 0.0000 0.0000 0.0000 0.0000 0.0000 0.0000 0.0000 0.0000 0.0000 0.0000 0.0000 0.0000 0.0000 0.0000 0.0000 61.4875 -18.0147 29.8459 -133.4618 67.3307 -41.0235 -30.5071 25.8927 -65.8129 -54.5129 -11.0634 -3.6216 24.7405 0.0000 0.0000 15.3774 0.0000 0.0000 12.8687 0.6248 0.7301 2.3441 0.0000 0.0000 3.6049 0.0000 0.0000 0.7571 -0.4413 65.2523 96.7068 0.0000 0.0000 8.2519 0.0000 0.0000 -17.2537 0.4080 97.5846 71.5296 0.0000 0.0000 18.1823 0.0000 0.0000 -46.4957 6.4019 78.6654 84.4045 0.0000 0.0000 31.5066 0.0000 0.0000 0.0000 0.0000 0.0000 0.0000 0.0000 0.0000 0.0000 0.0000 0.0000 0.0000 0.0000 0.0000 0.0000 0.0000 0.0000 0.0000 0.0000 0.0000
0.0000 95.0000 0.0000 0.0000 0.0000 0.0000 0.0000 0.0000 0.0000 0.0000 0.0000 0.0000 0.0000 0.0000 0.0000 0.0000 0.0000 0.0000 0.0000 0.0000 0.0000 0.0000 0.0000 0.0000 -72.0825 11.6559 15.9700 -3.0200 0.4526 0.2676 0.0000 0.0000 0.0000 0.0000 0.0000 0.0000 0.0000 0.0000 0.0000 0.0000 0.0000 0.0000 0.0000 0.0000 0.0000 0.0000 0.0000 0.0000 0.0000 0.0000 0.0000 0.0000 0.0000 0.0000 0.0000 0.0000 0.0000 0.0000 0.0000 0.0000 0.0000 0.0000 0.0000 0.0000 0.0000 0.0000 0.0000 0.0000 0.0000 0.0000 0.0000 0.0000 0.0000 0.0000 0.0000 0.0000 0.0000 0.0000 0.0000 0.0000 0.0000 61.3702 -18.0755 30.0104 -131.8923 66.7156 -39.8432 -31.5229 24.2986 -64.3391 -53.5490 -10.9030 -3.3771 24.7585 0.0000 0.0000 17.2883 0.0000 0.0000 13.9303 0.6732 0.8719 2.2298 0.0000 0.0000 4.5589 0.0000 0.0000 5.1836 -2.1275 49.3782 111.9416 0.0000 0.0000 6.3396 0.0000 0.0000 -11.0757 -4.4576 78.3701 90.0432 0.0000 0.0000 15.3164 0.0000 0.0000 -38.1316 -0.5023 59.2070 104.3710 0.0000 0.0000 20.6428 0.0000 0.0000 0.0000 0.0000 0.0000 0.0000 0.0000 0.0000 0.0000 0.0000 0.0000 0.0000 0.0000 0.0000 0.0000 0.0000 0.0000 0.0000 0.0000 0.0000
0.0000 95.0000 0.0000 0.0000 0.0000 0.0000 0.0000 0.0000 0.0000 0.0000 0.0000 0.0000 0.0000 0.0000 0.0000 0.0000 0.0000 0.0000 0.0000 0.0000 0.0000 0.0000 0.0000 0.0000 -72.0588 11.5177 15.7885 -3.0560 0.1432 0.7045 0.0000 0.0000 0.0000 0.0000 0.0000 0.0000 0.0000 0.0000 0.0000 0.0000 0.0000 0.0000 0.0000 0.0000 0.0000 0.0000 0.0000 0.0000 0.0000 0.0000 0.0000 0.0000 0.0000 0.0000 0.0000 0.0000 0.0000 0.0000 0.0000 0.0000 0.0000 0.0000 0.0000 0.0000 0.0000 0.0000 0.0000 0.0000 0.0000 0.0000 0.0000 0.0000 0.0000 0.0000 0.0000 0.0000 0.0000 0.0000 0.0000 0.0000 0.0000 61.2452 -17.9558 29.8883 -130.7136 67.0272 -38.7825 -32.3543 24.3301 -64.3264 -53.5007 -10.7285 -4.3027 23.1250 0.0000 0.0000 19.8684 0.0000 0.0000 13.8863 0.6435 0.3919 2.7435 0.0000 0.0000 4.2874 0.0000 0.0000 6.6171 -2.7031 49.1755 112.1545 0.0000 0.0000 5.6515 0.0000 0.0000 -13.2485 -3.0609 83.2205 85.4330 0.0000 0.0000 15.4128 0.0000 0.0000 -39.1322 0.7280 72.1094 91.8473 0.0000 0.0000 25.5836 0.0000 0.0000 0.0000 0.0000 0.0000 0.0000 0.0000 0.0000 0.0000 0.0000 0.0000 0.0000 0.0000 0.0000 0.0000 0.0000 0.0000 0.0000 0.0000 0.0000
0.0000 95.0000 0.0000 0.0000 0.0000 0.0000 0.0000 0.0000 0.0000 0.0000 0.0000 0.0000 0.0000 0.0000 0.0000 0.0000 0.0000 0.0000 0.0000 0.0000 0.0000 0.0000 0.0000 0.0000 -71.9534 11.7609 16.1507 -3.1009 -0.0903 1.0689 0.0000 0.0000 0.0000 0.0000 0.0000 0.0000 0.0000 0.0000 0.0000 0.0000 0.0000 0.0000 0.0000 0.0000 0.0000 0.0000 0.0000 0.0000 0.0000 0.0000 0.0000 0.0000 0.0000 0.0000 0.0000 0.0000 0.0000 0.0000 0.0000 0.0000 0.0000 0.0000 0.0000 0.0000 0.0000 0.0000 0.0000 0.0000 0.0000 0.0000 0.0000 0.0000 0.0000 0.0000 0.0000 0.0000 0.0000 0.0000 0.0000 0.0000 0.0000 61.5458 -17.8166 29.4942 -131.6586 66.4420 -39.2335 -31.5010 23.2848 -63.1081 -53.1406 -10.6829 -4.1209 24.7351 0.0000 0.0000 18.5787 0.0000 0.0000 14.8627 0.6746 0.2197 2.1893 0.0000 0.0000 4.1444 0.0000 0.0000 6.7168 -4.1605 68.2849 93.1882 0.0000 0.0000 5.8319 0.0000 0.0000 -11.9929 -4.8235 95.5281 73.2056 0.0000 0.0000 13.2770 0.0000 0.0000 -39.4169 1.0850 74.7919 89.5632 0.0000 0.0000 20.1722 0.0000 0.0000 0.0000 0.0000 0.0000 0.0000 0.0000 0.0000 0.0000 0.0000 0.0000 0.0000 0.0000 0.0000 0.0000 0.0000 0.0000 0.0000 0.0000 0.0000
0.0000 95.0000 0.0000 0.0000 0.0000 0.0000 0.0000 0.0000 0.0000 0.0000 0.0000 0.0000 0.0000 0.0000 0.0000 0.0000 0.0000 0.0000 0.0000 0.0000 0.0000 0.0000 0.0000 0.0000 -71.9790 11.7329 16.1049 -3.1451 0.2270 0.6318 0.0000 0.0000 0.0000 0.0000 0.0000 0.0000 0.0000 0.0000 0.0000 0.0000 0.0000 0.0000 0.0000 0.0000 0.0000 0.0000 0.0000 0.0000 0.0000 0.0000 0.0000 0.0000 0.0000 0.0000 0.0000 0.0000 0.0000 0.0000 0.0000 0.0000 0.0000 0.0000 0.0000 0.0000 0.0000 0.0000 0.0000 0.0000 0.0000 0.0000 0.0000 0.0000 0.0000 0.0000 0.0000 0.0000 0.0000 0.0000 0.0000 0.0000 0.0000 61.5677 -18.1286 29.9835 -130.4818 66.5067 -38.8915 -32.5063 23.1916 -62.5922 -52.9290 -10.6383 -4.1143 25.0419 0.0000 0.0000 19.9688 0.0000 0.0000 15.1672 0.6440 -0.7000 2.2309 0.0000 0.0000 3.0600 0.0000 0.0000 5.7998 -3.5061 67.0514 93.3669 0.0000 0.0000 5.2504 0.0000 0.0000 -12.5578 -4.7370 102.9862 64.8354 0.0000 0.0000 12.0519 0.0000 0.0000 -38.7031 1.4184 87.4842 76.0491 0.0000 0.0000 21.2037 0.0000 0.0000 0.0000 0.0000 0.0000 0.0000 0.0000 0.0000 0.0000 0.0000 0.0000 0.0000 0.0000 0.0000 0.0000 0.0000 0.0000 0.0000 0.0000 0.0000
0.0000 95.0000 0.0000 0.0000 0.0000 0.0000 0.0000 0.0000 0.0000 0.0000 0.0000 0.0000 0.0000 0.0000 0.0000 0.0000 0.0000 0.0000 0.0000 0.0000 0.0000 0.0000 0.0000 0.0000 -72.1096 11.8058 16.1662 -3.1083 0.4740 0.2756 0.0000 0.0000 0.0000 0.0000 0.0000 0.0000 0.0000 0.0000 0.0000 0.0000 0.0000 0.0000 0.0000 0.0000 0.0000 0.0000 0.0000 0.0000 0.0000 0.0000 0.0000 0.0000 0.0000 0.0000 0.0000 0.0000 0.0000 0.0000 0.0000 0.0000 0.0000 0.0000 0.0000 0.0000 0.0000 0.0000 0.0000 0.0000 0.0000 0.0000 0.0000 0.0000 0.0000 0.0000 0.0000 0.0000 0.0000 0.0000 0.0000 0.0000 0.0000 61.7476 -18.1761 29.9574 -130.3194 66.2953 -38.8554 -34.4114 22.6004 -62.5286 -53.0880 -10.6879 -4.0311 24.9213 0.0000 0.0000 20.6250 0.0000 0.0000 16.3698 0.6941 -0.9802 2.9875 0.0000 0.0000 2.9338 0.0000 0.0000 6.3267 -3.0560 56.3006 104.4812 0.0000 0.0000 5.3475 0.0000 0.0000 -16.8162 -0.0606 96.1266 70.2067 0.0000 0.0000 11.8126 0.0000 0.0000 -43.0887 5.1113 87.7288 73.9057 0.0000 0.0000 21.7571 0.0000 0.0000 0.0000 0.0000 0.0000 0.0000 0.0000 0.0000 0.0000 0.0000 0.0000 0.0000 0.0000 0.0000 0.0000 0.0000 0.0000 0.0000 0.0000 0.0000
0.0000 95.0000 0.0000 0.0000 0.0000 0.0000 0.0000 0.0000 0.0000 0.0000 0.0000 0.0000 0.0000 0.0000 0.0000 0.0000 0.0000 0.0000 0.0000 0.0000 0.0000 0.0000 0.0000 0.0000 -72.3706 11.5180 15.7001 -3.1718 0.7617 -0.1371 0.0000 0.0000 0.0000 0.0000 0.0000 0.0000 0.0000 0.0000 0.0000 0.0000 0.0000 0.0000 0.0000 0.0000 0.0000 0.0000 0.0000 0.0000 0.0000 0.0000 0.0000 0.0000 0.0000 0.0000 0.0000 0.0000 0.0000 0.0000 0.0000 0.0000 0.0000 0.0000 0.0000 0.0000 0.0000 0.0000 0.0000 0.0000 0.0000 0.0000 0.0000 0.0000 0.0000 0.0000 0.0000 0.0000 0.0000 0.0000 0.0000 0.0000 0.0000 61.3881 -18.3549 30.4501 -129.4534 66.4362 -38.4651 -33.8397 23.5458 -62.9500 -53.3898 -10.7005 -4.3242 24.7789 0.0000 0.0000 20.3904 0.0000 0.0000 16.5340 0.7130 -0.6881 1.5913 0.0000 0.0000 2.2113 0.0000 0.0000 -3.4351 3.1290 89.4295 71.5760 0.0000 0.0000 5.1011 0.0000 0.0000 -19.6105 4.7173 120.5349 46.2077 0.0000 0.0000 12.9350 0.0000 0.0000 -38.7523 4.6314 120.7295 44.7788 0.0000 0.0000 40.4721 0.0000 0.0000 0.0000 0.0000 0.0000 0.0000 0.0000 0.0000 0.0000 0.0000 0.0000 0.0000 0.0000 0.0000 0.0000 0.0000 0.0000 0.0000 0.0000 0.0000
0.0000 95.0000 0.0000 0.0000 0.0000 0.0000 0.0000 0.0000 0.0000 0.0000 0.0000 0.0000 0.0000 0.0000 0.0000 0.0000 0.0000 0.0000 0.0000 0.0000 0.0000 0.0000 0.0000 0.0000 -72.1904 11.6792 15.9705 -3.2389 0.9549 -0.3768 0.0000 0.0000 0.0000 0.0000 0.0000 0.0000 0.0000 0.0000 0.0000 0.0000 0.0000 0.0000 0.0000 0.0000 0.0000 0.0000 0.0000 0.0000 0.0000 0.0000 0.0000 0.0000 0.0000 0.0000 0.0000 0.0000 0.0000 0.0000 0.0000 0.0000 0.0000 0.0000 0.0000 0.0000 0.0000 0.0000 0.0000 0.0000 0.0000 0.0000 0.0000 0.0000 0.0000 0.0000 0.0000 0.0000 0.0000 0.0000 0.0000 0.0000 0.0000 61.3230 -18.4786 30.6869 -129.6380 66.3631 -38.7882 -34.1604 23.4754 -62.7526 -53.6611 -10.8427 -3.8533 23.8252 0.0000 0.0000 24.0662 0.0000 0.0000 16.3090 0.6957 -0.8506 2.6206 0.0000 0.0000 2.3774 0.0000 0.0000 1.7005 -1.1056 70.8281 89.4360 0.0000 0.0000 5.7541 0.0000 0.0000 -19.5456 3.4036 106.9572 58.5142 0.0000 0.0000 12.6609 0.0000 0.0000 -45.4492 10.0706 103.2133 56.9293 0.0000 0.0000 25.5959 0.0000 0.0000 0.0000 0.0000 0.0000 0.0000 0.0000 0.0000 0.0000 0.0000 0.0000 0.0000 0.0000 0.0000 0.0000 0.0000 0.0000 0.0000 0.0000 0.0000
0.0000 95.0000 0.0000 0.0000 0.0000 0.0000 0.0000 0.0000 0.0000 0.0000 0.0000 0.0000 0.0000 0.0000 0.0000 0.0000 0.0000 0.0000 0.0000 0.0000 0.0000 0.0000 0.0000 0.0000 -72.3038 11.5113 15.7100 -3.2553 0.9711 -0.4097 0.0000 0.0000 0.0000 0.0000 0.0000 0.0000 0.0000 0.0000 0.0000 0.0000 0.0000 0.0000 0.0000 0.0000 0.0000 0.0000 0.0000 0.0000 0.0000 0.0000 0.0000 0.0000 0.0000 0.0000 0.0000 0.0000 0.0000 0.0000 0.0000 0.0000 0.0000 0.0000 0.0000 0.0000 0.0000 0.0000 0.0000 0.0000 0.0000 0.0000 0.0000 0.0000 0.0000 0.0000 0.0000 0.0000 0.0000 0.0000 0.0000 0.0000 0.0000 61.5987 -18.5380 30.6223 -129.4286 66.5523 -38.7961 -31.9319 23.4077 -61.9798 -54.2206 -11.1845 -2.5480 23.1663 0.0000 0.0000 19.2953 0.0000 0.0000 14.1473 0.6025 -0.5255 2.5612 0.0000 0.0000 2.2971 0.0000 0.0000 -2.4945 1.8989 79.3268 80.9114 0.0000 0.0000 5.0322 0.0000 0.0000 -20.7339 5.0129 108.6597 57.2783 0.0000 0.0000 13.0216 0.0000 0.0000 -43.8679 8.2584 102.8369 58.4461 0.0000 0.0000 28.8499 0.0000 0.0000 0.0000 0.0000 0.0000 0.0000 0.0000 0.0000 0.0000 0.0000 0.0000 0.0000 0.0000 0.0000 0.0000 0.0000 0.0000 0.0000 0.0000 0.0000
0.0000 95.0000 0.0000 0.0000 0.0000 0.0000 0.0000 0.0000 0.0000 0.0000 0.0000 0.0000 0.0000 0.0000 0.0000 0.0000 0.0000 0.0000 0.0000 0.0000 0.0000 0.0000 0.0000 0.0000 -72.2397 11.5023 15.7159 -3.1676 1.1715 -0.7192 0.0000 0.0000 0.0000 0.0000 0.0000 0.0000 0.0000 0.0000 0.0000 0.0000 0.0000 0.0000 0.0000 0.0000 0.0000 0.0000 0.0000 0.0000 0.0000 0.0000 0.0000 0.0000 0.0000 0.0000 0.0000 0.0000 0.0000 0.0000 0.0000 0.0000 0.0000 0.0000 0.0000 0.0000 0.0000 0.0000 0.0000 0.0000 0.0000 0.0000 0.0000 0.0000 0.0000 0.0000 0.0000 0.0000 0.0000 0.0000 0.0000 0.0000 0.0000 61.7673 -18.5538 30.5502 -129.4168 66.6323 -38.8502 -33.9836 23.8712 -62.9923 -53.7460 -10.8967 -3.6486 24.8128 0.0000 0.0000 17.7558 0.0000 0.0000 16.5516 0.7259 -0.3456 1.9488 0.0000 0.0000 1.7209 0.0000 0.0000 -3.7803 3.0308 82.2046 77.5690 0.0000 0.0000 6.5954 0.0000 0.0000 -20.3817 5.5649 117.7848 48.0921 0.0000 0.0000 13.2387 0.0000 0.0000 -42.4009 8.7144 114.3041 47.9180 0.0000 0.0000 28.8213 0.0000 0.0000 0.0000 0.0000 0.0000 0.0000 0.0000 0.0000 0.0000 0.0000 0.0000 0.0000 0.0000 0.0000 0.0000 0.0000 0.0000 0.0000 0.0000 0.0000
0.0000 95.0000 0.0000 0.0000 0.0000 0.0000 0.0000 0.0000 0.0000 0.0000 0.0000 0.0000 0.0000 0.0000 0.0000 0.0000 0.0000 0.0000 0.0000 0.0000 0.0000 0.0000 0.0000 0.0000 -71.7880 11.8480 16.3184 -3.1707 1.5094 -1.1734 0.0000 0.0000 0.0000 0.0000 0.0000 0.0000 0.0000 0.0000 0.0000 0.0000 0.0000 0.0000 0.0000 0.0000 0.0000 0.0000 0.0000 0.0000 0.0000 0.0000 0.0000 0.0000 0.0000 0.0000 0.0000 0.0000 0.0000 0.0000 0.0000 0.0000 0.0000 0.0000 0.0000 0.0000 0.0000 0.0000 0.0000 0.0000 0.0000 0.0000 0.0000 0.0000 0.0000 0.0000 0.0000 0.0000 0.0000 0.0000 0.0000 0.0000 0.0000 61.6038 -18.7541 30.9655 -129.3743 66.3120 -39.0866 -32.2861 23.1430 -61.6978 -53.7942 -11.0329 -2.9263 23.6779 0.0000 0.0000 17.7626 0.0000 0.0000 15.0803 0.6411 -0.6686 2.5752 0.0000 0.0000 1.6826 0.0000 0.0000 -6.8356 5.4236 81.6071 77.3431 0.0000 0.0000 5.7028 0.0000 0.0000 -24.5292 9.7779 108.9182 54.7349 0.0000 0.0000 12.8935 0.0000 0.0000 -47.7008 11.7674 100.1271 57.3902 0.0000 0.0000 27.0762 0.0000 0.0000 0.0000 0.0000 0.0000 0.0000 0.0000 0.0000 0.0000 0.0000 0.0000 0.0000 0.0000 0.0000 0.0000 0.0000 0.0000 0.0000 0.0000 0.0000
0.0000 95.0000 0.0000 0.0000 0.0000 0.0000 0.0000 0.0000 0.0000 0.0000 0.0000 0.0000 0.0000 0.0000 0.0000 0.0000 0.0000 0.0000 0.0000 0.0000 0.0000 0.0000 0.0000 0.0000 -71.8536 11.6447 16.0211 -3.1467 1.5655 -1.2775 0.0000 0.0000 0.0000 0.0000 0.0000 0.0000 0.0000 0.0000 0.0000 0.0000 0.0000 0.0000 0.0000 0.0000 0.0000 0.0000 0.0000 0.0000 0.0000 0.0000 0.0000 0.0000 0.0000 0.0000 0.0000 0.0000 0.0000 0.0000 0.0000 0.0000 0.0000 0.0000 0.0000 0.0000 0.0000 0.0000 0.0000 0.0000 0.0000 0.0000 0.0000 0.0000 0.0000 0.0000 0.0000 0.0000 0.0000 0.0000 0.0000 0.0000 0.0000 61.7330 -18.8028 30.9678 -129.2105 66.3122 -39.0655 -34.0929 22.7017 -61.4630 -53.4039 -10.8642 -3.4247 23.3463 0.0000 0.0000 20.8280 0.0000 0.0000 16.4247 0.7044 -0.7735 3.6907 0.0000 0.0000 3.0278 0.0000 0.0000 -2.8618 2.0000 74.6613 84.7029 0.0000 0.0000 5.7915 0.0000 0.0000 -21.4858 6.3295 111.6895 52.6036 0.0000 0.0000 12.1014 0.0000 0.0000 -42.8945 8.5258 110.1625 51.3102 0.0000 0.0000 30.6657 0.0000 0.0000 0.0000 0.0000 0.0000 0.0000 0.0000 0.0000 0.0000 0.0000 0.0000 0.0000 0.0000 0.0000 0.0000 0.0000 0.0000 0.0000 0.0000 0.0000
0.0000 95.0000 0.0000 0.0000 0.0000 0.0000 0.0000 0.0000 0.0000 0.0000 0.0000 0.0000 0.0000 0.0000 0.0000 0.0000 0.0000 0.0000 0.0000 0.0000 0.0000 0.0000 0.0000 0.0000 -71.9656 11.4275 15.6921 -3.2187 1.7521 -1.5426 0.0000 0.0000 0.0000 0.0000 0.0000 0.0000 0.0000 0.0000 0.0000 0.0000 0.0000 0.0000 0.0000 0.0000 0.0000 0.0000 0.0000 0.0000 0.0000 0.0000 0.0000 0.0000 0.0000 0.0000 0.0000 0.0000 0.0000 0.0000 0.0000 0.0000 0.0000 0.0000 0.0000 0.0000 0.0000 0.0000 0.0000 0.0000 0.0000 0.0000 0.0000 0.0000 0.0000 0.0000 0.0000 0.0000 0.0000 0.0000 0.0000 0.0000 0.0000 61.8745 -18.8296 30.9279 -129.0235 66.4900 -39.0121 -35.1869 22.7655 -62.3334 -54.1602 -11.1153 -2.8822 23.0407 0.0000 0.0000 22.7595 0.0000 0.0000 16.8552 0.7184 -1.0181 2.9700 0.0000 0.0000 2.2215 0.0000 0.0000 -5.6099 4.0196 75.9954 83.5105 0.0000 0.0000 6.2493 0.0000 0.0000 -22.0909 7.4129 113.6452 50.5296 0.0000 0.0000 13.1619 0.0000 0.0000 -44.7764 10.6075 109.0650 51.0469 0.0000 0.0000 28.1120 0.0000 0.0000 0.0000 0.0000 0.0000 0.0000 0.0000 0.0000 0.0000 0.0000 0.0000 0.0000 0.0000 0.0000 0.0000 0.0000 0.0000 0.0000 0.0000 0.0000
0.0000 95.0000 0.0000 0.0000 0.0000 0.0000 0.0000 0.0000 0.0000 0.0000 0.0000 0.0000 0.0000 0.0000 0.0000 0.0000 0.0000 0.0000 0.0000 0.0000 0.0000 0.0000 0.0000 0.0000 -72.0708 11.1276 15.2535 -3.4194 1.8568 -1.6673 0.0000 0.0000 0.0000 0.0000 0.0000 0.0000 0.0000 0.0000 0.0000 0.0000 0.0000 0.0000 0.0000 0.0000 0.0000 0.0000 0.0000 0.0000 0.0000 0.0000 0.0000 0.0000 0.0000 0.0000 0.0000 0.0000 0.0000 0.0000 0.0000 0.0000 0.0000 0.0000 0.0000 0.0000 0.0000 0.0000 0.0000 0.0000 0.0000 0.0000 0.0000 0.0000 0.0000 0.0000 0.0000 0.0000 0.0000 0.0000 0.0000 0.0000 0.0000 61.8353 -18.8982 31.0601 -128.5532 66.4206 -38.7613 -34.6643 23.0633 -62.7242 -54.2644 -11.1007 -3.0938 23.4940 0.0000 0.0000 20.4622 0.0000 0.0000 16.3928 0.7089 -0.6067 3.3831 0.0000 0.0000 1.7703 0.0000 0.0000 -10.6475 9.5376 88.4448 69.7393 0.0000 0.0000 6.3893 0.0000 0.0000 -24.8107 11.4238 115.0764 48.1147 0.0000 0.0000 12.4438 0.0000 0.0000 -47.3405 13.2484 107.3364 50.6566 0.0000 0.0000 23.4815 0.0000 0.0000 0.0000 0.0000 0.0000 0.0000 0.0000 0.0000 0.0000 0.0000 0.0000 0.0000 0.0000 0.0000 0.0000 0.0000 0.0000 0.0000 0.0000 0.0000
0.0000 95.0000 0.0000 0.0000 0.0000 0.0000 0.0000 0.0000 0.0000 0.0000 0.0000 0.0000 0.0000 0.0000 0.0000 0.0000 0.0000 0.0000 0.0000 0.0000 0.0000 0.0000 0.0000 0.0000 -72.0019 11.2973 15.5042 -3.2882 1.8818 -1.7217 0.0000 0.0000 0.0000 0.0000 0.0000 0.0000 0.0000 0.0000 0.0000 0.0000 0.0000 0.0000 0.0000 0.0000 0.0000 0.0000 0.0000 0.0000 0.0000 0.0000 0.0000 0.0000 0.0000 0.0000 0.0000 0.0000 0.0000 0.0000 0.0000 0.0000 0.0000 0.0000 0.0000 0.0000 0.0000 0.0000 0.0000 0.0000 0.0000 0.0000 0.0000 0.0000 0.0000 0.0000 0.0000 0.0000 0.0000 0.0000 0.0000 0.0000 0.0000 61.7361 -19.0967 31.4347 -126.1880 66.9491 -37.3537 -34.7646 22.5559 -62.5713 -55.0444 -11.5329 -1.4175 24.8656 0.0000 0.0000 18.8326 0.0000 0.0000 15.5793 0.6799 -0.3517 4.8098 0.0000 0.0000 1.9128 0.0000 0.0000 -8.6360 8.4210 93.3225 63.8997 0.0000 0.0000 6.9975 0.0000 0.0000 -25.3945 12.3603 115.5895 46.5013 0.0000 0.0000 12.7109 0.0000 0.0000 -48.9570 14.4813 105.0844 50.0242 0.0000 0.0000 21.3548 0.0000 0.0000 0.0000 0.0000 0.0000 0.0000 0.0000 0.0000 0.0000 0.0000 0.0000 0.0000 0.0000 0.0000 0.0000 0.0000 0.0000 0.0000 0.0000 0.0000
0.0000 95.0000 0.0000 0.0000 0.0000 0.0000 0.0000 0.0000 0.0000 0.0000 0.0000 0.0000 0.0000 0.0000 0.0000 0.0000 0.0000 0.0000 0.0000 0.0000 0.0000 0.0000 0.0000 0.0000 -71.8223 11.4049 15.7020 -3.4356 2.2649 -2.2300 0.0000 0.0000 0.0000 0.0000 0.0000 0.0000 0.0000 0.0000 0.0000 0.0000 0.0000 0.0000 0.0000 0.0000 0.0000 0.0000 0.0000 0.0000 0.0000 0.0000 0.0000 0.0000 0.0000 0.0000 0.0000 0.0000 0.0000 0.0000 0.0000 0.0000 0.0000 0.0000 0.0000 0.0000 0.0000 0.0000 0.0000 0.0000 0.0000 0.0000 0.0000 0.0000 0.0000 0.0000 0.0000 0.0000 0.0000 0.0000 0.0000 0.0000 0.0000 61.7725 -19.1150 31.4423 -125.1064 67.3093 -36.6047 -35.5832 22.4539 -62.1214 -54.9230 -11.4811 -1.5938 24.8648 0.0000 0.0000 21.4522 0.0000 0.0000 16.0348 0.7176 0.0569 5.4215 0.0000 0.0000 2.2253 0.0000 0.0000 -9.5636 9.3200 93.2869 62.1108 0.0000 0.0000 7.4989 0.0000 0.0000 -26.1336 13.5244 116.0697 44.4240 0.0000 0.0000 12.5206 0.0000 0.0000 -47.9458 15.1020 111.1283 41.9714 0.0000 0.0000 18.5976 0.0000 0.0000 0.0000 0.0000 0.0000 0.0000 0.0000 0.0000 0.0000 0.0000 0.0000 0.0000 0.0000 0.0000 0.0000 0.0000 0.0000 0.0000 0.0000 0.0000
0.0000 95.0000 0.0000 0.0000 0.0000 0.0000 0.0000 0.0000 0.0000 0.0000 0.0000 0.0000 0.0000 0.0000 0.0000 0.0000 0.0000 0.0000 0.0000 0.0000 0.0000 0.0000 0.0000 0.0000 -71.9792 11.2471 15.4419 -3.4136 2.4807 -2.5570 0.0000 0.0000 0.0000 0.0000 0.0000 0.0000 0.0000 0.0000 0.0000 0.0000 0.0000 0.0000 0.0000 0.0000 0.0000 0.0000 0.0000 0.0000 0.0000 0.0000 0.0000 0.0000 0.0000 0.0000 0.0000 0.0000 0.0000 0.0000 0.0000 0.0000 0.0000 0.0000 0.0000 0.0000 0.0000 0.0000 0.0000 0.0000 0.0000 0.0000 0.0000 0.0000 0.0000 0.0000 0.0000 0.0000 0.0000 0.0000 0.0000 0.0000 0.0000 61.7357 -19.2050 31.6076 -123.8218 67.5747 -35.7941 -36.4931 22.3121 -62.7372 -55.7536 -11.5456 -2.2025 27.8091 0.0000 0.0000 22.0426 0.0000 0.0000 15.7314 0.7140 0.2849 5.8373 0.0000 0.0000 1.8634 0.0000 0.0000 -8.6577 10.6310 106.5086 48.8973 0.0000 0.0000 7.1017 0.0000 0.0000 -25.0174 13.6673 122.7587 38.0079 0.0000 0.0000 11.3819 0.0000 0.0000 -43.7603 12.4473 121.7304 34.8953 0.0000 0.0000 19.7390 0.0000 0.0000 0.0000 0.0000 0.0000 0.0000 0.0000 0.0000 0.0000 0.0000 0.0000 0.0000 0.0000 0.0000 0.0000 0.0000 0.0000 0.0000 0.0000 0.0000
0.0000 95.0000 0.0000 0.0000 0.0000 0.0000 0.0000 0.0000 0.0000 0.0000 0.0000 0.0000 0.0000 0.0000 0.0000 0.0000 0.0000 0.0000 0.0000 0.0000 0.0000 0.0000 0.0000 0.0000 -72.0667 10.9801 15.0536 -3.7924 2.7828 -2.9311 0.0000 0.0000 0.0000 0.0000 0.0000 0.0000 0.0000 0.0000 0.0000 0.0000 0.0000 0.0000 0.0000 0.0000 0.0000 0.0000 0.0000 0.0000 0.0000 0.0000 0.0000 0.0000 0.0000 0.0000 0.0000 0.0000 0.0000 0.0000 0.0000 0.0000 0.0000 0.0000 0.0000 0.0000 0.0000 0.0000 0.0000 0.0000 0.0000 0.0000 0.0000 0.0000 0.0000 0.0000 0.0000 0.0000 0.0000 0.0000 0.0000 0.0000 0.0000 61.4130 -19.2013 31.7946 -123.3374 68.1448 -35.3996 -37.8785 21.7555 -63.8193 -56.7568 -12.0724 0.0629 22.6685 0.0000 0.0000 26.3159 0.0000 0.0000 13.5486 0.7838 2.9013 7.5564 0.0000 0.0000 4.3948 0.0000 0.0000 -11.1426 12.2207 100.0922 56.5823 0.0000 0.0000 7.2982 0.0000 0.0000 -25.1172 13.8154 122.7165 39.3593 0.0000 0.0000 9.8363 0.0000 0.0000 -42.8563 12.0565 125.4138 32.3106 0.0000 0.0000 11.2428 0.0000 0.0000 0.0000 0.0000 0.0000 0.0000 0.0000 0.0000 0.0000 0.0000 0.0000 0.0000 0.0000 0.0000 0.0000 0.0000 0.0000 0.0000 0.0000 0.0000
0.0000 95.0000 0.0000 0.0000 0.0000 0.0000 0.0000 0.0000 0.0000 0.0000 0.0000 0.0000 0.0000 0.0000 0.0000 0.0000 0.0000 0.0000 0.0000 0.0000 0.0000 0.0000 0.0000 0.0000 -72.3701 10.5931 14.4459 -3.8182 2.7503 -2.9081 0.0000 0.0000 0.0000 0.0000 0.0000 0.0000 0.0000 0.0000 0.0000 0.0000 0.0000 0.0000 0.0000 0.0000 0.0000 0.0000 0.0000 0.0000 0.0000 0.0000 0.0000 0.0000 0.0000 0.0000 0.0000 0.0000 0.0000 0.0000 0.0000 0.0000 0.0000 0.0000 0.0000 0.0000 0.0000 0.0000 0.0000 0.0000 0.0000 0.0000 0.0000 0.0000 0.0000 0.0000 0.0000 0.0000 0.0000 0.0000 0.0000 0.0000 0.0000 61.4268 -19.0739 31.5821 -124.1575 68.7910 -35.8536 -38.3699 22.7364 -65.7036 -58.6731 -12.5465 1.1541 22.9484 0.0000 0.0000 30.7231 0.0000 0.0000 11.4179 0.9484 5.4570 8.3498 0.0000 0.0000 2.7148 0.0000 0.0000 -11.5154 14.0418 106.1556 49.1747 0.0000 0.0000 6.5438 0.0000 0.0000 -24.7611 14.4807 126.9749 34.0184 0.0000 0.0000 10.0617 0.0000 0.0000 -39.1842 7.6863 134.1819 24.9745 0.0000 0.0000 13.6556 0.0000 0.0000 0.0000 0.0000 0.0000 0.0000 0.0000 0.0000 0.0000 0.0000 0.0000 0.0000 0.0000 0.0000 0.0000 0.0000 0.0000 0.0000 0.0000 0.0000
0.0000 95.0000 0.0000 0.0000 0.0000 0.0000 0.0000 0.0000 0.0000 0.0000 0.0000 0.0000 0.0000 0.0000 0.0000 0.0000 0.0000 0.0000 0.0000 0.0000 0.0000 0.0000 0.0000 0.0000 -72.8360 10.3251 13.9639 -3.8751 3.0556 -3.3441 0.0000 0.0000 0.0000 0.0000 0.0000 0.0000 0.0000 0.0000 0.0000 0.0000 0.0000 0.0000 0.0000 0.0000 0.0000 0.0000 0.0000 0.0000 0.0000 0.0000 0.0000 0.0000 0.0000 0.0000 0.0000 0.0000 0.0000 0.0000 0.0000 0.0000 0.0000 0.0000 0.0000 0.0000 0.0000 0.0000 0.0000 0.0000 0.0000 0.0000 0.0000 0.0000 0.0000 0.0000 0.0000 0.0000 0.0000 0.0000 0.0000 0.0000 0.0000 61.7403 -19.0760 31.3993 -124.4232 69.4624 -36.1557 -39.2741 21.4457 -63.3979 -57.0079 -12.3978 2.0417 18.7204 0.0000 0.0000 37.3998 0.0000 0.0000 9.8798 0.7630 3.4146 49.5553 0.0000 0.0000 65.3808 0.0000 0.0000 -9.6980 16.2928 123.4672 32.3384 0.0000 0.0000 5.7664 0.0000 0.0000 -23.9724 14.5227 131.6470 30.1646 0.0000 0.0000 8.6612 0.0000 0.0000 -42.5365 12.0359 127.2114 30.2005 0.0000 0.0000 9.5833 0.0000 0.0000 0.0000 0.0000 0.0000 0.0000 0.0000 0.0000 0.0000 0.0000 0.0000 0.0000 0.0000 0.0000 0.0000 0.0000 0.0000 0.0000 0.0000 0.0000
0.0000 95.0000 0.0000 0.0000 0.0000 0.0000 0.0000 0.0000 0.0000 0.0000 0.0000 0.0000 0.0000 0.0000 0.0000 0.0000 0.0000 0.0000 0.0000 0.0000 0.0000 0.0000 0.0000 0.0000 -72.5612 11.0365 14.9956 -4.0127 2.9579 -3.1051 0.0000 0.0000 0.0000 0.0000 0.0000 0.0000 0.0000 0.0000 0.0000 0.0000 0.0000 0.0000 0.0000 0.0000 0.0000 0.0000 0.0000 0.0000 0.0000 0.0000 0.0000 0.0000 0.0000 0.0000 0.0000 0.0000 0.0000 0.0000 0.0000 0.0000 0.0000 0.0000 0.0000 0.0000 0.0000 0.0000 0.0000 0.0000 0.0000 0.0000 0.0000 0.0000 0.0000 0.0000 0.0000 0.0000 0.0000 0.0000 0.0000 0.0000 0.0000 62.9379 -19.1429 30.8063 -122.5124 70.8673 -35.0908 -43.4603 18.4913 -57.9052 -58.8673 -13.2977 6.9436 12.1077 0.0000 0.0000 32.8244 0.0000 0.0000 13.1766 1.3883 12.3581 129.6861 0.0000 0.0000 13.6318 0.0000 0.0000 11.8552 -4.7323 48.1751 100.4223 0.0000 0.0000 11.2794 0.0000 0.0000 -3.2483 -8.1755 65.7888 87.1514 0.0000 0.0000 13.1910 0.0000 0.0000 -27.6020 -6.6027 73.6609 77.2465 0.0000 0.0000 11.3432 0.0000 0.0000 0.0000 0.0000 0.0000 0.0000 0.0000 0.0000 0.0000 0.0000 0.0000 0.0000 0.0000 0.0000 0.0000 0.0000 0.0000 0.0000 0.0000 0.0000
0.0000 95.0000 0.0000 0.0000 0.0000 0.0000 0.0000 0.0000 0.0000 0.0000 0.0000 0.0000 0.0000 0.0000 0.0000 0.0000 0.0000 0.0000 0.0000 0.0000 0.0000 0.0000 0.0000 0.0000 -72.2889 11.5365 15.7484 -4.0628 2.8942 -2.9539 0.0000 0.0000 0.0000 0.0000 0.0000 0.0000 0.0000 0.0000 0.0000 0.0000 0.0000 0.0000 0.0000 0.0000 0.0000 0.0000 0.0000 0.0000 0.0000 0.0000 0.0000 0.0000 0.0000 0.0000 0.0000 0.0000 0.0000 0.0000 0.0000 0.0000 0.0000 0.0000 0.0000 0.0000 0.0000 0.0000 0.0000 0.0000 0.0000 0.0000 0.0000 0.0000 0.0000 0.0000 0.0000 0.0000 0.0000 0.0000 0.0000 0.0000 0.0000 63.8499 -19.2538 30.4585 -116.7624 72.7029 -30.9515 -50.1491 20.0602 -63.3617 -57.7211 -12.6146 2.8164 14.0905 0.0000 0.0000 28.4684 0.0000 0.0000 9.2518 5.5363 49.3850 98.8192 0.0000 0.0000 8.9804 0.0000 0.0000 -9.3496 15.2286 121.8644 26.0693 0.0000 0.0000 8.7048 0.0000 0.0000 -22.4501 11.0627 129.5543 22.2195 0.0000 0.0000 11.0218 0.0000 0.0000 -40.7854 10.1223 131.5698 18.8301 0.0000 0.0000 9.1738 0.0000 0.0000 0.0000 0.0000 0.0000 0.0000 0.0000 0.0000 0.0000 0.0000 0.0000 0.0000 0.0000 0.0000 0.0000 0.0000 0.0000 0.0000 0.0000 0.0000
0.0000 95.0000 0.0000 0.0000 0.0000 0.0000 0.0000 0.0000 0.0000 0.0000 0.0000 0.0000 0.0000 0.0000 0.0000 0.0000 0.0000 0.0000 0.0000 0.0000 0.0000 0.0000 0.0000 0.0000 -71.7793 12.1450 16.7273 -4.4333 2.9508 -2.8891 0.0000 0.0000 0.0000 0.0000 0.0000 0.0000 0.0000 0.0000 0.0000 0.0000 0.0000 0.0000 0.0000 0.0000 0.0000 0.0000 0.0000 0.0000 0.0000 0.0000 0.0000 0.0000 0.0000 0.0000 0.0000 0.0000 0.0000 0.0000 0.0000 0.0000 0.0000 0.0000 0.0000 0.0000 0.0000 0.0000 0.0000 0.0000 0.0000 0.0000 0.0000 0.0000 0.0000 0.0000 0.0000 0.0000 0.0000 0.0000 0.0000 0.0000 0.0000 65.1020 -19.2983 29.8293 -110.5669 74.4704 -26.2617 -53.9646 19.3045 -65.3141 -57.7211 -12.6146 2.8164 14.0905 0.0000 0.0000 28.4684 0.0000 0.0000 9.2518 5.5363 49.3850 98.8192 0.0000 0.0000 8.9804 0.0000 0.0000 -9.3496 15.2286 121.8644 26.0693 0.0000 0.0000 8.7048 0.0000 0.0000 -22.4501 11.0627 129.5543 22.2195 0.0000 0.0000 11.0218 0.0000 0.0000 -40.7854 10.1223 131.5698 18.8301 0.0000 0.0000 9.1738 0.0000 0.0000 0.0000 0.0000 0.0000 0.0000 0.0000 0.0000 0.0000 0.0000 0.0000 0.0000 0.0000 0.0000 0.0000 0.0000 0.0000 0.0000 0.0000 0.0000
0.0000 95.0000 0.0000 0.0000 0.0000 0.0000 0.0000 0.0000 0.0000 0.0000 0.0000 0.0000 0.0000 0.0000 0.0000 0.0000 0.0000 0.0000 0.0000 0.0000 0.0000 0.0000 0.0000 0.0000 -71.6459 12.8237 17.6980 -4.4904 2.9188 -2.7397 0.0000 0.0000 0.0000 0.0000 0.0000 0.0000 0.0000 0.0000 0.0000 0.0000 0.0000 0.0000 0.0000 0.0000 0.0000 0.0000 0.0000 0.0000 0.0000 0.0000 0.0000 0.0000 0.0000 0.0000 0.0000 0.0000 0.0000 0.0000 0.0000 0.0000 0.0000 0.0000 0.0000 0.0000 0.0000 0.0000 0.0000 0.0000 0.0000 0.0000 0.0000 0.0000 0.0000 0.0000 0.0000 0.0000 0.0000 0.0000 0.0000 0.0000 0.0000 66.2541 -18.7800 28.4405 -82.8207 77.2665 -1.9174 -62.6636 17.0030 -69.2116 -57.7211 -12.6146 2.8164 14.0905 0.0000 0.0000 28.4684 0.0000 0.0000 9.2518 5.5363 49.3850 98.8192 0.0000 0.0000 8.9804 0.0000 0.0000 -9.3496 15.2286 121.8644 26.0693 0.0000 0.0000 8.7048 0.0000 0.0000 -22.4501 11.0627 129.5543 22.2195 0.0000 0.0000 11.0218 0.0000 0.0000 -40.7854 10.1223 131.5698 18.8301 0.0000 0.0000 9.1738 0.0000 0.0000 0.0000 0.0000 0.0000 0.0000 0.0000 0.0000 0.0000 0.0000 0.0000 0.0000 0.0000 0.0000 0.0000 0.0000 0.0000 0.0000 0.0000 0.0000
0.0000 95.0000 0.0000 0.0000 0.0000 0.0000 0.0000 0.0000 0.0000 0.0000 0.0000 0.0000 0.0000 0.0000 0.0000 0.0000 0.0000 0.0000 0.0000 0.0000 0.0000 0.0000 0.0000 0.0000 -72.3196 12.5749 17.1471 -4.1617 2.1501 -1.7246 0.0000 0.0000 0.0000 0.0000 0.0000 0.0000 0.0000 0.0000 0.0000 0.0000 0.0000 0.0000 0.0000 0.0000 0.0000 0.0000 0.0000 0.0000 0.0000 0.0000 0.0000 0.0000 0.0000 0.0000 0.0000 0.0000 0.0000 0.0000 0.0000 0.0000 0.0000 0.0000 0.0000 0.0000 0.0000 0.0000 0.0000 0.0000 0.0000 0.0000 0.0000 0.0000 0.0000 0.0000 0.0000 0.0000 0.0000 0.0000 0.0000 0.0000 0.0000 67.6566 -18.3762 27.1392 -52.6732 76.2524 24.3041 -71.2994 13.9904 -72.0147 -57.7211 -12.6146 2.8164 14.0905 0.0000 0.0000 28.4684 0.0000 0.0000 9.2518 5.5363 49.3850 98.8192 0.0000 0.0000 8.9804 0.0000 0.0000 -9.3496 15.2286 121.8644 26.0693 0.0000 0.0000 8.7048 0.0000 0.0000 -22.4501 11.0627 129.5543 22.2195 0.0000 0.0000 11.0218 0.0000 0.0000 -40.7854 10.1223 131.5698 18.8301 0.0000 0.0000 9.1738 0.0000 0.0000 0.0000 0.0000 0.0000 0.0000 0.0000 0.0000 0.0000 0.0000 0.0000 0.0000 0.0000 0.0000 0.0000 0.0000 0.0000 0.0000 0.0000 0.0000
0.0000 95.0000 0.0000 0.0000 0.0000 0.0000 0.0000 0.0000 0.0000 0.0000 0.0000 0.0000 0.0000 0.0000 0.0000 0.0000 0.0000 0.0000 0.0000 0.0000 0.0000 0.0000 0.0000 0.0000 -72.9202 11.0211 14.8778 -5.6969 2.4708 -1.9912 0.0000 0.0000 0.0000 0.0000 0.0000 0.0000 0.0000 0.0000 0.0000 0.0000 0.0000 0.0000 0.0000 0.0000 0.0000 0.0000 0.0000 0.0000 0.0000 0.0000 0.0000 0.0000 0.0000 0.0000 0.0000 0.0000 0.0000 0.0000 0.0000 0.0000 0.0000 0.0000 0.0000 0.0000 0.0000 0.0000 0.0000 0.0000 0.0000 0.0000 0.0000 0.0000 0.0000 0.0000 0.0000 0.0000 0.0000 0.0000 0.0000 0.0000 0.0000 69.6712 -17.2811 24.6347 -19.7725 66.5683 48.5369 -87.9695 6.9461 -73.7982 -57.7211 -12.6146 2.8164 14.0905 0.0000 0.0000 28.4684 0.0000 0.0000 9.2518 5.5363 49.3850 98.8192 0.0000 0.0000 8.9804 0.0000 0.0000 -9.3496 15.2286 121.8644 26.0693 0.0000 0.0000 8.7048 0.0000 0.0000 -22.4501 11.0627 129.5543 22.2195 0.0000 0.0000 11.0218 0.0000 0.0000 -40.7854 10.1223 131.5698 18.8301 0.0000 0.0000 9.1738 0.0000 0.0000 0.0000 0.0000 0.0000 0.0000 0.0000 0.0000 0.0000 0.0000 0.0000 0.0000 0.0000 0.0000 0.0000 0.0000 0.0000 0.0000 0.0000 0.0000
0.0000 95.0000 0.0000 0.0000 0.0000 0.0000 0.0000 0.0000 0.0000 0.0000 0.0000 0.0000 0.0000 0.0000 0.0000 0.0000 0.0000 0.0000 0.0000 0.0000 0.0000 0.0000 0.0000 0.0000 -73.9189 8.4495 11.2138 -7.1372 2.6293 -2.3640 0.0000 0.0000 0.0000 0.0000 0.0000 0.0000 0.0000 0.0000 0.0000 0.0000 0.0000 0.0000 0.0000 0.0000 0.0000 0.0000 0.0000 0.0000 0.0000 0.0000 0.0000 0.0000 0.0000 0.0000 0.0000 0.0000 0.0000 0.0000 0.0000 0.0000 0.0000 0.0000 0.0000 0.0000 0.0000 0.0000 0.0000 0.0000 0.0000 0.0000 0.0000 0.0000 0.0000 0.0000 0.0000 0.0000 0.0000 0.0000 0.0000 0.0000 0.0000 71.8482 -16.0125 21.9725 -10.1172 57.5779 50.8393 -101.1007 1.4828 -71.4235 -57.7211 -12.6146 2.8164 14.0905 0.0000 0.0000 28.4684 0.0000 0.0000 9.2518 5.5363 49.3850 98.8192 0.0000 0.0000 8.9804 0.0000 0.0000 -9.3496 15.2286 121.8644 26.0693 0.0000 0.0000 8.7048 0.0000 0.0000 -22.4501 11.0627 129.5543 22.2195 0.0000 0.0000 11.0218 0.0000 0.0000 -40.7854 10.1223 131.5698 18.8301 0.0000 0.0000 9.1738 0.0000 0.0000 0.0000 0.0000 0.0000 0.0000 0.0000 0.0000 0.0000 0.0000 0.0000 0.0000 0.0000 0.0000 0.0000 0.0000 0.0000 0.0000 0.0000 0.0000
0.0000 95.0000 0.0000 0.0000 0.0000 0.0000 0.0000 0.0000 0.0000 0.0000 0.0000 0.0000 0.0000 0.0000 0.0000 0.0000 0.0000 0.0000 0.0000 0.0000 0.0000 0.0000 0.0000 0.0000 -75.1091 6.3120 8.2040 -7.7870 1.0588 -0.3145 0.0000 0.0000 0.0000 0.0000 0.0000 0.0000 0.0000 0.0000 0.0000 0.0000 0.0000 0.0000 0.0000 0.0000 0.0000 0.0000 0.0000 0.0000 0.0000 0.0000 0.0000 0.0000 0.0000 0.0000 0.0000 0.0000 0.0000 0.0000 0.0000 0.0000 0.0000 0.0000 0.0000 0.0000 0.0000 0.0000 0.0000 0.0000 0.0000 0.0000 0.0000 0.0000 0.0000 0.0000 0.0000 0.0000 0.0000 0.0000 0.0000 0.0000 0.0000 75.4983 -11.5801 14.9226 4.3005 37.3890 46.4911 -131.9496 -6.6588 -59.2262 -57.7211 -12.6146 2.8164 14.0905 0.0000 0.0000 28.4684 0.0000 0.0000 9.2518 5.5363 49.3850 98.8192 0.0000 0.0000 8.9804 0.0000 0.0000 -9.3496 15.2286 121.8644 26.0693 0.0000 0.0000 8.7048 0.0000 0.0000 -22.4501 11.0627 129.5543 22.2195 0.0000 0.0000 11.0218 0.0000 0.0000 -40.7854 10.1223 131.5698 18.8301 0.0000 0.0000 9.1738 0.0000 0.0000 0.0000 0.0000 0.0000 0.0000 0.0000 0.0000 0.0000 0.0000 0.0000 0.0000 0.0000 0.0000 0.0000 0.0000 0.0000 0.0000 0.0000 0.0000
0.0000 95.0000 0.0000 0.0000 0.0000 0.0000 0.0000 0.0000 0.0000 0.0000 0.0000 0.0000 0.0000 0.0000 0.0000 0.0000 0.0000 0.0000 0.0000 0.0000 0.0000 0.0000 0.0000 0.0000 -76.0276 4.4775 5.7263 -8.0408 -0.3895 1.4840 0.0000 0.0000 0.0000 0.0000 0.0000 0.0000 0.0000 0.0000 0.0000 0.0000 0.0000 0.0000 0.0000 0.0000 0.0000 0.0000 0.0000 0.0000 0.0000 0.0000 0.0000 0.0000 0.0000 0.0000 0.0000 0.0000 0.0000 0.0000 0.0000 0.0000 0.0000 0.0000 0.0000 0.0000 0.0000 0.0000 0.0000 0.0000 0.0000 0.0000 0.0000 0.0000 0.0000 0.0000 0.0000 0.0000 0.0000 0.0000 0.0000 0.0000 0.0000 77.7485 -9.0552 11.2200 5.6911 21.5784 28.9223 -154.8191 -1.9355 -40.4494 -57.7211 -12.6146 2.8164 14.0905 0.0000 0.0000 28.4684 0.0000 0.0000 9.2518 5.5363 49.3850 98.8192 0.0000 0.0000 8.9804 0.0000 0.0000 -9.3496 15.2286 121.8644 26.0693 0.0000 0.0000 8.7048 0.0000 0.0000 -22.4501 11.0627 129.5543 22.2195 0.0000 0.0000 11.0218 0.0000 0.0000 -40.7854 10.1223 131.5698 18.8301 0.0000 0.0000 9.1738 0.0000 0.0000 0.0000 0.0000 0.0000 0.0000 0.0000 0.0000 0.0000 0.0000 0.0000 0.0000 0.0000 0.0000 0.0000 0.0000 0.0000 0.0000 0.0000 0.0000
0.0000 95.0000 0.0000 0.0000 0.0000 0.0000 0.0000 0.0000 0.0000 0.0000 0.0000 0.0000 0.0000 0.0000 0.0000 0.0000 0.0000 0.0000 0.0000 0.0000 0.0000 0.0000 0.0000 0.0000 -76.6336 3.3060 4.1829 -8.5117 -1.0287 2.2219 0.0000 0.0000 0.0000 0.0000 0.0000 0.0000 0.0000 0.0000 0.0000 0.0000 0.0000 0.0000 0.0000 0.0000 0.0000 0.0000 0.0000 0.0000 0.0000 0.0000 0.0000 0.0000 0.0000 0.0000 0.0000 0.0000 0.0000 0.0000 0.0000 0.0000 0.0000 0.0000 0.0000 0.0000 0.0000 0.0000 0.0000 0.0000 0.0000 0.0000 0.0000 0.0000 0.0000 0.0000 0.0000 0.0000 0.0000 0.0000 0.0000 0.0000 0.0000 79.1586 -7.2849 8.8070 5.1713 14.9577 19.9766 -163.0686 4.2146 -30.9161 -57.7211 -12.6146 2.8164 14.0905 0.0000 0.0000 28.4684 0.0000 0.0000 9.2518 5.5363 49.3850 98.8192 0.0000 0.0000 8.9804 0.0000 0.0000 -9.3496 15.2286 121.8644 26.0693 0.0000 0.0000 8.7048 0.0000 0.0000 -22.4501 11.0627 129.5543 22.2195 0.0000 0.0000 11.0218 0.0000 0.0000 -40.7854 10.1223 131.5698 18.8301 0.0000 0.0000 9.1738 0.0000 0.0000 0.0000 0.0000 0.0000 0.0000 0.0000 0.0000 0.0000 0.0000 0.0000 0.0000 0.0000 0.0000 0.0000 0.0000 0.0000 0.0000 0.0000 0.0000
0.0000 95.0000 0.0000 0.0000 0.0000 0.0000 0.0000 0.0000 0.0000 0.0000 0.0000 0.0000 0.0000 0.0000 0.0000 0.0000 0.0000 0.0000 0.0000 0.0000 0.0000 0.0000 0.0000 0.0000 -76.9692 2.1916 2.7565 -8.9382 -1.4957 2.7020 0.0000 0.0000 0.0000 0.0000 0.0000 0.0000 0.0000 0.0000 0.0000 0.0000 0.0000 0.0000 0.0000 0.0000 0.0000 0.0000 0.0000 0.0000 0.0000 0.0000 0.0000 0.0000 0.0000 0.0000 0.0000 0.0000 0.0000 0.0000 0.0000 0.0000 0.0000 0.0000 0.0000 0.0000 0.0000 0.0000 0.0000 0.0000 0.0000 0.0000 0.0000 0.0000 0.0000 0.0000 0.0000 0.0000 0.0000 0.0000 0.0000 0.0000 0.0000 80.2322 -5.6790 6.7379 3.6394 11.8338 15.1167 -165.9573 8.9359 -25.0890 -57.7211 -12.6146 2.8164 14.0905 0.0000 0.0000 28.4684 0.0000 0.0000 9.2518 5.5363 49.3850 98.8192 0.0000 0.0000 8.9804 0.0000 0.0000 -9.3496 15.2286 121.8644 26.0693 0.0000 0.0000 8.7048 0.0000 0.0000 -22.4501 11.0627 129.5543 22.2195 0.0000 0.0000 11.0218 0.0000 0.0000 -40.7854 10.1223 131.5698 18.8301 0.0000 0.0000 9.1738 0.0000 0.0000 0.0000 0.0000 0.0000 0.0000 0.0000 0.0000 0.0000 0.0000 0.0000 0.0000 0.0000 0.0000 0.0000 0.0000 0.0000 0.0000 0.0000 0.0000
0.0000 95.0000 0.0000 0.0000 0.0000 0.0000 0.0000 0.0000 0.0000 0.0000 0.0000 0.0000 0.0000 0.0000 0.0000 0.0000 0.0000 0.0000 0.0000 0.0000 0.0000 0.0000 0.0000 0.0000 -76.7778 1.6725 2.1109 -9.7307 -1.7395 3.0352 0.0000 0.0000 0.0000 0.0000 0.0000 0.0000 0.0000 0.0000 0.0000 0.0000 0.0000 0.0000 0.0000 0.0000 0.0000 0.0000 0.0000 0.0000 0.0000 0.0000 0.0000 0.0000 0.0000 0.0000 0.0000 0.0000 0.0000 0.0000 0.0000 0.0000 0.0000 0.0000 0.0000 0.0000 0.0000 0.0000 0.0000 0.0000 0.0000 0.0000 0.0000 0.0000 0.0000 0.0000 0.0000 0.0000 0.0000 0.0000 0.0000 0.0000 0.0000 81.0668 -4.6483 5.4350 1.7422 10.9674 13.2037 -166.0770 11.3503 -22.2174 -57.7211 -12.6146 2.8164 14.0905 0.0000 0.0000 28.4684 0.0000 0.0000 9.2518 5.5363 49.3850 98.8192 0.0000 0.0000 8.9804 0.0000 0.0000 -9.3496 15.2286 121.8644 26.0693 0.0000 0.0000 8.7048 0.0000 0.0000 -22.4501 11.0627 129.5543 22.2195 0.0000 0.0000 11.0218 0.0000 0.0000 -40.7854 10.1223 131.5698 18.8301 0.0000 0.0000 9.1738 0.0000 0.0000 0.0000 0.0000 0.0000 0.0000 0.0000 0.0000 0.0000 0.0000 0.0000 0.0000 0.0000 0.0000 0.0000 0.0000 0.0000 0.0000 0.0000 0.0000
0.0000 95.0000 0.0000 0.0000 0.0000 0.0000 0.0000 0.0000 0.0000 0.0000 0.0000 0.0000 0.0000 0.0000 0.0000 0.0000 0.0000 0.0000 0.0000 0.0000 0.0000 0.0000 0.0000 0.0000 -76.8231 1.3131 1.6560 -9.8185 -1.8943 3.1859 0.0000 0.0000 0.0000 0.0000 0.0000 0.0000 0.0000 0.0000 0.0000 0.0000 0.0000 0.0000 0.0000 0.0000 0.0000 0.0000 0.0000 0.0000 0.0000 0.0000 0.0000 0.0000 0.0000 0.0000 0.0000 0.0000 0.0000 0.0000 0.0000 0.0000 0.0000 0.0000 0.0000 0.0000 0.0000 0.0000 0.0000 0.0000 0.0000 0.0000 0.0000 0.0000 0.0000 0.0000 0.0000 0.0000 0.0000 0.0000 0.0000 0.0000 0.0000 81.7882 -4.1381 4.7775 0.1777 10.8387 12.4202 -165.6530 12.4350 -20.8831 -57.7211 -12.6146 2.8164 14.0905 0.0000 0.0000 28.4684 0.0000 0.0000 9.2518 5.5363 49.3850 98.8192 0.0000 0.0000 8.9804 0.0000 0.0000 -9.3496 15.2286 121.8644 26.0693 0.0000 0.0000 8.7048 0.0000 0.0000 -22.4501 11.0627 129.5543 22.2195 0.0000 0.0000 11.0218 0.0000 0.0000 -40.7854 10.1223 131.5698 18.8301 0.0000 0.0000 9.1738 0.0000 0.0000 0.0000 0.0000 0.0000 0.0000 0.0000 0.0000 0.0000 0.0000 0.0000 0.0000 0.0000 0.0000 0.0000 0.0000 0.0000 0.0000 0.0000 0.0000
0.0000 95.0000 0.0000 0.0000 0.0000 0.0000 0.0000 0.0000 0.0000 0.0000 0.0000 0.0000 0.0000 0.0000 0.0000 0.0000 0.0000 0.0000 0.0000 0.0000 0.0000 0.0000 0.0000 0.0000 -76.6647 1.0568 1.3366 -10.1434 -2.0354 3.3749 0.0000 0.0000 0.0000 0.0000 0.0000 0.0000 0.0000 0.0000 0.0000 0.0000 0.0000 0.0000 0.0000 0.0000 0.0000 0.0000 0.0000 0.0000 0.0000 0.0000 0.0000 0.0000 0.0000 0.0000 0.0000 0.0000 0.0000 0.0000 0.0000 0.0000 0.0000 0.0000 0.0000 0.0000 0.0000 0.0000 0.0000 0.0000 0.0000 0.0000 0.0000 0.0000 0.0000 0.0000 0.0000 0.0000 0.0000 0.0000 0.0000 0.0000 0.0000 82.3967 -3.5184 4.0189 -1.1348 11.1935 12.3350 -165.0653 13.0842 -20.0385 -57.7211 -12.6146 2.8164 14.0905 0.0000 0.0000 28.4684 0.0000 0.0000 9.2518 5.5363 49.3850 98.8192 0.0000 0.0000 8.9804 0.0000 0.0000 -9.3496 15.2286 121.8644 26.0693 0.0000 0.0000 8.7048 0.0000 0.0000 -22.4501 11.0627 129.5543 22.2195 0.0000 0.0000 11.0218 0.0000 0.0000 -40.7854 10.1223 131.5698 18.8301 0.0000 0.0000 9.1738 0.0000 0.0000 0.0000 0.0000 0.0000 0.0000 0.0000 0.0000 0.0000 0.0000 0.0000 0.0000 0.0000 0.0000 0.0000 0.0000 0.0000 0.0000 0.0000 0.0000
0.0000 95.0000 0.0000 0.0000 0.0000 0.0000 0.0000 0.0000 0.0000 0.0000 0.0000 0.0000 0.0000 0.0000 0.0000 0.0000 0.0000 0.0000 0.0000 0.0000 0.0000 0.0000 0.0000 0.0000 -76.3744 1.1798 1.4999 -10.7642 -2.0886 3.5668 0.0000 0.0000 0.0000 0.0000 0.0000 0.0000 0.0000 0.0000 0.0000 0.0000 0.0000 0.0000 0.0000 0.0000 0.0000 0.0000 0.0000 0.0000 0.0000 0.0000 0.0000 0.0000 0.0000 0.0000 0.0000 0.0000 0.0000 0.0000 0.0000 0.0000 0.0000 0.0000 0.0000 0.0000 0.0000 0.0000 0.0000 0.0000 0.0000 0.0000 0.0000 0.0000 0.0000 0.0000 0.0000 0.0000 0.0000 0.0000 0.0000 0.0000 0.0000 82.8699 -3.4889 3.9521 -1.8830 11.5338 12.3950 -164.6982 13.0273 -20.0697 -57.7211 -12.6146 2.8164 14.0905 0.0000 0.0000 28.4684 0.0000 0.0000 9.2518 5.5363 49.3850 98.8192 0.0000 0.0000 8.9804 0.0000 0.0000 -9.3496 15.2286 121.8644 26.0693 0.0000 0.0000 8.7048 0.0000 0.0000 -22.4501 11.0627 129.5543 22.2195 0.0000 0.0000 11.0218 0.0000 0.0000 -40.7854 10.1223 131.5698 18.8301 0.0000 0.0000 9.1738 0.0000 0.0000 0.0000 0.0000 0.0000 0.0000 0.0000 0.0000 0.0000 0.0000 0.0000 0.0000 0.0000 0.0000 0.0000 0.0000 0.0000 0.0000 0.0000 0.0000
0.0000 95.0000 0.0000 0.0000 0.0000 0.0000 0.0000 0.0000 0.0000 0.0000 0.0000 0.0000 0.0000 0.0000 0.0000 0.0000 0.0000 0.0000 0.0000 0.0000 0.0000 0.0000 0.0000 0.0000 -76.4249 1.3985 1.7764 -11.0154 -2.0174 3.5390 0.0000 0.0000 0.0000 0.0000 0.0000 0.0000 0.0000 0.0000 0.0000 0.0000 0.0000 0.0000 0.0000 0.0000 0.0000 0.0000 0.0000 0.0000 0.0000 0.0000 0.0000 0.0000 0.0000 0.0000 0.0000 0.0000 0.0000 0.0000 0.0000 0.0000 0.0000 0.0000 0.0000 0.0000 0.0000 0.0000 0.0000 0.0000 0.0000 0.0000 0.0000 0.0000 0.0000 0.0000 0.0000 0.0000 0.0000 0.0000 0.0000 0.0000 0.0000 83.3418 -3.3458 3.7588 -2.3379 11.7064 12.3627 -164.7198 13.1180 -19.9606 -57.7211 -12.6146 2.8164 14.0905 0.0000 0.0000 28.4684 0.0000 0.0000 9.2518 5.5363 49.3850 98.8192 0.0000 0.0000 8.9804 0.0000 0.0000 -9.3496 15.2286 121.8644 26.0693 0.0000 0.0000 8.7048 0.0000 0.0000 -22.4501 11.0627 129.5543 22.2195 0.0000 0.0000 11.0218 0.0000 0.0000 -40.7854 10.1223 131.5698 18.8301 0.0000 0.0000 9.1738 0.0000 0.0000 0.0000 0.0000 0.0000 0.0000 0.0000 0.0000 0.0000 0.0000 0.0000 0.0000 0.0000 0.0000 0.0000 0.0000 0.0000 0.0000 0.0000 0.0000
0.0000 95.0000 0.0000 0.0000 0.0000 0.0000 0.0000 0.0000 0.0000 0.0000 0.0000 0.0000 0.0000 0.0000 0.0000 0.0000 0.0000 0.0000 0.0000 0.0000 0.0000 0.0000 0.0000 0.0000 -76.3595 1.2911 1.6419 -11.3112 -2.0385 3.5755 0.0000 0.0000 0.0000 0.0000 0.0000 0.0000 0.0000 0.0000 0.0000 0.0000 0.0000 0.0000 0.0000 0.0000 0.0000 0.0000 0.0000 0.0000 0.0000 0.0000 0.0000 0.0000 0.0000 0.0000 0.0000 0.0000 0.0000 0.0000 0.0000 0.0000 0.0000 0.0000 0.0000 0.0000 0.0000 0.0000 0.0000 0.0000 0.0000 0.0000 0.0000 0.0000 0.0000 0.0000 0.0000 0.0000 0.0000 0.0000 0.0000 0.0000 0.0000 83.7457 -3.4130 3.8072 -2.9286 11.9920 12.4065 -164.4300 12.9776 -20.1027 -57.7211 -12.6146 2.8164 14.0905 0.0000 0.0000 28.4684 0.0000 0.0000 9.2518 5.5363 49.3850 98.8192 0.0000 0.0000 8.9804 0.0000 0.0000 -9.3496 15.2286 121.8644 26.0693 0.0000 0.0000 8.7048 0.0000 0.0000 -22.4501 11.0627 129.5543 22.2195 0.0000 0.0000 11.0218 0.0000 0.0000 -40.7854 10.1223 131.5698 18.8301 0.0000 0.0000 9.1738 0.0000 0.0000 0.0000 0.0000 0.0000 0.0000 0.0000 0.0000 0.0000 0.0000 0.0000 0.0000 0.0000 0.0000 0.0000 0.0000 0.0000 0.0000 0.0000 0.0000
0.0000 95.0000 0.0000 0.0000 0.0000 0.0000 0.0000 0.0000 0.0000 0.0000 0.0000 0.0000 0.0000 0.0000 0.0000 0.0000 0.0000 0.0000 0.0000 0.0000 0.0000 0.0000 0.0000 0.0000 -76.4072 1.3897 1.7657 -11.1313 -1.7431 3.1222 0.0000 0.0000 0.0000 0.0000 0.0000 0.0000 0.0000 0.0000 0.0000 0.0000 0.0000 0.0000 0.0000 0.0000 0.0000 0.0000 0.0000 0.0000 0.0000 0.0000 0.0000 0.0000 0.0000 0.0000 0.0000 0.0000 0.0000 0.0000 0.0000 0.0000 0.0000 0.0000 0.0000 0.0000 0.0000 0.0000 0.0000 0.0000 0.0000 0.0000 0.0000 0.0000 0.0000 0.0000 0.0000 0.0000 0.0000 0.0000 0.0000 0.0000 0.0000 83.9938 -3.3263 3.6944 -3.5427 12.1747 12.3805 -164.0522 13.0746 -19.9428 -57.7211 -12.6146 2.8164 14.0905 0.0000 0.0000 28.4684 0.0000 0.0000 9.2518 5.5363 49.3850 98.8192 0.0000 0.0000 8.9804 0.0000 0.0000 -9.3496 15.2286 121.8644 26.0693 0.0000 0.0000 8.7048 0.0000 0.0000 -22.4501 11.0627 129.5543 22.2195 0.0000 0.0000 11.0218 0.0000 0.0000 -40.7854 10.1223 131.5698 18.8301 0.0000 0.0000 9.1738 0.0000 0.0000 0.0000 0.0000 0.0000 0.0000 0.0000 0.0000 0.0000 0.0000 0.0000 0.0000 0.0000 0.0000 0.0000 0.0000 0.0000 0.0000 0.0000 0.0000
0.0000 95.0000 0.0000 0.0000 0.0000 0.0000 0.0000 0.0000 0.0000 0.0000 0.0000 0.0000 0.0000 0.0000 0.0000 0.0000 0.0000 0.0000 0.0000 0.0000 0.0000 0.0000 0.0000 0.0000 -76.3612 1.2828 1.6312 -11.2206 -1.8031 3.1961 0.0000 0.0000 0.0000 0.0000 0.0000 0.0000 0.0000 0.0000 0.0000 0.0000 0.0000 0.0000 0.0000 0.0000 0.0000 0.0000 0.0000 0.0000 0.0000 0.0000 0.0000 0.0000 0.0000 0.0000 0.0000 0.0000 0.0000 0.0000 0.0000 0.0000 0.0000 0.0000 0.0000 0.0000 0.0000 0.0000 0.0000 0.0000 0.0000 0.0000 0.0000 0.0000 0.0000 0.0000 0.0000 0.0000 0.0000 0.0000 0.0000 0.0000 0.0000 84.0694 -3.3397 3.7044 -3.8483 12.1222 12.2250 -163.8760 13.1924 -19.7772 -57.7211 -12.6146 2.8164 14.0905 0.0000 0.0000 28.4684 0.0000 0.0000 9.2518 5.5363 49.3850 98.8192 0.0000 0.0000 8.9804 0.0000 0.0000 -9.3496 15.2286 121.8644 26.0693 0.0000 0.0000 8.7048 0.0000 0.0000 -22.4501 11.0627 129.5543 22.2195 0.0000 0.0000 11.0218 0.0000 0.0000 -40.7854 10.1223 131.5698 18.8301 0.0000 0.0000 9.1738 0.0000 0.0000 0.0000 0.0000 0.0000 0.0000 0.0000 0.0000 0.0000 0.0000 0.0000 0.0000 0.0000 0.0000 0.0000 0.0000 0.0000 0.0000 0.0000 0.0000
