HIERARCHY
ROOT Hips
{
  OFFSET 0.000000 95.000000 0.000000
  CHANNELS 6 Xposition Yposition Zposition Zrotation Xrotation Yrotation
  JOINT Spine
  {
    OFFSET 0.000000 10.000000 0.000000
    CHANNELS 3 Zrotation Xrotation Yrotation
    JOINT Spine1
    {
      OFFSET 0.000000 12.000000 0.000000
      CHANNELS 3 Zrotation Xrotation Yrotation
      JOINT Spine2
      {
        OFFSET 0.000000 12.000000 0.000000
        CHANNELS 3 Zrotation Xrotation Yrotation
        JOINT Neck
        {
          OFFSET 0.000000 10.000000 0.000000
          CHANNELS 3 Zrotation Xrotation Yrotation
          JOINT Head
          {
            OFFSET 0.000000 8.000000 0.000000
            CHANNELS 3 Zrotation Xrotation Yrotation
            End Site
            {
              OFFSET 0.000000 10.000000 0.000000
            }
          }
        }
        JOINT LeftShoulder
        {
          OFFSET 6.000000 8.000000 0.000000
          CHANNELS 3 Zrotation Xrotation Yrotation
          JOINT LeftArm
          {
            OFFSET 12.000000 0.000000 0.000000
            CHANNELS 3 Zrotation Xrotation Yrotation
            JOINT LeftForeArm
            {
              OFFSET 24.000000 0.000000 0.000000
              CHANNELS 3 Zrotation Xrotation Yrotation
              JOINT LeftHand
              {
                OFFSET 22.000000 0.000000 0.000000
                CHANNELS 3 Zrotation Xrotation Yrotation
                JOINT LeftHandThumb1
                {
                  OFFSET 1.800000 -1.400000 0.500000
                  CHANNELS 3 Zrotation Xrotation Yrotation
                  JOINT LeftHandThumb2
                  {
                    OFFSET 2.400000 0.000000 0.000000
                    CHANNELS 3 Zrotation Xrotation Yrotation
                    JOINT LeftHandThumb3
                    {
                      OFFSET 1.900000 0.000000 0.000000
                      CHANNELS 3 Zrotation Xrotation Yrotation
                      End Site
                      {
                        OFFSET 1.600000 0.000000 0.000000
                      }
                    }
                  }
                }
                JOINT LeftHandIndex1
                {
                  OFFSET 6.600000 1.200000 0.300000
                  CHANNELS 3 Zrotation Xrotation Yrotation
                  JOINT LeftHandIndex2
                  {
                    OFFSET 2.000000 0.000000 0.000000
                    CHANNELS 3 Zrotation Xrotation Yrotation
                    JOINT LeftHandIndex3
                    {
                      OFFSET 1.200000 0.000000 0.000000
                      CHANNELS 3 Zrotation Xrotation Yrotation
                      End Site
                      {
                        OFFSET 1.000000 0.000000 0.000000
                      }
                    }
                  }
                }
                JOINT LeftHandMiddle1
                {
                  OFFSET 7.200000 0.000000 0.300000
                  CHANNELS 3 Zrotation Xrotation Yrotation
                  JOINT LeftHandMiddle2
                  {
                    OFFSET 3.000000 0.000000 0.000000
                    CHANNELS 3 Zrotation Xrotation Yrotation
                    JOINT LeftHandMiddle3
                    {
                      OFFSET 2.000000 0.000000 0.000000
                      CHANNELS 3 Zrotation Xrotation Yrotation
                      End Site
                      {
                        OFFSET 1.600000 0.000000 0.000000
                      }
                    }
                  }
                }
                JOINT LeftHandRing1
                {
                  OFFSET 7.100000 -1.000000 0.400000
                  CHANNELS 3 Zrotation Xrotation Yrotation
                  JOINT LeftHandRing2
                  {
                    OFFSET 2.600000 0.000000 0.000000
                    CHANNELS 3 Zrotation Xrotation Yrotation
                    JOINT LeftHandRing3
                    {
                      OFFSET 1.600000 0.000000 0.000000
                      CHANNELS 3 Zrotation Xrotation Yrotation
                      End Site
                      {
                        OFFSET 1.300000 0.000000 0.000000
                      }
                    }
                  }
                }
                JOINT LeftHandPinky1
                {
                  OFFSET 6.500000 -2.000000 0.500000
                  CHANNELS 3 Zrotation Xrotation Yrotation
                  JOINT LeftHandPinky2
                  {
                    OFFSET 1.900000 0.000000 0.000000
                    CHANNELS 3 Zrotation Xrotation Yrotation
                    JOINT LeftHandPinky3
                    {
                      OFFSET 1.400000 0.000000 0.000000
                      CHANNELS 3 Zrotation Xrotation Yrotation
                      End Site
                      {
                        OFFSET 1.300000 0.000000 0.000000
                      }
                    }
                  }
                }
              }
            }
          }
        }
        JOINT RightShoulder
        {
          OFFSET -6.000000 8.000000 0.000000
          CHANNELS 3 Zrotation Xrotation Yrotation
          JOINT RightArm
          {
            OFFSET -12.000000 0.000000 0.000000
            CHANNELS 3 Zrotation Xrotation Yrotation
            JOINT RightForeArm
            {
              OFFSET -24.000000 0.000000 0.000000
              CHANNELS 3 Zrotation Xrotation Yrotation
              JOINT RightHand
              {
                OFFSET -22.000000 0.000000 0.000000
                CHANNELS 3 Zrotation Xrotation Yrotation
                JOINT RightHandThumb1
                {
                  OFFSET -1.800000 -1.400000 0.500000
                  CHANNELS 3 Zrotation Xrotation Yrotation
                  JOINT RightHandThumb2
                  {
                    OFFSET -2.400000 0.000000 0.000000
                    CHANNELS 3 Zrotation Xrotation Yrotation
                    JOINT RightHandThumb3
                    {
                      OFFSET -1.900000 0.000000 0.000000
                      CHANNELS 3 Zrotation Xrotation Yrotation
                      End Site
                      {
                        OFFSET -1.600000 0.000000 0.000000
                      }
                    }
                  }
                }
                JOINT RightHandIndex1
                {
                  OFFSET -6.600000 1.200000 0.300000
                  CHANNELS 3 Zrotation Xrotation Yrotation
                  JOINT RightHandIndex2
                  {
                    OFFSET -2.000000 0.000000 0.000000
                    CHANNELS 3 Zrotation Xrotation Yrotation
                    JOINT RightHandIndex3
                    {
                      OFFSET -1.200000 0.000000 0.000000
                      CHANNELS 3 Zrotation Xrotation Yrotation
                      End Site
                      {
                        OFFSET -1.000000 0.000000 0.000000
                      }
                    }
                  }
                }
                JOINT RightHandMiddle1
                {
                  OFFSET -7.200000 0.000000 0.300000
                  CHANNELS 3 Zrotation Xrotation Yrotation
                  JOINT RightHandMiddle2
                  {
                    OFFSET -3.000000 0.000000 0.000000
                    CHANNELS 3 Zrotation Xrotation Yrotation
                    JOINT RightHandMiddle3
                    {
                      OFFSET -2.000000 0.000000 0.000000
                      CHANNELS 3 Zrotation Xrotation Yrotation
                      End Site
                      {
                        OFFSET -1.600000 0.000000 0.000000
                      }
                    }
                  }
                }
                JOINT RightHandRing1
                {
                  OFFSET -7.100000 -1.000000 0.400000
                  CHANNELS 3 Zrotation Xrotation Yrotation
                  JOINT RightHandRing2
                  {
                    OFFSET -2.600000 0.000000 0.000000
                    CHANNELS 3 Zrotation Xrotation Yrotation
                    JOINT RightHandRing3
                    {
                      OFFSET -1.600000 0.000000 0.000000
                      CHANNELS 3 Zrotation Xrotation Yrotation
                      End Site
                      {
                        OFFSET -1.300000 0.000000 0.000000
                      }
                    }
                  }
                }
                JOINT RightHandPinky1
                {
                  OFFSET -6.500000 -2.000000 0.500000
                  CHANNELS 3 Zrotation Xrotation Yrotation
                  JOINT RightHandPinky2
                  {
                    OFFSET -1.900000 0.000000 0.000000
                    CHANNELS 3 Zrotation Xrotation Yrotation
                    JOINT RightHandPinky3
                    {
                      OFFSET -1.400000 0.000000 0.000000
                      CHANNELS 3 Zrotation Xrotation Yrotation
                      End Site
                      {
                        OFFSET -1.300000 0.000000 0.000000
                      }
                    }
                  }
                }
              }
            }
          }
        }
      }
    }
  }
  JOINT LeftUpLeg
  {
    OFFSET 10.000000 -5.000000 0.000000
    CHANNELS 3 Zrotation Xrotation Yrotation
    JOINT LeftLeg
    {
      OFFSET 0.000000 -42.000000 0.000000
      CHANNELS 3 Zrotation Xrotation Yrotation
      JOINT LeftFoot
      {
        OFFSET 0.000000 -42.000000 4.000000
        CHANNELS 3 Zrotation Xrotation Yrotation
        End Site
        {
          OFFSET 0.000000 0.000000 12.000000
        }
      }
    }
  }
  JOINT RightUpLeg
  {
    OFFSET -10.000000 -5.000000 0.000000
    CHANNELS 3 Zrotation Xrotation Yrotation
    JOINT RightLeg
    {
      OFFSET 0.000000 -42.000000 0.000000
      CHANNELS 3 Zrotation Xrotation Yrotation
      JOINT RightFoot
      {
        OFFSET 0.000000 -42.000000 4.000000
        CHANNELS 3 Zrotation Xrotation Yrotation
        End Site
        {
          OFFSET 0.000000 0.000000 12.000000
        }
      }
    }
  }
}
MOTION
Frames: 60
Frame Time: 0.033333
0.0000 95.0000 0.0000 0.0000 0.0000 0.0000 0.0000 0.0000 0.0000 0.0000 0.0000 0.0000 0.0000 0.0000 0.0000 0.0000 0.0000 0.0000 0.0000 0.0000 0.0000 0.0000 0.0000 0.0000 -81.3287 9.4827 11.0296 -9.1578 -2.7219 5.5958 156.5742 41.4844 4.5257 56.8729 -8.6504 22.5609 22.9507 0.0000 0.0000 28.8761 0.0000 0.0000 -22.4538 1.1065 6.5733 14.4976 0.0000 0.0000 4.8263 0.0000 0.0000 -15.2743 -0.8556 -11.1459 110.0000 0.0000 0.0000 22.8340 0.0000 0.0000 -11.0914 -5.0706 -23.5795 110.0000 0.0000 0.0000 13.4252 0.0000 0.0000 -8.8409 -11.1031 -29.9081 110.0000 0.0000 0.0000 8.8745 0.0000 0.0000 0.0000 0.0000 0.0000 89.2855 3.2400 -3.2806 -2.1525 2.4162 2.4763 -179.5866 54.6910 -174.7694 -50.2942 -11.8652 4.6949 9.7898 0.0000 0.0000 4.5822 0.0000 0.0000 0.5725 1.1078 6.1334 11.0968 0.0000 0.0000 4.2144 0.0000 0.0000 -10.9239 0.5596 10.6190 8.0559 0.0000 0.0000 6.0020 0.0000 0.0000 -20.2236 -0.7944 8.8757 10.7404 0.0000 0.0000 4.3637 0.0000 0.0000 -29.7037 -2.3806 5.8065 8.0985 0.0000 0.0000 4.6938 0.0000 0.0000 0.0000 0.0000 0.0000 0.0000 0.0000 0.0000 0.0000 0.0000 0.0000 0.0000 0.0000 0.0000 0.0000 0.0000 0.0000 0.0000 0.0000 0.0000
0.0000 95.0000 0.0000 0.0000 0.0000 0.0000 0.0000 0.0000 0.0000 0.0000 0.0000 0.0000 0.0000 0.0000 0.0000 0.0000 0.0000 0.0000 0.0000 0.0000 0.0000 0.0000 0.0000 0.0000 -80.9317 8.2710 9.6895 -9.5898 -2.4965 5.2234 156.1346 39.9467 5.8097 56.8729 -8.6504 22.5609 22.9507 0.0000 0.0000 28.8761 0.0000 0.0000 -22.4538 1.1065 6.5733 14.4976 0.0000 0.0000 4.8263 0.0000 0.0000 -15.2743 -0.8556 -11.1459 110.0000 0.0000 0.0000 22.8340 0.0000 0.0000 -11.0914 -5.0706 -23.5795 110.0000 0.0000 0.0000 13.4252 0.0000 0.0000 -8.8409 -11.1031 -29.9081 110.0000 0.0000 0.0000 8.8745 0.0000 0.0000 0.0000 0.0000 0.0000 87.8585 1.2264 -1.2731 -1.9075 4.5128 4.5757 -181.8330 58.7339 -180.8659 -50.2942 -11.8652 4.6949 9.7898 0.0000 0.0000 4.5822 0.0000 0.0000 0.5725 1.1078 6.1334 11.0968 0.0000 0.0000 4.2144 0.0000 0.0000 -10.9239 0.5596 10.6190 8.0559 0.0000 0.0000 6.0020 0.0000 0.0000 -20.2236 -0.7944 8.8757 10.7404 0.0000 0.0000 4.3637 0.0000 0.0000 -29.7037 -2.3806 5.8065 8.0985 0.0000 0.0000 4.6938 0.0000 0.0000 0.0000 0.0000 0.0000 0.0000 0.0000 0.0000 0.0000 0.0000 0.0000 0.0000 0.0000 0.0000 0.0000 0.0000 0.0000 0.0000 0.0000 0.0000
0.0000 95.0000 0.0000 0.0000 0.0000 0.0000 0.0000 0.0000 0.0000 0.0000 0.0000 0.0000 0.0000 0.0000 0.0000 0.0000 0.0000 0.0000 0.0000 0.0000 0.0000 0.0000 0.0000 0.0000 -80.5324 7.1362 8.4205 -9.9992 -2.2628 4.8086 155.6869 38.4560 7.0536 56.8729 -8.6504 22.5609 22.9507 0.0000 0.0000 28.8761 0.0000 0.0000 -22.4538 1.1065 6.5733 14.4976 0.0000 0.0000 4.8263 0.0000 0.0000 -15.2743 -0.8556 -11.1459 110.0000 0.0000 0.0000 22.8340 0.0000 0.0000 -11.0914 -5.0706 -23.5795 110.0000 0.0000 0.0000 13.4252 0.0000 0.0000 -8.8409 -11.1031 -29.9081 110.0000 0.0000 0.0000 8.8745 0.0000 0.0000 0.0000 0.0000 0.0000 86.6508 -0.1246 0.1321 -1.7817 6.2296 6.3972 -184.7685 61.7093 -186.6384 -50.2942 -11.8652 4.6949 9.7898 0.0000 0.0000 4.5822 0.0000 0.0000 0.5725 1.1078 6.1334 11.0968 0.0000 0.0000 4.2144 0.0000 0.0000 -10.9239 0.5596 10.6190 8.0559 0.0000 0.0000 6.0020 0.0000 0.0000 -20.2236 -0.7944 8.8757 10.7404 0.0000 0.0000 4.3637 0.0000 0.0000 -29.7037 -2.3806 5.8065 8.0985 0.0000 0.0000 4.6938 0.0000 0.0000 0.0000 0.0000 0.0000 0.0000 0.0000 0.0000 0.0000 0.0000 0.0000 0.0000 0.0000 0.0000 0.0000 0.0000 0.0000 0.0000 0.0000 0.0000
0.0000 95.0000 0.0000 0.0000 0.0000 0.0000 0.0000 0.0000 0.0000 0.0000 0.0000 0.0000 0.0000 0.0000 0.0000 0.0000 0.0000 0.0000 0.0000 0.0000 0.0000 0.0000 0.0000 0.0000 -80.0278 6.4351 7.6619 -10.4717 -1.7880 4.1370 155.3240 37.1803 8.1319 56.8729 -8.6504 22.5609 22.9507 0.0000 0.0000 28.8761 0.0000 0.0000 -22.4538 1.1065 6.5733 14.4976 0.0000 0.0000 4.8263 0.0000 0.0000 -15.2743 -0.8556 -11.1459 110.0000 0.0000 0.0000 22.8340 0.0000 0.0000 -11.0914 -5.0706 -23.5795 110.0000 0.0000 0.0000 13.4252 0.0000 0.0000 -8.8409 -11.1031 -29.9081 110.0000 0.0000 0.0000 8.8745 0.0000 0.0000 0.0000 0.0000 0.0000 85.7648 -1.3311 1.4334 -1.4065 7.0770 7.3863 -186.7522 63.6952 -190.6414 -50.2942 -11.8652 4.6949 9.7898 0.0000 0.0000 4.5822 0.0000 0.0000 0.5725 1.1078 6.1334 11.0968 0.0000 0.0000 4.2144 0.0000 0.0000 -10.9239 0.5596 10.6190 8.0559 0.0000 0.0000 6.0020 0.0000 0.0000 -20.2236 -0.7944 8.8757 10.7404 0.0000 0.0000 4.3637 0.0000 0.0000 -29.7037 -2.3806 5.8065 8.0985 0.0000 0.0000 4.6938 0.0000 0.0000 0.0000 0.0000 0.0000 0.0000 0.0000 0.0000 0.0000 0.0000 0.0000 0.0000 0.0000 0.0000 0.0000 0.0000 0.0000 0.0000 0.0000 0.0000
0.0000 95.0000 0.0000 0.0000 0.0000 0.0000 0.0000 0.0000 0.0000 0.0000 0.0000 0.0000 0.0000 0.0000 0.0000 0.0000 0.0000 0.0000 0.0000 0.0000 0.0000 0.0000 0.0000 0.0000 -79.8340 5.6373 6.7358 -10.9194 -1.6326 3.8282 155.2883 36.0519 9.1864 56.8729 -8.6504 22.5609 22.9507 0.0000 0.0000 28.8761 0.0000 0.0000 -22.4538 1.1065 6.5733 14.4976 0.0000 0.0000 4.8263 0.0000 0.0000 -15.2743 -0.8556 -11.1459 110.0000 0.0000 0.0000 22.8340 0.0000 0.0000 -11.0914 -5.0706 -23.5795 110.0000 0.0000 0.0000 13.4252 0.0000 0.0000 -8.8409 -11.1031 -29.9081 110.0000 0.0000 0.0000 8.8745 0.0000 0.0000 0.0000 0.0000 0.0000 84.8657 -1.7746 1.9412 -0.8332 7.4500 7.9799 -188.0198 64.5383 -192.7659 -50.2942 -11.8652 4.6949 9.7898 0.0000 0.0000 4.5822 0.0000 0.0000 0.5725 1.1078 6.1334 11.0968 0.0000 0.0000 4.2144 0.0000 0.0000 -10.9239 0.5596 10.6190 8.0559 0.0000 0.0000 6.0020 0.0000 0.0000 -20.2236 -0.7944 8.8757 10.7404 0.0000 0.0000 4.3637 0.0000 0.0000 -29.7037 -2.3806 5.8065 8.0985 0.0000 0.0000 4.6938 0.0000 0.0000 0.0000 0.0000 0.0000 0.0000 0.0000 0.0000 0.0000 0.0000 0.0000 0.0000 0.0000 0.0000 0.0000 0.0000 0.0000 0.0000 0.0000 0.0000
0.0000 95.0000 0.0000 0.0000 0.0000 0.0000 0.0000 0.0000 0.0000 0.0000 0.0000 0.0000 0.0000 0.0000 0.0000 0.0000 0.0000 0.0000 0.0000 0.0000 0.0000 0.0000 0.0000 0.0000 -79.4867 5.3309 6.4092 -10.9978 -1.6929 3.8798 154.8661 35.8683 9.2183 56.8729 -8.6504 22.5609 22.9507 0.0000 0.0000 28.8761 0.0000 0.0000 -22.4538 1.1065 6.5733 14.4976 0.0000 0.0000 4.8263 0.0000 0.0000 -15.2743 -0.8556 -11.1459 110.0000 0.0000 0.0000 22.8340 0.0000 0.0000 -11.0914 -5.0706 -23.5795 110.0000 0.0000 0.0000 13.4252 0.0000 0.0000 -8.8409 -11.1031 -29.9081 110.0000 0.0000 0.0000 8.8745 0.0000 0.0000 0.0000 0.0000 0.0000 84.1815 -2.2934 2.5389 -0.9272 7.7891 8.4083 -190.4072 65.2697 -195.8592 -50.2942 -11.8652 4.6949 9.7898 0.0000 0.0000 4.5822 0.0000 0.0000 0.5725 1.1078 6.1334 11.0968 0.0000 0.0000 4.2144 0.0000 0.0000 -10.9239 0.5596 10.6190 8.0559 0.0000 0.0000 6.0020 0.0000 0.0000 -20.2236 -0.7944 8.8757 10.7404 0.0000 0.0000 4.3637 0.0000 0.0000 -29.7037 -2.3806 5.8065 8.0985 0.0000 0.0000 4.6938 0.0000 0.0000 0.0000 0.0000 0.0000 0.0000 0.0000 0.0000 0.0000 0.0000 0.0000 0.0000 0.0000 0.0000 0.0000 0.0000 0.0000 0.0000 0.0000 0.0000
0.0000 95.0000 0.0000 0.0000 0.0000 0.0000 0.0000 0.0000 0.0000 0.0000 0.0000 0.0000 0.0000 0.0000 0.0000 0.0000 0.0000 0.0000 0.0000 0.0000 0.0000 0.0000 0.0000 0.0000 -79.1700 5.4968 6.6456 -11.0729 -1.6393 3.8841 154.6481 36.1012 8.9232 56.8729 -8.6504 22.5609 22.9507 0.0000 0.0000 28.8761 0.0000 0.0000 -22.4538 1.1065 6.5733 14.4976 0.0000 0.0000 4.8263 0.0000 0.0000 -15.2743 -0.8556 -11.1459 110.0000 0.0000 0.0000 22.8340 0.0000 0.0000 -11.0914 -5.0706 -23.5795 110.0000 0.0000 0.0000 13.4252 0.0000 0.0000 -8.8409 -11.1031 -29.9081 110.0000 0.0000 0.0000 8.8745 0.0000 0.0000 0.0000 0.0000 0.0000 83.6524 -2.2222 2.4831 -0.7822 7.7018 8.4208 -191.2270 65.1129 -196.4672 -50.2942 -11.8652 4.6949 9.7898 0.0000 0.0000 4.5822 0.0000 0.0000 0.5725 1.1078 6.1334 11.0968 0.0000 0.0000 4.2144 0.0000 0.0000 -10.9239 0.5596 10.6190 8.0559 0.0000 0.0000 6.0020 0.0000 0.0000 -20.2236 -0.7944 8.8757 10.7404 0.0000 0.0000 4.3637 0.0000 0.0000 -29.7037 -2.3806 5.8065 8.0985 0.0000 0.0000 4.6938 0.0000 0.0000 0.0000 0.0000 0.0000 0.0000 0.0000 0.0000 0.0000 0.0000 0.0000 0.0000 0.0000 0.0000 0.0000 0.0000 0.0000 0.0000 0.0000 0.0000
0.0000 95.0000 0.0000 0.0000 0.0000 0.0000 0.0000 0.0000 0.0000 0.0000 0.0000 0.0000 0.0000 0.0000 0.0000 0.0000 0.0000 0.0000 0.0000 0.0000 0.0000 0.0000 0.0000 0.0000 -79.0701 5.3186 6.4417 -10.9861 -1.3043 3.3383 154.2854 35.5108 9.3648 56.8729 -8.6504 22.5609 22.9507 0.0000 0.0000 28.8761 0.0000 0.0000 -22.4538 1.1065 6.5733 14.4976 0.0000 0.0000 4.8263 0.0000 0.0000 -15.2743 -0.8556 -11.1459 110.0000 0.0000 0.0000 22.8340 0.0000 0.0000 -11.0914 -5.0706 -23.5795 110.0000 0.0000 0.0000 13.4252 0.0000 0.0000 -8.8409 -11.1031 -29.9081 110.0000 0.0000 0.0000 8.8745 0.0000 0.0000 0.0000 0.0000 0.0000 82.7077 -2.0958 2.3810 1.0167 8.1152 9.3887 -189.8287 65.7775 -195.8860 -50.2942 -11.8652 4.6949 9.7898 0.0000 0.0000 4.5822 0.0000 0.0000 0.5725 1.1078 6.1334 11.0968 0.0000 0.0000 4.2144 0.0000 0.0000 -10.9239 0.5596 10.6190 8.0559 0.0000 0.0000 6.0020 0.0000 0.0000 -20.2236 -0.7944 8.8757 10.7404 0.0000 0.0000 4.3637 0.0000 0.0000 -29.7037 -2.3806 5.8065 8.0985 0.0000 0.0000 4.6938 0.0000 0.0000 0.0000 0.0000 0.0000 0.0000 0.0000 0.0000 0.0000 0.0000 0.0000 0.0000 0.0000 0.0000 0.0000 0.0000 0.0000 0.0000 0.0000 0.0000
0.0000 95.0000 0.0000 0.0000 0.0000 0.0000 0.0000 0.0000 0.0000 0.0000 0.0000 0.0000 0.0000 0.0000 0.0000 0.0000 0.0000 0.0000 0.0000 0.0000 0.0000 0.0000 0.0000 0.0000 -78.5823 5.5606 6.7932 -11.3992 -1.1115 3.2286 154.2840 35.6760 9.2064 56.8729 -8.6504 22.5609 22.9507 0.0000 0.0000 28.8761 0.0000 0.0000 -22.4538 1.1065 6.5733 14.4976 0.0000 0.0000 4.8263 0.0000 0.0000 -15.2743 -0.8556 -11.1459 110.0000 0.0000 0.0000 22.8340 0.0000 0.0000 -11.0914 -5.0706 -23.5795 110.0000 0.0000 0.0000 13.4252 0.0000 0.0000 -8.8409 -11.1031 -29.9081 110.0000 0.0000 0.0000 8.8745 0.0000 0.0000 0.0000 0.0000 0.0000 82.0230 -1.4209 1.6339 2.2216 10.3138 12.3483 -191.0372 67.4607 -198.9790 -50.2942 -11.8652 4.6949 9.7898 0.0000 0.0000 4.5822 0.0000 0.0000 0.5725 1.1078 6.1334 11.0968 0.0000 0.0000 4.2144 0.0000 0.0000 -10.9239 0.5596 10.6190 8.0559 0.0000 0.0000 6.0020 0.0000 0.0000 -20.2236 -0.7944 8.8757 10.7404 0.0000 0.0000 4.3637 0.0000 0.0000 -29.7037 -2.3806 5.8065 8.0985 0.0000 0.0000 4.6938 0.0000 0.0000 0.0000 0.0000 0.0000 0.0000 0.0000 0.0000 0.0000 0.0000 0.0000 0.0000 0.0000 0.0000 0.0000 0.0000 0.0000 0.0000 0.0000 0.0000
0.0000 95.0000 0.0000 0.0000 0.0000 0.0000 0.0000 0.0000 0.0000 0.0000 0.0000 0.0000 0.0000 0.0000 0.0000 0.0000 0.0000 0.0000 0.0000 0.0000 0.0000 0.0000 0.0000 0.0000 -76.9202 8.4002 10.5645 -11.4149 -1.5105 4.7584 153.5904 40.2386 4.5019 56.8729 -8.6504 22.5609 22.9507 0.0000 0.0000 28.8761 0.0000 0.0000 -22.4538 1.1065 6.5733 14.4976 0.0000 0.0000 4.8263 0.0000 0.0000 -15.2743 -0.8556 -11.1459 110.0000 0.0000 0.0000 22.8340 0.0000 0.0000 -11.0914 -5.0706 -23.5795 110.0000 0.0000 0.0000 13.4252 0.0000 0.0000 -8.8409 -11.1031 -29.9081 110.0000 0.0000 0.0000 8.8745 0.0000 0.0000 0.0000 0.0000 0.0000 80.8516 -0.3522 0.4135 8.0687 13.1280 17.7934 -177.3448 55.2391 -177.2655 -81.0837 -14.4634 26.2328 45.7991 0.0000 0.0000 20.6200 0.0000 0.0000 -8.2428 0.8873 4.9315 11.2145 0.0000 0.0000 7.4803 0.0000 0.0000 -32.9334 3.1312 15.3378 41.0446 0.0000 0.0000 26.9838 0.0000 0.0000 -47.2130 1.2474 13.9567 57.9733 0.0000 0.0000 31.4268 0.0000 0.0000 -66.2120 -0.0937 16.2517 83.0733 0.0000 0.0000 38.6167 0.0000 0.0000 0.0000 0.0000 0.0000 0.0000 0.0000 0.0000 0.0000 0.0000 0.0000 0.0000 0.0000 0.0000 0.0000 0.0000 0.0000 0.0000 0.0000 0.0000
0.0000 95.0000 0.0000 0.0000 0.0000 0.0000 0.0000 0.0000 0.0000 0.0000 0.0000 0.0000 0.0000 0.0000 0.0000 0.0000 0.0000 0.0000 0.0000 0.0000 0.0000 0.0000 0.0000 0.0000 -75.8343 9.6593 12.3813 -11.2546 0.3569 2.2987 152.4143 39.7801 4.4769 56.8729 -8.6504 22.5609 22.9507 0.0000 0.0000 28.8761 0.0000 0.0000 -22.4538 1.1065 6.5733 14.4976 0.0000 0.0000 4.8263 0.0000 0.0000 -15.2743 -0.8556 -11.1459 110.0000 0.0000 0.0000 22.8340 0.0000 0.0000 -11.0914 -5.0706 -23.5795 110.0000 0.0000 0.0000 13.4252 0.0000 0.0000 -8.8409 -11.1031 -29.9081 110.0000 0.0000 0.0000 8.8745 0.0000 0.0000 0.0000 0.0000 0.0000 79.4117 -6.2841 7.5643 1.7835 38.7358 45.1678 -48.2336 15.2004 -250.5931 -1.0600 9.4850 -12.4195 50.1817 0.0000 0.0000 69.8108 0.0000 0.0000 19.1205 0.4872 -27.8567 106.9073 0.0000 0.0000 27.1793 0.0000 0.0000 22.4373 19.9392 -78.3255 53.4097 0.0000 0.0000 20.7248 0.0000 0.0000 10.4043 21.5357 -73.9383 64.5165 0.0000 0.0000 24.0281 0.0000 0.0000 -6.6728 7.4643 -31.1381 43.0361 0.0000 0.0000 80.8987 0.0000 0.0000 0.0000 0.0000 0.0000 0.0000 0.0000 0.0000 0.0000 0.0000 0.0000 0.0000 0.0000 0.0000 0.0000 0.0000 0.0000 0.0000 0.0000 0.0000
0.0000 95.0000 0.0000 0.0000 0.0000 0.0000 0.0000 0.0000 0.0000 0.0000 0.0000 0.0000 0.0000 0.0000 0.0000 0.0000 0.0000 0.0000 0.0000 0.0000 0.0000 0.0000 0.0000 0.0000 -74.2701 11.8878 15.6569 -10.7390 2.8793 -1.0808 150.5264 39.8337 3.6355 56.8729 -8.6504 22.5609 22.9507 0.0000 0.0000 28.8761 0.0000 0.0000 -22.4538 1.1065 6.5733 14.4976 0.0000 0.0000 4.8263 0.0000 0.0000 -15.2743 -0.8556 -11.1459 110.0000 0.0000 0.0000 22.8340 0.0000 0.0000 -11.0914 -5.0706 -23.5795 110.0000 0.0000 0.0000 13.4252 0.0000 0.0000 -8.8409 -11.1031 -29.9081 110.0000 0.0000 0.0000 8.8745 0.0000 0.0000 0.0000 0.0000 0.0000 76.8260 -11.1941 14.0905 -11.7203 59.7137 52.1651 -81.8594 12.9609 -345.9606 -42.8266 -10.4608 3.3490 10.7072 0.0000 0.0000 14.8518 0.0000 0.0000 37.4914 -7.2920 56.4878 74.1116 0.0000 0.0000 78.5544 0.0000 0.0000 25.6089 -14.3605 62.7712 104.4512 0.0000 0.0000 75.7374 0.0000 0.0000 13.7584 -15.9416 59.3273 110.0000 0.0000 0.0000 59.1225 0.0000 0.0000 1.5318 -19.5769 58.6333 110.0000 0.0000 0.0000 48.8257 0.0000 0.0000 0.0000 0.0000 0.0000 0.0000 0.0000 0.0000 0.0000 0.0000 0.0000 0.0000 0.0000 0.0000 0.0000 0.0000 0.0000 0.0000 0.0000 0.0000
0.0000 95.0000 0.0000 0.0000 0.0000 0.0000 0.0000 0.0000 0.0000 0.0000 0.0000 0.0000 0.0000 0.0000 0.0000 0.0000 0.0000 0.0000 0.0000 0.0000 0.0000 0.0000 0.0000 0.0000 -73.0334 14.1949 19.0916 -9.5692 3.6819 -2.0332 148.5458 42.0002 0.4509 56.8729 -8.6504 22.5609 22.9507 0.0000 0.0000 28.8761 0.0000 0.0000 -22.4538 1.1065 6.5733 14.4976 0.0000 0.0000 4.8263 0.0000 0.0000 -15.2743 -0.8556 -11.1459 110.0000 0.0000 0.0000 22.8340 0.0000 0.0000 -11.0914 -5.0706 -23.5795 110.0000 0.0000 0.0000 13.4252 0.0000 0.0000 -8.8409 -11.1031 -29.9081 110.0000 0.0000 0.0000 8.8745 0.0000 0.0000 0.0000 0.0000 0.0000 74.0361 -15.0238 19.8385 -23.5594 70.3329 47.8081 -44.0273 -6.8575 -340.1984 -61.8767 -14.5419 16.3774 26.7285 0.0000 0.0000 40.1238 0.0000 0.0000 4.1527 4.3833 28.7601 19.2795 0.0000 0.0000 15.7785 0.0000 0.0000 7.9409 -2.7007 42.2883 36.6989 0.0000 0.0000 90.0000 0.0000 0.0000 -5.0252 -4.8324 45.8299 65.0599 0.0000 0.0000 77.0041 0.0000 0.0000 -20.5809 -7.6097 49.8623 49.2194 0.0000 0.0000 56.1532 0.0000 0.0000 0.0000 0.0000 0.0000 0.0000 0.0000 0.0000 0.0000 0.0000 0.0000 0.0000 0.0000 0.0000 0.0000 0.0000 0.0000 0.0000 0.0000 0.0000
0.0000 95.0000 0.0000 0.0000 0.0000 0.0000 0.0000 0.0000 0.0000 0.0000 0.0000 0.0000 0.0000 0.0000 0.0000 0.0000 0.0000 0.0000 0.0000 0.0000 0.0000 0.0000 0.0000 0.0000 -72.2728 15.4881 21.0996 -8.7764 4.0237 -2.4966 147.1601 43.3077 -1.6601 56.8729 -8.6504 22.5609 22.9507 0.0000 0.0000 28.8761 0.0000 0.0000 -22.4538 1.1065 6.5733 14.4976 0.0000 0.0000 4.8263 0.0000 0.0000 -15.2743 -0.8556 -11.1459 110.0000 0.0000 0.0000 22.8340 0.0000 0.0000 -11.0914 -5.0706 -23.5795 110.0000 0.0000 0.0000 13.4252 0.0000 0.0000 -8.8409 -11.1031 -29.9081 110.0000 0.0000 0.0000 8.8745 0.0000 0.0000 0.0000 0.0000 0.0000 72.2973 -17.3770 23.6307 -40.5404 77.6238 35.3830 -32.3541 -22.7889 -344.8320 -66.2416 -15.0317 22.5111 19.6606 0.0000 0.0000 30.5286 0.0000 0.0000 8.5475 3.8203 32.1353 9.4191 0.0000 0.0000 9.3299 0.0000 0.0000 -2.0620 0.6211 38.2934 76.3128 0.0000 0.0000 90.0000 0.0000 0.0000 -14.2273 -1.4568 42.1420 101.0288 0.0000 0.0000 45.8928 0.0000 0.0000 -26.2210 -5.3021 47.9890 69.5876 0.0000 0.0000 42.9171 0.0000 0.0000 0.0000 0.0000 0.0000 0.0000 0.0000 0.0000 0.0000 0.0000 0.0000 0.0000 0.0000 0.0000 0.0000 0.0000 0.0000 0.0000 0.0000 0.0000
0.0000 95.0000 0.0000 0.0000 0.0000 0.0000 0.0000 0.0000 0.0000 0.0000 0.0000 0.0000 0.0000 0.0000 0.0000 0.0000 0.0000 0.0000 0.0000 0.0000 0.0000 0.0000 0.0000 0.0000 -71.7711 16.5457 22.7266 -7.4857 3.6037 -2.0778 145.2615 45.0679 -4.6512 56.8729 -8.6504 22.5609 22.9507 0.0000 0.0000 28.8761 0.0000 0.0000 -22.4538 1.1065 6.5733 14.4976 0.0000 0.0000 4.8263 0.0000 0.0000 -15.2743 -0.8556 -11.1459 110.0000 0.0000 0.0000 22.8340 0.0000 0.0000 -11.0914 -5.0706 -23.5795 110.0000 0.0000 0.0000 13.4252 0.0000 0.0000 -8.8409 -11.1031 -29.9081 110.0000 0.0000 0.0000 8.8745 0.0000 0.0000 0.0000 0.0000 0.0000 71.1555 -19.1113 26.4849 -60.9326 81.5663 17.1175 -33.5767 -36.5924 -335.8984 -66.7543 -14.9438 21.0774 20.2204 0.0000 0.0000 21.8332 0.0000 0.0000 13.5439 2.2860 27.1046 9.4170 0.0000 0.0000 3.4098 0.0000 0.0000 -0.1953 0.0363 25.8508 103.8484 0.0000 0.0000 40.9626 0.0000 0.0000 -10.5360 -1.8616 26.5578 110.0000 0.0000 0.0000 19.5973 0.0000 0.0000 -23.0397 -4.4827 28.8178 104.3587 0.0000 0.0000 14.4565 0.0000 0.0000 0.0000 0.0000 0.0000 0.0000 0.0000 0.0000 0.0000 0.0000 0.0000 0.0000 0.0000 0.0000 0.0000 0.0000 0.0000 0.0000 0.0000 0.0000
0.0000 95.0000 0.0000 0.0000 0.0000 0.0000 0.0000 0.0000 0.0000 0.0000 0.0000 0.0000 0.0000 0.0000 0.0000 0.0000 0.0000 0.0000 0.0000 0.0000 0.0000 0.0000 0.0000 0.0000 -71.5463 17.2014 23.7106 -6.8059 3.7369 -2.4084 138.9894 44.6201 -8.5949 61.5267 -10.7811 19.8129 26.5698 0.0000 0.0000 31.9778 0.0000 0.0000 -32.4351 0.9319 -4.8760 12.1913 0.0000 0.0000 4.4611 0.0000 0.0000 -34.6658 -27.5712 -81.1179 56.1812 0.0000 0.0000 22.8217 0.0000 0.0000 -20.3082 -39.1663 -99.9143 72.1531 0.0000 0.0000 28.1342 0.0000 0.0000 -12.1624 -53.9996 -106.3664 57.9031 0.0000 0.0000 35.7720 0.0000 0.0000 0.0000 0.0000 0.0000 70.8243 -20.0825 27.9698 -85.8490 83.8428 -6.2923 -10.1678 -43.6140 -357.9485 -76.8665 -14.3301 37.3522 18.5497 0.0000 0.0000 17.8652 0.0000 0.0000 4.4132 6.5060 43.0415 6.7283 0.0000 0.0000 3.5839 0.0000 0.0000 -12.6320 4.6562 45.1099 38.6655 0.0000 0.0000 58.2620 0.0000 0.0000 -23.6436 1.9888 47.4527 63.6308 0.0000 0.0000 36.1387 0.0000 0.0000 -36.7128 -1.4378 49.9937 59.2176 0.0000 0.0000 21.0631 0.0000 0.0000 0.0000 0.0000 0.0000 0.0000 0.0000 0.0000 0.0000 0.0000 0.0000 0.0000 0.0000 0.0000 0.0000 0.0000 0.0000 0.0000 0.0000 0.0000
0.0000 95.0000 0.0000 0.0000 0.0000 0.0000 0.0000 0.0000 0.0000 0.0000 0.0000 0.0000 0.0000 0.0000 0.0000 0.0000 0.0000 0.0000 0.0000 0.0000 0.0000 0.0000 0.0000 0.0000 -72.2597 16.9588 23.0846 -6.2247 4.3107 -3.5137 134.5294 43.6255 -8.2591 62.8215 -11.1625 20.6450 29.4934 0.0000 0.0000 32.2473 0.0000 0.0000 -30.6352 1.2947 -0.7284 11.6240 0.0000 0.0000 4.7411 0.0000 0.0000 -34.1463 -16.9888 -56.6378 79.5173 0.0000 0.0000 20.0377 0.0000 0.0000 -27.0901 -31.8151 -76.6174 91.1987 0.0000 0.0000 19.2582 0.0000 0.0000 -21.5414 -48.8771 -87.4058 74.2697 0.0000 0.0000 23.4486 0.0000 0.0000 0.0000 0.0000 0.0000 70.3361 -21.0206 29.5034 -103.8227 84.0847 -24.0621 -32.4253 -44.0537 -334.4571 -66.1445 -15.0724 23.1682 27.3108 0.0000 0.0000 37.6368 0.0000 0.0000 13.4574 2.3681 28.1141 7.3520 0.0000 0.0000 3.6269 0.0000 0.0000 -4.7501 0.9153 26.5739 76.0520 0.0000 0.0000 56.6049 0.0000 0.0000 -18.3921 -0.4049 29.0615 80.9730 0.0000 0.0000 32.3374 0.0000 0.0000 -33.3584 -2.6103 32.3977 65.7798 0.0000 0.0000 20.4628 0.0000 0.0000 0.0000 0.0000 0.0000 0.0000 0.0000 0.0000 0.0000 0.0000 0.0000 0.0000 0.0000 0.0000 0.0000 0.0000 0.0000 0.0000 0.0000 0.0000
0.0000 95.0000 0.0000 0.0000 0.0000 0.0000 0.0000 0.0000 0.0000 0.0000 0.0000 0.0000 0.0000 0.0000 0.0000 0.0000 0.0000 0.0000 0.0000 0.0000 0.0000 0.0000 0.0000 0.0000 -72.5903 16.7125 22.6197 -5.6939 4.2243 -3.6092 131.5517 43.3065 -8.6908 63.7040 -11.4542 20.9858 31.3330 0.0000 0.0000 32.4533 0.0000 0.0000 -29.3274 1.3941 1.2130 11.6953 0.0000 0.0000 5.1612 0.0000 0.0000 -29.2626 -10.6368 -44.0227 92.2440 0.0000 0.0000 18.9999 0.0000 0.0000 -26.1070 -24.0021 -62.4548 104.7074 0.0000 0.0000 15.2120 0.0000 0.0000 -22.7981 -41.4863 -75.3432 86.7777 0.0000 0.0000 17.7230 0.0000 0.0000 0.0000 0.0000 0.0000 69.7063 -21.8595 30.9971 -105.4065 84.1804 -26.4344 -29.1800 -43.6804 -335.3759 -66.6020 -15.1036 23.9593 33.2639 0.0000 0.0000 35.3857 0.0000 0.0000 15.1663 1.9768 27.2661 9.0793 0.0000 0.0000 3.0570 0.0000 0.0000 -4.8061 0.6783 20.8298 78.3992 0.0000 0.0000 49.3857 0.0000 0.0000 -18.5659 -0.5385 21.7826 94.8637 0.0000 0.0000 23.6916 0.0000 0.0000 -33.1376 -2.6093 26.3761 83.5848 0.0000 0.0000 21.4732 0.0000 0.0000 0.0000 0.0000 0.0000 0.0000 0.0000 0.0000 0.0000 0.0000 0.0000 0.0000 0.0000 0.0000 0.0000 0.0000 0.0000 0.0000 0.0000 0.0000
0.0000 95.0000 0.0000 0.0000 0.0000 0.0000 0.0000 0.0000 0.0000 0.0000 0.0000 0.0000 0.0000 0.0000 0.0000 0.0000 0.0000 0.0000 0.0000 0.0000 0.0000 0.0000 0.0000 0.0000 -72.8573 16.8155 22.6495 -4.9400 4.1332 -3.7121 129.1836 50.6913 -5.6947 66.4672 -12.1781 25.4281 30.5481 0.0000 0.0000 36.2123 0.0000 0.0000 -20.9808 0.9805 13.0632 7.1908 0.0000 0.0000 5.3682 0.0000 0.0000 -13.1680 -0.2023 -6.5249 110.0000 0.0000 0.0000 16.8966 0.0000 0.0000 -7.4713 -1.6846 -10.1566 110.0000 0.0000 0.0000 3.0106 0.0000 0.0000 -5.8516 -4.3014 -13.1094 110.0000 0.0000 0.0000 5.7007 0.0000 0.0000 0.0000 0.0000 0.0000 69.4149 -22.2724 31.7310 -108.4914 83.7807 -29.7846 -18.6374 -44.6943 -341.7054 -74.9128 -14.7113 31.3870 12.0570 0.0000 0.0000 5.8295 0.0000 0.0000 8.2838 4.0212 33.3348 11.2215 0.0000 0.0000 6.3576 0.0000 0.0000 -15.0013 4.4039 37.3310 30.5021 0.0000 0.0000 21.4945 0.0000 0.0000 -23.7864 1.4548 39.7154 46.7047 0.0000 0.0000 22.0648 0.0000 0.0000 -38.0628 -1.2158 42.4878 47.4803 0.0000 0.0000 12.3921 0.0000 0.0000 0.0000 0.0000 0.0000 0.0000 0.0000 0.0000 0.0000 0.0000 0.0000 0.0000 0.0000 0.0000 0.0000 0.0000 0.0000 0.0000 0.0000 0.0000
0.0000 95.0000 0.0000 0.0000 0.0000 0.0000 0.0000 0.0000 0.0000 0.0000 0.0000 0.0000 0.0000 0.0000 0.0000 0.0000 0.0000 0.0000 0.0000 0.0000 0.0000 0.0000 0.0000 0.0000 -73.3440 16.4660 21.9928 -4.8094 4.1292 -3.7796 131.2546 57.2659 -0.0832 68.4670 -12.8154 29.2821 27.9537 0.0000 0.0000 39.3066 0.0000 0.0000 -15.0609 -0.3999 21.7904 5.9786 0.0000 0.0000 4.9919 0.0000 0.0000 -5.1068 0.7327 11.5462 110.0000 0.0000 0.0000 15.1197 0.0000 0.0000 4.1810 1.2173 13.8374 110.0000 0.0000 0.0000 5.6692 0.0000 0.0000 7.7825 3.0912 15.4436 110.0000 0.0000 0.0000 6.8580 0.0000 0.0000 0.0000 0.0000 0.0000 69.4077 -22.3089 31.7857 -109.1394 83.9338 -30.4325 -18.5620 -46.1925 -349.6652 -73.3033 -14.8658 31.9277 15.8242 0.0000 0.0000 45.1230 0.0000 0.0000 11.4688 3.5925 37.7841 6.2867 0.0000 0.0000 3.8589 0.0000 0.0000 -10.4478 3.5904 42.6169 30.6361 0.0000 0.0000 27.9055 0.0000 0.0000 -21.2420 0.9871 45.5753 44.2433 0.0000 0.0000 25.8019 0.0000 0.0000 -34.7336 -2.2124 47.6915 45.0070 0.0000 0.0000 13.8290 0.0000 0.0000 0.0000 0.0000 0.0000 0.0000 0.0000 0.0000 0.0000 0.0000 0.0000 0.0000 0.0000 0.0000 0.0000 0.0000 0.0000 0.0000 0.0000 0.0000
0.0000 95.0000 0.0000 0.0000 0.0000 0.0000 0.0000 0.0000 0.0000 0.0000 0.0000 0.0000 0.0000 0.0000 0.0000 0.0000 0.0000 0.0000 0.0000 0.0000 0.0000 0.0000 0.0000 0.0000 -73.5823 16.1417 21.4729 -4.9410 4.0581 -3.6721 134.5235 63.4020 6.5056 70.6142 -13.6865 32.6727 25.6297 0.0000 0.0000 42.0555 0.0000 0.0000 -9.7245 -2.4366 29.2088 7.3528 0.0000 0.0000 4.6352 0.0000 0.0000 1.5740 -0.4124 24.5909 110.0000 0.0000 0.0000 14.9030 0.0000 0.0000 12.3375 0.2734 29.0117 110.0000 0.0000 0.0000 13.9955 0.0000 0.0000 16.4353 3.9818 31.8917 110.0000 0.0000 0.0000 13.2569 0.0000 0.0000 0.0000 0.0000 0.0000 69.4257 -22.4242 31.9354 -113.9335 83.1160 -35.0348 -28.3911 -34.4802 -354.1950 -65.4963 -14.7429 17.7739 7.0292 0.0000 0.0000 10.2294 0.0000 0.0000 7.2056 4.2012 32.5716 17.3291 0.0000 0.0000 11.4734 0.0000 0.0000 2.4735 -0.7197 37.2132 110.0000 0.0000 0.0000 18.7961 0.0000 0.0000 -9.6695 -2.7919 39.8439 110.0000 0.0000 0.0000 21.7948 0.0000 0.0000 -21.3720 -6.5958 44.1439 110.0000 0.0000 0.0000 32.3404 0.0000 0.0000 0.0000 0.0000 0.0000 0.0000 0.0000 0.0000 0.0000 0.0000 0.0000 0.0000 0.0000 0.0000 0.0000 0.0000 0.0000 0.0000 0.0000 0.0000
0.0000 95.0000 0.0000 0.0000 0.0000 0.0000 0.0000 0.0000 0.0000 0.0000 0.0000 0.0000 0.0000 0.0000 0.0000 0.0000 0.0000 0.0000 0.0000 0.0000 0.0000 0.0000 0.0000 0.0000 -73.1025 16.3543 21.9392 -5.2554 4.1891 -3.7459 134.4969 63.6427 6.2175 70.6142 -13.6865 32.6727 25.6297 0.0000 0.0000 42.0555 0.0000 0.0000 -9.7245 -2.4366 29.2088 7.3528 0.0000 0.0000 4.6352 0.0000 0.0000 1.5740 -0.4124 24.5909 110.0000 0.0000 0.0000 14.9030 0.0000 0.0000 12.3375 0.2734 29.0117 110.0000 0.0000 0.0000 13.9955 0.0000 0.0000 16.4353 3.9818 31.8917 110.0000 0.0000 0.0000 13.2569 0.0000 0.0000 0.0000 0.0000 0.0000 68.2394 -23.2157 33.7314 -125.1627 80.2522 -45.7181 -51.6896 -27.0671 -357.6224 -47.9735 -10.4188 -0.3251 4.5770 0.0000 0.0000 1.9698 0.0000 0.0000 50.2984 -13.0616 54.5373 102.0089 0.0000 0.0000 74.7100 0.0000 0.0000 34.3777 -16.4531 54.8717 110.0000 0.0000 0.0000 49.7064 0.0000 0.0000 24.6444 -18.9910 52.9966 110.0000 0.0000 0.0000 44.4008 0.0000 0.0000 10.6109 -21.2761 52.3093 110.0000 0.0000 0.0000 43.6806 0.0000 0.0000 0.0000 0.0000 0.0000 0.0000 0.0000 0.0000 0.0000 0.0000 0.0000 0.0000 0.0000 0.0000 0.0000 0.0000 0.0000 0.0000 0.0000 0.0000
0.0000 95.0000 0.0000 0.0000 0.0000 0.0000 0.0000 0.0000 0.0000 0.0000 0.0000 0.0000 0.0000 0.0000 0.0000 0.0000 0.0000 0.0000 0.0000 0.0000 0.0000 0.0000 0.0000 0.0000 -72.7739 16.2806 21.9696 -5.2054 4.3365 -4.0057 133.5782 63.5384 5.6793 70.6142 -13.6865 32.6727 25.6297 0.0000 0.0000 42.0555 0.0000 0.0000 -9.7245 -2.4366 29.2088 7.3528 0.0000 0.0000 4.6352 0.0000 0.0000 1.5740 -0.4124 24.5909 110.0000 0.0000 0.0000 14.9030 0.0000 0.0000 12.3375 0.2734 29.0117 110.0000 0.0000 0.0000 13.9955 0.0000 0.0000 16.4353 3.9818 31.8917 110.0000 0.0000 0.0000 13.2569 0.0000 0.0000 0.0000 0.0000 0.0000 68.5767 -23.3856 33.7685 -144.7568 74.5193 -61.8724 -65.3426 -35.1422 -358.8504 -36.5666 -5.8767 -7.2020 4.2827 0.0000 0.0000 2.6122 0.0000 0.0000 39.0276 -4.2716 36.1724 110.0000 0.0000 0.0000 29.9051 0.0000 0.0000 27.4467 -8.8571 39.9636 110.0000 0.0000 0.0000 31.2589 0.0000 0.0000 19.3402 -12.1184 40.6930 110.0000 0.0000 0.0000 33.1777 0.0000 0.0000 7.1400 -16.1090 43.5796 104.8697 0.0000 0.0000 35.1710 0.0000 0.0000 0.0000 0.0000 0.0000 0.0000 0.0000 0.0000 0.0000 0.0000 0.0000 0.0000 0.0000 0.0000 0.0000 0.0000 0.0000 0.0000 0.0000 0.0000
0.0000 95.0000 0.0000 0.0000 0.0000 0.0000 0.0000 0.0000 0.0000 0.0000 0.0000 0.0000 0.0000 0.0000 0.0000 0.0000 0.0000 0.0000 0.0000 0.0000 0.0000 0.0000 0.0000 0.0000 -72.6485 16.3724 22.1416 -4.7780 4.1275 -3.8407 132.5451 63.9396 4.4758 70.6142 -13.6865 32.6727 25.6297 0.0000 0.0000 42.0555 0.0000 0.0000 -9.7245 -2.4366 29.2088 7.3528 0.0000 0.0000 4.6352 0.0000 0.0000 1.5740 -0.4124 24.5909 110.0000 0.0000 0.0000 14.9030 0.0000 0.0000 12.3375 0.2734 29.0117 110.0000 0.0000 0.0000 13.9955 0.0000 0.0000 16.4353 3.9818 31.8917 110.0000 0.0000 0.0000 13.2569 0.0000 0.0000 0.0000 0.0000 0.0000 68.4567 -23.6303 34.1834 -150.2520 70.1488 -65.3741 -59.9480 -37.2754 -364.2278 -36.9118 -5.2042 -9.3983 6.5950 0.0000 0.0000 2.5465 0.0000 0.0000 34.7995 -3.4459 38.9496 110.0000 0.0000 0.0000 29.7267 0.0000 0.0000 21.3542 -7.2048 41.7022 110.0000 0.0000 0.0000 29.3626 0.0000 0.0000 12.8793 -10.9498 44.1414 110.0000 0.0000 0.0000 27.4629 0.0000 0.0000 -0.2786 -15.1625 48.5354 110.0000 0.0000 0.0000 29.2197 0.0000 0.0000 0.0000 0.0000 0.0000 0.0000 0.0000 0.0000 0.0000 0.0000 0.0000 0.0000 0.0000 0.0000 0.0000 0.0000 0.0000 0.0000 0.0000 0.0000
0.0000 95.0000 0.0000 0.0000 0.0000 0.0000 0.0000 0.0000 0.0000 0.0000 0.0000 0.0000 0.0000 0.0000 0.0000 0.0000 0.0000 0.0000 0.0000 0.0000 0.0000 0.0000 0.0000 0.0000 -72.1623 16.6792 22.7482 -4.7984 3.8079 -3.3510 132.0871 64.7943 3.1505 70.6142 -13.6865 32.6727 25.6297 0.0000 0.0000 42.0555 0.0000 0.0000 -9.7245 -2.4366 29.2088 7.3528 0.0000 0.0000 4.6352 0.0000 0.0000 1.5740 -0.4124 24.5909 110.0000 0.0000 0.0000 14.9030 0.0000 0.0000 12.3375 0.2734 29.0117 110.0000 0.0000 0.0000 13.9955 0.0000 0.0000 16.4353 3.9818 31.8917 110.0000 0.0000 0.0000 13.2569 0.0000 0.0000 0.0000 0.0000 0.0000 67.6592 -23.8191 34.9373 -148.5904 69.7216 -63.9784 -53.4672 -33.3902 -373.7823 -38.0200 -5.9698 -8.0822 6.2191 0.0000 0.0000 2.5997 0.0000 0.0000 33.5315 -4.3014 48.7163 102.6229 0.0000 0.0000 29.5994 0.0000 0.0000 18.7161 -8.0468 50.9989 110.0000 0.0000 0.0000 35.5476 0.0000 0.0000 9.6119 -11.3226 50.1783 110.0000 0.0000 0.0000 35.3403 0.0000 0.0000 -4.9822 -14.0351 50.9641 110.0000 0.0000 0.0000 36.9005 0.0000 0.0000 0.0000 0.0000 0.0000 0.0000 0.0000 0.0000 0.0000 0.0000 0.0000 0.0000 0.0000 0.0000 0.0000 0.0000 0.0000 0.0000 0.0000 0.0000
0.0000 95.0000 0.0000 0.0000 0.0000 0.0000 0.0000 0.0000 0.0000 0.0000 0.0000 0.0000 0.0000 0.0000 0.0000 0.0000 0.0000 0.0000 0.0000 0.0000 0.0000 0.0000 0.0000 0.0000 -71.7544 16.7192 22.9689 -4.7722 3.4737 -2.8888 131.3302 65.3600 1.9210 70.6142 -13.6865 32.6727 25.6297 0.0000 0.0000 42.0555 0.0000 0.0000 -9.7245 -2.4366 29.2088 7.3528 0.0000 0.0000 4.6352 0.0000 0.0000 1.5740 -0.4124 24.5909 110.0000 0.0000 0.0000 14.9030 0.0000 0.0000 12.3375 0.2734 29.0117 110.0000 0.0000 0.0000 13.9955 0.0000 0.0000 16.4353 3.9818 31.8917 110.0000 0.0000 0.0000 13.2569 0.0000 0.0000 0.0000 0.0000 0.0000 67.2343 -24.0615 35.5474 -149.2332 68.1034 -64.2640 -53.8878 -36.7463 -372.7621 -36.2730 -4.8715 -9.8074 7.4263 0.0000 0.0000 2.4389 0.0000 0.0000 32.7343 -3.6960 46.4145 110.0000 0.0000 0.0000 29.0487 0.0000 0.0000 19.5431 -8.5241 51.5713 110.0000 0.0000 0.0000 30.5176 0.0000 0.0000 9.7373 -12.3318 53.7810 110.0000 0.0000 0.0000 28.4615 0.0000 0.0000 -4.1827 -16.7437 58.6622 107.9123 0.0000 0.0000 31.4524 0.0000 0.0000 0.0000 0.0000 0.0000 0.0000 0.0000 0.0000 0.0000 0.0000 0.0000 0.0000 0.0000 0.0000 0.0000 0.0000 0.0000 0.0000 0.0000 0.0000
0.0000 95.0000 0.0000 0.0000 0.0000 0.0000 0.0000 0.0000 0.0000 0.0000 0.0000 0.0000 0.0000 0.0000 0.0000 0.0000 0.0000 0.0000 0.0000 0.0000 0.0000 0.0000 0.0000 0.0000 -71.4602 17.0348 23.5202 -4.3488 3.3253 -2.7995 130.0370 65.9554 0.2243 70.6142 -13.6865 32.6727 25.6297 0.0000 0.0000 42.0555 0.0000 0.0000 -9.7245 -2.4366 29.2088 7.3528 0.0000 0.0000 4.6352 0.0000 0.0000 1.5740 -0.4124 24.5909 110.0000 0.0000 0.0000 14.9030 0.0000 0.0000 12.3375 0.2734 29.0117 110.0000 0.0000 0.0000 13.9955 0.0000 0.0000 16.4353 3.9818 31.8917 110.0000 0.0000 0.0000 13.2569 0.0000 0.0000 0.0000 0.0000 0.0000 67.0816 -24.3257 36.0213 -148.9137 67.5453 -64.2112 -51.8847 -35.7705 -374.2709 -37.1957 -5.5899 -8.5236 6.5737 0.0000 0.0000 3.4027 0.0000 0.0000 29.8591 -2.1672 41.6718 110.0000 0.0000 0.0000 26.9959 0.0000 0.0000 17.0366 -6.7226 47.5955 110.0000 0.0000 0.0000 29.7951 0.0000 0.0000 8.5085 -11.0548 50.9504 110.0000 0.0000 0.0000 29.4078 0.0000 0.0000 -5.3272 -14.9502 54.5709 110.0000 0.0000 0.0000 33.0294 0.0000 0.0000 0.0000 0.0000 0.0000 0.0000 0.0000 0.0000 0.0000 0.0000 0.0000 0.0000 0.0000 0.0000 0.0000 0.0000 0.0000 0.0000 0.0000 0.0000
0.0000 95.0000 0.0000 0.0000 0.0000 0.0000 0.0000 0.0000 0.0000 0.0000 0.0000 0.0000 0.0000 0.0000 0.0000 0.0000 0.0000 0.0000 0.0000 0.0000 0.0000 0.0000 0.0000 0.0000 -71.3049 16.9877 23.5214 -4.5596 3.2731 -2.6549 130.1882 66.0245 0.2584 70.6142 -13.6865 32.6727 25.6297 0.0000 0.0000 42.0555 0.0000 0.0000 -9.7245 -2.4366 29.2088 7.3528 0.0000 0.0000 4.6352 0.0000 0.0000 1.5740 -0.4124 24.5909 110.0000 0.0000 0.0000 14.9030 0.0000 0.0000 12.3375 0.2734 29.0117 110.0000 0.0000 0.0000 13.9955 0.0000 0.0000 16.4353 3.9818 31.8917 110.0000 0.0000 0.0000 13.2569 0.0000 0.0000 0.0000 0.0000 0.0000 66.7559 -24.3684 36.2913 -147.8969 67.8841 -63.5146 -53.1707 -36.8504 -373.3004 -37.0062 -5.8999 -7.4758 5.5364 0.0000 0.0000 5.4166 0.0000 0.0000 32.8529 -3.8565 47.3488 110.0000 0.0000 0.0000 26.8458 0.0000 0.0000 20.5513 -9.2352 52.7988 110.0000 0.0000 0.0000 29.8721 0.0000 0.0000 12.0019 -13.9211 55.6539 110.0000 0.0000 0.0000 29.8469 0.0000 0.0000 -2.8799 -16.8258 56.9576 110.0000 0.0000 0.0000 31.0839 0.0000 0.0000 0.0000 0.0000 0.0000 0.0000 0.0000 0.0000 0.0000 0.0000 0.0000 0.0000 0.0000 0.0000 0.0000 0.0000 0.0000 0.0000 0.0000 0.0000
0.0000 95.0000 0.0000 0.0000 0.0000 0.0000 0.0000 0.0000 0.0000 0.0000 0.0000 0.0000 0.0000 0.0000 0.0000 0.0000 0.0000 0.0000 0.0000 0.0000 0.0000 0.0000 0.0000 0.0000 -71.0672 17.0209 23.6674 -4.9080 3.3751 -2.6705 130.5623 66.0396 0.5290 70.6142 -13.6865 32.6727 25.6297 0.0000 0.0000 42.0555 0.0000 0.0000 -9.7245 -2.4366 29.2088 7.3528 0.0000 0.0000 4.6352 0.0000 0.0000 1.5740 -0.4124 24.5909 110.0000 0.0000 0.0000 14.9030 0.0000 0.0000 12.3375 0.2734 29.0117 110.0000 0.0000 0.0000 13.9955 0.0000 0.0000 16.4353 3.9818 31.8917 110.0000 0.0000 0.0000 13.2569 0.0000 0.0000 0.0000 0.0000 0.0000 66.5878 -24.4043 36.4515 -147.9468 67.6228 -63.5033 -51.7129 -36.6370 -373.8890 -37.3087 -5.7370 -8.1885 6.5473 0.0000 0.0000 3.2947 0.0000 0.0000 31.2184 -2.9848 45.1573 110.0000 0.0000 0.0000 28.7155 0.0000 0.0000 19.4671 -8.5187 51.7107 110.0000 0.0000 0.0000 32.2531 0.0000 0.0000 10.3059 -12.8874 54.8535 110.0000 0.0000 0.0000 31.2288 0.0000 0.0000 -3.8940 -16.6746 58.0008 110.0000 0.0000 0.0000 33.1590 0.0000 0.0000 0.0000 0.0000 0.0000 0.0000 0.0000 0.0000 0.0000 0.0000 0.0000 0.0000 0.0000 0.0000 0.0000 0.0000 0.0000 0.0000 0.0000 0.0000
0.0000 95.0000 0.0000 0.0000 0.0000 0.0000 0.0000 0.0000 0.0000 0.0000 0.0000 0.0000 0.0000 0.0000 0.0000 0.0000 0.0000 0.0000 0.0000 0.0000 0.0000 0.0000 0.0000 0.0000 -71.2069 17.1950 23.8463 -4.7966 3.3948 -2.7112 130.7772 66.1474 0.5660 70.6142 -13.6865 32.6727 25.6297 0.0000 0.0000 42.0555 0.0000 0.0000 -9.7245 -2.4366 29.2088 7.3528 0.0000 0.0000 4.6352 0.0000 0.0000 1.5740 -0.4124 24.5909 110.0000 0.0000 0.0000 14.9030 0.0000 0.0000 12.3375 0.2734 29.0117 110.0000 0.0000 0.0000 13.9955 0.0000 0.0000 16.4353 3.9818 31.8917 110.0000 0.0000 0.0000 13.2569 0.0000 0.0000 0.0000 0.0000 0.0000 66.1829 -24.3391 36.6204 -146.8975 68.0761 -62.6343 -46.8132 -30.8095 -380.5676 -37.9049 -5.8681 -8.2896 7.0429 0.0000 0.0000 2.4998 0.0000 0.0000 27.2271 -1.9761 51.9344 110.0000 0.0000 0.0000 25.7872 0.0000 0.0000 13.8652 -6.9058 57.5566 110.0000 0.0000 0.0000 30.0092 0.0000 0.0000 4.0964 -10.8308 58.7145 110.0000 0.0000 0.0000 28.8918 0.0000 0.0000 -10.1994 -13.4532 57.2680 110.0000 0.0000 0.0000 28.2900 0.0000 0.0000 0.0000 0.0000 0.0000 0.0000 0.0000 0.0000 0.0000 0.0000 0.0000 0.0000 0.0000 0.0000 0.0000 0.0000 0.0000 0.0000 0.0000 0.0000
0.0000 95.0000 0.0000 0.0000 0.0000 0.0000 0.0000 0.0000 0.0000 0.0000 0.0000 0.0000 0.0000 0.0000 0.0000 0.0000 0.0000 0.0000 0.0000 0.0000 0.0000 0.0000 0.0000 0.0000 -71.6417 17.2182 23.6930 -4.6974 3.6990 -3.1712 131.4079 65.6716 1.6127 70.6142 -13.6865 32.6727 25.6297 0.0000 0.0000 42.0555 0.0000 0.0000 -9.7245 -2.4366 29.2088 7.3528 0.0000 0.0000 4.6352 0.0000 0.0000 1.5740 -0.4124 24.5909 110.0000 0.0000 0.0000 14.9030 0.0000 0.0000 12.3375 0.2734 29.0117 110.0000 0.0000 0.0000 13.9955 0.0000 0.0000 16.4353 3.9818 31.8917 110.0000 0.0000 0.0000 13.2569 0.0000 0.0000 0.0000 0.0000 0.0000 66.5534 -24.1090 36.0486 -149.0774 67.3583 -63.8568 -48.9002 -34.3441 -378.2600 -37.5036 -5.8707 -7.9556 6.0346 0.0000 0.0000 2.7267 0.0000 0.0000 30.0437 -3.3447 53.3586 110.0000 0.0000 0.0000 27.8251 0.0000 0.0000 17.1534 -8.5503 57.5029 110.0000 0.0000 0.0000 31.0784 0.0000 0.0000 7.7182 -12.5057 58.1241 110.0000 0.0000 0.0000 30.0330 0.0000 0.0000 -6.6559 -15.0247 56.9167 110.0000 0.0000 0.0000 30.2529 0.0000 0.0000 0.0000 0.0000 0.0000 0.0000 0.0000 0.0000 0.0000 0.0000 0.0000 0.0000 0.0000 0.0000 0.0000 0.0000 0.0000 0.0000 0.0000 0.0000
0.0000 95.0000 0.0000 0.0000 0.0000 0.0000 0.0000 0.0000 0.0000 0.0000 0.0000 0.0000 0.0000 0.0000 0.0000 0.0000 0.0000 0.0000 0.0000 0.0000 0.0000 0.0000 0.0000 0.0000 -71.4511 17.4443 24.0817 -4.6447 3.6371 -3.0751 131.1472 66.0461 0.9709 70.6142 -13.6865 32.6727 25.6297 0.0000 0.0000 42.0555 0.0000 0.0000 -9.7245 -2.4366 29.2088 7.3528 0.0000 0.0000 4.6352 0.0000 0.0000 1.5740 -0.4124 24.5909 110.0000 0.0000 0.0000 14.9030 0.0000 0.0000 12.3375 0.2734 29.0117 110.0000 0.0000 0.0000 13.9955 0.0000 0.0000 16.4353 3.9818 31.8917 110.0000 0.0000 0.0000 13.2569 0.0000 0.0000 0.0000 0.0000 0.0000 66.8977 -23.8412 35.4446 -150.9229 67.1306 -64.8951 -46.2010 -32.1221 -380.5993 -38.3437 -6.1367 -7.8478 7.4426 0.0000 0.0000 2.6643 0.0000 0.0000 28.1396 -2.6522 55.4332 109.3463 0.0000 0.0000 28.6560 0.0000 0.0000 14.5807 -7.4864 58.9420 110.0000 0.0000 0.0000 31.2279 0.0000 0.0000 5.4749 -11.9032 60.3336 110.0000 0.0000 0.0000 31.1038 0.0000 0.0000 -8.7233 -15.3694 61.7784 107.8270 0.0000 0.0000 33.2596 0.0000 0.0000 0.0000 0.0000 0.0000 0.0000 0.0000 0.0000 0.0000 0.0000 0.0000 0.0000 0.0000 0.0000 0.0000 0.0000 0.0000 0.0000 0.0000 0.0000
0.0000 95.0000 0.0000 0.0000 0.0000 0.0000 0.0000 0.0000 0.0000 0.0000 0.0000 0.0000 0.0000 0.0000 0.0000 0.0000 0.0000 0.0000 0.0000 0.0000 0.0000 0.0000 0.0000 0.0000 -71.4064 17.3957 24.0348 -5.0176 3.6385 -2.9406 131.9343 66.0141 1.6100 70.6142 -13.6865 32.6727 25.6297 0.0000 0.0000 42.0555 0.0000 0.0000 -9.7245 -2.4366 29.2088 7.3528 0.0000 0.0000 4.6352 0.0000 0.0000 1.5740 -0.4124 24.5909 110.0000 0.0000 0.0000 14.9030 0.0000 0.0000 12.3375 0.2734 29.0117 110.0000 0.0000 0.0000 13.9955 0.0000 0.0000 16.4353 3.9818 31.8917 110.0000 0.0000 0.0000 13.2569 0.0000 0.0000 0.0000 0.0000 0.0000 67.0026 -23.5620 34.9784 -151.7138 67.4713 -65.2254 -45.0387 -28.2467 -383.1707 -38.5710 -6.0829 -8.1977 7.4531 0.0000 0.0000 2.9392 0.0000 0.0000 26.2687 -2.0519 59.9970 103.4145 0.0000 0.0000 27.7816 0.0000 0.0000 11.7044 -6.6412 63.7973 107.6173 0.0000 0.0000 33.1877 0.0000 0.0000 1.9875 -10.6466 63.1113 109.3886 0.0000 0.0000 33.3837 0.0000 0.0000 -12.1222 -13.9036 63.0037 105.5009 0.0000 0.0000 34.3161 0.0000 0.0000 0.0000 0.0000 0.0000 0.0000 0.0000 0.0000 0.0000 0.0000 0.0000 0.0000 0.0000 0.0000 0.0000 0.0000 0.0000 0.0000 0.0000 0.0000
0.0000 95.0000 0.0000 0.0000 0.0000 0.0000 0.0000 0.0000 0.0000 0.0000 0.0000 0.0000 0.0000 0.0000 0.0000 0.0000 0.0000 0.0000 0.0000 0.0000 0.0000 0.0000 0.0000 0.0000 -71.7342 17.3476 23.8293 -5.2622 4.0212 -3.3993 133.0448 65.4059 3.1551 70.6142 -13.6865 32.6727 25.6297 0.0000 0.0000 42.0555 0.0000 0.0000 -9.7245 -2.4366 29.2088 7.3528 0.0000 0.0000 4.6352 0.0000 0.0000 1.5740 -0.4124 24.5909 110.0000 0.0000 0.0000 14.9030 0.0000 0.0000 12.3375 0.2734 29.0117 110.0000 0.0000 0.0000 13.9955 0.0000 0.0000 16.4353 3.9818 31.8917 110.0000 0.0000 0.0000 13.2569 0.0000 0.0000 0.0000 0.0000 0.0000 67.4226 -23.1509 34.1319 -151.3685 69.0314 -64.9300 -42.9145 -1.7365 -397.8527 -44.1885 -8.8945 -3.4115 6.5567 0.0000 0.0000 1.0027 0.0000 0.0000 1.3771 21.2824 98.6821 59.4862 0.0000 0.0000 19.9890 0.0000 0.0000 -12.3451 15.1754 106.6276 53.4379 0.0000 0.0000 22.9928 0.0000 0.0000 -20.1251 3.9981 105.7637 54.9173 0.0000 0.0000 28.6319 0.0000 0.0000 -33.8191 -2.6900 101.2053 55.1824 0.0000 0.0000 32.3875 0.0000 0.0000 0.0000 0.0000 0.0000 0.0000 0.0000 0.0000 0.0000 0.0000 0.0000 0.0000 0.0000 0.0000 0.0000 0.0000 0.0000 0.0000 0.0000 0.0000
0.0000 95.0000 0.0000 0.0000 0.0000 0.0000 0.0000 0.0000 0.0000 0.0000 0.0000 0.0000 0.0000 0.0000 0.0000 0.0000 0.0000 0.0000 0.0000 0.0000 0.0000 0.0000 0.0000 0.0000 -71.5032 17.3994 23.9982 -5.5176 3.9855 -3.2497 133.2741 65.5865 3.1181 70.6142 -13.6865 32.6727 25.6297 0.0000 0.0000 42.0555 0.0000 0.0000 -9.7245 -2.4366 29.2088 7.3528 0.0000 0.0000 4.6352 0.0000 0.0000 1.5740 -0.4124 24.5909 110.0000 0.0000 0.0000 14.9030 0.0000 0.0000 12.3375 0.2734 29.0117 110.0000 0.0000 0.0000 13.9955 0.0000 0.0000 16.4353 3.9818 31.8917 110.0000 0.0000 0.0000 13.2569 0.0000 0.0000 0.0000 0.0000 0.0000 66.8547 -22.9711 34.2203 -145.9332 73.5989 -61.5299 -40.4851 -13.7245 -372.0225 -46.2023 -10.5266 1.4761 4.9037 0.0000 0.0000 1.5184 0.0000 0.0000 41.5212 -17.6225 87.7616 43.6643 0.0000 0.0000 19.3375 0.0000 0.0000 28.2342 -25.7084 89.2077 48.3596 0.0000 0.0000 39.7500 0.0000 0.0000 20.8723 -30.9219 84.2374 62.3702 0.0000 0.0000 63.5009 0.0000 0.0000 8.6988 -34.7088 81.7003 73.9608 0.0000 0.0000 70.1370 0.0000 0.0000 0.0000 0.0000 0.0000 0.0000 0.0000 0.0000 0.0000 0.0000 0.0000 0.0000 0.0000 0.0000 0.0000 0.0000 0.0000 0.0000 0.0000 0.0000
0.0000 95.0000 0.0000 0.0000 0.0000 0.0000 0.0000 0.0000 0.0000 0.0000 0.0000 0.0000 0.0000 0.0000 0.0000 0.0000 0.0000 0.0000 0.0000 0.0000 0.0000 0.0000 0.0000 0.0000 -71.6474 16.7608 23.0694 -6.8402 4.8870 -4.2287 135.4659 63.7591 6.7755 70.6142 -13.6865 32.6727 25.6297 0.0000 0.0000 42.0555 0.0000 0.0000 -9.7245 -2.4366 29.2088 7.3528 0.0000 0.0000 4.6352 0.0000 0.0000 1.5740 -0.4124 24.5909 110.0000 0.0000 0.0000 14.9030 0.0000 0.0000 12.3375 0.2734 29.0117 110.0000 0.0000 0.0000 13.9955 0.0000 0.0000 16.4353 3.9818 31.8917 110.0000 0.0000 0.0000 13.2569 0.0000 0.0000 0.0000 0.0000 0.0000 67.9561 -21.5428 31.5266 -92.2127 85.2244 -12.7695 14.2987 -13.8372 -294.7207 -77.8007 -15.9164 -5.7145 19.2224 0.0000 0.0000 15.2081 0.0000 0.0000 55.3765 5.6196 -9.9051 97.6101 0.0000 0.0000 31.6186 0.0000 0.0000 70.0842 3.6295 -0.4017 103.1838 0.0000 0.0000 17.6488 0.0000 0.0000 69.4285 9.4102 -4.8148 105.7456 0.0000 0.0000 12.5061 0.0000 0.0000 66.2973 8.0655 -0.7228 110.0000 0.0000 0.0000 4.1219 0.0000 0.0000 0.0000 0.0000 0.0000 0.0000 0.0000 0.0000 0.0000 0.0000 0.0000 0.0000 0.0000 0.0000 0.0000 0.0000 0.0000 0.0000 0.0000 0.0000
0.0000 95.0000 0.0000 0.0000 0.0000 0.0000 0.0000 0.0000 0.0000 0.0000 0.0000 0.0000 0.0000 0.0000 0.0000 0.0000 0.0000 0.0000 0.0000 0.0000 0.0000 0.0000 0.0000 0.0000 -74.2855 13.7154 18.0432 -7.5123 4.8597 -4.5045 137.8226 59.3293 13.0890 70.6142 -13.6865 32.6727 25.6297 0.0000 0.0000 42.0555 0.0000 0.0000 -9.7245 -2.4366 29.2088 7.3528 0.0000 0.0000 4.6352 0.0000 0.0000 1.5740 -0.4124 24.5909 110.0000 0.0000 0.0000 14.9030 0.0000 0.0000 12.3375 0.2734 29.0117 110.0000 0.0000 0.0000 13.9955 0.0000 0.0000 16.4353 3.9818 31.8917 110.0000 0.0000 0.0000 13.2569 0.0000 0.0000 0.0000 0.0000 0.0000 69.8850 -19.4394 27.5484 6.3939 65.1705 71.9228 68.2159 17.8891 -310.7735 -72.0521 -14.7760 7.8474 22.7544 0.0000 0.0000 2.8027 0.0000 0.0000 5.9123 1.4541 9.2303 110.0000 0.0000 0.0000 40.0320 0.0000 0.0000 -4.1647 0.2102 10.5482 110.0000 0.0000 0.0000 24.9921 0.0000 0.0000 -11.1665 -1.0937 11.1898 110.0000 0.0000 0.0000 22.8028 0.0000 0.0000 -16.2100 -2.5674 8.6957 110.0000 0.0000 0.0000 21.3241 0.0000 0.0000 0.0000 0.0000 0.0000 0.0000 0.0000 0.0000 0.0000 0.0000 0.0000 0.0000 0.0000 0.0000 0.0000 0.0000 0.0000 0.0000 0.0000 0.0000
0.0000 95.0000 0.0000 0.0000 0.0000 0.0000 0.0000 0.0000 0.0000 0.0000 0.0000 0.0000 0.0000 0.0000 0.0000 0.0000 0.0000 0.0000 0.0000 0.0000 0.0000 0.0000 0.0000 0.0000 -75.9894 10.9608 14.0047 -8.3477 4.1730 -3.8171 139.4791 56.2400 17.1985 70.6142 -13.6865 32.6727 25.6297 0.0000 0.0000 42.0555 0.0000 0.0000 -9.7245 -2.4366 29.2088 7.3528 0.0000 0.0000 4.6352 0.0000 0.0000 1.5740 -0.4124 24.5909 110.0000 0.0000 0.0000 14.9030 0.0000 0.0000 12.3375 0.2734 29.0117 110.0000 0.0000 0.0000 13.9955 0.0000 0.0000 16.4353 3.9818 31.8917 110.0000 0.0000 0.0000 13.2569 0.0000 0.0000 0.0000 0.0000 0.0000 74.8404 -14.6886 19.1241 17.6017 37.4375 59.6702 98.0402 51.8843 -294.9405 -59.6986 -12.4879 -0.7646 15.8552 0.0000 0.0000 8.0674 0.0000 0.0000 -10.5084 0.5951 3.8888 110.0000 0.0000 0.0000 36.8330 0.0000 0.0000 -29.8666 0.9660 8.3929 110.0000 0.0000 0.0000 36.2768 0.0000 0.0000 -40.8046 -0.0743 10.0251 110.0000 0.0000 0.0000 31.0222 0.0000 0.0000 -47.7368 -2.1189 10.9253 109.4796 0.0000 0.0000 32.8215 0.0000 0.0000 0.0000 0.0000 0.0000 0.0000 0.0000 0.0000 0.0000 0.0000 0.0000 0.0000 0.0000 0.0000 0.0000 0.0000 0.0000 0.0000 0.0000 0.0000
0.0000 95.0000 0.0000 0.0000 0.0000 0.0000 0.0000 0.0000 0.0000 0.0000 0.0000 0.0000 0.0000 0.0000 0.0000 0.0000 0.0000 0.0000 0.0000 0.0000 0.0000 0.0000 0.0000 0.0000 -77.4715 7.7747 9.6838 -8.8679 2.1159 -1.3758 140.8745 54.3286 19.8151 70.6142 -13.6865 32.6727 25.6297 0.0000 0.0000 42.0555 0.0000 0.0000 -9.7245 -2.4366 29.2088 7.3528 0.0000 0.0000 4.6352 0.0000 0.0000 1.5740 -0.4124 24.5909 110.0000 0.0000 0.0000 14.9030 0.0000 0.0000 12.3375 0.2734 29.0117 110.0000 0.0000 0.0000 13.9955 0.0000 0.0000 16.4353 3.9818 31.8917 110.0000 0.0000 0.0000 13.2569 0.0000 0.0000 0.0000 0.0000 0.0000 77.1320 -11.0935 13.8887 15.3014 17.2529 30.6460 156.1586 57.5631 -222.1551 -59.6986 -12.4879 -0.7646 15.8552 0.0000 0.0000 8.0674 0.0000 0.0000 -10.5084 0.5951 3.8888 110.0000 0.0000 0.0000 36.8330 0.0000 0.0000 -29.8666 0.9660 8.3929 110.0000 0.0000 0.0000 36.2768 0.0000 0.0000 -40.8046 -0.0743 10.0251 110.0000 0.0000 0.0000 31.0222 0.0000 0.0000 -47.7368 -2.1189 10.9253 109.4796 0.0000 0.0000 32.8215 0.0000 0.0000 0.0000 0.0000 0.0000 0.0000 0.0000 0.0000 0.0000 0.0000 0.0000 0.0000 0.0000 0.0000 0.0000 0.0000 0.0000 0.0000 0.0000 0.0000
0.0000 95.0000 0.0000 0.0000 0.0000 0.0000 0.0000 0.0000 0.0000 0.0000 0.0000 0.0000 0.0000 0.0000 0.0000 0.0000 0.0000 0.0000 0.0000 0.0000 0.0000 0.0000 0.0000 0.0000 -77.9913 7.0849 8.7447 -9.5446 1.1532 -0.0223 142.8017 54.2055 20.9485 70.6142 -13.6865 32.6727 25.6297 0.0000 0.0000 42.0555 0.0000 0.0000 -9.7245 -2.4366 29.2088 7.3528 0.0000 0.0000 4.6352 0.0000 0.0000 1.5740 -0.4124 24.5909 110.0000 0.0000 0.0000 14.9030 0.0000 0.0000 12.3375 0.2734 29.0117 110.0000 0.0000 0.0000 13.9955 0.0000 0.0000 16.4353 3.9818 31.8917 110.0000 0.0000 0.0000 13.2569 0.0000 0.0000 0.0000 0.0000 0.0000 79.1785 -8.6986 10.5096 10.0140 10.8812 17.2056 165.5376 46.1936 -201.2082 -59.6986 -12.4879 -0.7646 15.8552 0.0000 0.0000 8.0674 0.0000 0.0000 -10.5084 0.5951 3.8888 110.0000 0.0000 0.0000 36.8330 0.0000 0.0000 -29.8666 0.9660 8.3929 110.0000 0.0000 0.0000 36.2768 0.0000 0.0000 -40.8046 -0.0743 10.0251 110.0000 0.0000 0.0000 31.0222 0.0000 0.0000 -47.7368 -2.1189 10.9253 109.4796 0.0000 0.0000 32.8215 0.0000 0.0000 0.0000 0.0000 0.0000 0.0000 0.0000 0.0000 0.0000 0.0000 0.0000 0.0000 0.0000 0.0000 0.0000 0.0000 0.0000 0.0000 0.0000 0.0000
0.0000 95.0000 0.0000 0.0000 0.0000 0.0000 0.0000 0.0000 0.0000 0.0000 0.0000 0.0000 0.0000 0.0000 0.0000 0.0000 0.0000 0.0000 0.0000 0.0000 0.0000 0.0000 0.0000 0.0000 -77.7140 7.0839 8.7867 -10.3941 -0.0027 1.8384 144.7019 55.4004 20.8663 70.6142 -13.6865 32.6727 25.6297 0.0000 0.0000 42.0555 0.0000 0.0000 -9.7245 -2.4366 29.2088 7.3528 0.0000 0.0000 4.6352 0.0000 0.0000 1.5740 -0.4124 24.5909 110.0000 0.0000 0.0000 14.9030 0.0000 0.0000 12.3375 0.2734 29.0117 110.0000 0.0000 0.0000 13.9955 0.0000 0.0000 16.4353 3.9818 31.8917 110.0000 0.0000 0.0000 13.2569 0.0000 0.0000 0.0000 0.0000 0.0000 80.4529 -6.4632 7.6378 6.3415 8.8040 12.3217 165.1621 40.1766 -194.7607 -59.6986 -12.4879 -0.7646 15.8552 0.0000 0.0000 8.0674 0.0000 0.0000 -10.5084 0.5951 3.8888 110.0000 0.0000 0.0000 36.8330 0.0000 0.0000 -29.8666 0.9660 8.3929 110.0000 0.0000 0.0000 36.2768 0.0000 0.0000 -40.8046 -0.0743 10.0251 110.0000 0.0000 0.0000 31.0222 0.0000 0.0000 -47.7368 -2.1189 10.9253 109.4796 0.0000 0.0000 32.8215 0.0000 0.0000 0.0000 0.0000 0.0000 0.0000 0.0000 0.0000 0.0000 0.0000 0.0000 0.0000 0.0000 0.0000 0.0000 0.0000 0.0000 0.0000 0.0000 0.0000
0.0000 95.0000 0.0000 0.0000 0.0000 0.0000 0.0000 0.0000 0.0000 0.0000 0.0000 0.0000 0.0000 0.0000 0.0000 0.0000 0.0000 0.0000 0.0000 0.0000 0.0000 0.0000 0.0000 0.0000 -77.6080 7.1349 8.8665 -10.3501 -0.7010 2.8827 145.0590 56.3462 20.2081 70.6142 -13.6865 32.6727 25.6297 0.0000 0.0000 42.0555 0.0000 0.0000 -9.7245 -2.4366 29.2088 7.3528 0.0000 0.0000 4.6352 0.0000 0.0000 1.5740 -0.4124 24.5909 110.0000 0.0000 0.0000 14.9030 0.0000 0.0000 12.3375 0.2734 29.0117 110.0000 0.0000 0.0000 13.9955 0.0000 0.0000 16.4353 3.9818 31.8917 110.0000 0.0000 0.0000 13.2569 0.0000 0.0000 0.0000 0.0000 0.0000 81.0936 -5.0586 5.9117 3.9108 7.2568 9.4016 164.1565 36.4356 -191.1642 -59.6986 -12.4879 -0.7646 15.8552 0.0000 0.0000 8.0674 0.0000 0.0000 -10.5084 0.5951 3.8888 110.0000 0.0000 0.0000 36.8330 0.0000 0.0000 -29.8666 0.9660 8.3929 110.0000 0.0000 0.0000 36.2768 0.0000 0.0000 -40.8046 -0.0743 10.0251 110.0000 0.0000 0.0000 31.0222 0.0000 0.0000 -47.7368 -2.1189 10.9253 109.4796 0.0000 0.0000 32.8215 0.0000 0.0000 0.0000 0.0000 0.0000 0.0000 0.0000 0.0000 0.0000 0.0000 0.0000 0.0000 0.0000 0.0000 0.0000 0.0000 0.0000 0.0000 0.0000 0.0000
0.0000 95.0000 0.0000 0.0000 0.0000 0.0000 0.0000 0.0000 0.0000 0.0000 0.0000 0.0000 0.0000 0.0000 0.0000 0.0000 0.0000 0.0000 0.0000 0.0000 0.0000 0.0000 0.0000 0.0000 -77.7680 6.7835 8.4065 -10.5373 -0.8787 3.0875 145.3734 56.0274 20.6641 70.6142 -13.6865 32.6727 25.6297 0.0000 0.0000 42.0555 0.0000 0.0000 -9.7245 -2.4366 29.2088 7.3528 0.0000 0.0000 4.6352 0.0000 0.0000 1.5740 -0.4124 24.5909 110.0000 0.0000 0.0000 14.9030 0.0000 0.0000 12.3375 0.2734 29.0117 110.0000 0.0000 0.0000 13.9955 0.0000 0.0000 16.4353 3.9818 31.8917 110.0000 0.0000 0.0000 13.2569 0.0000 0.0000 0.0000 0.0000 0.0000 81.7224 -3.6127 4.1759 2.7905 7.3926 9.1176 163.7447 34.8187 -189.5661 -59.6986 -12.4879 -0.7646 15.8552 0.0000 0.0000 8.0674 0.0000 0.0000 -10.5084 0.5951 3.8888 110.0000 0.0000 0.0000 36.8330 0.0000 0.0000 -29.8666 0.9660 8.3929 110.0000 0.0000 0.0000 36.2768 0.0000 0.0000 -40.8046 -0.0743 10.0251 110.0000 0.0000 0.0000 31.0222 0.0000 0.0000 -47.7368 -2.1189 10.9253 109.4796 0.0000 0.0000 32.8215 0.0000 0.0000 0.0000 0.0000 0.0000 0.0000 0.0000 0.0000 0.0000 0.0000 0.0000 0.0000 0.0000 0.0000 0.0000 0.0000 0.0000 0.0000 0.0000 0.0000
0.0000 95.0000 0.0000 0.0000 0.0000 0.0000 0.0000 0.0000 0.0000 0.0000 0.0000 0.0000 0.0000 0.0000 0.0000 0.0000 0.0000 0.0000 0.0000 0.0000 0.0000 0.0000 0.0000 0.0000 -77.4805 6.5233 8.1258 -11.0581 -1.0911 3.4700 145.7038 55.9852 20.8790 70.6142 -13.6865 32.6727 25.6297 0.0000 0.0000 42.0555 0.0000 0.0000 -9.7245 -2.4366 29.2088 7.3528 0.0000 0.0000 4.6352 0.0000 0.0000 1.5740 -0.4124 24.5909 110.0000 0.0000 0.0000 14.9030 0.0000 0.0000 12.3375 0.2734 29.0117 110.0000 0.0000 0.0000 13.9955 0.0000 0.0000 16.4353 3.9818 31.8917 110.0000 0.0000 0.0000 13.2569 0.0000 0.0000 0.0000 0.0000 0.0000 82.1704 -2.9199 3.3487 1.8229 8.2957 9.8700 162.8940 34.8256 -190.0358 -59.6986 -12.4879 -0.7646 15.8552 0.0000 0.0000 8.0674 0.0000 0.0000 -10.5084 0.5951 3.8888 110.0000 0.0000 0.0000 36.8330 0.0000 0.0000 -29.8666 0.9660 8.3929 110.0000 0.0000 0.0000 36.2768 0.0000 0.0000 -40.8046 -0.0743 10.0251 110.0000 0.0000 0.0000 31.0222 0.0000 0.0000 -47.7368 -2.1189 10.9253 109.4796 0.0000 0.0000 32.8215 0.0000 0.0000 0.0000 0.0000 0.0000 0.0000 0.0000 0.0000 0.0000 0.0000 0.0000 0.0000 0.0000 0.0000 0.0000 0.0000 0.0000 0.0000 0.0000 0.0000
0.0000 95.0000 0.0000 0.0000 0.0000 0.0000 0.0000 0.0000 0.0000 0.0000 0.0000 0.0000 0.0000 0.0000 0.0000 0.0000 0.0000 0.0000 0.0000 0.0000 0.0000 0.0000 0.0000 0.0000 -77.4056 5.9800 7.4597 -11.3670 -1.0089 3.2663 145.4605 55.2227 21.4257 70.6142 -13.6865 32.6727 25.6297 0.0000 0.0000 42.0555 0.0000 0.0000 -9.7245 -2.4366 29.2088 7.3528 0.0000 0.0000 4.6352 0.0000 0.0000 1.5740 -0.4124 24.5909 110.0000 0.0000 0.0000 14.9030 0.0000 0.0000 12.3375 0.2734 29.0117 110.0000 0.0000 0.0000 13.9955 0.0000 0.0000 16.4353 3.9818 31.8917 110.0000 0.0000 0.0000 13.2569 0.0000 0.0000 0.0000 0.0000 0.0000 82.4907 -2.6811 3.0575 0.9330 9.1594 10.6025 161.9184 35.2552 -191.0729 -59.6986 -12.4879 -0.7646 15.8552 0.0000 0.0000 8.0674 0.0000 0.0000 -10.5084 0.5951 3.8888 110.0000 0.0000 0.0000 36.8330 0.0000 0.0000 -29.8666 0.9660 8.3929 110.0000 0.0000 0.0000 36.2768 0.0000 0.0000 -40.8046 -0.0743 10.0251 110.0000 0.0000 0.0000 31.0222 0.0000 0.0000 -47.7368 -2.1189 10.9253 109.4796 0.0000 0.0000 32.8215 0.0000 0.0000 0.0000 0.0000 0.0000 0.0000 0.0000 0.0000 0.0000 0.0000 0.0000 0.0000 0.0000 0.0000 0.0000 0.0000 0.0000 0.0000 0.0000 0.0000
0.0000 95.0000 0.0000 0.0000 0.0000 0.0000 0.0000 0.0000 0.0000 0.0000 0.0000 0.0000 0.0000 0.0000 0.0000 0.0000 0.0000 0.0000 0.0000 0.0000 0.0000 0.0000 0.0000 0.0000 -77.8735 6.1412 7.5970 -10.4961 -1.4776 3.7951 145.2238 55.9871 20.6196 70.6142 -13.6865 32.6727 25.6297 0.0000 0.0000 42.0555 0.0000 0.0000 -9.7245 -2.4366 29.2088 7.3528 0.0000 0.0000 4.6352 0.0000 0.0000 1.5740 -0.4124 24.5909 110.0000 0.0000 0.0000 14.9030 0.0000 0.0000 12.3375 0.2734 29.0117 110.0000 0.0000 0.0000 13.9955 0.0000 0.0000 16.4353 3.9818 31.8917 110.0000 0.0000 0.0000 13.2569 0.0000 0.0000 0.0000 0.0000 0.0000 82.6144 -2.4140 2.7470 0.3561 8.9968 10.2638 161.5236 34.7267 -190.6780 -59.6986 -12.4879 -0.7646 15.8552 0.0000 0.0000 8.0674 0.0000 0.0000 -10.5084 0.5951 3.8888 110.0000 0.0000 0.0000 36.8330 0.0000 0.0000 -29.8666 0.9660 8.3929 110.0000 0.0000 0.0000 36.2768 0.0000 0.0000 -40.8046 -0.0743 10.0251 110.0000 0.0000 0.0000 31.0222 0.0000 0.0000 -47.7368 -2.1189 10.9253 109.4796 0.0000 0.0000 32.8215 0.0000 0.0000 0.0000 0.0000 0.0000 0.0000 0.0000 0.0000 0.0000 0.0000 0.0000 0.0000 0.0000 0.0000 0.0000 0.0000 0.0000 0.0000 0.0000 0.0000
0.0000 95.0000 0.0000 0.0000 0.0000 0.0000 0.0000 0.0000 0.0000 0.0000 0.0000 0.0000 0.0000 0.0000 0.0000 0.0000 0.0000 0.0000 0.0000 0.0000 0.0000 0.0000 0.0000 0.0000 -78.2526 5.9024 7.2528 -10.6841 -1.2009 3.3361 145.6451 55.1319 21.6027 70.6142 -13.6865 32.6727 25.6297 0.0000 0.0000 42.0555 0.0000 0.0000 -9.7245 -2.4366 29.2088 7.3528 0.0000 0.0000 4.6352 0.0000 0.0000 1.5740 -0.4124 24.5909 110.0000 0.0000 0.0000 14.9030 0.0000 0.0000 12.3375 0.2734 29.0117 110.0000 0.0000 0.0000 13.9955 0.0000 0.0000 16.4353 3.9818 31.8917 110.0000 0.0000 0.0000 13.2569 0.0000 0.0000 0.0000 0.0000 0.0000 82.6470 -2.1017 2.3902 -0.0681 9.3211 10.5349 160.9848 34.6549 -190.8952 -59.6986 -12.4879 -0.7646 15.8552 0.0000 0.0000 8.0674 0.0000 0.0000 -10.5084 0.5951 3.8888 110.0000 0.0000 0.0000 36.8330 0.0000 0.0000 -29.8666 0.9660 8.3929 110.0000 0.0000 0.0000 36.2768 0.0000 0.0000 -40.8046 -0.0743 10.0251 110.0000 0.0000 0.0000 31.0222 0.0000 0.0000 -47.7368 -2.1189 10.9253 109.4796 0.0000 0.0000 32.8215 0.0000 0.0000 0.0000 0.0000 0.0000 0.0000 0.0000 0.0000 0.0000 0.0000 0.0000 0.0000 0.0000 0.0000 0.0000 0.0000 0.0000 0.0000 0.0000 0.0000
0.0000 95.0000 0.0000 0.0000 0.0000 0.0000 0.0000 0.0000 0.0000 0.0000 0.0000 0.0000 0.0000 0.0000 0.0000 0.0000 0.0000 0.0000 0.0000 0.0000 0.0000 0.0000 0.0000 0.0000 -78.3533 5.7414 7.0425 -11.0767 -1.4282 3.7019 146.4398 55.0370 22.0996 70.6142 -13.6865 32.6727 25.6297 0.0000 0.0000 42.0555 0.0000 0.0000 -9.7245 -2.4366 29.2088 7.3528 0.0000 0.0000 4.6352 0.0000 0.0000 1.5740 -0.4124 24.5909 110.0000 0.0000 0.0000 14.9030 0.0000 0.0000 12.3375 0.2734 29.0117 110.0000 0.0000 0.0000 13.9955 0.0000 0.0000 16.4353 3.9818 31.8917 110.0000 0.0000 0.0000 13.2569 0.0000 0.0000 0.0000 0.0000 0.0000 82.6400 -2.4357 2.7704 -0.3856 9.4547 10.6032 160.4904 35.0417 -191.6330 -59.6986 -12.4879 -0.7646 15.8552 0.0000 0.0000 8.0674 0.0000 0.0000 -10.5084 0.5951 3.8888 110.0000 0.0000 0.0000 36.8330 0.0000 0.0000 -29.8666 0.9660 8.3929 110.0000 0.0000 0.0000 36.2768 0.0000 0.0000 -40.8046 -0.0743 10.0251 110.0000 0.0000 0.0000 31.0222 0.0000 0.0000 -47.7368 -2.1189 10.9253 109.4796 0.0000 0.0000 32.8215 0.0000 0.0000 0.0000 0.0000 0.0000 0.0000 0.0000 0.0000 0.0000 0.0000 0.0000 0.0000 0.0000 0.0000 0.0000 0.0000 0.0000 0.0000 0.0000 0.0000
0.0000 95.0000 0.0000 0.0000 0.0000 0.0000 0.0000 0.0000 0.0000 0.0000 0.0000 0.0000 0.0000 0.0000 0.0000 0.0000 0.0000 0.0000 0.0000 0.0000 0.0000 0.0000 0.0000 0.0000 -78.6317 5.4513 6.6539 -11.0348 -1.4151 3.5765 146.4581 54.5629 22.5200 70.6142 -13.6865 32.6727 25.6297 0.0000 0.0000 42.0555 0.0000 0.0000 -9.7245 -2.4366 29.2088 7.3528 0.0000 0.0000 4.6352 0.0000 0.0000 1.5740 -0.4124 24.5909 110.0000 0.0000 0.0000 14.9030 0.0000 0.0000 12.3375 0.2734 29.0117 110.0000 0.0000 0.0000 13.9955 0.0000 0.0000 16.4353 3.9818 31.8917 110.0000 0.0000 0.0000 13.2569 0.0000 0.0000 0.0000 0.0000 0.0000 82.5323 -2.4868 2.8339 -0.6347 9.6605 10.7924 159.9634 35.2356 -192.1681 -59.6986 -12.4879 -0.7646 15.8552 0.0000 0.0000 8.0674 0.0000 0.0000 -10.5084 0.5951 3.8888 110.0000 0.0000 0.0000 36.8330 0.0000 0.0000 -29.8666 0.9660 8.3929 110.0000 0.0000 0.0000 36.2768 0.0000 0.0000 -40.8046 -0.0743 10.0251 110.0000 0.0000 0.0000 31.0222 0.0000 0.0000 -47.7368 -2.1189 10.9253 109.4796 0.0000 0.0000 32.8215 0.0000 0.0000 0.0000 0.0000 0.0000 0.0000 0.0000 0.0000 0.0000 0.0000 0.0000 0.0000 0.0000 0.0000 0.0000 0.0000 0.0000 0.0000 0.0000 0.0000
0.0000 95.0000 0.0000 0.0000 0.0000 0.0000 0.0000 0.0000 0.0000 0.0000 0.0000 0.0000 0.0000 0.0000 0.0000 0.0000 0.0000 0.0000 0.0000 0.0000 0.0000 0.0000 0.0000 0.0000 -78.7379 5.2468 6.3925 -11.0662 -1.4833 3.6213 146.5001 54.3490 22.7262 70.6142 -13.6865 32.6727 25.6297 0.0000 0.0000 42.0555 0.0000 0.0000 -9.7245 -2.4366 29.2088 7.3528 0.0000 0.0000 4.6352 0.0000 0.0000 1.5740 -0.4124 24.5909 110.0000 0.0000 0.0000 14.9030 0.0000 0.0000 12.3375 0.2734 29.0117 110.0000 0.0000 0.0000 13.9955 0.0000 0.0000 16.4353 3.9818 31.8917 110.0000 0.0000 0.0000 13.2569 0.0000 0.0000 0.0000 0.0000 0.0000 82.4812 -2.7154 3.0972 -0.8110 9.2548 10.2994 159.8458 35.0426 -192.0054 -59.6986 -12.4879 -0.7646 15.8552 0.0000 0.0000 8.0674 0.0000 0.0000 -10.5084 0.5951 3.8888 110.0000 0.0000 0.0000 36.8330 0.0000 0.0000 -29.8666 0.9660 8.3929 110.0000 0.0000 0.0000 36.2768 0.0000 0.0000 -40.8046 -0.0743 10.0251 110.0000 0.0000 0.0000 31.0222 0.0000 0.0000 -47.7368 -2.1189 10.9253 109.4796 0.0000 0.0000 32.8215 0.0000 0.0000 0.0000 0.0000 0.0000 0.0000 0.0000 0.0000 0.0000 0.0000 0.0000 0.0000 0.0000 0.0000 0.0000 0.0000 0.0000 0.0000 0.0000 0.0000
0.0000 95.0000 0.0000 0.0000 0.0000 0.0000 0.0000 0.0000 0.0000 0.0000 0.0000 0.0000 0.0000 0.0000 0.0000 0.0000 0.0000 0.0000 0.0000 0.0000 0.0000 0.0000 0.0000 0.0000 -78.8924 5.0302 6.1120 -10.9356 -1.6754 3.8114 146.4367 54.2984 22.7377 70.6142 -13.6865 32.6727 25.6297 0.0000 0.0000 42.0555 0.0000 0.0000 -9.7245 -2.4366 29.2088 7.3528 0.0000 0.0000 4.6352 0.0000 0.0000 1.5740 -0.4124 24.5909 110.0000 0.0000 0.0000 14.9030 0.0000 0.0000 12.3375 0.2734 29.0117 110.0000 0.0000 0.0000 13.9955 0.0000 0.0000 16.4353 3.9818 31.8917 110.0000 0.0000 0.0000 13.2569 0.0000 0.0000 0.0000 0.0000 0.0000 82.3250 -2.8714 3.2841 -0.7469 8.8549 9.8899 159.8812 34.8353 -191.7366 -59.6986 -12.4879 -0.7646 15.8552 0.0000 0.0000 8.0674 0.0000 0.0000 -10.5084 0.5951 3.8888 110.0000 0.0000 0.0000 36.8330 0.0000 0.0000 -29.8666 0.9660 8.3929 110.0000 0.0000 0.0000 36.2768 0.0000 0.0000 -40.8046 -0.0743 10.0251 110.0000 0.0000 0.0000 31.0222 0.0000 0.0000 -47.7368 -2.1189 10.9253 109.4796 0.0000 0.0000 32.8215 0.0000 0.0000 0.0000 0.0000 0.0000 0.0000 0.0000 0.0000 0.0000 0.0000 0.0000 0.0000 0.0000 0.0000 0.0000 0.0000 0.0000 0.0000 0.0000 0.0000
0.0000 95.0000 0.0000 0.0000 0.0000 0.0000 0.0000 0.0000 0.0000 0.0000 0.0000 0.0000 0.0000 0.0000 0.0000 0.0000 0.0000 0.0000 0.0000 0.0000 0.0000 0.0000 0.0000 0.0000 -78.9442 5.1489 6.2504 -10.6830 -1.6742 3.7887 146.2280 54.4874 22.4679 70.6142 -13.6865 32.6727 25.6297 0.0000 0.0000 42.0555 0.0000 0.0000 -9.7245 -2.4366 29.2088 7.3528 0.0000 0.0000 4.6352 0.0000 0.0000 1.5740 -0.4124 24.5909 110.0000 0.0000 0.0000 14.9030 0.0000 0.0000 12.3375 0.2734 29.0117 110.0000 0.0000 0.0000 13.9955 0.0000 0.0000 16.4353 3.9818 31.8917 110.0000 0.0000 0.0000 13.2569 0.0000 0.0000 0.0000 0.0000 0.0000 82.2686 -2.8585 3.2726 -0.6575 8.6629 9.7059 160.0020 34.6624 -191.4606 -59.6986 -12.4879 -0.7646 15.8552 0.0000 0.0000 8.0674 0.0000 0.0000 -10.5084 0.5951 3.8888 110.0000 0.0000 0.0000 36.8330 0.0000 0.0000 -29.8666 0.9660 8.3929 110.0000 0.0000 0.0000 36.2768 0.0000 0.0000 -40.8046 -0.0743 10.0251 110.0000 0.0000 0.0000 31.0222 0.0000 0.0000 -47.7368 -2.1189 10.9253 109.4796 0.0000 0.0000 32.8215 0.0000 0.0000 0.0000 0.0000 0.0000 0.0000 0.0000 0.0000 0.0000 0.0000 0.0000 0.0000 0.0000 0.0000 0.0000 0.0000 0.0000 0.0000 0.0000 0.0000
0.0000 95.0000 0.0000 0.0000 0.0000 0.0000 0.0000 0.0000 0.0000 0.0000 0.0000 0.0000 0.0000 0.0000 0.0000 0.0000 0.0000 0.0000 0.0000 0.0000 0.0000 0.0000 0.0000 0.0000 -79.0547 4.9242 5.9660 -10.6923 -1.7167 3.7874 146.2048 54.2274 22.6814 70.6142 -13.6865 32.6727 25.6297 0.0000 0.0000 42.0555 0.0000 0.0000 -9.7245 -2.4366 29.2088 7.3528 0.0000 0.0000 4.6352 0.0000 0.0000 1.5740 -0.4124 24.5909 110.0000 0.0000 0.0000 14.9030 0.0000 0.0000 12.3375 0.2734 29.0117 110.0000 0.0000 0.0000 13.9955 0.0000 0.0000 16.4353 3.9818 31.8917 110.0000 0.0000 0.0000 13.2569 0.0000 0.0000 0.0000 0.0000 0.0000 82.0819 -2.8262 3.2463 -0.3287 8.5599 9.6971 160.2012 34.6015 -191.2745 -59.6986 -12.4879 -0.7646 15.8552 0.0000 0.0000 8.0674 0.0000 0.0000 -10.5084 0.5951 3.8888 110.0000 0.0000 0.0000 36.8330 0.0000 0.0000 -29.8666 0.9660 8.3929 110.0000 0.0000 0.0000 36.2768 0.0000 0.0000 -40.8046 -0.0743 10.0251 110.0000 0.0000 0.0000 31.0222 0.0000 0.0000 -47.7368 -2.1189 10.9253 109.4796 0.0000 0.0000 32.8215 0.0000 0.0000 0.0000 0.0000 0.0000 0.0000 0.0000 0.0000 0.0000 0.0000 0.0000 0.0000 0.0000 0.0000 0.0000 0.0000 0.0000 0.0000 0.0000 0.0000
0.0000 95.0000 0.0000 0.0000 0.0000 0.0000 0.0000 0.0000 0.0000 0.0000 0.0000 0.0000 0.0000 0.0000 0.0000 0.0000 0.0000 0.0000 0.0000 0.0000 0.0000 0.0000 0.0000 0.0000 -79.0236 5.3073 6.4334 -10.4834 -1.7844 3.9441 146.2663 54.8154 22.2026 70.6142 -13.6865 32.6727 25.6297 0.0000 0.0000 42.0555 0.0000 0.0000 -9.7245 -2.4366 29.2088 7.3528 0.0000 0.0000 4.6352 0.0000 0.0000 1.5740 -0.4124 24.5909 110.0000 0.0000 0.0000 14.9030 0.0000 0.0000 12.3375 0.2734 29.0117 110.0000 0.0000 0.0000 13.9955 0.0000 0.0000 16.4353 3.9818 31.8917 110.0000 0.0000 0.0000 13.2569 0.0000 0.0000 0.0000 0.0000 0.0000 82.1175 -2.8002 3.2144 -0.5564 8.3837 9.4426 160.0628 34.3676 -191.0739 -59.6986 -12.4879 -0.7646 15.8552 0.0000 0.0000 8.0674 0.0000 0.0000 -10.5084 0.5951 3.8888 110.0000 0.0000 0.0000 36.8330 0.0000 0.0000 -29.8666 0.9660 8.3929 110.0000 0.0000 0.0000 36.2768 0.0000 0.0000 -40.8046 -0.0743 10.0251 110.0000 0.0000 0.0000 31.0222 0.0000 0.0000 -47.7368 -2.1189 10.9253 109.4796 0.0000 0.0000 32.8215 0.0000 0.0000 0.0000 0.0000 0.0000 0.0000 0.0000 0.0000 0.0000 0.0000 0.0000 0.0000 0.0000 0.0000 0.0000 0.0000 0.0000 0.0000 0.0000 0.0000
0.0000 95.0000 0.0000 0.0000 0.0000 0.0000 0.0000 0.0000 0.0000 0.0000 0.0000 0.0000 0.0000 0.0000 0.0000 0.0000 0.0000 0.0000 0.0000 0.0000 0.0000 0.0000 0.0000 0.0000 -79.2985 4.9961 6.0269 -10.2847 -1.8391 3.8888 146.0694 54.4595 22.4110 70.6142 -13.6865 32.6727 25.6297 0.0000 0.0000 42.0555 0.0000 0.0000 -9.7245 -2.4366 29.2088 7.3528 0.0000 0.0000 4.6352 0.0000 0.0000 1.5740 -0.4124 24.5909 110.0000 0.0000 0.0000 14.9030 0.0000 0.0000 12.3375 0.2734 29.0117 110.0000 0.0000 0.0000 13.9955 0.0000 0.0000 16.4353 3.9818 31.8917 110.0000 0.0000 0.0000 13.2569 0.0000 0.0000 0.0000 0.0000 0.0000 82.0920 -2.8488 3.2716 -0.5555 8.2284 9.2707 160.0905 34.2690 -190.9405 -59.6986 -12.4879 -0.7646 15.8552 0.0000 0.0000 8.0674 0.0000 0.0000 -10.5084 0.5951 3.8888 110.0000 0.0000 0.0000 36.8330 0.0000 0.0000 -29.8666 0.9660 8.3929 110.0000 0.0000 0.0000 36.2768 0.0000 0.0000 -40.8046 -0.0743 10.0251 110.0000 0.0000 0.0000 31.0222 0.0000 0.0000 -47.7368 -2.1189 10.9253 109.4796 0.0000 0.0000 32.8215 0.0000 0.0000 0.0000 0.0000 0.0000 0.0000 0.0000 0.0000 0.0000 0.0000 0.0000 0.0000 0.0000 0.0000 0.0000 0.0000 0.0000 0.0000 0.0000 0.0000
0.0000 95.0000 0.0000 0.0000 0.0000 0.0000 0.0000 0.0000 0.0000 0.0000 0.0000 0.0000 0.0000 0.0000 0.0000 0.0000 0.0000 0.0000 0.0000 0.0000 0.0000 0.0000 0.0000 0.0000 -79.3874 4.9041 5.9067 -10.2660 -1.6607 3.6002 145.9426 54.1106 22.6498 70.6142 -13.6865 32.6727 25.6297 0.0000 0.0000 42.0555 0.0000 0.0000 -9.7245 -2.4366 29.2088 7.3528 0.0000 0.0000 4.6352 0.0000 0.0000 1.5740 -0.4124 24.5909 110.0000 0.0000 0.0000 14.9030 0.0000 0.0000 12.3375 0.2734 29.0117 110.0000 0.0000 0.0000 13.9955 0.0000 0.0000 16.4353 3.9818 31.8917 110.0000 0.0000 0.0000 13.2569 0.0000 0.0000 0.0000 0.0000 0.0000 82.2510 -2.8868 3.3060 -0.7173 8.2627 9.2467 160.0786 34.3042 -190.9893 -59.6986 -12.4879 -0.7646 15.8552 0.0000 0.0000 8.0674 0.0000 0.0000 -10.5084 0.5951 3.8888 110.0000 0.0000 0.0000 36.8330 0.0000 0.0000 -29.8666 0.9660 8.3929 110.0000 0.0000 0.0000 36.2768 0.0000 0.0000 -40.8046 -0.0743 10.0251 110.0000 0.0000 0.0000 31.0222 0.0000 0.0000 -47.7368 -2.1189 10.9253 109.4796 0.0000 0.0000 32.8215 0.0000 0.0000 0.0000 0.0000 0.0000 0.0000 0.0000 0.0000 0.0000 0.0000 0.0000 0.0000 0.0000 0.0000 0.0000 0.0000 0.0000 0.0000 0.0000 0.0000
0.0000 95.0000 0.0000 0.0000 0.0000 0.0000 0.0000 0.0000 0.0000 0.0000 0.0000 0.0000 0.0000 0.0000 0.0000 0.0000 0.0000 0.0000 0.0000 0.0000 0.0000 0.0000 0.0000 0.0000 -79.5551 4.5804 5.5007 -10.3263 -1.7062 3.5865 145.9894 53.6997 23.0297 70.6142 -13.6865 32.6727 25.6297 0.0000 0.0000 42.0555 0.0000 0.0000 -9.7245 -2.4366 29.2088 7.3528 0.0000 0.0000 4.6352 0.0000 0.0000 1.5740 -0.4124 24.5909 110.0000 0.0000 0.0000 14.9030 0.0000 0.0000 12.3375 0.2734 29.0117 110.0000 0.0000 0.0000 13.9955 0.0000 0.0000 16.4353 3.9818 31.8917 110.0000 0.0000 0.0000 13.2569 0.0000 0.0000 0.0000 0.0000 0.0000 82.2609 -2.9945 3.4288 -0.7980 8.0943 9.0354 160.0512 34.2344 -190.9213 -59.6986 -12.4879 -0.7646 15.8552 0.0000 0.0000 8.0674 0.0000 0.0000 -10.5084 0.5951 3.8888 110.0000 0.0000 0.0000 36.8330 0.0000 0.0000 -29.8666 0.9660 8.3929 110.0000 0.0000 0.0000 36.2768 0.0000 0.0000 -40.8046 -0.0743 10.0251 110.0000 0.0000 0.0000 31.0222 0.0000 0.0000 -47.7368 -2.1189 10.9253 109.4796 0.0000 0.0000 32.8215 0.0000 0.0000 0.0000 0.0000 0.0000 0.0000 0.0000 0.0000 0.0000 0.0000 0.0000 0.0000 0.0000 0.0000 0.0000 0.0000 0.0000 0.0000 0.0000 0.0000
0.0000 95.0000 0.0000 0.0000 0.0000 0.0000 0.0000 0.0000 0.0000 0.0000 0.0000 0.0000 0.0000 0.0000 0.0000 0.0000 0.0000 0.0000 0.0000 0.0000 0.0000 0.0000 0.0000 0.0000 -79.4268 4.5080 5.4260 -10.4510 -1.6351 3.4966 145.8763 53.5621 23.0922 70.6142 -13.6865 32.6727 25.6297 0.0000 0.0000 42.0555 0.0000 0.0000 -9.7245 -2.4366 29.2088 7.3528 0.0000 0.0000 4.6352 0.0000 0.0000 1.5740 -0.4124 24.5909 110.0000 0.0000 0.0000 14.9030 0.0000 0.0000 12.3375 0.2734 29.0117 110.0000 0.0000 0.0000 13.9955 0.0000 0.0000 16.4353 3.9818 31.8917 110.0000 0.0000 0.0000 13.2569 0.0000 0.0000 0.0000 0.0000 0.0000 82.2380 -2.9701 3.4021 -0.8738 8.1033 9.0335 159.9359 34.2063 -190.9527 -59.6986 -12.4879 -0.7646 15.8552 0.0000 0.0000 8.0674 0.0000 0.0000 -10.5084 0.5951 3.8888 110.0000 0.0000 0.0000 36.8330 0.0000 0.0000 -29.8666 0.9660 8.3929 110.0000 0.0000 0.0000 36.2768 0.0000 0.0000 -40.8046 -0.0743 10.0251 110.0000 0.0000 0.0000 31.0222 0.0000 0.0000 -47.7368 -2.1189 10.9253 109.4796 0.0000 0.0000 32.8215 0.0000 0.0000 0.0000 0.0000 0.0000 0.0000 0.0000 0.0000 0.0000 0.0000 0.0000 0.0000 0.0000 0.0000 0.0000 0.0000 0.0000 0.0000 0.0000 0.0000
0.0000 95.0000 0.0000 0.0000 0.0000 0.0000 0.0000 0.0000 0.0000 0.0000 0.0000 0.0000 0.0000 0.0000 0.0000 0.0000 0.0000 0.0000 0.0000 0.0000 0.0000 0.0000 0.0000 0.0000 -79.1279 5.0751 6.1408 -10.4638 -1.5498 3.5355 145.9729 54.2381 22.5544 70.6142 -13.6865 32.6727 25.6297 0.0000 0.0000 42.0555 0.0000 0.0000 -9.7245 -2.4366 29.2088 7.3528 0.0000 0.0000 4.6352 0.0000 0.0000 1.5740 -0.4124 24.5909 110.0000 0.0000 0.0000 14.9030 0.0000 0.0000 12.3375 0.2734 29.0117 110.0000 0.0000 0.0000 13.9955 0.0000 0.0000 16.4353 3.9818 31.8917 110.0000 0.0000 0.0000 13.2569 0.0000 0.0000 0.0000 0.0000 0.0000 82.3164 -2.9708 3.3983 -1.0289 8.2273 9.1254 159.8017 34.2928 -191.1321 -59.6986 -12.4879 -0.7646 15.8552 0.0000 0.0000 8.0674 0.0000 0.0000 -10.5084 0.5951 3.8888 110.0000 0.0000 0.0000 36.8330 0.0000 0.0000 -29.8666 0.9660 8.3929 110.0000 0.0000 0.0000 36.2768 0.0000 0.0000 -40.8046 -0.0743 10.0251 110.0000 0.0000 0.0000 31.0222 0.0000 0.0000 -47.7368 -2.1189 10.9253 109.4796 0.0000 0.0000 32.8215 0.0000 0.0000 0.0000 0.0000 0.0000 0.0000 0.0000 0.0000 0.0000 0.0000 0.0000 0.0000 0.0000 0.0000 0.0000 0.0000 0.0000 0.0000 0.0000 0.0000
0.0000 95.0000 0.0000 0.0000 0.0000 0.0000 0.0000 0.0000 0.0000 0.0000 0.0000 0.0000 0.0000 0.0000 0.0000 0.0000 0.0000 0.0000 0.0000 0.0000 0.0000 0.0000 0.0000 0.0000 -79.2130 4.7497 5.7385 -10.6921 -1.5472 3.4850 146.1246 53.7520 23.0521 70.6142 -13.6865 32.6727 25.6297 0.0000 0.0000 42.0555 0.0000 0.0000 -9.7245 -2.4366 29.2088 7.3528 0.0000 0.0000 4.6352 0.0000 0.0000 1.5740 -0.4124 24.5909 110.0000 0.0000 0.0000 14.9030 0.0000 0.0000 12.3375 0.2734 29.0117 110.0000 0.0000 0.0000 13.9955 0.0000 0.0000 16.4353 3.9818 31.8917 110.0000 0.0000 0.0000 13.2569 0.0000 0.0000 0.0000 0.0000 0.0000 82.1292 -3.1073 3.5662 -0.7424 8.2196 9.2043 159.8841 34.4726 -191.3007 -59.6986 -12.4879 -0.7646 15.8552 0.0000 0.0000 8.0674 0.0000 0.0000 -10.5084 0.5951 3.8888 110.0000 0.0000 0.0000 36.8330 0.0000 0.0000 -29.8666 0.9660 8.3929 110.0000 0.0000 0.0000 36.2768 0.0000 0.0000 -40.8046 -0.0743 10.0251 110.0000 0.0000 0.0000 31.0222 0.0000 0.0000 -47.7368 -2.1189 10.9253 109.4796 0.0000 0.0000 32.8215 0.0000 0.0000 0.0000 0.0000 0.0000 0.0000 0.0000 0.0000 0.0000 0.0000 0.0000 0.0000 0.0000 0.0000 0.0000 0.0000 0.0000 0.0000 0.0000 0.0000
