HIERARCHY
ROOT Hips
{
  OFFSET 0.000000 95.000000 0.000000
  CHANNELS 6 Xposition Yposition Zposition Zrotation Xrotation Yrotation
  JOINT Spine
  {
    OFFSET 0.000000 10.000000 0.000000
    CHANNELS 3 Zrotation Xrotation Yrotation
    JOINT Spine1
    {
      OFFSET 0.000000 12.000000 0.000000
      CHANNELS 3 Zrotation Xrotation Yrotation
      JOINT Spine2
      {
        OFFSET 0.000000 12.000000 0.000000
        CHANNELS 3 Zrotation Xrotation Yrotation
        JOINT Neck
        {
          OFFSET 0.000000 10.000000 0.000000
          CHANNELS 3 Zrotation Xrotation Yrotation
          JOINT Head
          {
            OFFSET 0.000000 8.000000 0.000000
            CHANNELS 3 Zrotation Xrotation Yrotation
            End Site
            {
              OFFSET 0.000000 10.000000 0.000000
            }
          }
        }
        JOINT LeftShoulder
        {
          OFFSET 6.000000 8.000000 0.000000
          CHANNELS 3 Zrotation Xrotation Yrotation
          JOINT LeftArm
          {
            OFFSET 12.000000 0.000000 0.000000
            CHANNELS 3 Zrotation Xrotation Yrotation
            JOINT LeftForeArm
            {
              OFFSET 24.000000 0.000000 0.000000
              CHANNELS 3 Zrotation Xrotation Yrotation
              JOINT LeftHand
              {
                OFFSET 22.000000 0.000000 0.000000
                CHANNELS 3 Zrotation Xrotation Yrotation
                JOINT LeftHandThumb1
                {
                  OFFSET 1.800000 -1.400000 0.500000
                  CHANNELS 3 Zrotation Xrotation Yrotation
                  JOINT LeftHandThumb2
                  {
                    OFFSET 2.400000 0.000000 0.000000
                    CHANNELS 3 Zrotation Xrotation Yrotation
                    JOINT LeftHandThumb3
                    {
                      OFFSET 1.900000 0.000000 0.000000
                      CHANNELS 3 Zrotation Xrotation Yrotation
                      End Site
                      {
                        OFFSET 1.600000 0.000000 0.000000
                      }
                    }
                  }
                }
                JOINT LeftHandIndex1
                {
                  OFFSET 6.600000 1.200000 0.300000
                  CHANNELS 3 Zrotation Xrotation Yrotation
                  JOINT LeftHandIndex2
                  {
                    OFFSET 2.000000 0.000000 0.000000
                    CHANNELS 3 Zrotation Xrotation Yrotation
                    JOINT LeftHandIndex3
                    {
                      OFFSET 1.200000 0.000000 0.000000
                      CHANNELS 3 Zrotation Xrotation Yrotation
                      End Site
                      {
                        OFFSET 1.000000 0.000000 0.000000
                      }
                    }
                  }
                }
                JOINT LeftHandMiddle1
                {
                  OFFSET 7.200000 0.000000 0.300000
                  CHANNELS 3 Zrotation Xrotation Yrotation
                  JOINT LeftHandMiddle2
                  {
                    OFFSET 3.000000 0.000000 0.000000
                    CHANNELS 3 Zrotation Xrotation Yrotation
                    JOINT LeftHandMiddle3
                    {
                      OFFSET 2.000000 0.000000 0.000000
                      CHANNELS 3 Zrotation Xrotation Yrotation
                      End Site
                      {
                        OFFSET 1.600000 0.000000 0.000000
                      }
                    }
                  }
                }
                JOINT LeftHandRing1
                {
                  OFFSET 7.100000 -1.000000 0.400000
                  CHANNELS 3 Zrotation Xrotation Yrotation
                  JOINT LeftHandRing2
                  {
                    OFFSET 2.600000 0.000000 0.000000
                    CHANNELS 3 Zrotation Xrotation Yrotation
                    JOINT LeftHandRing3
                    {
                      OFFSET 1.600000 0.000000 0.000000
                      CHANNELS 3 Zrotation Xrotation Yrotation
                      End Site
                      {
                        OFFSET 1.300000 0.000000 0.000000
                      }
                    }
                  }
                }
                JOINT LeftHandPinky1
                {
                  OFFSET 6.500000 -2.000000 0.500000
                  CHANNELS 3 Zrotation Xrotation Yrotation
                  JOINT LeftHandPinky2
                  {
                    OFFSET 1.900000 0.000000 0.000000
                    CHANNELS 3 Zrotation Xrotation Yrotation
                    JOINT LeftHandPinky3
                    {
                      OFFSET 1.400000 0.000000 0.000000
                      CHANNELS 3 Zrotation Xrotation Yrotation
                      End Site
                      {
                        OFFSET 1.300000 0.000000 0.000000
                      }
                    }
                  }
                }
              }
            }
          }
        }
        JOINT RightShoulder
        {
          OFFSET -6.000000 8.000000 0.000000
          CHANNELS 3 Zrotation Xrotation Yrotation
          JOINT RightArm
          {
            OFFSET -12.000000 0.000000 0.000000
            CHANNELS 3 Zrotation Xrotation Yrotation
            JOINT RightForeArm
            {
              OFFSET -24.000000 0.000000 0.000000
              CHANNELS 3 Zrotation Xrotation Yrotation
              JOINT RightHand
              {
                OFFSET -22.000000 0.000000 0.000000
                CHANNELS 3 Zrotation Xrotation Yrotation
                JOINT RightHandThumb1
                {
                  OFFSET -1.800000 -1.400000 0.500000
                  CHANNELS 3 Zrotation Xrotation Yrotation
                  JOINT RightHandThumb2
                  {
                    OFFSET -2.400000 0.000000 0.000000
                    CHANNELS 3 Zrotation Xrotation Yrotation
                    JOINT RightHandThumb3
                    {
                      OFFSET -1.900000 0.000000 0.000000
                      CHANNELS 3 Zrotation Xrotation Yrotation
                      End Site
                      {
                        OFFSET -1.600000 0.000000 0.000000
                      }
                    }
                  }
                }
                JOINT RightHandIndex1
                {
                  OFFSET -6.600000 1.200000 0.300000
                  CHANNELS 3 Zrotation Xrotation Yrotation
                  JOINT RightHandIndex2
                  {
                    OFFSET -2.000000 0.000000 0.000000
                    CHANNELS 3 Zrotation Xrotation Yrotation
                    JOINT RightHandIndex3
                    {
                      OFFSET -1.200000 0.000000 0.000000
                      CHANNELS 3 Zrotation Xrotation Yrotation
                      End Site
                      {
                        OFFSET -1.000000 0.000000 0.000000
                      }
                    }
                  }
                }
                JOINT RightHandMiddle1
                {
                  OFFSET -7.200000 0.000000 0.300000
                  CHANNELS 3 Zrotation Xrotation Yrotation
                  JOINT RightHandMiddle2
                  {
                    OFFSET -3.000000 0.000000 0.000000
                    CHANNELS 3 Zrotation Xrotation Yrotation
                    JOINT RightHandMiddle3
                    {
                      OFFSET -2.000000 0.000000 0.000000
                      CHANNELS 3 Zrotation Xrotation Yrotation
                      End Site
                      {
                        OFFSET -1.600000 0.000000 0.000000
                      }
                    }
                  }
                }
                JOINT RightHandRing1
                {
                  OFFSET -7.100000 -1.000000 0.400000
                  CHANNELS 3 Zrotation Xrotation Yrotation
                  JOINT RightHandRing2
                  {
                    OFFSET -2.600000 0.000000 0.000000
                    CHANNELS 3 Zrotation Xrotation Yrotation
                    JOINT RightHandRing3
                    {
                      OFFSET -1.600000 0.000000 0.000000
                      CHANNELS 3 Zrotation Xrotation Yrotation
                      End Site
                      {
                        OFFSET -1.300000 0.000000 0.000000
                      }
                    }
                  }
                }
                JOINT RightHandPinky1
                {
                  OFFSET -6.500000 -2.000000 0.500000
                  CHANNELS 3 Zrotation Xrotation Yrotation
                  JOINT RightHandPinky2
                  {
                    OFFSET -1.900000 0.000000 0.000000
                    CHANNELS 3 Zrotation Xrotation Yrotation
                    JOINT RightHandPinky3
                    {
                      OFFSET -1.400000 0.000000 0.000000
                      CHANNELS 3 Zrotation Xrotation Yrotation
                      End Site
                      {
                        OFFSET -1.300000 0.000000 0.000000
                      }
                    }
                  }
                }
              }
            }
          }
        }
      }
    }
  }
  JOINT LeftUpLeg
  {
    OFFSET 10.000000 -5.000000 0.000000
    CHANNELS 3 Zrotation Xrotation Yrotation
    JOINT LeftLeg
    {
      OFFSET 0.000000 -42.000000 0.000000
      CHANNELS 3 Zrotation Xrotation Yrotation
      JOINT LeftFoot
      {
        OFFSET 0.000000 -42.000000 4.000000
        CHANNELS 3 Zrotation Xrotation Yrotation
        End Site
        {
          OFFSET 0.000000 0.000000 12.000000
        }
      }
    }
  }
  JOINT RightUpLeg
  {
    OFFSET -10.000000 -5.000000 0.000000
    CHANNELS 3 Zrotation Xrotation Yrotation
    JOINT RightLeg
    {
      OFFSET 0.000000 -42.000000 0.000000
      CHANNELS 3 Zrotation Xrotation Yrotation
      JOINT RightFoot
      {
        OFFSET 0.000000 -42.000000 4.000000
        CHANNELS 3 Zrotation Xrotation Yrotation
        End Site
        {
          OFFSET 0.000000 0.000000 12.000000
        }
      }
    }
  }
}
MOTION
Frames: 60
Frame Time: 0.033333
0.0000 95.0000 0.0000 0.0000 0.0000 0.0000 0.0000 0.0000 0.0000 0.0000 0.0000 0.0000 0.0000 0.0000 0.0000 0.0000 0.0000 0.0000 0.0000 0.0000 0.0000 0.0000 0.0000 0.0000 -84.5710 7.9462 8.7343 -1.3453 -2.1815 2.6298 -176.1933 -3.4636 170.2586 47.5024 -8.2734 9.0554 7.2457 0.0000 0.0000 4.8502 0.0000 0.0000 -5.9965 0.1532 0.9130 53.4658 0.0000 0.0000 84.4154 0.0000 0.0000 5.8295 -0.1722 -1.3903 77.1680 0.0000 0.0000 64.5664 0.0000 0.0000 16.3952 -0.8999 -3.2394 81.4511 0.0000 0.0000 63.0225 0.0000 0.0000 23.2413 -2.1387 -4.5851 75.5679 0.0000 0.0000 65.5782 0.0000 0.0000 0.0000 0.0000 0.0000 85.2659 -4.9105 5.3334 -0.4403 -0.2939 -0.3565 174.4296 37.5683 170.9433 -47.3494 -9.0634 -5.5941 8.0147 0.0000 0.0000 7.6422 0.0000 0.0000 1.0071 0.9036 4.9731 9.5223 0.0000 0.0000 4.4648 0.0000 0.0000 -11.3617 0.1179 5.9573 30.6752 0.0000 0.0000 24.3411 0.0000 0.0000 -19.5933 -0.9074 5.7343 31.5335 0.0000 0.0000 33.8890 0.0000 0.0000 -24.6263 -2.3625 6.7941 27.0777 0.0000 0.0000 44.2274 0.0000 0.0000 0.0000 0.0000 0.0000 0.0000 0.0000 0.0000 0.0000 0.0000 0.0000 0.0000 0.0000 0.0000 0.0000 0.0000 0.0000 0.0000 0.0000 0.0000
0.0000 95.0000 0.0000 0.0000 0.0000 0.0000 0.0000 0.0000 0.0000 0.0000 0.0000 0.0000 0.0000 0.0000 0.0000 0.0000 0.0000 0.0000 0.0000 0.0000 0.0000 0.0000 0.0000 0.0000 -85.1610 7.9914 8.6939 -0.3900 -2.7273 3.0049 -175.8197 -1.4957 171.2125 49.2585 -8.8879 8.4209 8.0800 0.0000 0.0000 4.8201 0.0000 0.0000 -6.1833 0.2053 0.5792 33.9964 0.0000 0.0000 73.8102 0.0000 0.0000 5.7428 -0.1210 -2.3601 52.7481 0.0000 0.0000 70.8042 0.0000 0.0000 15.2067 -0.8752 -4.3086 63.8323 0.0000 0.0000 70.0169 0.0000 0.0000 21.5944 -2.1985 -5.5949 61.1553 0.0000 0.0000 66.9711 0.0000 0.0000 0.0000 0.0000 0.0000 85.2699 -4.9949 5.4246 -0.4287 -0.6284 -0.7155 174.2158 33.6352 173.0029 -46.3275 -9.1161 -4.4017 8.5821 0.0000 0.0000 7.0773 0.0000 0.0000 1.2400 0.8130 4.4402 11.4714 0.0000 0.0000 1.3330 0.0000 0.0000 -11.6133 -0.0081 4.6919 37.4868 0.0000 0.0000 31.6295 0.0000 0.0000 -20.2866 -0.9440 4.8558 39.6692 0.0000 0.0000 40.9389 0.0000 0.0000 -26.7648 -2.4149 7.2524 32.4647 0.0000 0.0000 53.5839 0.0000 0.0000 0.0000 0.0000 0.0000 0.0000 0.0000 0.0000 0.0000 0.0000 0.0000 0.0000 0.0000 0.0000 0.0000 0.0000 0.0000 0.0000 0.0000 0.0000
0.0000 95.0000 0.0000 0.0000 0.0000 0.0000 0.0000 0.0000 0.0000 0.0000 0.0000 0.0000 0.0000 0.0000 0.0000 0.0000 0.0000 0.0000 0.0000 0.0000 0.0000 0.0000 0.0000 0.0000 -85.9603 7.3869 7.9253 0.0312 -3.2822 3.4707 -176.3704 -7.9623 170.7937 48.5257 -8.3607 9.8717 4.6959 0.0000 0.0000 3.2928 0.0000 0.0000 -5.7258 -0.1481 3.1075 44.1526 0.0000 0.0000 90.0000 0.0000 0.0000 6.0195 -0.2696 0.3518 51.7317 0.0000 0.0000 70.4106 0.0000 0.0000 15.9707 -0.8883 -1.6595 54.5714 0.0000 0.0000 62.7318 0.0000 0.0000 21.4090 -2.0331 -4.1353 51.8310 0.0000 0.0000 67.6851 0.0000 0.0000 0.0000 0.0000 0.0000 85.4118 -5.0562 5.4777 -0.8004 -0.4885 -0.5960 174.2476 35.8753 172.2258 -47.9810 -9.4567 -4.5388 8.7445 0.0000 0.0000 4.4823 0.0000 0.0000 0.6471 0.9534 5.2579 9.3271 0.0000 0.0000 2.1097 0.0000 0.0000 -11.4586 0.0103 4.8743 34.5537 0.0000 0.0000 29.2293 0.0000 0.0000 -20.0989 -0.9271 5.2606 36.7231 0.0000 0.0000 39.8580 0.0000 0.0000 -25.0341 -2.4060 7.2918 28.8707 0.0000 0.0000 53.8123 0.0000 0.0000 0.0000 0.0000 0.0000 0.0000 0.0000 0.0000 0.0000 0.0000 0.0000 0.0000 0.0000 0.0000 0.0000 0.0000 0.0000 0.0000 0.0000 0.0000
0.0000 95.0000 0.0000 0.0000 0.0000 0.0000 0.0000 0.0000 0.0000 0.0000 0.0000 0.0000 0.0000 0.0000 0.0000 0.0000 0.0000 0.0000 0.0000 0.0000 0.0000 0.0000 0.0000 0.0000 -86.4376 7.3830 7.8555 0.8588 -3.0262 3.0170 -175.7895 -5.2409 169.8666 48.9040 -8.5838 9.3522 7.9152 0.0000 0.0000 2.3509 0.0000 0.0000 -4.9153 -0.1777 2.8971 45.6760 0.0000 0.0000 80.8234 0.0000 0.0000 5.5797 -0.2276 -0.1045 48.3572 0.0000 0.0000 74.3201 0.0000 0.0000 15.5811 -0.8714 -1.3837 52.8967 0.0000 0.0000 64.7922 0.0000 0.0000 22.3641 -1.9434 -2.9369 49.7679 0.0000 0.0000 69.0582 0.0000 0.0000 0.0000 0.0000 0.0000 85.4618 -5.1321 5.5550 -0.8953 -0.1253 -0.2192 173.2912 34.3962 172.3258 -48.8763 -9.7040 -4.3329 7.9434 0.0000 0.0000 3.2036 0.0000 0.0000 1.0215 0.7856 4.2885 8.5328 0.0000 0.0000 2.9457 0.0000 0.0000 -11.3967 -0.0084 4.6879 25.9486 0.0000 0.0000 16.6194 0.0000 0.0000 -19.0525 -0.9439 4.2676 27.9553 0.0000 0.0000 30.1348 0.0000 0.0000 -25.9714 -2.4052 7.1924 23.9498 0.0000 0.0000 41.9846 0.0000 0.0000 0.0000 0.0000 0.0000 0.0000 0.0000 0.0000 0.0000 0.0000 0.0000 0.0000 0.0000 0.0000 0.0000 0.0000 0.0000 0.0000 0.0000 0.0000
0.0000 95.0000 0.0000 0.0000 0.0000 0.0000 0.0000 0.0000 0.0000 0.0000 0.0000 0.0000 0.0000 0.0000 0.0000 0.0000 0.0000 0.0000 0.0000 0.0000 0.0000 0.0000 0.0000 0.0000 -85.9729 7.2834 7.8126 0.4452 -2.8709 2.9592 -175.1728 -3.9940 169.6502 50.3686 -9.0279 9.1278 7.4316 0.0000 0.0000 3.0136 0.0000 0.0000 -5.2067 -0.0316 1.9702 29.5776 0.0000 0.0000 90.0000 0.0000 0.0000 6.8335 -0.1990 -1.4398 46.7836 0.0000 0.0000 85.3560 0.0000 0.0000 16.1958 -0.8948 -3.0938 64.3177 0.0000 0.0000 76.4271 0.0000 0.0000 22.3978 -2.0672 -4.1361 59.9780 0.0000 0.0000 75.4150 0.0000 0.0000 0.0000 0.0000 0.0000 85.4124 -5.1754 5.6067 -0.6540 -0.1783 -0.2539 173.0842 32.9159 172.5905 -48.6980 -9.6589 -4.3567 8.8202 0.0000 0.0000 6.8403 0.0000 0.0000 4.4793 0.5085 2.1641 9.3702 0.0000 0.0000 1.5477 0.0000 0.0000 -6.8180 -0.1327 2.5447 21.5801 0.0000 0.0000 14.8892 0.0000 0.0000 -15.4578 -0.8798 4.3590 27.0546 0.0000 0.0000 27.8046 0.0000 0.0000 -20.3683 -2.3244 6.8672 24.8724 0.0000 0.0000 37.3531 0.0000 0.0000 0.0000 0.0000 0.0000 0.0000 0.0000 0.0000 0.0000 0.0000 0.0000 0.0000 0.0000 0.0000 0.0000 0.0000 0.0000 0.0000 0.0000 0.0000
0.0000 95.0000 0.0000 0.0000 0.0000 0.0000 0.0000 0.0000 0.0000 0.0000 0.0000 0.0000 0.0000 0.0000 0.0000 0.0000 0.0000 0.0000 0.0000 0.0000 0.0000 0.0000 0.0000 0.0000 -86.6415 6.4835 6.8742 0.8382 -2.8328 2.8321 -175.6424 -6.9388 169.4240 49.7459 -9.0406 8.3052 7.7287 0.0000 0.0000 4.5265 0.0000 0.0000 -4.8159 0.0044 1.5354 39.5906 0.0000 0.0000 88.2938 0.0000 0.0000 7.4045 -0.2344 -1.1506 58.0922 0.0000 0.0000 83.3745 0.0000 0.0000 18.3487 -0.9450 -3.6046 95.5055 0.0000 0.0000 56.9256 0.0000 0.0000 24.3767 -2.2294 -5.2508 75.4559 0.0000 0.0000 71.0909 0.0000 0.0000 0.0000 0.0000 0.0000 85.5798 -5.2741 5.6969 -1.0092 -0.0320 -0.1333 173.3406 22.8274 175.6905 -48.1457 -8.9871 -6.7382 7.6378 0.0000 0.0000 7.8264 0.0000 0.0000 5.2171 0.2624 0.2006 3.5774 0.0000 0.0000 1.4627 0.0000 0.0000 -5.7642 -0.2261 0.2821 9.6969 0.0000 0.0000 5.0058 0.0000 0.0000 -14.6351 -0.8205 0.5227 15.1762 0.0000 0.0000 14.1677 0.0000 0.0000 -21.6495 -1.8742 2.5958 23.0094 0.0000 0.0000 26.5194 0.0000 0.0000 0.0000 0.0000 0.0000 0.0000 0.0000 0.0000 0.0000 0.0000 0.0000 0.0000 0.0000 0.0000 0.0000 0.0000 0.0000 0.0000 0.0000 0.0000
0.0000 95.0000 0.0000 0.0000 0.0000 0.0000 0.0000 0.0000 0.0000 0.0000 0.0000 0.0000 0.0000 0.0000 0.0000 0.0000 0.0000 0.0000 0.0000 0.0000 0.0000 0.0000 0.0000 0.0000 -87.0343 6.4814 6.8251 1.3273 -2.1094 1.9957 -175.5752 -0.7272 171.9224 49.6545 -8.7688 9.4359 7.4376 0.0000 0.0000 3.5582 0.0000 0.0000 -4.4203 -0.0076 1.4568 30.8225 0.0000 0.0000 90.0000 0.0000 0.0000 7.1636 -0.2352 -1.0161 37.4941 0.0000 0.0000 80.3844 0.0000 0.0000 17.3723 -0.9306 -2.8771 51.2478 0.0000 0.0000 77.3530 0.0000 0.0000 24.0238 -2.1059 -3.9387 50.2674 0.0000 0.0000 78.1649 0.0000 0.0000 0.0000 0.0000 0.0000 86.1126 -5.1269 5.4866 -2.1002 0.9446 0.7723 172.3565 13.5227 177.1227 -51.2321 -9.3935 -8.4655 10.9533 0.0000 0.0000 0.7002 0.0000 0.0000 5.4411 0.0201 -1.6922 3.9347 0.0000 0.0000 2.0819 0.0000 0.0000 -5.8839 -0.2875 -0.8176 6.8019 0.0000 0.0000 2.1377 0.0000 0.0000 -14.6663 -0.7922 -2.0609 9.9327 0.0000 0.0000 5.5580 0.0000 0.0000 -23.6531 -1.5233 -2.3047 10.3097 0.0000 0.0000 7.1223 0.0000 0.0000 0.0000 0.0000 0.0000 0.0000 0.0000 0.0000 0.0000 0.0000 0.0000 0.0000 0.0000 0.0000 0.0000 0.0000 0.0000 0.0000 0.0000 0.0000
0.0000 95.0000 0.0000 0.0000 0.0000 0.0000 0.0000 0.0000 0.0000 0.0000 0.0000 0.0000 0.0000 0.0000 0.0000 0.0000 0.0000 0.0000 0.0000 0.0000 0.0000 0.0000 0.0000 0.0000 -87.2803 6.1534 6.4520 1.6457 -1.6556 1.4919 -175.6808 -3.2469 171.8127 49.4427 -8.8640 8.7472 8.6997 0.0000 0.0000 5.4250 0.0000 0.0000 -4.4720 -0.0640 1.8754 41.8380 0.0000 0.0000 87.6814 0.0000 0.0000 7.1468 -0.2589 -0.6274 53.3866 0.0000 0.0000 80.4301 0.0000 0.0000 17.3183 -0.9324 -2.5863 75.0062 0.0000 0.0000 67.4727 0.0000 0.0000 24.0596 -2.1335 -4.2406 62.2865 0.0000 0.0000 73.6772 0.0000 0.0000 0.0000 0.0000 0.0000 86.8155 -4.2598 4.5031 -3.9523 2.9119 2.5600 170.7144 31.4161 180.4675 -52.3366 -11.0263 -1.3613 16.0967 0.0000 0.0000 0.8252 0.0000 0.0000 7.8165 0.6687 2.8353 5.1241 0.0000 0.0000 2.2641 0.0000 0.0000 -2.6491 0.0063 5.0448 10.2643 0.0000 0.0000 5.2690 0.0000 0.0000 -11.6043 -0.8344 4.9008 13.4664 0.0000 0.0000 6.1360 0.0000 0.0000 -21.1696 -2.0748 4.5786 11.0634 0.0000 0.0000 8.1469 0.0000 0.0000 0.0000 0.0000 0.0000 0.0000 0.0000 0.0000 0.0000 0.0000 0.0000 0.0000 0.0000 0.0000 0.0000 0.0000 0.0000 0.0000 0.0000 0.0000
0.0000 95.0000 0.0000 0.0000 0.0000 0.0000 0.0000 0.0000 0.0000 0.0000 0.0000 0.0000 0.0000 0.0000 0.0000 0.0000 0.0000 0.0000 0.0000 0.0000 0.0000 0.0000 0.0000 0.0000 -87.9287 5.4594 5.6601 2.4743 -2.1856 1.9178 -175.5020 -3.7832 170.5903 50.0670 -9.1193 8.3274 7.9884 0.0000 0.0000 2.2022 0.0000 0.0000 -3.8326 -0.0259 1.3505 40.9273 0.0000 0.0000 73.1175 0.0000 0.0000 6.9642 -0.2255 -1.0673 46.9526 0.0000 0.0000 77.8278 0.0000 0.0000 15.4774 -0.8705 -2.1928 70.6573 0.0000 0.0000 68.4328 0.0000 0.0000 21.8792 -1.9146 -2.8716 62.5571 0.0000 0.0000 75.7215 0.0000 0.0000 0.0000 0.0000 0.0000 87.4632 -3.7894 3.9609 -6.0176 5.4961 4.7516 168.7310 33.8746 182.2206 -58.8551 -12.9167 3.8778 20.9960 0.0000 0.0000 1.8660 0.0000 0.0000 7.7968 0.8764 4.6947 8.3161 0.0000 0.0000 3.1063 0.0000 0.0000 -2.7215 0.0673 7.6049 14.9835 0.0000 0.0000 10.0790 0.0000 0.0000 -12.5931 -0.9153 7.2174 19.4604 0.0000 0.0000 10.7115 0.0000 0.0000 -22.5612 -2.3713 7.1084 14.7595 0.0000 0.0000 11.3934 0.0000 0.0000 0.0000 0.0000 0.0000 0.0000 0.0000 0.0000 0.0000 0.0000 0.0000 0.0000 0.0000 0.0000 0.0000 0.0000 0.0000 0.0000 0.0000 0.0000
0.0000 95.0000 0.0000 0.0000 0.0000 0.0000 0.0000 0.0000 0.0000 0.0000 0.0000 0.0000 0.0000 0.0000 0.0000 0.0000 0.0000 0.0000 0.0000 0.0000 0.0000 0.0000 0.0000 0.0000 -87.0307 5.4759 5.7668 1.8512 -1.9038 1.7460 -175.1594 -7.7770 170.7410 48.2599 -8.3123 9.7638 8.3228 0.0000 0.0000 2.4219 0.0000 0.0000 -4.3944 -0.1839 2.6820 83.5824 0.0000 0.0000 61.8497 0.0000 0.0000 6.3138 -0.2653 0.0362 85.1280 0.0000 0.0000 66.4226 0.0000 0.0000 15.2383 -0.8572 -1.4693 99.0887 0.0000 0.0000 53.0495 0.0000 0.0000 22.7711 -1.9824 -3.1463 78.7429 0.0000 0.0000 66.3738 0.0000 0.0000 0.0000 0.0000 0.0000 88.2125 -2.0826 2.1486 -6.3685 7.9604 7.1021 168.5516 41.8925 195.6248 -70.6496 -14.8932 20.3741 31.5704 0.0000 0.0000 4.8532 0.0000 0.0000 11.1374 1.5126 12.2759 17.6385 0.0000 0.0000 6.6199 0.0000 0.0000 0.5490 -0.0572 16.6674 28.7419 0.0000 0.0000 24.3577 0.0000 0.0000 -11.2567 -1.2872 15.9528 36.1011 0.0000 0.0000 21.5681 0.0000 0.0000 -20.5164 -3.5040 16.8047 22.0774 0.0000 0.0000 17.6509 0.0000 0.0000 0.0000 0.0000 0.0000 0.0000 0.0000 0.0000 0.0000 0.0000 0.0000 0.0000 0.0000 0.0000 0.0000 0.0000 0.0000 0.0000 0.0000 0.0000
0.0000 95.0000 0.0000 0.0000 0.0000 0.0000 0.0000 0.0000 0.0000 0.0000 0.0000 0.0000 0.0000 0.0000 0.0000 0.0000 0.0000 0.0000 0.0000 0.0000 0.0000 0.0000 0.0000 0.0000 -86.3424 5.5022 5.8646 1.3620 -1.6549 1.5741 -174.9988 -7.6205 170.8841 48.2599 -8.3123 9.7638 8.3228 0.0000 0.0000 2.4219 0.0000 0.0000 -4.3944 -0.1839 2.6820 83.5824 0.0000 0.0000 61.8497 0.0000 0.0000 6.3138 -0.2653 0.0362 85.1280 0.0000 0.0000 66.4226 0.0000 0.0000 15.2383 -0.8572 -1.4693 99.0887 0.0000 0.0000 53.0495 0.0000 0.0000 22.7711 -1.9824 -3.1463 78.7429 0.0000 0.0000 66.3738 0.0000 0.0000 0.0000 0.0000 0.0000 88.6982 -0.9360 0.9575 -6.4069 9.4424 8.5265 168.9142 42.0644 195.5513 -70.6496 -14.8932 20.3741 31.5704 0.0000 0.0000 4.8532 0.0000 0.0000 11.1374 1.5126 12.2759 17.6385 0.0000 0.0000 6.6199 0.0000 0.0000 0.5490 -0.0572 16.6674 28.7419 0.0000 0.0000 24.3577 0.0000 0.0000 -11.2567 -1.2872 15.9528 36.1011 0.0000 0.0000 21.5681 0.0000 0.0000 -20.5164 -3.5040 16.8047 22.0774 0.0000 0.0000 17.6509 0.0000 0.0000 0.0000 0.0000 0.0000 0.0000 0.0000 0.0000 0.0000 0.0000 0.0000 0.0000 0.0000 0.0000 0.0000 0.0000 0.0000 0.0000 0.0000 0.0000
0.0000 95.0000 0.0000 0.0000 0.0000 0.0000 0.0000 0.0000 0.0000 0.0000 0.0000 0.0000 0.0000 0.0000 0.0000 0.0000 0.0000 0.0000 0.0000 0.0000 0.0000 0.0000 0.0000 0.0000 -85.8367 6.2188 6.6869 1.5813 0.0504 -0.2343 -174.5086 1.8488 174.1502 49.1957 -9.0077 7.8097 7.8143 0.0000 0.0000 3.5759 0.0000 0.0000 -4.4855 0.1836 0.1336 37.3309 0.0000 0.0000 61.2331 0.0000 0.0000 6.2651 -0.1668 -1.7246 58.9133 0.0000 0.0000 70.8235 0.0000 0.0000 15.8608 -0.8858 -3.5352 88.5471 0.0000 0.0000 56.7839 0.0000 0.0000 21.7541 -2.0879 -4.5343 81.2436 0.0000 0.0000 63.1663 0.0000 0.0000 0.0000 0.0000 0.0000 88.9904 -5.6071 5.7066 -9.0497 25.4983 20.9016 212.2482 44.6376 294.6556 -72.4511 -14.9944 39.3731 27.9391 0.0000 0.0000 10.2650 0.0000 0.0000 28.7755 -3.4310 60.7699 43.1114 0.0000 0.0000 15.9293 0.0000 0.0000 9.5022 -5.4635 64.4914 56.8634 0.0000 0.0000 19.8662 0.0000 0.0000 -2.7245 -7.9373 62.2068 59.0717 0.0000 0.0000 15.3010 0.0000 0.0000 -3.9776 -21.8784 73.4831 35.3302 0.0000 0.0000 22.9283 0.0000 0.0000 0.0000 0.0000 0.0000 0.0000 0.0000 0.0000 0.0000 0.0000 0.0000 0.0000 0.0000 0.0000 0.0000 0.0000 0.0000 0.0000 0.0000 0.0000
0.0000 95.0000 0.0000 0.0000 0.0000 0.0000 0.0000 0.0000 0.0000 0.0000 0.0000 0.0000 0.0000 0.0000 0.0000 0.0000 0.0000 0.0000 0.0000 0.0000 0.0000 0.0000 0.0000 0.0000 -84.9319 6.5541 7.1595 0.6725 0.4951 -0.6147 -174.8097 -6.7558 172.3119 49.0603 -8.6952 9.0464 9.3370 0.0000 0.0000 2.6360 0.0000 0.0000 -7.0027 0.1198 1.6380 96.0641 0.0000 0.0000 59.2848 0.0000 0.0000 5.2025 -0.1891 -0.6118 83.7145 0.0000 0.0000 69.1738 0.0000 0.0000 14.3692 -0.8298 -2.1392 95.0033 0.0000 0.0000 58.0443 0.0000 0.0000 20.8987 -2.0014 -4.0131 82.4335 0.0000 0.0000 66.9812 0.0000 0.0000 0.0000 0.0000 0.0000 87.3134 -8.4199 8.8227 -15.5597 46.7350 33.8605 229.4710 0.2906 301.1317 -64.8665 -13.8055 4.6195 5.8953 0.0000 0.0000 3.4042 0.0000 0.0000 4.8591 2.0840 13.5000 10.6997 0.0000 0.0000 5.3298 0.0000 0.0000 -9.3137 0.1330 6.4041 12.9255 0.0000 0.0000 3.5230 0.0000 0.0000 -21.7209 -0.4300 15.4643 16.2321 0.0000 0.0000 5.0252 0.0000 0.0000 -43.5458 1.2297 50.3990 27.4172 0.0000 0.0000 12.5694 0.0000 0.0000 0.0000 0.0000 0.0000 0.0000 0.0000 0.0000 0.0000 0.0000 0.0000 0.0000 0.0000 0.0000 0.0000 0.0000 0.0000 0.0000 0.0000 0.0000
0.0000 95.0000 0.0000 0.0000 0.0000 0.0000 0.0000 0.0000 0.0000 0.0000 0.0000 0.0000 0.0000 0.0000 0.0000 0.0000 0.0000 0.0000 0.0000 0.0000 0.0000 0.0000 0.0000 0.0000 -85.3170 6.8750 7.4596 1.4979 1.1206 -1.3695 -174.7864 -6.6961 172.9835 48.0870 -8.4483 8.9831 8.9047 0.0000 0.0000 3.3909 0.0000 0.0000 -6.6796 0.0071 2.4034 58.4509 0.0000 0.0000 86.8657 0.0000 0.0000 5.1128 -0.2215 0.1871 73.6522 0.0000 0.0000 72.7209 0.0000 0.0000 15.6144 -0.8744 -1.8534 94.2090 0.0000 0.0000 57.5382 0.0000 0.0000 23.3292 -2.0631 -3.7496 77.6101 0.0000 0.0000 69.1160 0.0000 0.0000 0.0000 0.0000 0.0000 85.3109 -13.6158 14.7660 -134.2046 65.0098 -43.1124 294.3632 16.8599 298.9485 -53.4845 -10.7694 -4.0531 3.8596 0.0000 0.0000 3.0989 0.0000 0.0000 8.6391 0.7265 3.2360 7.4018 0.0000 0.0000 2.1835 0.0000 0.0000 -3.0725 -0.1253 0.1025 8.3294 0.0000 0.0000 1.8949 0.0000 0.0000 -13.8275 -0.8646 5.0365 7.7411 0.0000 0.0000 2.9932 0.0000 0.0000 -32.0392 -2.6637 19.4354 14.5113 0.0000 0.0000 5.9808 0.0000 0.0000 0.0000 0.0000 0.0000 0.0000 0.0000 0.0000 0.0000 0.0000 0.0000 0.0000 0.0000 0.0000 0.0000 0.0000 0.0000 0.0000 0.0000 0.0000
0.0000 95.0000 0.0000 0.0000 0.0000 0.0000 0.0000 0.0000 0.0000 0.0000 0.0000 0.0000 0.0000 0.0000 0.0000 0.0000 0.0000 0.0000 0.0000 0.0000 0.0000 0.0000 0.0000 0.0000 -85.7283 7.3633 7.9320 2.5818 2.4645 -2.8728 -174.3531 -5.6174 173.8841 49.2708 -8.8214 8.7336 13.2051 0.0000 0.0000 2.5600 0.0000 0.0000 -7.1112 0.0864 1.9747 76.4550 0.0000 0.0000 79.9143 0.0000 0.0000 4.8039 -0.1928 -0.1779 66.5007 0.0000 0.0000 77.0770 0.0000 0.0000 14.1769 -0.8151 -1.6550 84.2905 0.0000 0.0000 65.0588 0.0000 0.0000 21.1717 -1.9410 -3.3915 74.3405 0.0000 0.0000 71.8847 0.0000 0.0000 0.0000 0.0000 0.0000 81.5222 -17.2442 19.9533 -155.8481 39.0830 -49.4246 327.4680 15.7727 318.4766 -47.7717 -8.9608 -6.4571 1.5871 0.0000 0.0000 2.6679 0.0000 0.0000 10.3356 0.5619 1.0980 6.0467 0.0000 0.0000 1.1211 0.0000 0.0000 -0.8400 -0.0406 -0.7559 6.2785 0.0000 0.0000 1.8203 0.0000 0.0000 -10.5171 -0.7228 2.8465 5.1035 0.0000 0.0000 2.2952 0.0000 0.0000 -25.0576 -2.7287 11.4038 9.6084 0.0000 0.0000 3.8767 0.0000 0.0000 0.0000 0.0000 0.0000 0.0000 0.0000 0.0000 0.0000 0.0000 0.0000 0.0000 0.0000 0.0000 0.0000 0.0000 0.0000 0.0000 0.0000 0.0000
0.0000 95.0000 0.0000 0.0000 0.0000 0.0000 0.0000 0.0000 0.0000 0.0000 0.0000 0.0000 0.0000 0.0000 0.0000 0.0000 0.0000 0.0000 0.0000 0.0000 0.0000 0.0000 0.0000 0.0000 -86.1335 7.3426 7.8540 3.1981 2.7054 -3.1483 -173.8865 -8.2705 174.4883 49.7110 -8.7842 9.4356 11.0629 0.0000 0.0000 1.9103 0.0000 0.0000 -5.5931 -0.0741 2.4748 53.4144 0.0000 0.0000 85.4593 0.0000 0.0000 5.5456 -0.2288 -0.0497 56.9133 0.0000 0.0000 79.7947 0.0000 0.0000 14.2372 -0.8037 -0.7439 84.5952 0.0000 0.0000 64.6448 0.0000 0.0000 21.1319 -1.7989 -2.1515 81.7030 0.0000 0.0000 67.1221 0.0000 0.0000 0.0000 0.0000 0.0000 78.1057 -19.2756 23.6439 -157.3059 31.5152 -49.1686 335.5908 -3.4232 329.3584 -48.0884 -9.7826 -3.2221 3.7855 0.0000 0.0000 3.2299 0.0000 0.0000 11.5034 0.5561 0.5145 7.3620 0.0000 0.0000 0.2484 0.0000 0.0000 0.9952 0.0437 -0.2608 8.6043 0.0000 0.0000 0.4016 0.0000 0.0000 -7.2334 -0.6180 2.7850 5.6735 0.0000 0.0000 1.4670 0.0000 0.0000 -16.4904 -2.3241 7.1285 6.8334 0.0000 0.0000 2.4633 0.0000 0.0000 0.0000 0.0000 0.0000 0.0000 0.0000 0.0000 0.0000 0.0000 0.0000 0.0000 0.0000 0.0000 0.0000 0.0000 0.0000 0.0000 0.0000 0.0000
0.0000 95.0000 0.0000 0.0000 0.0000 0.0000 0.0000 0.0000 0.0000 0.0000 0.0000 0.0000 0.0000 0.0000 0.0000 0.0000 0.0000 0.0000 0.0000 0.0000 0.0000 0.0000 0.0000 0.0000 -86.4221 7.1669 7.6277 3.7611 2.7441 -3.2058 -173.4440 -5.8874 175.1335 48.3018 -8.4844 9.0757 12.2504 0.0000 0.0000 4.4189 0.0000 0.0000 -8.1057 0.1282 2.1562 34.7988 0.0000 0.0000 90.0000 0.0000 0.0000 3.3510 -0.1428 0.1067 44.5907 0.0000 0.0000 80.7462 0.0000 0.0000 13.4905 -0.7873 -1.6637 77.3154 0.0000 0.0000 69.3921 0.0000 0.0000 21.6181 -2.0137 -3.8912 69.5009 0.0000 0.0000 71.2200 0.0000 0.0000 0.0000 0.0000 0.0000 75.1915 -21.2281 27.3573 -156.4950 27.8533 -50.1432 334.0015 -27.6921 340.9289 -44.4110 -9.6687 -0.6496 5.0530 0.0000 0.0000 0.7279 0.0000 0.0000 11.3722 0.5219 0.1548 16.7918 0.0000 0.0000 1.8056 0.0000 0.0000 4.0693 0.1845 -0.4190 8.7354 0.0000 0.0000 1.1592 0.0000 0.0000 -4.9822 -1.6570 14.2882 69.7910 0.0000 0.0000 23.2475 0.0000 0.0000 -14.1518 -3.2673 12.6237 44.2680 0.0000 0.0000 32.1312 0.0000 0.0000 0.0000 0.0000 0.0000 0.0000 0.0000 0.0000 0.0000 0.0000 0.0000 0.0000 0.0000 0.0000 0.0000 0.0000 0.0000 0.0000 0.0000 0.0000
0.0000 95.0000 0.0000 0.0000 0.0000 0.0000 0.0000 0.0000 0.0000 0.0000 0.0000 0.0000 0.0000 0.0000 0.0000 0.0000 0.0000 0.0000 0.0000 0.0000 0.0000 0.0000 0.0000 0.0000 -86.4536 6.2094 6.6053 3.8041 2.4283 -2.8325 -172.4575 -3.2670 174.8557 48.2431 -8.6224 8.4161 8.4999 0.0000 0.0000 2.2072 0.0000 0.0000 -6.9947 0.0276 2.4061 43.6408 0.0000 0.0000 90.0000 0.0000 0.0000 3.8727 -0.1755 0.4159 51.9954 0.0000 0.0000 83.7081 0.0000 0.0000 13.7202 -0.7751 -0.5758 73.3783 0.0000 0.0000 69.5706 0.0000 0.0000 20.5314 -1.7678 -2.1532 67.9023 0.0000 0.0000 73.5913 0.0000 0.0000 0.0000 0.0000 0.0000 72.4958 -22.6868 30.6049 -155.4533 25.8317 -51.3212 327.0946 -38.4132 349.8007 -44.1232 -8.8182 -3.6433 5.6194 0.0000 0.0000 1.5481 0.0000 0.0000 13.5577 0.0209 -9.4757 11.0602 0.0000 0.0000 6.2734 0.0000 0.0000 8.0022 1.0429 -10.0552 31.2032 0.0000 0.0000 18.4721 0.0000 0.0000 1.1209 -1.1689 8.1861 85.1460 0.0000 0.0000 27.6963 0.0000 0.0000 -4.8830 -1.5793 4.6349 45.6738 0.0000 0.0000 30.6258 0.0000 0.0000 0.0000 0.0000 0.0000 0.0000 0.0000 0.0000 0.0000 0.0000 0.0000 0.0000 0.0000 0.0000 0.0000 0.0000 0.0000 0.0000 0.0000 0.0000
0.0000 95.0000 0.0000 0.0000 0.0000 0.0000 0.0000 0.0000 0.0000 0.0000 0.0000 0.0000 0.0000 0.0000 0.0000 0.0000 0.0000 0.0000 0.0000 0.0000 0.0000 0.0000 0.0000 0.0000 -86.4496 5.9561 6.3363 3.6768 1.9596 -2.3416 -172.8436 -6.1028 173.2413 49.1790 -8.8139 8.6584 10.8541 0.0000 0.0000 1.8234 0.0000 0.0000 -6.5579 -0.0450 2.7607 86.4714 0.0000 0.0000 72.5711 0.0000 0.0000 4.4056 -0.2180 0.8921 90.8352 0.0000 0.0000 66.5202 0.0000 0.0000 14.9209 -0.8355 -0.5814 97.1059 0.0000 0.0000 54.9760 0.0000 0.0000 23.3460 -1.9834 -2.8925 84.3991 0.0000 0.0000 62.6516 0.0000 0.0000 0.0000 0.0000 0.0000 69.6179 -24.6232 34.8555 -153.0725 24.8992 -53.4469 325.2183 -37.8990 349.2396 -47.5233 -9.8239 -2.5293 5.2578 0.0000 0.0000 1.7646 0.0000 0.0000 14.5892 0.3540 -5.6688 21.1689 0.0000 0.0000 16.6555 0.0000 0.0000 6.8919 0.6313 -5.6838 25.0387 0.0000 0.0000 24.1957 0.0000 0.0000 1.1704 -1.2882 8.9717 88.8748 0.0000 0.0000 28.8302 0.0000 0.0000 -5.9512 -2.4633 8.0359 76.4168 0.0000 0.0000 34.8720 0.0000 0.0000 0.0000 0.0000 0.0000 0.0000 0.0000 0.0000 0.0000 0.0000 0.0000 0.0000 0.0000 0.0000 0.0000 0.0000 0.0000 0.0000 0.0000 0.0000
0.0000 95.0000 0.0000 0.0000 0.0000 0.0000 0.0000 0.0000 0.0000 0.0000 0.0000 0.0000 0.0000 0.0000 0.0000 0.0000 0.0000 0.0000 0.0000 0.0000 0.0000 0.0000 0.0000 0.0000 -86.3349 5.6614 6.0350 3.4385 1.1622 -1.5135 -172.8976 -0.9302 173.0800 47.8673 -8.8047 7.2223 10.1882 0.0000 0.0000 2.2892 0.0000 0.0000 -6.1269 0.1866 0.7042 94.5608 0.0000 0.0000 60.9353 0.0000 0.0000 4.9916 -0.1380 -1.6070 96.0313 0.0000 0.0000 61.5678 0.0000 0.0000 16.4602 -0.8992 -3.8360 104.4592 0.0000 0.0000 49.1151 0.0000 0.0000 23.1217 -2.1939 -5.2015 91.2077 0.0000 0.0000 58.1928 0.0000 0.0000 0.0000 0.0000 0.0000 68.3061 -25.2017 36.4754 -153.4877 22.4822 -54.0267 328.7092 -35.4735 350.9402 -46.2866 -9.6246 -2.2965 7.2399 0.0000 0.0000 9.2420 0.0000 0.0000 11.0894 1.1480 7.8496 57.4187 0.0000 0.0000 24.8409 0.0000 0.0000 3.7260 0.4446 -8.8327 8.4356 0.0000 0.0000 2.8716 0.0000 0.0000 -4.7159 -0.3671 1.0395 15.0697 0.0000 0.0000 8.0526 0.0000 0.0000 -13.3906 -1.7675 4.2110 24.7767 0.0000 0.0000 27.4440 0.0000 0.0000 0.0000 0.0000 0.0000 0.0000 0.0000 0.0000 0.0000 0.0000 0.0000 0.0000 0.0000 0.0000 0.0000 0.0000 0.0000 0.0000 0.0000 0.0000
0.0000 95.0000 0.0000 0.0000 0.0000 0.0000 0.0000 0.0000 0.0000 0.0000 0.0000 0.0000 0.0000 0.0000 0.0000 0.0000 0.0000 0.0000 0.0000 0.0000 0.0000 0.0000 0.0000 0.0000 -86.0270 5.6330 6.0371 2.7200 0.7742 -1.0677 -172.9606 -7.6387 173.1150 48.1246 -8.4548 8.9986 9.7060 0.0000 0.0000 1.2789 0.0000 0.0000 -5.7940 -0.0721 2.5625 32.8987 0.0000 0.0000 90.0000 0.0000 0.0000 4.2929 -0.2145 0.9476 47.4709 0.0000 0.0000 90.0000 0.0000 0.0000 13.7005 -0.7732 -0.5268 59.7950 0.0000 0.0000 79.7091 0.0000 0.0000 21.3663 -1.8851 -2.8169 58.6816 0.0000 0.0000 75.4924 0.0000 0.0000 0.0000 0.0000 0.0000 67.8306 -25.8242 37.6554 -154.0816 21.8578 -55.2651 325.3300 -44.8170 357.4225 -42.9135 -7.9145 -5.9051 10.8996 0.0000 0.0000 5.2544 0.0000 0.0000 12.2953 0.0780 -6.4934 5.7091 0.0000 0.0000 2.2565 0.0000 0.0000 5.1228 0.5376 -7.2017 8.3134 0.0000 0.0000 1.9322 0.0000 0.0000 2.3452 -4.0903 25.9878 82.6614 0.0000 0.0000 18.6695 0.0000 0.0000 -6.6325 -7.1402 27.1057 73.8294 0.0000 0.0000 25.4168 0.0000 0.0000 0.0000 0.0000 0.0000 0.0000 0.0000 0.0000 0.0000 0.0000 0.0000 0.0000 0.0000 0.0000 0.0000 0.0000 0.0000 0.0000 0.0000 0.0000
0.0000 95.0000 0.0000 0.0000 0.0000 0.0000 0.0000 0.0000 0.0000 0.0000 0.0000 0.0000 0.0000 0.0000 0.0000 0.0000 0.0000 0.0000 0.0000 0.0000 0.0000 0.0000 0.0000 0.0000 -85.8368 5.6285 6.0523 2.3692 0.7740 -1.0402 -172.3397 -7.3757 171.7109 48.0291 -8.5273 8.5809 9.4917 0.0000 0.0000 2.1212 0.0000 0.0000 -6.5220 0.0439 2.0220 26.5920 0.0000 0.0000 90.0000 0.0000 0.0000 4.7132 -0.2278 0.7587 49.2344 0.0000 0.0000 88.2265 0.0000 0.0000 14.8186 -0.8371 -1.2438 73.8350 0.0000 0.0000 67.1549 0.0000 0.0000 21.4385 -1.9662 -3.5205 64.6092 0.0000 0.0000 69.5455 0.0000 0.0000 0.0000 0.0000 0.0000 68.5522 -26.3330 37.8883 -155.5263 20.5343 -56.2028 333.1359 -43.8482 350.7866 -43.4764 -8.0717 -5.8350 8.2203 0.0000 0.0000 1.7899 0.0000 0.0000 11.4639 0.2607 -3.1630 4.5443 0.0000 0.0000 2.0652 0.0000 0.0000 4.5012 0.3652 -4.4994 4.4643 0.0000 0.0000 0.6412 0.0000 0.0000 -2.1428 -1.5759 11.9804 27.4433 0.0000 0.0000 13.1437 0.0000 0.0000 -10.7106 -4.7885 19.2866 57.4124 0.0000 0.0000 35.8852 0.0000 0.0000 0.0000 0.0000 0.0000 0.0000 0.0000 0.0000 0.0000 0.0000 0.0000 0.0000 0.0000 0.0000 0.0000 0.0000 0.0000 0.0000 0.0000 0.0000
0.0000 95.0000 0.0000 0.0000 0.0000 0.0000 0.0000 0.0000 0.0000 0.0000 0.0000 0.0000 0.0000 0.0000 0.0000 0.0000 0.0000 0.0000 0.0000 0.0000 0.0000 0.0000 0.0000 0.0000 -85.9536 5.9622 6.3980 2.1810 0.9652 -1.2313 -172.6614 -9.2499 171.9333 48.8604 -8.5524 9.4381 9.9186 0.0000 0.0000 5.1498 0.0000 0.0000 -7.6238 0.1228 1.9349 44.5682 0.0000 0.0000 90.0000 0.0000 0.0000 4.3135 -0.1810 0.0310 73.1924 0.0000 0.0000 78.3643 0.0000 0.0000 15.1769 -0.8554 -1.5796 96.2448 0.0000 0.0000 56.0464 0.0000 0.0000 22.8044 -2.0194 -3.5075 86.2791 0.0000 0.0000 59.7423 0.0000 0.0000 0.0000 0.0000 0.0000 68.6055 -27.3680 39.2818 -154.7356 19.6194 -57.3246 328.3470 -53.2992 354.5546 -41.8710 -8.0754 -4.4759 12.9178 0.0000 0.0000 2.9172 0.0000 0.0000 14.1472 1.8452 21.5102 84.8269 0.0000 0.0000 26.9797 0.0000 0.0000 2.0933 0.1369 -2.7093 6.8716 0.0000 0.0000 3.1148 0.0000 0.0000 -4.9572 -1.5918 13.5980 62.3581 0.0000 0.0000 32.3819 0.0000 0.0000 -14.2612 -3.5569 14.3106 24.3448 0.0000 0.0000 18.6178 0.0000 0.0000 0.0000 0.0000 0.0000 0.0000 0.0000 0.0000 0.0000 0.0000 0.0000 0.0000 0.0000 0.0000 0.0000 0.0000 0.0000 0.0000 0.0000 0.0000
0.0000 95.0000 0.0000 0.0000 0.0000 0.0000 0.0000 0.0000 0.0000 0.0000 0.0000 0.0000 0.0000 0.0000 0.0000 0.0000 0.0000 0.0000 0.0000 0.0000 0.0000 0.0000 0.0000 0.0000 -86.2713 6.3281 6.7530 2.8305 1.1270 -1.4641 -172.6152 -7.6150 170.5704 48.2369 -8.6257 8.3950 8.1819 0.0000 0.0000 2.6572 0.0000 0.0000 -6.0591 0.1107 1.2718 41.5455 0.0000 0.0000 90.0000 0.0000 0.0000 5.7076 -0.2016 -0.7286 59.5022 0.0000 0.0000 81.8309 0.0000 0.0000 16.4982 -0.9054 -2.6411 81.6959 0.0000 0.0000 62.9931 0.0000 0.0000 23.0331 -2.1568 -4.8391 78.6534 0.0000 0.0000 65.1949 0.0000 0.0000 0.0000 0.0000 0.0000 69.1252 -28.0507 39.8622 -155.0802 18.5937 -58.1913 337.8930 -45.2922 344.6615 -43.3303 -7.4498 -7.9315 8.0578 0.0000 0.0000 1.7275 0.0000 0.0000 12.3275 -0.0272 -7.9810 8.3629 0.0000 0.0000 4.4216 0.0000 0.0000 10.2223 -1.8447 25.1796 110.0000 0.0000 0.0000 19.8140 0.0000 0.0000 1.6449 -3.7600 24.6927 109.7925 0.0000 0.0000 20.1614 0.0000 0.0000 -8.7673 0.7209 -6.1000 7.4159 0.0000 0.0000 3.2370 0.0000 0.0000 0.0000 0.0000 0.0000 0.0000 0.0000 0.0000 0.0000 0.0000 0.0000 0.0000 0.0000 0.0000 0.0000 0.0000 0.0000 0.0000 0.0000 0.0000
0.0000 95.0000 0.0000 0.0000 0.0000 0.0000 0.0000 0.0000 0.0000 0.0000 0.0000 0.0000 0.0000 0.0000 0.0000 0.0000 0.0000 0.0000 0.0000 0.0000 0.0000 0.0000 0.0000 0.0000 -86.4036 6.2609 6.6659 2.8617 0.9731 -1.3049 -172.5605 -7.2369 171.9158 47.9248 -8.7154 7.6648 9.0629 0.0000 0.0000 2.4466 0.0000 0.0000 -7.5523 0.1936 1.2774 110.0000 0.0000 0.0000 46.4933 0.0000 0.0000 4.3559 -0.1753 -0.1640 110.0000 0.0000 0.0000 49.5840 0.0000 0.0000 15.4551 -0.8695 -2.1437 110.0000 0.0000 0.0000 42.2555 0.0000 0.0000 22.4627 -2.0952 -4.3896 95.5639 0.0000 0.0000 54.7988 0.0000 0.0000 0.0000 0.0000 0.0000 70.2008 -28.0289 39.1033 -156.7445 17.0022 -58.0718 340.8880 -62.1340 351.3694 -40.6086 -7.2154 -6.3307 10.9306 0.0000 0.0000 3.5057 0.0000 0.0000 8.9666 -0.5218 -9.0300 9.2297 0.0000 0.0000 1.5950 0.0000 0.0000 14.4562 -4.5560 39.6000 110.0000 0.0000 0.0000 22.5228 0.0000 0.0000 5.6737 -8.5068 44.7453 106.4128 0.0000 0.0000 22.9984 0.0000 0.0000 -6.8944 -9.7270 37.6083 100.9034 0.0000 0.0000 46.7950 0.0000 0.0000 0.0000 0.0000 0.0000 0.0000 0.0000 0.0000 0.0000 0.0000 0.0000 0.0000 0.0000 0.0000 0.0000 0.0000 0.0000 0.0000 0.0000 0.0000
0.0000 95.0000 0.0000 0.0000 0.0000 0.0000 0.0000 0.0000 0.0000 0.0000 0.0000 0.0000 0.0000 0.0000 0.0000 0.0000 0.0000 0.0000 0.0000 0.0000 0.0000 0.0000 0.0000 0.0000 -86.0253 6.4034 6.8627 2.7265 1.3767 -1.7186 -173.4133 -6.4605 171.6939 50.9779 -9.2422 8.8785 10.4937 0.0000 0.0000 3.2307 0.0000 0.0000 -5.9321 -0.0847 2.7326 40.8429 0.0000 0.0000 90.0000 0.0000 0.0000 5.6247 -0.2746 0.8131 57.9494 0.0000 0.0000 90.0000 0.0000 0.0000 17.0763 -0.9401 -0.9428 95.2793 0.0000 0.0000 58.9736 0.0000 0.0000 24.5830 -2.0753 -3.3254 82.5621 0.0000 0.0000 65.1283 0.0000 0.0000 0.0000 0.0000 0.0000 71.7744 -27.9247 37.9285 -158.3665 17.0307 -58.2992 302.0136 -76.9101 394.2181 -38.8529 -6.8161 -6.1862 13.8242 0.0000 0.0000 4.0977 0.0000 0.0000 6.3870 -0.7508 -8.2901 6.0825 0.0000 0.0000 0.5542 0.0000 0.0000 21.3728 -3.3521 22.3999 110.0000 0.0000 0.0000 33.0869 0.0000 0.0000 20.8681 -9.5740 32.0359 110.0000 0.0000 0.0000 22.8418 0.0000 0.0000 7.9980 -11.4611 31.2856 107.0284 0.0000 0.0000 40.0102 0.0000 0.0000 0.0000 0.0000 0.0000 0.0000 0.0000 0.0000 0.0000 0.0000 0.0000 0.0000 0.0000 0.0000 0.0000 0.0000 0.0000 0.0000 0.0000 0.0000
0.0000 95.0000 0.0000 0.0000 0.0000 0.0000 0.0000 0.0000 0.0000 0.0000 0.0000 0.0000 0.0000 0.0000 0.0000 0.0000 0.0000 0.0000 0.0000 0.0000 0.0000 0.0000 0.0000 0.0000 -86.0210 6.6259 7.1016 3.7483 1.5964 -2.0438 -172.8542 -4.1684 172.5694 50.7365 -9.3845 7.8880 10.1580 0.0000 0.0000 1.2600 0.0000 0.0000 -5.4345 -0.0270 2.0423 39.3070 0.0000 0.0000 68.1063 0.0000 0.0000 5.7219 -0.2243 -0.2868 49.5565 0.0000 0.0000 78.5066 0.0000 0.0000 15.2285 -0.8552 -1.2293 70.9045 0.0000 0.0000 70.6076 0.0000 0.0000 21.6320 -1.8936 -2.7823 68.5838 0.0000 0.0000 73.7724 0.0000 0.0000 0.0000 0.0000 0.0000 72.4057 -28.0185 37.6446 -160.2640 16.7376 -59.0906 232.7655 -74.0847 468.3309 -37.9288 -6.4232 -6.6576 17.5098 0.0000 0.0000 6.6945 0.0000 0.0000 3.9099 -0.8567 -7.0162 2.6977 0.0000 0.0000 1.1375 0.0000 0.0000 17.9663 -0.5354 8.1578 75.6372 0.0000 0.0000 90.0000 0.0000 0.0000 29.2921 -5.7626 17.9863 110.0000 0.0000 0.0000 22.0156 0.0000 0.0000 21.1652 -10.2775 22.9834 110.0000 0.0000 0.0000 31.0790 0.0000 0.0000 0.0000 0.0000 0.0000 0.0000 0.0000 0.0000 0.0000 0.0000 0.0000 0.0000 0.0000 0.0000 0.0000 0.0000 0.0000 0.0000 0.0000 0.0000
0.0000 95.0000 0.0000 0.0000 0.0000 0.0000 0.0000 0.0000 0.0000 0.0000 0.0000 0.0000 0.0000 0.0000 0.0000 0.0000 0.0000 0.0000 0.0000 0.0000 0.0000 0.0000 0.0000 0.0000 -86.4848 6.9622 7.4018 5.7107 2.5066 -3.1022 -171.5894 -6.7675 172.3321 48.7711 -8.7385 8.5154 7.6980 0.0000 0.0000 2.8391 0.0000 0.0000 -6.6646 0.0542 2.0107 50.2551 0.0000 0.0000 90.0000 0.0000 0.0000 5.0517 -0.1913 -0.4381 51.8948 0.0000 0.0000 87.7041 0.0000 0.0000 16.1162 -0.8940 -1.8133 73.8843 0.0000 0.0000 72.0089 0.0000 0.0000 23.0464 -2.0410 -3.6315 65.3284 0.0000 0.0000 77.2029 0.0000 0.0000 0.0000 0.0000 0.0000 72.3369 -28.0592 37.7417 -162.6598 17.1883 -60.4873 215.2122 -65.3300 490.6873 -38.3403 -6.3431 -7.2230 21.8603 0.0000 0.0000 12.6534 0.0000 0.0000 1.4527 -0.8963 -5.6851 1.6613 0.0000 0.0000 2.3210 0.0000 0.0000 7.6365 0.3377 -0.2852 9.1936 0.0000 0.0000 26.7068 0.0000 0.0000 29.8749 -1.0146 6.6215 110.0000 0.0000 0.0000 20.0351 0.0000 0.0000 31.7810 -7.7975 16.2993 110.0000 0.0000 0.0000 21.2244 0.0000 0.0000 0.0000 0.0000 0.0000 0.0000 0.0000 0.0000 0.0000 0.0000 0.0000 0.0000 0.0000 0.0000 0.0000 0.0000 0.0000 0.0000 0.0000 0.0000
0.0000 95.0000 0.0000 0.0000 0.0000 0.0000 0.0000 0.0000 0.0000 0.0000 0.0000 0.0000 0.0000 0.0000 0.0000 0.0000 0.0000 0.0000 0.0000 0.0000 0.0000 0.0000 0.0000 0.0000 -86.1090 7.4544 7.9770 5.5978 2.8677 -3.5102 -171.6353 -8.0096 173.5960 49.7442 -8.8541 9.1576 14.1627 0.0000 0.0000 3.7593 0.0000 0.0000 -6.2494 -0.0716 2.8024 78.1083 0.0000 0.0000 73.7126 0.0000 0.0000 5.5153 -0.2333 0.0695 71.9454 0.0000 0.0000 77.0045 0.0000 0.0000 14.7675 -0.8310 -0.8850 95.2814 0.0000 0.0000 58.2164 0.0000 0.0000 22.9899 -1.9259 -2.4650 86.8025 0.0000 0.0000 62.8155 0.0000 0.0000 0.0000 0.0000 0.0000 73.1823 -28.0863 37.2381 -165.4502 17.3609 -61.8202 213.0211 -59.2703 498.8936 -40.0582 -6.6998 -7.5326 26.5849 0.0000 0.0000 21.2718 0.0000 0.0000 -1.5182 -0.9391 -4.4384 5.5924 0.0000 0.0000 3.5308 0.0000 0.0000 -5.4871 -0.4147 -3.8662 15.5001 0.0000 0.0000 7.9476 0.0000 0.0000 25.5421 2.4486 -2.4609 110.0000 0.0000 0.0000 16.6863 0.0000 0.0000 42.0296 -5.2775 11.6453 110.0000 0.0000 0.0000 12.0768 0.0000 0.0000 0.0000 0.0000 0.0000 0.0000 0.0000 0.0000 0.0000 0.0000 0.0000 0.0000 0.0000 0.0000 0.0000 0.0000 0.0000 0.0000 0.0000 0.0000
0.0000 95.0000 0.0000 0.0000 0.0000 0.0000 0.0000 0.0000 0.0000 0.0000 0.0000 0.0000 0.0000 0.0000 0.0000 0.0000 0.0000 0.0000 0.0000 0.0000 0.0000 0.0000 0.0000 0.0000 -85.7702 7.5946 8.1751 5.4584 2.8819 -3.5469 -171.1946 -6.4533 171.9024 50.2425 -9.1186 8.5448 11.9908 0.0000 0.0000 4.6804 0.0000 0.0000 -9.0452 0.2069 1.9689 110.0000 0.0000 0.0000 25.2006 0.0000 0.0000 2.6873 -0.0886 -0.9949 110.0000 0.0000 0.0000 50.3551 0.0000 0.0000 12.7894 -0.7613 -1.7521 110.0000 0.0000 0.0000 44.0011 0.0000 0.0000 21.9349 -1.9481 -3.1629 106.3596 0.0000 0.0000 48.7725 0.0000 0.0000 0.0000 0.0000 0.0000 74.5045 -28.1042 36.4355 -167.9214 17.1534 -62.7984 222.9345 -64.9175 480.3467 -38.3552 -6.5928 -6.4796 16.5064 0.0000 0.0000 12.5845 0.0000 0.0000 0.9096 -0.8576 -5.1637 3.7668 0.0000 0.0000 1.8915 0.0000 0.0000 -12.6181 -1.2342 -6.3560 1.7447 0.0000 0.0000 5.9820 0.0000 0.0000 6.7602 -0.6439 5.1064 110.0000 0.0000 0.0000 31.4306 0.0000 0.0000 21.6587 -5.3915 13.5908 72.2277 0.0000 0.0000 16.9847 0.0000 0.0000 0.0000 0.0000 0.0000 0.0000 0.0000 0.0000 0.0000 0.0000 0.0000 0.0000 0.0000 0.0000 0.0000 0.0000 0.0000 0.0000 0.0000 0.0000
0.0000 95.0000 0.0000 0.0000 0.0000 0.0000 0.0000 0.0000 0.0000 0.0000 0.0000 0.0000 0.0000 0.0000 0.0000 0.0000 0.0000 0.0000 0.0000 0.0000 0.0000 0.0000 0.0000 0.0000 -85.5320 7.6326 8.2503 5.3605 2.8137 -3.4902 -171.0497 -6.5481 171.7630 50.2425 -9.1186 8.5448 11.9908 0.0000 0.0000 4.6804 0.0000 0.0000 -9.0452 0.2069 1.9689 110.0000 0.0000 0.0000 25.2006 0.0000 0.0000 2.6873 -0.0886 -0.9949 110.0000 0.0000 0.0000 50.3551 0.0000 0.0000 12.7894 -0.7613 -1.7521 110.0000 0.0000 0.0000 44.0011 0.0000 0.0000 21.9349 -1.9481 -3.1629 106.3596 0.0000 0.0000 48.7725 0.0000 0.0000 0.0000 0.0000 0.0000 75.6205 -28.0447 35.6813 -169.8047 16.8948 -63.3923 222.0589 -65.6045 480.6034 -38.3552 -6.5928 -6.4796 16.5064 0.0000 0.0000 12.5845 0.0000 0.0000 0.9096 -0.8576 -5.1637 3.7668 0.0000 0.0000 1.8915 0.0000 0.0000 -12.6181 -1.2342 -6.3560 1.7447 0.0000 0.0000 5.9820 0.0000 0.0000 6.7602 -0.6439 5.1064 110.0000 0.0000 0.0000 31.4306 0.0000 0.0000 21.6587 -5.3915 13.5908 72.2277 0.0000 0.0000 16.9847 0.0000 0.0000 0.0000 0.0000 0.0000 0.0000 0.0000 0.0000 0.0000 0.0000 0.0000 0.0000 0.0000 0.0000 0.0000 0.0000 0.0000 0.0000 0.0000 0.0000
0.0000 95.0000 0.0000 0.0000 0.0000 0.0000 0.0000 0.0000 0.0000 0.0000 0.0000 0.0000 0.0000 0.0000 0.0000 0.0000 0.0000 0.0000 0.0000 0.0000 0.0000 0.0000 0.0000 0.0000 -85.2098 7.8092 8.4885 5.0328 2.8445 -3.5281 -170.7587 -6.6721 172.3814 49.6809 -8.9524 8.6313 15.5261 0.0000 0.0000 2.3700 0.0000 0.0000 -6.8953 0.0574 2.1038 35.8654 0.0000 0.0000 84.9902 0.0000 0.0000 3.9800 -0.1618 -0.1185 49.5854 0.0000 0.0000 78.5051 0.0000 0.0000 13.7854 -0.7910 -1.2304 77.8226 0.0000 0.0000 66.9167 0.0000 0.0000 21.7840 -1.8730 -2.5244 72.4753 0.0000 0.0000 71.2206 0.0000 0.0000 0.0000 0.0000 0.0000 76.9835 -28.0944 34.9314 -171.0337 16.6388 -63.8697 213.3416 -66.9432 489.4019 -41.2444 -7.3190 -6.5202 10.0565 0.0000 0.0000 3.3649 0.0000 0.0000 3.8411 -0.3895 -3.8154 4.5916 0.0000 0.0000 4.4001 0.0000 0.0000 -3.4725 -0.1560 -0.3715 6.7811 0.0000 0.0000 9.0365 0.0000 0.0000 5.6938 -1.0425 7.1266 110.0000 0.0000 0.0000 19.0862 0.0000 0.0000 17.9433 -5.7198 14.7283 83.9247 0.0000 0.0000 25.3199 0.0000 0.0000 0.0000 0.0000 0.0000 0.0000 0.0000 0.0000 0.0000 0.0000 0.0000 0.0000 0.0000 0.0000 0.0000 0.0000 0.0000 0.0000 0.0000 0.0000
0.0000 95.0000 0.0000 0.0000 0.0000 0.0000 0.0000 0.0000 0.0000 0.0000 0.0000 0.0000 0.0000 0.0000 0.0000 0.0000 0.0000 0.0000 0.0000 0.0000 0.0000 0.0000 0.0000 0.0000 -85.2466 7.9011 8.5830 5.3291 2.8737 -3.5885 -170.8684 -7.8762 171.8538 48.1827 -8.3974 9.3101 12.5892 0.0000 0.0000 5.3291 0.0000 0.0000 -6.5024 -0.0468 2.7440 39.9315 0.0000 0.0000 89.4695 0.0000 0.0000 4.3027 -0.1702 -0.2423 60.3306 0.0000 0.0000 82.8007 0.0000 0.0000 14.7181 -0.8299 -0.9955 101.6729 0.0000 0.0000 52.4401 0.0000 0.0000 23.9747 -1.9237 -1.8916 94.6852 0.0000 0.0000 56.1749 0.0000 0.0000 0.0000 0.0000 0.0000 77.3444 -28.0037 34.6104 -171.7440 16.1186 -63.7548 217.4059 -78.5953 488.2199 -49.7090 -8.4401 -10.9944 8.1468 0.0000 0.0000 14.6567 0.0000 0.0000 3.2316 0.2676 0.7953 2.0727 0.0000 0.0000 2.6855 0.0000 0.0000 -1.6650 0.0300 6.8394 77.7339 0.0000 0.0000 90.0000 0.0000 0.0000 2.0550 -2.3697 15.6360 110.0000 0.0000 0.0000 16.4526 0.0000 0.0000 2.3098 -7.1707 22.3515 110.0000 0.0000 0.0000 28.8957 0.0000 0.0000 0.0000 0.0000 0.0000 0.0000 0.0000 0.0000 0.0000 0.0000 0.0000 0.0000 0.0000 0.0000 0.0000 0.0000 0.0000 0.0000 0.0000 0.0000
0.0000 95.0000 0.0000 0.0000 0.0000 0.0000 0.0000 0.0000 0.0000 0.0000 0.0000 0.0000 0.0000 0.0000 0.0000 0.0000 0.0000 0.0000 0.0000 0.0000 0.0000 0.0000 0.0000 0.0000 -85.0967 8.1086 8.8313 5.2878 3.2730 -4.0085 -170.3338 -4.6864 172.0227 48.4634 -8.6378 8.6005 9.3555 0.0000 0.0000 5.1866 0.0000 0.0000 -6.6990 0.0942 1.7012 59.2370 0.0000 0.0000 90.0000 0.0000 0.0000 4.1150 -0.1391 -0.9021 90.9991 0.0000 0.0000 64.4010 0.0000 0.0000 13.6645 -0.7995 -1.9115 99.6256 0.0000 0.0000 55.0125 0.0000 0.0000 21.2069 -1.8836 -2.8689 93.2821 0.0000 0.0000 59.4684 0.0000 0.0000 0.0000 0.0000 0.0000 77.3442 -27.8281 34.3980 -172.0362 16.3043 -63.6920 229.5958 -80.6234 477.7449 -51.4817 -9.1610 -9.9390 8.7736 0.0000 0.0000 13.0391 0.0000 0.0000 1.4700 0.4628 2.3518 2.6408 0.0000 0.0000 3.3901 0.0000 0.0000 -5.1161 0.0396 5.6586 12.1838 0.0000 0.0000 13.7465 0.0000 0.0000 -0.5875 -2.0315 14.7642 110.0000 0.0000 0.0000 24.1794 0.0000 0.0000 1.0193 -6.2137 19.9028 84.9239 0.0000 0.0000 35.7788 0.0000 0.0000 0.0000 0.0000 0.0000 0.0000 0.0000 0.0000 0.0000 0.0000 0.0000 0.0000 0.0000 0.0000 0.0000 0.0000 0.0000 0.0000 0.0000 0.0000
0.0000 95.0000 0.0000 0.0000 0.0000 0.0000 0.0000 0.0000 0.0000 0.0000 0.0000 0.0000 0.0000 0.0000 0.0000 0.0000 0.0000 0.0000 0.0000 0.0000 0.0000 0.0000 0.0000 0.0000 -84.7240 7.9880 8.7567 4.4075 3.1912 -3.8679 -171.2349 -9.3399 172.0656 48.4392 -8.5826 8.8118 12.3179 0.0000 0.0000 1.9394 0.0000 0.0000 -7.4018 0.0445 2.4915 68.7035 0.0000 0.0000 84.9485 0.0000 0.0000 3.5411 -0.1323 -0.4936 71.5100 0.0000 0.0000 78.3513 0.0000 0.0000 13.0567 -0.7562 -1.1384 102.7125 0.0000 0.0000 53.6484 0.0000 0.0000 21.8031 -1.8414 -2.2217 95.5049 0.0000 0.0000 57.1196 0.0000 0.0000 0.0000 0.0000 0.0000 77.0990 -27.7573 34.4543 -171.9187 16.7159 -63.7517 238.4158 -82.1514 473.3238 -51.9497 -9.6134 -8.2945 11.2393 0.0000 0.0000 14.2707 0.0000 0.0000 -0.2642 0.6172 3.4196 4.7055 0.0000 0.0000 4.3054 0.0000 0.0000 -6.4771 0.1634 7.6592 20.2346 0.0000 0.0000 9.4932 0.0000 0.0000 0.6792 -2.6305 18.1785 110.0000 0.0000 0.0000 21.3616 0.0000 0.0000 4.9720 -8.0136 23.6717 80.2346 0.0000 0.0000 28.1636 0.0000 0.0000 0.0000 0.0000 0.0000 0.0000 0.0000 0.0000 0.0000 0.0000 0.0000 0.0000 0.0000 0.0000 0.0000 0.0000 0.0000 0.0000 0.0000 0.0000
0.0000 95.0000 0.0000 0.0000 0.0000 0.0000 0.0000 0.0000 0.0000 0.0000 0.0000 0.0000 0.0000 0.0000 0.0000 0.0000 0.0000 0.0000 0.0000 0.0000 0.0000 0.0000 0.0000 0.0000 -84.5743 7.7541 8.5228 3.8293 3.1596 -3.7809 -171.3421 -4.6534 174.3848 48.0087 -8.3683 9.2328 10.6073 0.0000 0.0000 2.5257 0.0000 0.0000 -7.1995 0.0268 2.5275 100.6999 0.0000 0.0000 59.8706 0.0000 0.0000 3.9594 -0.1594 -0.1635 90.7109 0.0000 0.0000 62.8433 0.0000 0.0000 13.2637 -0.7659 -1.1500 100.8460 0.0000 0.0000 53.6247 0.0000 0.0000 21.5978 -1.8909 -2.7717 90.4096 0.0000 0.0000 58.9110 0.0000 0.0000 0.0000 0.0000 0.0000 76.8355 -27.4332 34.2122 -172.2027 18.2995 -64.2292 263.4803 -84.3295 455.4604 -52.7455 -10.3968 -5.2028 15.8763 0.0000 0.0000 16.9454 0.0000 0.0000 -4.0373 0.9353 5.1325 7.4866 0.0000 0.0000 6.1694 0.0000 0.0000 -9.7398 0.5096 10.7483 31.7899 0.0000 0.0000 4.3303 0.0000 0.0000 1.4886 -3.4666 22.9898 107.0287 0.0000 0.0000 18.2202 0.0000 0.0000 9.4172 -10.4573 28.0086 71.1057 0.0000 0.0000 21.6755 0.0000 0.0000 0.0000 0.0000 0.0000 0.0000 0.0000 0.0000 0.0000 0.0000 0.0000 0.0000 0.0000 0.0000 0.0000 0.0000 0.0000 0.0000 0.0000 0.0000
0.0000 95.0000 0.0000 0.0000 0.0000 0.0000 0.0000 0.0000 0.0000 0.0000 0.0000 0.0000 0.0000 0.0000 0.0000 0.0000 0.0000 0.0000 0.0000 0.0000 0.0000 0.0000 0.0000 0.0000 -84.5076 8.1020 8.9153 3.5171 3.3463 -3.9725 -171.2628 -11.8282 171.2345 47.0920 -8.0687 9.4370 12.7978 0.0000 0.0000 4.9442 0.0000 0.0000 -7.1278 -0.0323 2.9859 100.8754 0.0000 0.0000 59.0154 0.0000 0.0000 5.2183 -0.2048 -0.2792 74.3999 0.0000 0.0000 76.9241 0.0000 0.0000 15.6386 -0.8757 -1.9673 93.1709 0.0000 0.0000 59.7772 0.0000 0.0000 24.7371 -2.1377 -4.0134 79.5615 0.0000 0.0000 67.2595 0.0000 0.0000 0.0000 0.0000 0.0000 76.9822 -27.0224 33.6272 -172.4872 20.7458 -65.0330 327.1087 -84.7273 407.3471 -53.6713 -11.7696 1.4592 26.6197 0.0000 0.0000 26.4314 0.0000 0.0000 -13.4629 1.8751 8.1766 10.7686 0.0000 0.0000 9.7531 0.0000 0.0000 -18.3063 1.8058 15.9447 44.3384 0.0000 0.0000 2.2284 0.0000 0.0000 -0.4815 -4.0713 29.4049 91.4200 0.0000 0.0000 14.8624 0.0000 0.0000 11.4568 -12.3854 31.5418 57.3900 0.0000 0.0000 16.1479 0.0000 0.0000 0.0000 0.0000 0.0000 0.0000 0.0000 0.0000 0.0000 0.0000 0.0000 0.0000 0.0000 0.0000 0.0000 0.0000 0.0000 0.0000 0.0000 0.0000
0.0000 95.0000 0.0000 0.0000 0.0000 0.0000 0.0000 0.0000 0.0000 0.0000 0.0000 0.0000 0.0000 0.0000 0.0000 0.0000 0.0000 0.0000 0.0000 0.0000 0.0000 0.0000 0.0000 0.0000 -85.0001 8.6322 9.4170 4.2691 3.6575 -4.3542 -171.1941 -9.2061 171.9864 47.2387 -8.2433 8.8857 12.3755 0.0000 0.0000 2.7047 0.0000 0.0000 -7.5885 0.0861 2.2369 44.7184 0.0000 0.0000 90.0000 0.0000 0.0000 3.7687 -0.1523 -0.1449 55.8085 0.0000 0.0000 86.0488 0.0000 0.0000 14.3085 -0.8179 -1.4775 77.8370 0.0000 0.0000 71.5600 0.0000 0.0000 22.8348 -2.0145 -3.4452 74.0186 0.0000 0.0000 71.0619 0.0000 0.0000 0.0000 0.0000 0.0000 77.0098 -26.3337 32.7718 -173.9939 25.5367 -67.4267 406.2523 -79.4839 361.7154 -49.2799 -13.3264 12.3793 44.3270 0.0000 0.0000 55.2090 0.0000 0.0000 -34.8516 5.7364 14.2116 12.7472 0.0000 0.0000 16.1126 0.0000 0.0000 -37.3717 7.0946 25.5453 49.7972 0.0000 0.0000 3.2302 0.0000 0.0000 -10.8349 -2.2538 36.0015 70.1550 0.0000 0.0000 11.3952 0.0000 0.0000 1.4253 -10.2081 32.0366 41.1697 0.0000 0.0000 11.4557 0.0000 0.0000 0.0000 0.0000 0.0000 0.0000 0.0000 0.0000 0.0000 0.0000 0.0000 0.0000 0.0000 0.0000 0.0000 0.0000 0.0000 0.0000 0.0000 0.0000
0.0000 95.0000 0.0000 0.0000 0.0000 0.0000 0.0000 0.0000 0.0000 0.0000 0.0000 0.0000 0.0000 0.0000 0.0000 0.0000 0.0000 0.0000 0.0000 0.0000 0.0000 0.0000 0.0000 0.0000 -85.6129 8.6769 9.3652 4.9280 3.9538 -4.6618 -171.4898 -3.9511 173.9245 48.2943 -8.6315 8.4349 9.1580 0.0000 0.0000 2.1266 0.0000 0.0000 -6.1811 0.0597 1.7289 42.5345 0.0000 0.0000 90.0000 0.0000 0.0000 5.1713 -0.1873 -0.6271 43.8805 0.0000 0.0000 78.4460 0.0000 0.0000 15.2497 -0.8611 -1.9982 65.5709 0.0000 0.0000 71.6910 0.0000 0.0000 22.7764 -2.0439 -3.7669 66.9808 0.0000 0.0000 72.7451 0.0000 0.0000 0.0000 0.0000 0.0000 77.6283 -24.3195 29.9903 -180.0945 44.3682 -79.5501 446.6231 -58.6841 350.0282 -40.0620 -12.2591 10.8981 30.0405 0.0000 0.0000 37.6782 0.0000 0.0000 -42.3874 11.9881 23.0610 10.0437 0.0000 0.0000 25.1250 0.0000 0.0000 -42.3237 13.3761 38.4767 39.1768 0.0000 0.0000 6.5292 0.0000 0.0000 -19.8854 0.2069 37.6962 46.2908 0.0000 0.0000 7.9251 0.0000 0.0000 -15.3293 -6.1122 29.9762 26.4722 0.0000 0.0000 7.5555 0.0000 0.0000 0.0000 0.0000 0.0000 0.0000 0.0000 0.0000 0.0000 0.0000 0.0000 0.0000 0.0000 0.0000 0.0000 0.0000 0.0000 0.0000 0.0000 0.0000
0.0000 95.0000 0.0000 0.0000 0.0000 0.0000 0.0000 0.0000 0.0000 0.0000 0.0000 0.0000 0.0000 0.0000 0.0000 0.0000 0.0000 0.0000 0.0000 0.0000 0.0000 0.0000 0.0000 0.0000 -85.1239 9.7341 10.5951 4.4752 4.3423 -5.1304 -171.3227 -7.9163 172.0242 48.5404 -8.4937 9.3141 9.6691 0.0000 0.0000 2.5662 0.0000 0.0000 -8.7218 0.1377 2.4413 35.1869 0.0000 0.0000 90.0000 0.0000 0.0000 3.8930 -0.1906 0.8332 52.4924 0.0000 0.0000 86.8429 0.0000 0.0000 14.3940 -0.8127 -0.8455 64.5089 0.0000 0.0000 78.6363 0.0000 0.0000 21.2835 -1.8897 -2.8920 56.1435 0.0000 0.0000 81.3063 0.0000 0.0000 0.0000 0.0000 0.0000 79.2831 -21.1503 25.3983 -209.9599 70.3326 -121.3253 446.2503 -28.0126 349.7749 -40.1803 -11.0031 6.5714 18.2135 0.0000 0.0000 13.9435 0.0000 0.0000 -22.3783 7.0768 20.6363 20.3328 0.0000 0.0000 32.9029 0.0000 0.0000 -28.2153 7.8798 35.4222 17.5567 0.0000 0.0000 9.4266 0.0000 0.0000 -20.7420 0.1720 31.4553 26.2839 0.0000 0.0000 4.5838 0.0000 0.0000 -22.7254 -4.2120 25.5811 16.0756 0.0000 0.0000 4.6386 0.0000 0.0000 0.0000 0.0000 0.0000 0.0000 0.0000 0.0000 0.0000 0.0000 0.0000 0.0000 0.0000 0.0000 0.0000 0.0000 0.0000 0.0000 0.0000 0.0000
0.0000 95.0000 0.0000 0.0000 0.0000 0.0000 0.0000 0.0000 0.0000 0.0000 0.0000 0.0000 0.0000 0.0000 0.0000 0.0000 0.0000 0.0000 0.0000 0.0000 0.0000 0.0000 0.0000 0.0000 -85.3058 8.3988 9.1138 3.0841 3.1838 -3.7284 -172.8365 -14.5213 169.6911 47.6126 -8.3585 8.8245 10.9000 0.0000 0.0000 3.1976 0.0000 0.0000 -7.3501 0.0527 2.3919 23.6929 0.0000 0.0000 77.9263 0.0000 0.0000 3.7907 -0.1529 -0.1529 35.4084 0.0000 0.0000 89.0322 0.0000 0.0000 14.2201 -0.8155 -1.5628 67.0577 0.0000 0.0000 79.2360 0.0000 0.0000 22.1520 -2.0257 -3.8183 60.3889 0.0000 0.0000 80.1838 0.0000 0.0000 0.0000 0.0000 0.0000 82.5570 -16.8609 19.1660 -326.5575 50.4125 -275.7690 427.8673 43.9905 374.7056 -48.0412 -10.8167 1.3855 12.8441 0.0000 0.0000 6.7591 0.0000 0.0000 -14.2836 0.6040 4.0483 26.4815 0.0000 0.0000 35.2745 0.0000 0.0000 -28.4667 2.5369 14.7496 6.9815 0.0000 0.0000 11.4841 0.0000 0.0000 -30.2225 0.3765 16.4298 13.2393 0.0000 0.0000 1.8757 0.0000 0.0000 -34.7123 -2.4241 14.9428 10.7353 0.0000 0.0000 3.5795 0.0000 0.0000 0.0000 0.0000 0.0000 0.0000 0.0000 0.0000 0.0000 0.0000 0.0000 0.0000 0.0000 0.0000 0.0000 0.0000 0.0000 0.0000 0.0000 0.0000
0.0000 95.0000 0.0000 0.0000 0.0000 0.0000 0.0000 0.0000 0.0000 0.0000 0.0000 0.0000 0.0000 0.0000 0.0000 0.0000 0.0000 0.0000 0.0000 0.0000 0.0000 0.0000 0.0000 0.0000 -85.6043 7.6122 8.2178 2.9504 1.2073 -1.6404 -173.3661 -5.5893 172.2455 48.8015 -8.5711 9.2856 10.0584 0.0000 0.0000 2.0651 0.0000 0.0000 -5.4420 -0.1463 2.9404 56.0237 0.0000 0.0000 87.6544 0.0000 0.0000 6.2365 -0.2868 0.4891 44.5711 0.0000 0.0000 82.4442 0.0000 0.0000 15.7760 -0.8792 -1.0356 57.0868 0.0000 0.0000 78.1099 0.0000 0.0000 22.8841 -1.9730 -2.9997 56.5587 0.0000 0.0000 79.3428 0.0000 0.0000 0.0000 0.0000 0.0000 86.0759 -13.3559 14.2939 -339.7756 22.6167 -323.1603 537.0952 65.7589 502.6865 -50.9652 -10.1881 -4.2279 10.0178 0.0000 0.0000 5.2361 0.0000 0.0000 -7.7527 -1.0286 -2.6519 25.9021 0.0000 0.0000 33.1660 0.0000 0.0000 -23.6311 -0.0835 4.3726 10.7694 0.0000 0.0000 12.9071 0.0000 0.0000 -30.3191 -0.9632 5.7326 8.4104 0.0000 0.0000 2.8057 0.0000 0.0000 -36.8722 -2.5377 5.1136 9.8875 0.0000 0.0000 4.7705 0.0000 0.0000 0.0000 0.0000 0.0000 0.0000 0.0000 0.0000 0.0000 0.0000 0.0000 0.0000 0.0000 0.0000 0.0000 0.0000 0.0000 0.0000 0.0000 0.0000
0.0000 95.0000 0.0000 0.0000 0.0000 0.0000 0.0000 0.0000 0.0000 0.0000 0.0000 0.0000 0.0000 0.0000 0.0000 0.0000 0.0000 0.0000 0.0000 0.0000 0.0000 0.0000 0.0000 0.0000 -86.2518 8.1649 8.7152 3.3194 0.6714 -1.1593 -173.0226 -8.7364 171.0076 48.1587 -8.3448 9.5064 11.0936 0.0000 0.0000 3.3783 0.0000 0.0000 -4.5182 -0.1192 2.2858 32.4192 0.0000 0.0000 87.8923 0.0000 0.0000 6.4410 -0.2870 0.3253 47.8107 0.0000 0.0000 81.0690 0.0000 0.0000 15.2593 -0.8541 -0.8378 72.1646 0.0000 0.0000 71.3309 0.0000 0.0000 22.8000 -1.9080 -2.3776 71.7670 0.0000 0.0000 72.3497 0.0000 0.0000 0.0000 0.0000 0.0000 87.7219 -11.0771 11.5236 -345.4204 10.3901 -343.3384 553.2807 47.0234 529.4743 -50.8929 -9.9215 -5.4620 8.3251 0.0000 0.0000 5.3683 0.0000 0.0000 -4.0995 -0.7952 -2.7692 23.9330 0.0000 0.0000 29.4839 0.0000 0.0000 -18.6971 -0.2833 3.0509 13.8490 0.0000 0.0000 13.9103 0.0000 0.0000 -26.8370 -1.1662 3.4048 10.8168 0.0000 0.0000 5.5472 0.0000 0.0000 -34.5512 -2.4903 2.4729 11.2021 0.0000 0.0000 6.7495 0.0000 0.0000 0.0000 0.0000 0.0000 0.0000 0.0000 0.0000 0.0000 0.0000 0.0000 0.0000 0.0000 0.0000 0.0000 0.0000 0.0000 0.0000 0.0000 0.0000
0.0000 95.0000 0.0000 0.0000 0.0000 0.0000 0.0000 0.0000 0.0000 0.0000 0.0000 0.0000 0.0000 0.0000 0.0000 0.0000 0.0000 0.0000 0.0000 0.0000 0.0000 0.0000 0.0000 0.0000 -86.6504 7.1486 7.5780 2.7738 -1.1735 0.8172 -173.9105 -7.3666 171.1330 49.4964 -8.7109 9.5038 9.8905 0.0000 0.0000 3.1938 0.0000 0.0000 -6.1981 -0.0411 2.5328 27.0674 0.0000 0.0000 82.8260 0.0000 0.0000 5.2305 -0.2374 0.4224 41.5926 0.0000 0.0000 83.1885 0.0000 0.0000 14.2443 -0.8089 -1.0616 50.8661 0.0000 0.0000 81.5084 0.0000 0.0000 20.6865 -1.8917 -3.1411 46.9826 0.0000 0.0000 75.6476 0.0000 0.0000 0.0000 0.0000 0.0000 88.4114 -9.6940 9.9652 -351.1711 5.2042 -352.2573 550.3679 40.1387 534.2820 -50.6666 -9.8101 -5.7486 7.2185 0.0000 0.0000 5.7860 0.0000 0.0000 -2.0582 -0.5968 -2.5057 22.0468 0.0000 0.0000 25.9131 0.0000 0.0000 -15.5392 -0.2896 2.6500 15.4806 0.0000 0.0000 14.6389 0.0000 0.0000 -24.0769 -1.1686 2.3699 14.5997 0.0000 0.0000 8.2846 0.0000 0.0000 -32.4133 -2.3682 1.1886 12.8805 0.0000 0.0000 8.7802 0.0000 0.0000 0.0000 0.0000 0.0000 0.0000 0.0000 0.0000 0.0000 0.0000 0.0000 0.0000 0.0000 0.0000 0.0000 0.0000 0.0000 0.0000 0.0000 0.0000
0.0000 95.0000 0.0000 0.0000 0.0000 0.0000 0.0000 0.0000 0.0000 0.0000 0.0000 0.0000 0.0000 0.0000 0.0000 0.0000 0.0000 0.0000 0.0000 0.0000 0.0000 0.0000 0.0000 0.0000 -87.0283 6.5267 6.8735 2.5354 -2.5632 2.2624 -174.8224 -8.9488 171.4859 47.8926 -8.0164 10.5784 7.0144 0.0000 0.0000 2.0951 0.0000 0.0000 -4.9878 -0.1833 2.9745 19.2440 0.0000 0.0000 63.3763 0.0000 0.0000 4.6414 -0.2425 1.2070 31.7708 0.0000 0.0000 66.9598 0.0000 0.0000 14.7460 -0.8233 -0.2641 41.4396 0.0000 0.0000 74.8771 0.0000 0.0000 21.1504 -1.7878 -2.0450 39.4890 0.0000 0.0000 67.1164 0.0000 0.0000 0.0000 0.0000 0.0000 88.8039 -8.7437 8.9274 -356.6805 2.9128 -356.3700 545.3749 37.8078 534.5140 -50.4994 -9.7457 -5.8698 6.4496 0.0000 0.0000 6.1820 0.0000 0.0000 -0.7921 -0.4865 -2.3807 20.4872 0.0000 0.0000 22.9555 0.0000 0.0000 -13.4744 -0.2937 2.2858 16.3361 0.0000 0.0000 15.1842 0.0000 0.0000 -22.0432 -1.1411 1.5588 17.9346 0.0000 0.0000 10.8623 0.0000 0.0000 -30.7184 -2.2381 0.2000 14.3794 0.0000 0.0000 10.6973 0.0000 0.0000 0.0000 0.0000 0.0000 0.0000 0.0000 0.0000 0.0000 0.0000 0.0000 0.0000 0.0000 0.0000 0.0000 0.0000 0.0000 0.0000 0.0000 0.0000
0.0000 95.0000 0.0000 0.0000 0.0000 0.0000 0.0000 0.0000 0.0000 0.0000 0.0000 0.0000 0.0000 0.0000 0.0000 0.0000 0.0000 0.0000 0.0000 0.0000 0.0000 0.0000 0.0000 0.0000 -87.2542 6.7717 7.1035 2.6844 -2.7092 2.3612 -175.4592 -6.2168 170.2880 50.3780 -9.0837 8.8769 10.1559 0.0000 0.0000 2.2622 0.0000 0.0000 -4.6217 -0.1715 2.7052 25.5713 0.0000 0.0000 71.7848 0.0000 0.0000 6.6725 -0.3312 0.9057 32.8757 0.0000 0.0000 71.3796 0.0000 0.0000 15.3372 -0.8538 -0.1245 38.3193 0.0000 0.0000 70.8180 0.0000 0.0000 20.7919 -1.7055 -1.5007 36.8544 0.0000 0.0000 66.2590 0.0000 0.0000 0.0000 0.0000 0.0000 88.9332 -8.0126 8.1626 -360.7110 0.6359 -359.4673 543.1072 20.4347 530.1305 -50.0330 -8.6814 -10.3128 6.1230 0.0000 0.0000 14.0314 0.0000 0.0000 -0.4774 -0.2629 -1.2951 13.5352 0.0000 0.0000 3.6102 0.0000 0.0000 -13.5595 -0.3915 1.4793 18.6680 0.0000 0.0000 11.1987 0.0000 0.0000 -21.9886 -1.1351 1.6306 14.9842 0.0000 0.0000 12.2365 0.0000 0.0000 -30.8005 -2.3071 2.4417 12.6989 0.0000 0.0000 11.2033 0.0000 0.0000 0.0000 0.0000 0.0000 0.0000 0.0000 0.0000 0.0000 0.0000 0.0000 0.0000 0.0000 0.0000 0.0000 0.0000 0.0000 0.0000 0.0000 0.0000
0.0000 95.0000 0.0000 0.0000 0.0000 0.0000 0.0000 0.0000 0.0000 0.0000 0.0000 0.0000 0.0000 0.0000 0.0000 0.0000 0.0000 0.0000 0.0000 0.0000 0.0000 0.0000 0.0000 0.0000 -87.7914 7.3855 7.6750 2.9378 -2.1769 1.7440 -175.1142 -8.0320 169.7673 49.8333 -9.0789 8.2335 11.0059 0.0000 0.0000 3.2444 0.0000 0.0000 -5.3404 -0.1411 2.8480 32.2031 0.0000 0.0000 74.0840 0.0000 0.0000 5.6474 -0.3127 1.5619 41.5966 0.0000 0.0000 82.2767 0.0000 0.0000 15.1710 -0.8419 0.2745 51.4000 0.0000 0.0000 70.7312 0.0000 0.0000 21.8248 -1.7682 -1.5286 49.1212 0.0000 0.0000 71.4905 0.0000 0.0000 0.0000 0.0000 0.0000 89.1972 -7.6808 7.7889 -364.7773 0.2576 -360.3835 539.7245 29.1509 531.6438 -51.8894 -9.9439 -6.5292 10.8878 0.0000 0.0000 5.8535 0.0000 0.0000 2.8924 0.2951 1.0540 17.2490 0.0000 0.0000 5.5856 0.0000 0.0000 -9.9171 -0.1272 3.3064 29.4829 0.0000 0.0000 28.2907 0.0000 0.0000 -18.8873 -0.9456 4.0856 27.4632 0.0000 0.0000 25.1961 0.0000 0.0000 -26.3176 -2.3799 6.7789 20.5814 0.0000 0.0000 22.4645 0.0000 0.0000 0.0000 0.0000 0.0000 0.0000 0.0000 0.0000 0.0000 0.0000 0.0000 0.0000 0.0000 0.0000 0.0000 0.0000 0.0000 0.0000 0.0000 0.0000
0.0000 95.0000 0.0000 0.0000 0.0000 0.0000 0.0000 0.0000 0.0000 0.0000 0.0000 0.0000 0.0000 0.0000 0.0000 0.0000 0.0000 0.0000 0.0000 0.0000 0.0000 0.0000 0.0000 0.0000 -88.0847 7.1723 7.4155 3.4242 -2.1559 1.6499 -174.8365 -2.5731 172.0224 50.0234 -8.7942 9.7808 9.0117 0.0000 0.0000 2.5516 0.0000 0.0000 -4.3524 -0.1696 2.5619 31.1575 0.0000 0.0000 87.5838 0.0000 0.0000 6.6813 -0.2878 0.1563 43.1236 0.0000 0.0000 78.2444 0.0000 0.0000 15.6630 -0.8749 -1.3695 51.6740 0.0000 0.0000 72.9323 0.0000 0.0000 20.7805 -1.8006 -2.3235 49.1629 0.0000 0.0000 72.2400 0.0000 0.0000 0.0000 0.0000 0.0000 89.0192 -7.3963 7.5236 -366.6503 0.1692 -360.6716 537.5307 27.3580 530.7666 -50.0962 -9.2962 -7.5364 7.6054 0.0000 0.0000 5.5022 0.0000 0.0000 0.5162 0.2241 1.1330 15.2082 0.0000 0.0000 1.5243 0.0000 0.0000 -10.8902 -0.2066 2.6052 33.3367 0.0000 0.0000 30.2584 0.0000 0.0000 -19.7795 -0.9883 3.3228 31.9433 0.0000 0.0000 31.7265 0.0000 0.0000 -28.4158 -2.3986 6.6860 26.6131 0.0000 0.0000 35.8792 0.0000 0.0000 0.0000 0.0000 0.0000 0.0000 0.0000 0.0000 0.0000 0.0000 0.0000 0.0000 0.0000 0.0000 0.0000 0.0000 0.0000 0.0000 0.0000 0.0000
0.0000 95.0000 0.0000 0.0000 0.0000 0.0000 0.0000 0.0000 0.0000 0.0000 0.0000 0.0000 0.0000 0.0000 0.0000 0.0000 0.0000 0.0000 0.0000 0.0000 0.0000 0.0000 0.0000 0.0000 -87.8446 7.0674 7.3376 3.2747 -3.0049 2.5090 -174.4570 -1.6018 170.1433 48.9579 -8.7394 8.7296 7.7890 0.0000 0.0000 2.0748 0.0000 0.0000 -5.5224 0.1069 1.0734 34.4127 0.0000 0.0000 70.1733 0.0000 0.0000 6.0711 -0.2064 -0.8820 49.0281 0.0000 0.0000 74.3331 0.0000 0.0000 15.7186 -0.8811 -3.0046 58.0618 0.0000 0.0000 73.5162 0.0000 0.0000 22.7671 -2.1920 -5.2719 51.7873 0.0000 0.0000 72.7002 0.0000 0.0000 0.0000 0.0000 0.0000 88.9989 -6.8575 6.9781 -368.3760 0.0892 -360.8715 530.0289 59.0574 521.0755 -51.0248 -10.4930 -2.7733 7.6656 0.0000 0.0000 3.0822 0.0000 0.0000 3.1738 1.5495 9.1860 14.1294 0.0000 0.0000 1.7481 0.0000 0.0000 -5.9991 0.2868 10.2405 30.1078 0.0000 0.0000 30.4267 0.0000 0.0000 -13.7274 -0.9814 11.0211 28.4447 0.0000 0.0000 25.4215 0.0000 0.0000 -22.1010 -2.8992 12.1999 23.0619 0.0000 0.0000 27.0268 0.0000 0.0000 0.0000 0.0000 0.0000 0.0000 0.0000 0.0000 0.0000 0.0000 0.0000 0.0000 0.0000 0.0000 0.0000 0.0000 0.0000 0.0000 0.0000 0.0000
0.0000 95.0000 0.0000 0.0000 0.0000 0.0000 0.0000 0.0000 0.0000 0.0000 0.0000 0.0000 0.0000 0.0000 0.0000 0.0000 0.0000 0.0000 0.0000 0.0000 0.0000 0.0000 0.0000 0.0000 -87.0301 7.9586 8.3807 0.3272 13.4695 -14.2468 -175.9622 7.9208 185.2048 50.9981 -9.1629 9.2886 9.7033 0.0000 0.0000 3.1848 0.0000 0.0000 -5.4254 -0.0457 2.1783 46.8667 0.0000 0.0000 90.0000 0.0000 0.0000 6.8226 -0.2660 -0.3120 58.4186 0.0000 0.0000 80.7568 0.0000 0.0000 16.1200 -0.8940 -1.9201 67.4544 0.0000 0.0000 75.0063 0.0000 0.0000 23.4104 -2.0595 -3.6788 57.3229 0.0000 0.0000 77.4914 0.0000 0.0000 0.0000 0.0000 0.0000 87.9718 -6.3010 6.5277 -366.5116 0.6448 -360.1080 529.7842 61.8350 522.5219 -49.8309 -10.3098 -2.4746 7.9285 0.0000 0.0000 2.9491 0.0000 0.0000 2.8179 1.4256 8.3086 14.2573 0.0000 0.0000 1.4990 0.0000 0.0000 -6.8983 0.3105 9.9209 33.5788 0.0000 0.0000 28.3797 0.0000 0.0000 -14.9096 -0.9199 9.6350 31.6046 0.0000 0.0000 25.8638 0.0000 0.0000 -23.8982 -2.6838 10.5119 25.3062 0.0000 0.0000 28.2282 0.0000 0.0000 0.0000 0.0000 0.0000 0.0000 0.0000 0.0000 0.0000 0.0000 0.0000 0.0000 0.0000 0.0000 0.0000 0.0000 0.0000 0.0000 0.0000 0.0000
0.0000 95.0000 0.0000 0.0000 0.0000 0.0000 0.0000 0.0000 0.0000 0.0000 0.0000 0.0000 0.0000 0.0000 0.0000 0.0000 0.0000 0.0000 0.0000 0.0000 0.0000 0.0000 0.0000 0.0000 -86.3951 8.5976 9.1540 -0.4605 14.0665 -15.1345 -176.0278 7.9533 185.2312 50.9981 -9.1629 9.2886 9.7033 0.0000 0.0000 3.1848 0.0000 0.0000 -5.4254 -0.0457 2.1783 46.8667 0.0000 0.0000 90.0000 0.0000 0.0000 6.8226 -0.2660 -0.3120 58.4186 0.0000 0.0000 80.7568 0.0000 0.0000 16.1200 -0.8940 -1.9201 67.4544 0.0000 0.0000 75.0063 0.0000 0.0000 23.4104 -2.0595 -3.6788 57.3229 0.0000 0.0000 77.4914 0.0000 0.0000 0.0000 0.0000 0.0000 87.1465 -6.0443 6.3525 -364.9951 0.6555 -359.9019 531.2397 61.8908 523.8878 -49.8309 -10.3098 -2.4746 7.9285 0.0000 0.0000 2.9491 0.0000 0.0000 2.8179 1.4256 8.3086 14.2573 0.0000 0.0000 1.4990 0.0000 0.0000 -6.8983 0.3105 9.9209 33.5788 0.0000 0.0000 28.3797 0.0000 0.0000 -14.9096 -0.9199 9.6350 31.6046 0.0000 0.0000 25.8638 0.0000 0.0000 -23.8982 -2.6838 10.5119 25.3062 0.0000 0.0000 28.2282 0.0000 0.0000 0.0000 0.0000 0.0000 0.0000 0.0000 0.0000 0.0000 0.0000 0.0000 0.0000 0.0000 0.0000 0.0000 0.0000 0.0000 0.0000 0.0000 0.0000
0.0000 95.0000 0.0000 0.0000 0.0000 0.0000 0.0000 0.0000 0.0000 0.0000 0.0000 0.0000 0.0000 0.0000 0.0000 0.0000 0.0000 0.0000 0.0000 0.0000 0.0000 0.0000 0.0000 0.0000 -86.3536 8.1800 8.7159 -0.7012 13.6415 -14.7091 -176.1437 3.5318 185.4350 48.2481 -8.3330 9.6617 9.9528 0.0000 0.0000 5.2065 0.0000 0.0000 -6.1820 0.0001 2.1996 51.0900 0.0000 0.0000 90.0000 0.0000 0.0000 5.7302 -0.2364 -0.0510 68.0944 0.0000 0.0000 75.6720 0.0000 0.0000 16.0120 -0.8899 -1.8847 80.3825 0.0000 0.0000 65.9533 0.0000 0.0000 23.5011 -2.0878 -3.9477 63.7573 0.0000 0.0000 74.9121 0.0000 0.0000 0.0000 0.0000 0.0000 87.0381 -6.2223 6.5518 -365.6024 0.5572 -360.0806 527.5396 64.7888 522.4319 -48.5220 -10.1122 -2.1605 8.2156 0.0000 0.0000 2.8557 0.0000 0.0000 2.7816 1.3266 7.6696 14.4318 0.0000 0.0000 2.6718 0.0000 0.0000 -7.4294 0.3268 9.8023 37.0215 0.0000 0.0000 26.2566 0.0000 0.0000 -15.6347 -0.8958 8.5996 34.7471 0.0000 0.0000 26.8302 0.0000 0.0000 -25.1102 -2.5588 9.2446 27.4108 0.0000 0.0000 29.7701 0.0000 0.0000 0.0000 0.0000 0.0000 0.0000 0.0000 0.0000 0.0000 0.0000 0.0000 0.0000 0.0000 0.0000 0.0000 0.0000 0.0000 0.0000 0.0000 0.0000
0.0000 95.0000 0.0000 0.0000 0.0000 0.0000 0.0000 0.0000 0.0000 0.0000 0.0000 0.0000 0.0000 0.0000 0.0000 0.0000 0.0000 0.0000 0.0000 0.0000 0.0000 0.0000 0.0000 0.0000 -86.5097 8.4953 9.0271 -0.2308 13.9724 -14.9786 -176.3089 9.5798 186.7146 48.0965 -8.2994 9.6267 8.1770 0.0000 0.0000 5.0112 0.0000 0.0000 -6.0256 0.0643 1.6197 50.5114 0.0000 0.0000 89.1963 0.0000 0.0000 6.2432 -0.1786 -1.4978 66.7631 0.0000 0.0000 73.8283 0.0000 0.0000 17.3330 -0.9156 -4.0549 76.2868 0.0000 0.0000 66.9838 0.0000 0.0000 24.1985 -2.2668 -5.7365 68.2318 0.0000 0.0000 70.0659 0.0000 0.0000 0.0000 0.0000 0.0000 87.0458 -6.0306 6.3492 -365.7744 0.6805 -359.9638 527.0343 66.2841 520.0229 -49.4722 -10.3568 -1.9135 8.5302 0.0000 0.0000 2.8487 0.0000 0.0000 3.3615 1.6262 9.7383 15.7533 0.0000 0.0000 3.1985 0.0000 0.0000 -5.7927 0.2939 10.5759 43.5826 0.0000 0.0000 41.3255 0.0000 0.0000 -14.2325 -0.9553 10.6691 38.6237 0.0000 0.0000 36.1454 0.0000 0.0000 -23.2745 -2.7589 11.1654 30.1479 0.0000 0.0000 40.1925 0.0000 0.0000 0.0000 0.0000 0.0000 0.0000 0.0000 0.0000 0.0000 0.0000 0.0000 0.0000 0.0000 0.0000 0.0000 0.0000 0.0000 0.0000 0.0000 0.0000
0.0000 95.0000 0.0000 0.0000 0.0000 0.0000 0.0000 0.0000 0.0000 0.0000 0.0000 0.0000 0.0000 0.0000 0.0000 0.0000 0.0000 0.0000 0.0000 0.0000 0.0000 0.0000 0.0000 0.0000 -87.1773 8.4782 8.9049 0.7274 14.0281 -14.7670 -176.0185 11.8644 186.9011 49.1372 -9.0539 7.5353 9.4235 0.0000 0.0000 4.2167 0.0000 0.0000 -5.7792 0.2120 0.3731 63.4936 0.0000 0.0000 76.8631 0.0000 0.0000 6.2760 -0.1375 -2.2641 81.1804 0.0000 0.0000 61.2275 0.0000 0.0000 16.0603 -0.8903 -4.0760 85.8054 0.0000 0.0000 59.7375 0.0000 0.0000 22.4092 -2.1766 -5.2069 78.5037 0.0000 0.0000 62.7772 0.0000 0.0000 0.0000 0.0000 0.0000 87.0963 -6.0455 6.3593 -366.4626 0.4287 -360.2769 523.1115 67.8341 515.7875 -49.4950 -10.3258 -2.0795 7.9939 0.0000 0.0000 2.9643 0.0000 0.0000 4.4807 1.4886 9.0972 18.8107 0.0000 0.0000 5.9472 0.0000 0.0000 -5.0349 0.3285 12.2328 42.3456 0.0000 0.0000 34.6878 0.0000 0.0000 -12.8840 -1.0077 10.7139 40.6690 0.0000 0.0000 40.0664 0.0000 0.0000 -22.9779 -2.9167 12.7120 30.8921 0.0000 0.0000 46.5179 0.0000 0.0000 0.0000 0.0000 0.0000 0.0000 0.0000 0.0000 0.0000 0.0000 0.0000 0.0000 0.0000 0.0000 0.0000 0.0000 0.0000 0.0000 0.0000 0.0000
0.0000 95.0000 0.0000 0.0000 0.0000 0.0000 0.0000 0.0000 0.0000 0.0000 0.0000 0.0000 0.0000 0.0000 0.0000 0.0000 0.0000 0.0000 0.0000 0.0000 0.0000 0.0000 0.0000 0.0000 -87.7154 7.6333 7.9429 1.1361 13.2297 -13.7414 -175.4649 22.2590 189.6787 49.0417 -8.9324 7.9694 8.3403 0.0000 0.0000 3.4130 0.0000 0.0000 -5.6295 0.2731 -0.1464 58.3035 0.0000 0.0000 69.5684 0.0000 0.0000 4.6330 -0.0703 -3.0339 67.5586 0.0000 0.0000 57.8250 0.0000 0.0000 13.6360 -0.8597 -4.9010 67.3019 0.0000 0.0000 60.2784 0.0000 0.0000 18.5168 -1.9769 -4.4577 68.8891 0.0000 0.0000 65.4354 0.0000 0.0000 0.0000 0.0000 0.0000 87.4253 -6.2612 6.5485 -367.4458 0.5102 -360.3315 526.0158 58.3923 521.3072 -48.7861 -10.0266 -2.7895 8.6191 0.0000 0.0000 3.0345 0.0000 0.0000 2.4406 1.4003 8.0811 14.0672 0.0000 0.0000 2.2482 0.0000 0.0000 -8.4683 0.4614 10.9974 38.7390 0.0000 0.0000 32.1486 0.0000 0.0000 -15.6527 -0.8983 9.5826 31.7441 0.0000 0.0000 35.0714 0.0000 0.0000 -25.3154 -2.7381 11.6270 23.9835 0.0000 0.0000 34.5071 0.0000 0.0000 0.0000 0.0000 0.0000 0.0000 0.0000 0.0000 0.0000 0.0000 0.0000 0.0000 0.0000 0.0000 0.0000 0.0000 0.0000 0.0000 0.0000 0.0000
0.0000 95.0000 0.0000 0.0000 0.0000 0.0000 0.0000 0.0000 0.0000 0.0000 0.0000 0.0000 0.0000 0.0000 0.0000 0.0000 0.0000 0.0000 0.0000 0.0000 0.0000 0.0000 0.0000 0.0000 -87.6504 7.6886 8.0095 0.8630 13.2705 -13.8280 -175.5241 9.3409 188.8024 49.9330 -8.7797 9.7331 9.1235 0.0000 0.0000 4.1980 0.0000 0.0000 -5.4652 -0.0896 2.5273 33.7328 0.0000 0.0000 83.2459 0.0000 0.0000 5.5981 -0.2160 -0.3568 40.5260 0.0000 0.0000 73.6227 0.0000 0.0000 14.4396 -0.8334 -2.2101 54.8650 0.0000 0.0000 75.7144 0.0000 0.0000 20.0028 -1.9989 -4.2526 58.0412 0.0000 0.0000 71.3767 0.0000 0.0000 0.0000 0.0000 0.0000 87.6354 -5.7504 5.9923 -368.1164 0.5719 -360.2766 523.2443 61.2058 518.6107 -47.9284 -9.8972 -2.5745 8.5388 0.0000 0.0000 3.8157 0.0000 0.0000 4.8350 1.4824 9.1446 14.8986 0.0000 0.0000 1.9179 0.0000 0.0000 -5.4924 0.3515 12.0906 31.8675 0.0000 0.0000 23.3165 0.0000 0.0000 -13.0195 -1.0014 10.6710 31.6532 0.0000 0.0000 29.9782 0.0000 0.0000 -22.3907 -2.8185 11.5123 23.9703 0.0000 0.0000 30.5135 0.0000 0.0000 0.0000 0.0000 0.0000 0.0000 0.0000 0.0000 0.0000 0.0000 0.0000 0.0000 0.0000 0.0000 0.0000 0.0000 0.0000 0.0000 0.0000 0.0000
0.0000 95.0000 0.0000 0.0000 0.0000 0.0000 0.0000 0.0000 0.0000 0.0000 0.0000 0.0000 0.0000 0.0000 0.0000 0.0000 0.0000 0.0000 0.0000 0.0000 0.0000 0.0000 0.0000 0.0000 -88.3383 7.2648 7.4781 1.4621 12.9016 -13.2161 -175.7376 10.0948 186.0218 50.2343 -9.0172 9.0098 9.7398 0.0000 0.0000 5.3367 0.0000 0.0000 -5.2987 -0.0103 1.8544 24.7624 0.0000 0.0000 42.3329 0.0000 0.0000 6.1644 -0.2657 0.1602 36.7671 0.0000 0.0000 71.9027 0.0000 0.0000 15.3694 -0.8622 -1.3578 49.7423 0.0000 0.0000 80.2148 0.0000 0.0000 21.7024 -1.9798 -3.5489 46.9143 0.0000 0.0000 74.9601 0.0000 0.0000 0.0000 0.0000 0.0000 88.0884 -5.7133 5.9068 -369.0285 0.9583 -360.0199 520.7424 61.2764 514.7097 -47.7910 -9.6926 -3.3375 7.4698 0.0000 0.0000 4.1052 0.0000 0.0000 4.7144 1.4141 8.6232 18.1105 0.0000 0.0000 4.3047 0.0000 0.0000 -5.1252 0.2772 10.9592 37.5487 0.0000 0.0000 30.2655 0.0000 0.0000 -12.4942 -0.9792 9.2894 34.7006 0.0000 0.0000 33.2020 0.0000 0.0000 -20.8312 -2.6270 9.4432 25.0900 0.0000 0.0000 32.5564 0.0000 0.0000 0.0000 0.0000 0.0000 0.0000 0.0000 0.0000 0.0000 0.0000 0.0000 0.0000 0.0000 0.0000 0.0000 0.0000 0.0000 0.0000 0.0000 0.0000
0.0000 95.0000 0.0000 0.0000 0.0000 0.0000 0.0000 0.0000 0.0000 0.0000 0.0000 0.0000 0.0000 0.0000 0.0000 0.0000 0.0000 0.0000 0.0000 0.0000 0.0000 0.0000 0.0000 0.0000 -88.3584 7.3813 7.5952 3.3028 -3.7691 3.1928 -174.6472 -6.1822 170.5029 49.3867 -8.5857 9.9308 8.5199 0.0000 0.0000 2.6548 0.0000 0.0000 -5.1253 -0.1717 2.9620 32.9802 0.0000 0.0000 75.5974 0.0000 0.0000 6.2390 -0.2976 0.6850 39.5255 0.0000 0.0000 74.9965 0.0000 0.0000 15.2596 -0.8512 -0.3739 52.8060 0.0000 0.0000 73.7861 0.0000 0.0000 21.9324 -1.7849 -1.6277 55.4562 0.0000 0.0000 72.3680 0.0000 0.0000 0.0000 0.0000 0.0000 88.3826 -5.8345 6.0012 -369.5527 0.7654 -360.2598 522.3582 56.5991 518.7217 -47.9713 -9.5779 -4.0041 7.7246 0.0000 0.0000 3.0928 0.0000 0.0000 3.6185 1.2062 6.9937 17.2250 0.0000 0.0000 4.3445 0.0000 0.0000 -6.8418 0.3041 9.8560 30.4489 0.0000 0.0000 20.4544 0.0000 0.0000 -14.2892 -0.9116 7.8618 30.3189 0.0000 0.0000 29.8494 0.0000 0.0000 -23.1184 -2.4231 7.6032 23.7003 0.0000 0.0000 28.3578 0.0000 0.0000 0.0000 0.0000 0.0000 0.0000 0.0000 0.0000 0.0000 0.0000 0.0000 0.0000 0.0000 0.0000 0.0000 0.0000 0.0000 0.0000 0.0000 0.0000
0.0000 95.0000 0.0000 0.0000 0.0000 0.0000 0.0000 0.0000 0.0000 0.0000 0.0000 0.0000 0.0000 0.0000 0.0000 0.0000 0.0000 0.0000 0.0000 0.0000 0.0000 0.0000 0.0000 0.0000 -88.9075 7.3698 7.5113 3.8091 -3.7671 3.0681 -174.4534 -8.6159 169.2807 49.8449 -8.8378 9.3566 8.7665 0.0000 0.0000 4.1462 0.0000 0.0000 -5.6451 -0.0564 2.3664 25.4213 0.0000 0.0000 44.5796 0.0000 0.0000 5.5190 -0.2532 0.4785 38.4547 0.0000 0.0000 69.7188 0.0000 0.0000 13.9205 -0.7890 -0.7848 53.2193 0.0000 0.0000 71.7548 0.0000 0.0000 19.9671 -1.7736 -2.4378 53.1120 0.0000 0.0000 73.9771 0.0000 0.0000 0.0000 0.0000 0.0000 88.5390 -5.6247 5.7697 -369.9532 1.0083 -360.0569 521.2055 59.5687 519.1861 -47.1110 -9.7289 -2.5705 9.0543 0.0000 0.0000 3.3217 0.0000 0.0000 4.6779 1.4930 9.1797 15.7001 0.0000 0.0000 2.7419 0.0000 0.0000 -6.6204 0.4177 11.9842 25.1732 0.0000 0.0000 18.6418 0.0000 0.0000 -13.6769 -0.9581 9.7610 26.1024 0.0000 0.0000 23.5221 0.0000 0.0000 -22.5642 -2.5465 8.8546 20.5943 0.0000 0.0000 21.5336 0.0000 0.0000 0.0000 0.0000 0.0000 0.0000 0.0000 0.0000 0.0000 0.0000 0.0000 0.0000 0.0000 0.0000 0.0000 0.0000 0.0000 0.0000 0.0000 0.0000
0.0000 95.0000 0.0000 0.0000 0.0000 0.0000 0.0000 0.0000 0.0000 0.0000 0.0000 0.0000 0.0000 0.0000 0.0000 0.0000 0.0000 0.0000 0.0000 0.0000 0.0000 0.0000 0.0000 0.0000 -89.4720 7.2234 7.2901 4.1634 -3.6618 2.8881 -174.3422 -8.6504 168.6227 49.1571 -8.7537 8.9014 9.7281 0.0000 0.0000 2.2781 0.0000 0.0000 -5.9137 0.0745 1.4891 23.4046 0.0000 0.0000 37.4340 0.0000 0.0000 5.0217 -0.2006 -0.1993 38.5574 0.0000 0.0000 69.2800 0.0000 0.0000 14.0455 -0.8066 -1.4690 51.9436 0.0000 0.0000 74.1928 0.0000 0.0000 21.2496 -1.9322 -3.2849 54.3565 0.0000 0.0000 73.6506 0.0000 0.0000 0.0000 0.0000 0.0000 88.8333 -5.8286 5.9483 -370.3375 1.2763 -359.9031 520.7938 59.8841 518.3908 -47.1110 -9.7289 -2.5705 9.0543 0.0000 0.0000 3.3217 0.0000 0.0000 4.6779 1.4930 9.1797 15.7001 0.0000 0.0000 2.7419 0.0000 0.0000 -6.6204 0.4177 11.9842 25.1732 0.0000 0.0000 18.6418 0.0000 0.0000 -13.6769 -0.9581 9.7610 26.1024 0.0000 0.0000 23.5221 0.0000 0.0000 -22.5642 -2.5465 8.8546 20.5943 0.0000 0.0000 21.5336 0.0000 0.0000 0.0000 0.0000 0.0000 0.0000 0.0000 0.0000 0.0000 0.0000 0.0000 0.0000 0.0000 0.0000 0.0000 0.0000 0.0000 0.0000 0.0000 0.0000
