HIERARCHY
ROOT Hips
{
  OFFSET 0.000000 95.000000 0.000000
  CHANNELS 6 Xposition Yposition Zposition Zrotation Xrotation Yrotation
  JOINT Spine
  {
    OFFSET 0.000000 10.000000 0.000000
    CHANNELS 3 Zrotation Xrotation Yrotation
    JOINT Spine1
    {
      OFFSET 0.000000 12.000000 0.000000
      CHANNELS 3 Zrotation Xrotation Yrotation
      JOINT Spine2
      {
        OFFSET 0.000000 12.000000 0.000000
        CHANNELS 3 Zrotation Xrotation Yrotation
        JOINT Neck
        {
          OFFSET 0.000000 10.000000 0.000000
          CHANNELS 3 Zrotation Xrotation Yrotation
          JOINT Head
          {
            OFFSET 0.000000 8.000000 0.000000
            CHANNELS 3 Zrotation Xrotation Yrotation
            End Site
            {
              OFFSET 0.000000 10.000000 0.000000
            }
          }
        }
        JOINT LeftShoulder
        {
          OFFSET 6.000000 8.000000 0.000000
          CHANNELS 3 Zrotation Xrotation Yrotation
          JOINT LeftArm
          {
            OFFSET 12.000000 0.000000 0.000000
            CHANNELS 3 Zrotation Xrotation Yrotation
            JOINT LeftForeArm
            {
              OFFSET 24.000000 0.000000 0.000000
              CHANNELS 3 Zrotation Xrotation Yrotation
              JOINT LeftHand
              {
                OFFSET 22.000000 0.000000 0.000000
                CHANNELS 3 Zrotation Xrotation Yrotation
                JOINT LeftHandThumb1
                {
                  OFFSET 1.800000 -1.400000 0.500000
                  CHANNELS 3 Zrotation Xrotation Yrotation
                  JOINT LeftHandThumb2
                  {
                    OFFSET 2.400000 0.000000 0.000000
                    CHANNELS 3 Zrotation Xrotation Yrotation
                    JOINT LeftHandThumb3
                    {
                      OFFSET 1.900000 0.000000 0.000000
                      CHANNELS 3 Zrotation Xrotation Yrotation
                      End Site
                      {
                        OFFSET 1.600000 0.000000 0.000000
                      }
                    }
                  }
                }
                JOINT LeftHandIndex1
                {
                  OFFSET 6.600000 1.200000 0.300000
                  CHANNELS 3 Zrotation Xrotation Yrotation
                  JOINT LeftHandIndex2
                  {
                    OFFSET 2.000000 0.000000 0.000000
                    CHANNELS 3 Zrotation Xrotation Yrotation
                    JOINT LeftHandIndex3
                    {
                      OFFSET 1.200000 0.000000 0.000000
                      CHANNELS 3 Zrotation Xrotation Yrotation
                      End Site
                      {
                        OFFSET 1.000000 0.000000 0.000000
                      }
                    }
                  }
                }
                JOINT LeftHandMiddle1
                {
                  OFFSET 7.200000 0.000000 0.300000
                  CHANNELS 3 Zrotation Xrotation Yrotation
                  JOINT LeftHandMiddle2
                  {
                    OFFSET 3.000000 0.000000 0.000000
                    CHANNELS 3 Zrotation Xrotation Yrotation
                    JOINT LeftHandMiddle3
                    {
                      OFFSET 2.000000 0.000000 0.000000
                      CHANNELS 3 Zrotation Xrotation Yrotation
                      End Site
                      {
                        OFFSET 1.600000 0.000000 0.000000
                      }
                    }
                  }
                }
                JOINT LeftHandRing1
                {
                  OFFSET 7.100000 -1.000000 0.400000
                  CHANNELS 3 Zrotation Xrotation Yrotation
                  JOINT LeftHandRing2
                  {
                    OFFSET 2.600000 0.000000 0.000000
                    CHANNELS 3 Zrotation Xrotation Yrotation
                    JOINT LeftHandRing3
                    {
                      OFFSET 1.600000 0.000000 0.000000
                      CHANNELS 3 Zrotation Xrotation Yrotation
                      End Site
                      {
                        OFFSET 1.300000 0.000000 0.000000
                      }
                    }
                  }
                }
                JOINT LeftHandPinky1
                {
                  OFFSET 6.500000 -2.000000 0.500000
                  CHANNELS 3 Zrotation Xrotation Yrotation
                  JOINT LeftHandPinky2
                  {
                    OFFSET 1.900000 0.000000 0.000000
                    CHANNELS 3 Zrotation Xrotation Yrotation
                    JOINT LeftHandPinky3
                    {
                      OFFSET 1.400000 0.000000 0.000000
                      CHANNELS 3 Zrotation Xrotation Yrotation
                      End Site
                      {
                        OFFSET 1.300000 0.000000 0.000000
                      }
                    }
                  }
                }
              }
            }
          }
        }
        JOINT RightShoulder
        {
          OFFSET -6.000000 8.000000 0.000000
          CHANNELS 3 Zrotation Xrotation Yrotation
          JOINT RightArm
          {
            OFFSET -12.000000 0.000000 0.000000
            CHANNELS 3 Zrotation Xrotation Yrotation
            JOINT RightForeArm
            {
              OFFSET -24.000000 0.000000 0.000000
              CHANNELS 3 Zrotation Xrotation Yrotation
              JOINT RightHand
              {
                OFFSET -22.000000 0.000000 0.000000
                CHANNELS 3 Zrotation Xrotation Yrotation
                JOINT RightHandThumb1
                {
                  OFFSET -1.800000 -1.400000 0.500000
                  CHANNELS 3 Zrotation Xrotation Yrotation
                  JOINT RightHandThumb2
                  {
                    OFFSET -2.400000 0.000000 0.000000
                    CHANNELS 3 Zrotation Xrotation Yrotation
                    JOINT RightHandThumb3
                    {
                      OFFSET -1.900000 0.000000 0.000000
                      CHANNELS 3 Zrotation Xrotation Yrotation
                      End Site
                      {
                        OFFSET -1.600000 0.000000 0.000000
                      }
                    }
                  }
                }
                JOINT RightHandIndex1
                {
                  OFFSET -6.600000 1.200000 0.300000
                  CHANNELS 3 Zrotation Xrotation Yrotation
                  JOINT RightHandIndex2
                  {
                    OFFSET -2.000000 0.000000 0.000000
                    CHANNELS 3 Zrotation Xrotation Yrotation
                    JOINT RightHandIndex3
                    {
                      OFFSET -1.200000 0.000000 0.000000
                      CHANNELS 3 Zrotation Xrotation Yrotation
                      End Site
                      {
                        OFFSET -1.000000 0.000000 0.000000
                      }
                    }
                  }
                }
                JOINT RightHandMiddle1
                {
                  OFFSET -7.200000 0.000000 0.300000
                  CHANNELS 3 Zrotation Xrotation Yrotation
                  JOINT RightHandMiddle2
                  {
                    OFFSET -3.000000 0.000000 0.000000
                    CHANNELS 3 Zrotation Xrotation Yrotation
                    JOINT RightHandMiddle3
                    {
                      OFFSET -2.000000 0.000000 0.000000
                      CHANNELS 3 Zrotation Xrotation Yrotation
                      End Site
                      {
                        OFFSET -1.600000 0.000000 0.000000
                      }
                    }
                  }
                }
                JOINT RightHandRing1
                {
                  OFFSET -7.100000 -1.000000 0.400000
                  CHANNELS 3 Zrotation Xrotation Yrotation
                  JOINT RightHandRing2
                  {
                    OFFSET -2.600000 0.000000 0.000000
                    CHANNELS 3 Zrotation Xrotation Yrotation
                    JOINT RightHandRing3
                    {
                      OFFSET -1.600000 0.000000 0.000000
                      CHANNELS 3 Zrotation Xrotation Yrotation
                      End Site
                      {
                        OFFSET -1.300000 0.000000 0.000000
                      }
                    }
                  }
                }
                JOINT RightHandPinky1
                {
                  OFFSET -6.500000 -2.000000 0.500000
                  CHANNELS 3 Zrotation Xrotation Yrotation
                  JOINT RightHandPinky2
                  {
                    OFFSET -1.900000 0.000000 0.000000
                    CHANNELS 3 Zrotation Xrotation Yrotation
                    JOINT RightHandPinky3
                    {
                      OFFSET -1.400000 0.000000 0.000000
                      CHANNELS 3 Zrotation Xrotation Yrotation
                      End Site
                      {
                        OFFSET -1.300000 0.000000 0.000000
                      }
                    }
                  }
                }
              }
            }
          }
        }
      }
    }
  }
  JOINT LeftUpLeg
  {
    OFFSET 10.000000 -5.000000 0.000000
    CHANNELS 3 Zrotation Xrotation Yrotation
    JOINT LeftLeg
    {
      OFFSET 0.000000 -42.000000 0.000000
      CHANNELS 3 Zrotation Xrotation Yrotation
      JOINT LeftFoot
      {
        OFFSET 0.000000 -42.000000 4.000000
        CHANNELS 3 Zrotation Xrotation Yrotation
        End Site
        {
          OFFSET 0.000000 0.000000 12.000000
        }
      }
    }
  }
  JOINT RightUpLeg
  {
    OFFSET -10.000000 -5.000000 0.000000
    CHANNELS 3 Zrotation Xrotation Yrotation
    JOINT RightLeg
    {
      OFFSET 0.000000 -42.000000 0.000000
      CHANNELS 3 Zrotation Xrotation Yrotation
      JOINT RightFoot
      {
        OFFSET 0.000000 -42.000000 4.000000
        CHANNELS 3 Zrotation Xrotation Yrotation
        End Site
        {
          OFFSET 0.000000 0.000000 12.000000
        }
      }
    }
  }
}
MOTION
Frames: 60
Frame Time: 0.033333
0.0000 95.0000 0.0000 0.0000 0.0000 0.0000 0.0000 0.0000 0.0000 0.0000 0.0000 0.0000 0.0000 0.0000 0.0000 0.0000 0.0000 0.0000 0.0000 0.0000 0.0000 0.0000 0.0000 0.0000 -77.8084 4.9299 6.1068 -9.5293 -4.8158 8.1745 -166.0443 19.6006 170.2149 60.8542 -13.0975 -2.9560 13.1168 0.0000 0.0000 0.9276 0.0000 0.0000 -4.7288 0.1931 0.1459 9.0450 0.0000 0.0000 3.5640 0.0000 0.0000 4.9343 -0.1413 -1.4924 14.7050 0.0000 0.0000 4.9521 0.0000 0.0000 12.4844 -0.7420 -1.5209 14.3137 0.0000 0.0000 7.6907 0.0000 0.0000 19.7637 -1.4217 0.2836 11.1387 0.0000 0.0000 6.9972 0.0000 0.0000 0.0000 0.0000 0.0000 88.1847 -0.5114 0.5278 -4.0407 6.8463 6.5465 160.4315 19.7817 170.3306 -68.1955 -13.7799 -6.1183 11.8965 0.0000 0.0000 1.1779 0.0000 0.0000 -1.3687 -0.4962 -2.2318 11.4018 0.0000 0.0000 2.2548 0.0000 0.0000 -11.2127 -0.1814 2.9238 11.0844 0.0000 0.0000 6.3291 0.0000 0.0000 -17.0595 -0.9421 0.6551 16.9571 0.0000 0.0000 6.3079 0.0000 0.0000 -26.2754 -1.8684 -0.7475 11.8593 0.0000 0.0000 5.1564 0.0000 0.0000 0.0000 0.0000 0.0000 0.0000 0.0000 0.0000 0.0000 0.0000 0.0000 0.0000 0.0000 0.0000 0.0000 0.0000 0.0000 0.0000 0.0000 0.0000
0.0000 95.0000 0.0000 0.0000 0.0000 0.0000 0.0000 0.0000 0.0000 0.0000 0.0000 0.0000 0.0000 0.0000 0.0000 0.0000 0.0000 0.0000 0.0000 0.0000 0.0000 0.0000 0.0000 0.0000 -77.7879 4.9396 6.1210 -9.5402 -4.8795 8.2748 -166.0103 19.5094 170.1299 60.8542 -13.0975 -2.9560 13.1168 0.0000 0.0000 0.9276 0.0000 0.0000 -4.7288 0.1931 0.1459 9.0450 0.0000 0.0000 3.5640 0.0000 0.0000 4.9343 -0.1413 -1.4924 14.7050 0.0000 0.0000 4.9521 0.0000 0.0000 12.4844 -0.7420 -1.5209 14.3137 0.0000 0.0000 7.6907 0.0000 0.0000 19.7637 -1.4217 0.2836 11.1387 0.0000 0.0000 6.9972 0.0000 0.0000 0.0000 0.0000 0.0000 88.1380 -0.7577 0.7827 -3.9930 6.9955 6.6821 160.3486 20.1452 169.8899 -68.1955 -13.7799 -6.1183 11.8965 0.0000 0.0000 1.1779 0.0000 0.0000 -1.3687 -0.4962 -2.2318 11.4018 0.0000 0.0000 2.2548 0.0000 0.0000 -11.2127 -0.1814 2.9238 11.0844 0.0000 0.0000 6.3291 0.0000 0.0000 -17.0595 -0.9421 0.6551 16.9571 0.0000 0.0000 6.3079 0.0000 0.0000 -26.2754 -1.8684 -0.7475 11.8593 0.0000 0.0000 5.1564 0.0000 0.0000 0.0000 0.0000 0.0000 0.0000 0.0000 0.0000 0.0000 0.0000 0.0000 0.0000 0.0000 0.0000 0.0000 0.0000 0.0000 0.0000 0.0000 0.0000
0.0000 95.0000 0.0000 0.0000 0.0000 0.0000 0.0000 0.0000 0.0000 0.0000 0.0000 0.0000 0.0000 0.0000 0.0000 0.0000 0.0000 0.0000 0.0000 0.0000 0.0000 0.0000 0.0000 0.0000 -77.6772 5.0831 6.3111 -9.6687 -5.0641 8.6255 -165.9427 19.0802 169.6951 60.8542 -13.0975 -2.9560 13.1168 0.0000 0.0000 0.9276 0.0000 0.0000 -4.7288 0.1931 0.1459 9.0450 0.0000 0.0000 3.5640 0.0000 0.0000 4.9343 -0.1413 -1.4924 14.7050 0.0000 0.0000 4.9521 0.0000 0.0000 12.4844 -0.7420 -1.5209 14.3137 0.0000 0.0000 7.6907 0.0000 0.0000 19.7637 -1.4217 0.2836 11.1387 0.0000 0.0000 6.9972 0.0000 0.0000 0.0000 0.0000 0.0000 87.8856 -0.7625 0.7912 -3.7271 7.0582 6.8069 160.3335 20.2379 169.7797 -68.1955 -13.7799 -6.1183 11.8965 0.0000 0.0000 1.1779 0.0000 0.0000 -1.3687 -0.4962 -2.2318 11.4018 0.0000 0.0000 2.2548 0.0000 0.0000 -11.2127 -0.1814 2.9238 11.0844 0.0000 0.0000 6.3291 0.0000 0.0000 -17.0595 -0.9421 0.6551 16.9571 0.0000 0.0000 6.3079 0.0000 0.0000 -26.2754 -1.8684 -0.7475 11.8593 0.0000 0.0000 5.1564 0.0000 0.0000 0.0000 0.0000 0.0000 0.0000 0.0000 0.0000 0.0000 0.0000 0.0000 0.0000 0.0000 0.0000 0.0000 0.0000 0.0000 0.0000 0.0000 0.0000
0.0000 95.0000 0.0000 0.0000 0.0000 0.0000 0.0000 0.0000 0.0000 0.0000 0.0000 0.0000 0.0000 0.0000 0.0000 0.0000 0.0000 0.0000 0.0000 0.0000 0.0000 0.0000 0.0000 0.0000 -77.5862 5.1105 6.3554 -9.8976 -5.0303 8.6611 -166.0858 19.0283 169.5876 60.8542 -13.0975 -2.9560 13.1168 0.0000 0.0000 0.9276 0.0000 0.0000 -4.7288 0.1931 0.1459 9.0450 0.0000 0.0000 3.5640 0.0000 0.0000 4.9343 -0.1413 -1.4924 14.7050 0.0000 0.0000 4.9521 0.0000 0.0000 12.4844 -0.7420 -1.5209 14.3137 0.0000 0.0000 7.6907 0.0000 0.0000 19.7637 -1.4217 0.2836 11.1387 0.0000 0.0000 6.9972 0.0000 0.0000 0.0000 0.0000 0.0000 87.7930 -0.8204 0.8527 -3.5990 7.1130 6.8841 160.3404 20.3572 169.6484 -68.1955 -13.7799 -6.1183 11.8965 0.0000 0.0000 1.1779 0.0000 0.0000 -1.3687 -0.4962 -2.2318 11.4018 0.0000 0.0000 2.2548 0.0000 0.0000 -11.2127 -0.1814 2.9238 11.0844 0.0000 0.0000 6.3291 0.0000 0.0000 -17.0595 -0.9421 0.6551 16.9571 0.0000 0.0000 6.3079 0.0000 0.0000 -26.2754 -1.8684 -0.7475 11.8593 0.0000 0.0000 5.1564 0.0000 0.0000 0.0000 0.0000 0.0000 0.0000 0.0000 0.0000 0.0000 0.0000 0.0000 0.0000 0.0000 0.0000 0.0000 0.0000 0.0000 0.0000 0.0000 0.0000
0.0000 95.0000 0.0000 0.0000 0.0000 0.0000 0.0000 0.0000 0.0000 0.0000 0.0000 0.0000 0.0000 0.0000 0.0000 0.0000 0.0000 0.0000 0.0000 0.0000 0.0000 0.0000 0.0000 0.0000 -77.1505 5.4158 6.7874 -10.3794 -5.2096 9.2079 -166.0049 18.2900 168.8264 60.8542 -13.0975 -2.9560 13.1168 0.0000 0.0000 0.9276 0.0000 0.0000 -4.7288 0.1931 0.1459 9.0450 0.0000 0.0000 3.5640 0.0000 0.0000 4.9343 -0.1413 -1.4924 14.7050 0.0000 0.0000 4.9521 0.0000 0.0000 12.4844 -0.7420 -1.5209 14.3137 0.0000 0.0000 7.6907 0.0000 0.0000 19.7637 -1.4217 0.2836 11.1387 0.0000 0.0000 6.9972 0.0000 0.0000 0.0000 0.0000 0.0000 87.8590 -0.8827 0.9164 -3.7426 7.1015 6.8411 160.2562 20.3827 169.5859 -68.1955 -13.7799 -6.1183 11.8965 0.0000 0.0000 1.1779 0.0000 0.0000 -1.3687 -0.4962 -2.2318 11.4018 0.0000 0.0000 2.2548 0.0000 0.0000 -11.2127 -0.1814 2.9238 11.0844 0.0000 0.0000 6.3291 0.0000 0.0000 -17.0595 -0.9421 0.6551 16.9571 0.0000 0.0000 6.3079 0.0000 0.0000 -26.2754 -1.8684 -0.7475 11.8593 0.0000 0.0000 5.1564 0.0000 0.0000 0.0000 0.0000 0.0000 0.0000 0.0000 0.0000 0.0000 0.0000 0.0000 0.0000 0.0000 0.0000 0.0000 0.0000 0.0000 0.0000 0.0000 0.0000
0.0000 95.0000 0.0000 0.0000 0.0000 0.0000 0.0000 0.0000 0.0000 0.0000 0.0000 0.0000 0.0000 0.0000 0.0000 0.0000 0.0000 0.0000 0.0000 0.0000 0.0000 0.0000 0.0000 0.0000 -77.2437 5.2439 6.5612 -10.2699 -5.4562 9.4838 -165.9156 18.2395 168.8034 60.8542 -13.0975 -2.9560 13.1168 0.0000 0.0000 0.9276 0.0000 0.0000 -4.7288 0.1931 0.1459 9.0450 0.0000 0.0000 3.5640 0.0000 0.0000 4.9343 -0.1413 -1.4924 14.7050 0.0000 0.0000 4.9521 0.0000 0.0000 12.4844 -0.7420 -1.5209 14.3137 0.0000 0.0000 7.6907 0.0000 0.0000 19.7637 -1.4217 0.2836 11.1387 0.0000 0.0000 6.9972 0.0000 0.0000 0.0000 0.0000 0.0000 87.8905 -0.9242 0.9588 -3.8170 7.2467 6.9648 160.1615 20.5394 169.3713 -68.1955 -13.7799 -6.1183 11.8965 0.0000 0.0000 1.1779 0.0000 0.0000 -1.3687 -0.4962 -2.2318 11.4018 0.0000 0.0000 2.2548 0.0000 0.0000 -11.2127 -0.1814 2.9238 11.0844 0.0000 0.0000 6.3291 0.0000 0.0000 -17.0595 -0.9421 0.6551 16.9571 0.0000 0.0000 6.3079 0.0000 0.0000 -26.2754 -1.8684 -0.7475 11.8593 0.0000 0.0000 5.1564 0.0000 0.0000 0.0000 0.0000 0.0000 0.0000 0.0000 0.0000 0.0000 0.0000 0.0000 0.0000 0.0000 0.0000 0.0000 0.0000 0.0000 0.0000 0.0000 0.0000
0.0000 95.0000 0.0000 0.0000 0.0000 0.0000 0.0000 0.0000 0.0000 0.0000 0.0000 0.0000 0.0000 0.0000 0.0000 0.0000 0.0000 0.0000 0.0000 0.0000 0.0000 0.0000 0.0000 0.0000 -77.3457 5.4047 6.7499 -10.2280 -5.4775 9.5198 -165.9566 18.0390 168.5742 60.8542 -13.0975 -2.9560 13.1168 0.0000 0.0000 0.9276 0.0000 0.0000 -4.7288 0.1931 0.1459 9.0450 0.0000 0.0000 3.5640 0.0000 0.0000 4.9343 -0.1413 -1.4924 14.7050 0.0000 0.0000 4.9521 0.0000 0.0000 12.4844 -0.7420 -1.5209 14.3137 0.0000 0.0000 7.6907 0.0000 0.0000 19.7637 -1.4217 0.2836 11.1387 0.0000 0.0000 6.9972 0.0000 0.0000 0.0000 0.0000 0.0000 87.9591 -0.9030 0.9358 -3.7838 7.2395 6.9557 160.2752 20.5228 169.4362 -68.1955 -13.7799 -6.1183 11.8965 0.0000 0.0000 1.1779 0.0000 0.0000 -1.3687 -0.4962 -2.2318 11.4018 0.0000 0.0000 2.2548 0.0000 0.0000 -11.2127 -0.1814 2.9238 11.0844 0.0000 0.0000 6.3291 0.0000 0.0000 -17.0595 -0.9421 0.6551 16.9571 0.0000 0.0000 6.3079 0.0000 0.0000 -26.2754 -1.8684 -0.7475 11.8593 0.0000 0.0000 5.1564 0.0000 0.0000 0.0000 0.0000 0.0000 0.0000 0.0000 0.0000 0.0000 0.0000 0.0000 0.0000 0.0000 0.0000 0.0000 0.0000 0.0000 0.0000 0.0000 0.0000
0.0000 95.0000 0.0000 0.0000 0.0000 0.0000 0.0000 0.0000 0.0000 0.0000 0.0000 0.0000 0.0000 0.0000 0.0000 0.0000 0.0000 0.0000 0.0000 0.0000 0.0000 0.0000 0.0000 0.0000 -77.5361 5.5073 6.8547 -9.9442 -5.2606 9.1051 -165.9526 18.2596 168.8121 60.8542 -13.0975 -2.9560 13.1168 0.0000 0.0000 0.9276 0.0000 0.0000 -4.7288 0.1931 0.1459 9.0450 0.0000 0.0000 3.5640 0.0000 0.0000 4.9343 -0.1413 -1.4924 14.7050 0.0000 0.0000 4.9521 0.0000 0.0000 12.4844 -0.7420 -1.5209 14.3137 0.0000 0.0000 7.6907 0.0000 0.0000 19.7637 -1.4217 0.2836 11.1387 0.0000 0.0000 6.9972 0.0000 0.0000 0.0000 0.0000 0.0000 87.9288 -1.0922 1.1324 -3.6610 7.3251 7.0454 160.3111 20.7919 169.1484 -68.1955 -13.7799 -6.1183 11.8965 0.0000 0.0000 1.1779 0.0000 0.0000 -1.3687 -0.4962 -2.2318 11.4018 0.0000 0.0000 2.2548 0.0000 0.0000 -11.2127 -0.1814 2.9238 11.0844 0.0000 0.0000 6.3291 0.0000 0.0000 -17.0595 -0.9421 0.6551 16.9571 0.0000 0.0000 6.3079 0.0000 0.0000 -26.2754 -1.8684 -0.7475 11.8593 0.0000 0.0000 5.1564 0.0000 0.0000 0.0000 0.0000 0.0000 0.0000 0.0000 0.0000 0.0000 0.0000 0.0000 0.0000 0.0000 0.0000 0.0000 0.0000 0.0000 0.0000 0.0000 0.0000
0.0000 95.0000 0.0000 0.0000 0.0000 0.0000 0.0000 0.0000 0.0000 0.0000 0.0000 0.0000 0.0000 0.0000 0.0000 0.0000 0.0000 0.0000 0.0000 0.0000 0.0000 0.0000 0.0000 0.0000 -77.5268 5.5738 6.9384 -10.2543 -4.9460 8.7526 -166.3668 18.4791 168.9017 60.8542 -13.0975 -2.9560 13.1168 0.0000 0.0000 0.9276 0.0000 0.0000 -4.7288 0.1931 0.1459 9.0450 0.0000 0.0000 3.5640 0.0000 0.0000 4.9343 -0.1413 -1.4924 14.7050 0.0000 0.0000 4.9521 0.0000 0.0000 12.4844 -0.7420 -1.5209 14.3137 0.0000 0.0000 7.6907 0.0000 0.0000 19.7637 -1.4217 0.2836 11.1387 0.0000 0.0000 6.9972 0.0000 0.0000 0.0000 0.0000 0.0000 87.6268 -0.9555 0.9960 -2.6589 7.3536 7.2632 161.0355 20.8537 169.3748 -68.1955 -13.7799 -6.1183 11.8965 0.0000 0.0000 1.1779 0.0000 0.0000 -1.3687 -0.4962 -2.2318 11.4018 0.0000 0.0000 2.2548 0.0000 0.0000 -11.2127 -0.1814 2.9238 11.0844 0.0000 0.0000 6.3291 0.0000 0.0000 -17.0595 -0.9421 0.6551 16.9571 0.0000 0.0000 6.3079 0.0000 0.0000 -26.2754 -1.8684 -0.7475 11.8593 0.0000 0.0000 5.1564 0.0000 0.0000 0.0000 0.0000 0.0000 0.0000 0.0000 0.0000 0.0000 0.0000 0.0000 0.0000 0.0000 0.0000 0.0000 0.0000 0.0000 0.0000 0.0000 0.0000
0.0000 95.0000 0.0000 0.0000 0.0000 0.0000 0.0000 0.0000 0.0000 0.0000 0.0000 0.0000 0.0000 0.0000 0.0000 0.0000 0.0000 0.0000 0.0000 0.0000 0.0000 0.0000 0.0000 0.0000 -77.0037 4.0738 5.1199 -13.7102 -1.9289 4.5934 -170.4665 23.4528 172.4625 60.8542 -13.0975 -2.9560 13.1168 0.0000 0.0000 0.9276 0.0000 0.0000 -4.7288 0.1931 0.1459 9.0450 0.0000 0.0000 3.5640 0.0000 0.0000 4.9343 -0.1413 -1.4924 14.7050 0.0000 0.0000 4.9521 0.0000 0.0000 12.4844 -0.7420 -1.5209 14.3137 0.0000 0.0000 7.6907 0.0000 0.0000 19.7637 -1.4217 0.2836 11.1387 0.0000 0.0000 6.9972 0.0000 0.0000 0.0000 0.0000 0.0000 87.0859 -0.8800 0.9260 -1.1980 8.9400 9.1791 161.4026 22.4926 167.7161 -68.1955 -13.7799 -6.1183 11.8965 0.0000 0.0000 1.1779 0.0000 0.0000 -1.3687 -0.4962 -2.2318 11.4018 0.0000 0.0000 2.2548 0.0000 0.0000 -11.2127 -0.1814 2.9238 11.0844 0.0000 0.0000 6.3291 0.0000 0.0000 -17.0595 -0.9421 0.6551 16.9571 0.0000 0.0000 6.3079 0.0000 0.0000 -26.2754 -1.8684 -0.7475 11.8593 0.0000 0.0000 5.1564 0.0000 0.0000 0.0000 0.0000 0.0000 0.0000 0.0000 0.0000 0.0000 0.0000 0.0000 0.0000 0.0000 0.0000 0.0000 0.0000 0.0000 0.0000 0.0000 0.0000
0.0000 95.0000 0.0000 0.0000 0.0000 0.0000 0.0000 0.0000 0.0000 0.0000 0.0000 0.0000 0.0000 0.0000 0.0000 0.0000 0.0000 0.0000 0.0000 0.0000 0.0000 0.0000 0.0000 0.0000 -74.7681 3.0136 3.9432 -19.4715 1.7879 -1.6019 -174.9801 29.5778 176.3594 60.8542 -13.0975 -2.9560 13.1168 0.0000 0.0000 0.9276 0.0000 0.0000 -4.7288 0.1931 0.1459 9.0450 0.0000 0.0000 3.5640 0.0000 0.0000 4.9343 -0.1413 -1.4924 14.7050 0.0000 0.0000 4.9521 0.0000 0.0000 12.4844 -0.7420 -1.5209 14.3137 0.0000 0.0000 7.6907 0.0000 0.0000 19.7637 -1.4217 0.2836 11.1387 0.0000 0.0000 6.9972 0.0000 0.0000 0.0000 0.0000 0.0000 85.5803 -0.7776 0.8401 4.2785 11.5726 13.5040 164.1066 26.1295 165.0218 -68.1955 -13.7799 -6.1183 11.8965 0.0000 0.0000 1.1779 0.0000 0.0000 -1.3687 -0.4962 -2.2318 11.4018 0.0000 0.0000 2.2548 0.0000 0.0000 -11.2127 -0.1814 2.9238 11.0844 0.0000 0.0000 6.3291 0.0000 0.0000 -17.0595 -0.9421 0.6551 16.9571 0.0000 0.0000 6.3079 0.0000 0.0000 -26.2754 -1.8684 -0.7475 11.8593 0.0000 0.0000 5.1564 0.0000 0.0000 0.0000 0.0000 0.0000 0.0000 0.0000 0.0000 0.0000 0.0000 0.0000 0.0000 0.0000 0.0000 0.0000 0.0000 0.0000 0.0000 0.0000 0.0000
0.0000 95.0000 0.0000 0.0000 0.0000 0.0000 0.0000 0.0000 0.0000 0.0000 0.0000 0.0000 0.0000 0.0000 0.0000 0.0000 0.0000 0.0000 0.0000 0.0000 0.0000 0.0000 0.0000 0.0000 -71.8909 0.7032 0.9698 -24.8340 7.1013 -15.6109 -176.6152 61.0079 171.6152 55.2506 -14.6683 -18.5570 20.2662 0.0000 0.0000 12.3984 0.0000 0.0000 -15.8756 1.0949 -9.4285 38.2781 0.0000 0.0000 51.5462 0.0000 0.0000 -13.8968 0.6468 0.5315 21.0234 0.0000 0.0000 6.4943 0.0000 0.0000 -6.9977 0.7774 1.8579 18.8202 0.0000 0.0000 6.3471 0.0000 0.0000 0.4222 2.0324 6.7621 10.2837 0.0000 0.0000 0.7112 0.0000 0.0000 0.0000 0.0000 0.0000 84.0129 -2.7817 3.0885 10.4748 21.9737 29.3538 151.3129 76.9234 147.3148 -72.3202 -14.8982 21.9491 23.5750 0.0000 0.0000 6.0795 0.0000 0.0000 19.1558 0.7860 -5.3877 13.1190 0.0000 0.0000 10.4410 0.0000 0.0000 11.7350 0.7461 -2.4789 16.9595 0.0000 0.0000 11.3678 0.0000 0.0000 3.5900 0.7556 -3.1861 17.8865 0.0000 0.0000 8.0007 0.0000 0.0000 -6.8067 0.4114 -3.7939 12.4261 0.0000 0.0000 7.2998 0.0000 0.0000 0.0000 0.0000 0.0000 0.0000 0.0000 0.0000 0.0000 0.0000 0.0000 0.0000 0.0000 0.0000 0.0000 0.0000 0.0000 0.0000 0.0000 0.0000
0.0000 95.0000 0.0000 0.0000 0.0000 0.0000 0.0000 0.0000 0.0000 0.0000 0.0000 0.0000 0.0000 0.0000 0.0000 0.0000 0.0000 0.0000 0.0000 0.0000 0.0000 0.0000 0.0000 0.0000 -67.2854 -2.5314 -3.8031 -32.0272 8.9105 -31.0797 -190.1782 49.7376 111.9587 56.4267 -18.2928 -43.8726 33.7458 0.0000 0.0000 20.0095 0.0000 0.0000 -12.6734 3.4219 -40.2360 23.7998 0.0000 0.0000 6.6611 0.0000 0.0000 -29.9112 -11.8208 -47.1403 9.4738 0.0000 0.0000 3.1521 0.0000 0.0000 -46.5663 -17.4518 -33.3367 11.3657 0.0000 0.0000 0.4496 0.0000 0.0000 -46.0268 -17.5228 -26.0435 8.5354 0.0000 0.0000 0.2780 0.0000 0.0000 0.0000 0.0000 0.0000 81.8198 -5.9374 6.8499 18.4742 36.4724 55.7259 308.4460 52.5345 -21.5705 -77.4836 -13.9712 44.3377 42.4558 0.0000 0.0000 37.4076 0.0000 0.0000 19.5538 1.2900 45.5830 11.1544 0.0000 0.0000 19.4582 0.0000 0.0000 20.2222 -7.5871 45.5649 18.0988 0.0000 0.0000 26.4745 0.0000 0.0000 23.7513 -10.7804 33.2958 18.3168 0.0000 0.0000 16.3087 0.0000 0.0000 41.8330 0.1878 4.6397 8.7390 0.0000 0.0000 3.2040 0.0000 0.0000 0.0000 0.0000 0.0000 0.0000 0.0000 0.0000 0.0000 0.0000 0.0000 0.0000 0.0000 0.0000 0.0000 0.0000 0.0000 0.0000 0.0000 0.0000
0.0000 95.0000 0.0000 0.0000 0.0000 0.0000 0.0000 0.0000 0.0000 0.0000 0.0000 0.0000 0.0000 0.0000 0.0000 0.0000 0.0000 0.0000 0.0000 0.0000 0.0000 0.0000 0.0000 0.0000 -63.2484 -4.6212 -7.4979 -35.8525 13.6127 -58.7185 -269.0926 11.9777 80.7242 88.7600 -3.6744 -91.5148 38.5277 0.0000 0.0000 21.4963 0.0000 0.0000 -59.8703 -14.9107 -47.4944 5.4598 0.0000 0.0000 3.8663 0.0000 0.0000 -60.3197 -18.3714 -35.8747 14.1184 0.0000 0.0000 3.2877 0.0000 0.0000 -52.2607 -16.8000 -29.6820 15.2904 0.0000 0.0000 2.5473 0.0000 0.0000 -43.9988 -18.2530 -27.5969 12.3664 0.0000 0.0000 5.7432 0.0000 0.0000 0.0000 0.0000 0.0000 78.9649 -8.7567 10.6196 25.8496 52.3615 84.6015 354.4908 49.9160 14.2574 -68.0986 -15.1977 27.3649 29.6680 0.0000 0.0000 26.8979 0.0000 0.0000 12.1904 3.1409 34.7588 44.9178 0.0000 0.0000 25.0690 0.0000 0.0000 3.2397 -0.8033 32.6167 37.2296 0.0000 0.0000 31.5942 0.0000 0.0000 6.8913 -5.7454 30.0169 25.7849 0.0000 0.0000 20.6699 0.0000 0.0000 36.3494 -5.3719 12.1724 7.7634 0.0000 0.0000 6.2172 0.0000 0.0000 0.0000 0.0000 0.0000 0.0000 0.0000 0.0000 0.0000 0.0000 0.0000 0.0000 0.0000 0.0000 0.0000 0.0000 0.0000 0.0000 0.0000 0.0000
0.0000 95.0000 0.0000 0.0000 0.0000 0.0000 0.0000 0.0000 0.0000 0.0000 0.0000 0.0000 0.0000 0.0000 0.0000 0.0000 0.0000 0.0000 0.0000 0.0000 0.0000 0.0000 0.0000 0.0000 -60.8775 -5.4693 -9.2943 -33.5484 27.0431 -89.7679 -256.6236 26.3482 60.2872 58.1380 -14.9431 -20.4401 42.2383 0.0000 0.0000 20.6538 0.0000 0.0000 -21.9876 -0.1887 -80.8198 10.4751 0.0000 0.0000 12.3222 0.0000 0.0000 -31.0314 -27.8672 -88.3436 26.7047 0.0000 0.0000 10.9759 0.0000 0.0000 -56.9283 -42.3258 -60.8258 30.6118 0.0000 0.0000 9.1230 0.0000 0.0000 -77.1035 -33.8667 -30.1387 27.4243 0.0000 0.0000 11.2290 0.0000 0.0000 0.0000 0.0000 0.0000 75.6150 -11.0983 14.2746 35.8886 67.3862 112.2692 352.5728 21.2111 28.0755 -48.8213 -13.9185 15.3489 33.9375 0.0000 0.0000 26.1299 0.0000 0.0000 24.8670 0.3195 20.8103 31.3925 0.0000 0.0000 8.3159 0.0000 0.0000 6.7968 -0.7312 17.0387 29.5895 0.0000 0.0000 13.1846 0.0000 0.0000 20.8520 -2.5554 11.3275 11.1021 0.0000 0.0000 10.3974 0.0000 0.0000 53.2699 -0.5062 5.9891 6.5488 0.0000 0.0000 6.0594 0.0000 0.0000 0.0000 0.0000 0.0000 0.0000 0.0000 0.0000 0.0000 0.0000 0.0000 0.0000 0.0000 0.0000 0.0000 0.0000 0.0000 0.0000 0.0000 0.0000
0.0000 95.0000 0.0000 0.0000 0.0000 0.0000 0.0000 0.0000 0.0000 0.0000 0.0000 0.0000 0.0000 0.0000 0.0000 0.0000 0.0000 0.0000 0.0000 0.0000 0.0000 0.0000 0.0000 0.0000 -59.1241 -7.0434 -12.3851 -32.3243 49.2141 -117.1292 -361.1705 36.6357 36.2943 78.5117 -13.8734 -41.8650 28.8619 0.0000 0.0000 10.7472 0.0000 0.0000 6.2177 4.0715 -18.2476 16.4872 0.0000 0.0000 14.7446 0.0000 0.0000 -6.5290 -0.4879 -13.3098 23.2946 0.0000 0.0000 10.5484 0.0000 0.0000 -15.3868 -0.6309 -5.4057 24.5448 0.0000 0.0000 9.6410 0.0000 0.0000 -21.1996 2.1357 0.7321 23.9976 0.0000 0.0000 10.7950 0.0000 0.0000 0.0000 0.0000 0.0000 72.1993 -13.2326 18.0762 56.8169 80.2358 144.3414 331.3969 11.5693 -0.5539 -47.8470 -15.6324 23.4385 26.8631 0.0000 0.0000 17.7974 0.0000 0.0000 26.7014 -1.2966 44.6660 34.6721 0.0000 0.0000 6.5327 0.0000 0.0000 5.4470 -1.0085 25.7365 45.6374 0.0000 0.0000 8.5877 0.0000 0.0000 21.1049 -5.0247 18.6193 41.1552 0.0000 0.0000 4.6361 0.0000 0.0000 66.6712 -16.5496 19.8059 20.2079 0.0000 0.0000 4.2677 0.0000 0.0000 0.0000 0.0000 0.0000 0.0000 0.0000 0.0000 0.0000 0.0000 0.0000 0.0000 0.0000 0.0000 0.0000 0.0000 0.0000 0.0000 0.0000 0.0000
0.0000 95.0000 0.0000 0.0000 0.0000 0.0000 0.0000 0.0000 0.0000 0.0000 0.0000 0.0000 0.0000 0.0000 0.0000 0.0000 0.0000 0.0000 0.0000 0.0000 0.0000 0.0000 0.0000 0.0000 -57.6593 -7.7427 -14.0178 -35.7590 60.4614 -131.6185 -410.8275 31.4518 12.5724 73.1309 -14.8824 -37.5852 18.4842 0.0000 0.0000 6.0140 0.0000 0.0000 14.2543 -8.8185 25.3048 15.0409 0.0000 0.0000 21.3013 0.0000 0.0000 9.0506 -1.8080 17.7778 27.6632 0.0000 0.0000 7.5117 0.0000 0.0000 13.8426 -0.3558 21.6196 44.1015 0.0000 0.0000 9.5681 0.0000 0.0000 5.1079 4.0514 16.8149 42.0930 0.0000 0.0000 16.5821 0.0000 0.0000 0.0000 0.0000 0.0000 69.5204 -14.0687 20.1640 110.7398 85.4184 203.4688 328.7172 5.4779 -9.8132 -52.9326 -15.0191 20.7628 13.4835 0.0000 0.0000 21.2773 0.0000 0.0000 23.2091 -0.1486 48.9207 36.0559 0.0000 0.0000 11.3433 0.0000 0.0000 12.1247 -2.9286 31.8378 48.3762 0.0000 0.0000 9.9592 0.0000 0.0000 41.1696 -13.3283 28.9927 34.9136 0.0000 0.0000 4.2768 0.0000 0.0000 71.4089 -30.0091 29.4202 17.4881 0.0000 0.0000 2.7612 0.0000 0.0000 0.0000 0.0000 0.0000 0.0000 0.0000 0.0000 0.0000 0.0000 0.0000 0.0000 0.0000 0.0000 0.0000 0.0000 0.0000 0.0000 0.0000 0.0000
0.0000 95.0000 0.0000 0.0000 0.0000 0.0000 0.0000 0.0000 0.0000 0.0000 0.0000 0.0000 0.0000 0.0000 0.0000 0.0000 0.0000 0.0000 0.0000 0.0000 0.0000 0.0000 0.0000 0.0000 -56.7393 -8.5327 -15.7306 -45.3773 65.5454 -147.7545 -402.8959 15.7758 16.6032 75.2654 -14.4041 -45.9928 32.0964 0.0000 0.0000 4.9974 0.0000 0.0000 36.1032 -8.6420 12.5632 46.3258 0.0000 0.0000 7.9070 0.0000 0.0000 60.0658 -22.5926 33.3505 69.5449 0.0000 0.0000 18.7989 0.0000 0.0000 54.2808 -15.9548 35.4576 45.8448 0.0000 0.0000 14.8727 0.0000 0.0000 -13.5669 5.5870 10.0539 45.6350 0.0000 0.0000 90.0000 0.0000 0.0000 0.0000 0.0000 0.0000 66.8981 -14.8050 22.2527 175.9363 83.1151 271.7255 336.9260 3.2739 -24.6889 -60.4915 -15.1443 22.4101 16.9340 0.0000 0.0000 35.0944 0.0000 0.0000 19.2848 1.3877 45.4495 44.6932 0.0000 0.0000 14.3196 0.0000 0.0000 6.3620 -1.0091 22.7807 59.4237 0.0000 0.0000 13.9272 0.0000 0.0000 36.5978 -12.6485 29.9131 35.4967 0.0000 0.0000 4.1014 0.0000 0.0000 86.0806 -26.9942 22.4648 19.7219 0.0000 0.0000 6.2713 0.0000 0.0000 0.0000 0.0000 0.0000 0.0000 0.0000 0.0000 0.0000 0.0000 0.0000 0.0000 0.0000 0.0000 0.0000 0.0000 0.0000 0.0000 0.0000 0.0000
0.0000 95.0000 0.0000 0.0000 0.0000 0.0000 0.0000 0.0000 0.0000 0.0000 0.0000 0.0000 0.0000 0.0000 0.0000 0.0000 0.0000 0.0000 0.0000 0.0000 0.0000 0.0000 0.0000 0.0000 -55.9256 -9.1454 -17.1347 -52.2878 67.8730 -157.7749 -355.4300 17.0556 29.5450 61.7577 -15.5469 -26.8731 38.9377 0.0000 0.0000 13.9144 0.0000 0.0000 -19.1808 1.0373 -15.1125 46.8237 0.0000 0.0000 9.2942 0.0000 0.0000 1.1362 0.1162 -16.4553 59.9537 0.0000 0.0000 28.2019 0.0000 0.0000 -5.0042 -3.5884 -20.8293 43.3505 0.0000 0.0000 37.5491 0.0000 0.0000 -57.0225 -14.5536 -19.9774 48.0080 0.0000 0.0000 90.0000 0.0000 0.0000 0.0000 0.0000 0.0000 65.2208 -15.1493 23.4834 196.0714 78.9153 293.4998 320.3124 12.4971 -40.4625 -52.6802 -11.2241 -0.6397 10.9487 0.0000 0.0000 41.7538 0.0000 0.0000 10.3832 3.8253 36.8731 57.1417 0.0000 0.0000 17.8541 0.0000 0.0000 11.0489 -0.7685 12.7047 81.1802 0.0000 0.0000 13.1304 0.0000 0.0000 8.7022 0.6116 -0.5240 78.3245 0.0000 0.0000 14.7373 0.0000 0.0000 24.2455 4.0828 -3.6565 49.9000 0.0000 0.0000 12.7400 0.0000 0.0000 0.0000 0.0000 0.0000 0.0000 0.0000 0.0000 0.0000 0.0000 0.0000 0.0000 0.0000 0.0000 0.0000 0.0000 0.0000 0.0000 0.0000 0.0000
0.0000 95.0000 0.0000 0.0000 0.0000 0.0000 0.0000 0.0000 0.0000 0.0000 0.0000 0.0000 0.0000 0.0000 0.0000 0.0000 0.0000 0.0000 0.0000 0.0000 0.0000 0.0000 0.0000 0.0000 -54.5901 -9.7219 -18.7169 -59.2513 70.9076 -167.4820 -413.9771 14.5718 17.3429 77.2775 -13.9383 -46.3924 27.3246 0.0000 0.0000 4.6239 0.0000 0.0000 9.4363 2.3957 -10.5623 29.1083 0.0000 0.0000 6.4209 0.0000 0.0000 38.6275 -0.6869 -2.8122 62.7989 0.0000 0.0000 21.6912 0.0000 0.0000 28.5579 -1.9976 3.7179 76.2552 0.0000 0.0000 18.2757 0.0000 0.0000 -4.5395 -1.3128 -4.7491 54.7181 0.0000 0.0000 16.9258 0.0000 0.0000 0.0000 0.0000 0.0000 64.2181 -15.6054 24.6366 201.9707 75.7436 299.9404 332.4758 -4.8039 -17.8837 -55.3942 -12.2055 2.4406 8.3657 0.0000 0.0000 33.8646 0.0000 0.0000 14.2686 -0.3118 -16.9742 91.3871 0.0000 0.0000 19.0575 0.0000 0.0000 4.0769 1.1859 -27.6544 94.4499 0.0000 0.0000 19.1434 0.0000 0.0000 22.8491 13.3247 -32.5681 63.3453 0.0000 0.0000 7.7170 0.0000 0.0000 96.9745 4.3873 4.9227 10.1526 0.0000 0.0000 28.9369 0.0000 0.0000 0.0000 0.0000 0.0000 0.0000 0.0000 0.0000 0.0000 0.0000 0.0000 0.0000 0.0000 0.0000 0.0000 0.0000 0.0000 0.0000 0.0000 0.0000
0.0000 95.0000 0.0000 0.0000 0.0000 0.0000 0.0000 0.0000 0.0000 0.0000 0.0000 0.0000 0.0000 0.0000 0.0000 0.0000 0.0000 0.0000 0.0000 0.0000 0.0000 0.0000 0.0000 0.0000 -53.3984 -9.9729 -19.6839 -66.4407 76.2519 -176.2611 -385.4267 20.6816 30.4850 82.1638 -14.2751 -27.9336 33.9350 0.0000 0.0000 12.3074 0.0000 0.0000 7.4689 5.3454 -22.6650 57.8461 0.0000 0.0000 16.5732 0.0000 0.0000 -13.2835 0.2178 -2.9015 20.4604 0.0000 0.0000 21.5402 0.0000 0.0000 -30.2739 4.2332 5.6247 15.6494 0.0000 0.0000 4.3030 0.0000 0.0000 -35.0370 7.6079 6.5116 29.1464 0.0000 0.0000 7.6734 0.0000 0.0000 0.0000 0.0000 0.0000 64.0935 -16.2571 25.7052 204.1432 74.5991 301.2602 339.7123 -4.6154 -23.7389 -60.8537 -14.5612 16.8662 22.8223 0.0000 0.0000 36.9517 0.0000 0.0000 14.7770 2.5183 35.9700 57.7289 0.0000 0.0000 14.3348 0.0000 0.0000 6.8860 -0.8316 18.5287 62.8267 0.0000 0.0000 11.5806 0.0000 0.0000 42.9939 -9.8695 22.1566 36.9857 0.0000 0.0000 10.5876 0.0000 0.0000 95.3518 -26.4060 19.6086 9.2760 0.0000 0.0000 7.0957 0.0000 0.0000 0.0000 0.0000 0.0000 0.0000 0.0000 0.0000 0.0000 0.0000 0.0000 0.0000 0.0000 0.0000 0.0000 0.0000 0.0000 0.0000 0.0000 0.0000
0.0000 95.0000 0.0000 0.0000 0.0000 0.0000 0.0000 0.0000 0.0000 0.0000 0.0000 0.0000 0.0000 0.0000 0.0000 0.0000 0.0000 0.0000 0.0000 0.0000 0.0000 0.0000 0.0000 0.0000 -52.3927 -10.3099 -20.7816 -72.1390 82.3400 -181.2472 -390.7668 9.8204 24.5963 87.0708 -13.3470 -32.8844 40.2606 0.0000 0.0000 7.1156 0.0000 0.0000 31.9465 0.4361 -4.0684 81.1570 0.0000 0.0000 16.4722 0.0000 0.0000 42.3911 -13.0945 28.2020 22.9619 0.0000 0.0000 37.6618 0.0000 0.0000 27.7127 -6.3123 43.2293 7.1498 0.0000 0.0000 4.9989 0.0000 0.0000 -17.3309 18.8245 34.3780 18.7902 0.0000 0.0000 10.8591 0.0000 0.0000 0.0000 0.0000 0.0000 63.9974 -16.8673 26.6976 203.1783 74.9439 299.3106 338.7850 -4.0126 -16.4182 -58.8473 -15.4657 24.7881 17.1133 0.0000 0.0000 27.5018 0.0000 0.0000 15.4737 4.3540 73.0824 26.7947 0.0000 0.0000 8.9456 0.0000 0.0000 9.2142 -5.5410 66.7439 26.8958 0.0000 0.0000 5.6434 0.0000 0.0000 39.7544 -36.1614 68.6099 12.8505 0.0000 0.0000 11.8615 0.0000 0.0000 67.4491 -49.9229 48.3021 11.6333 0.0000 0.0000 4.8471 0.0000 0.0000 0.0000 0.0000 0.0000 0.0000 0.0000 0.0000 0.0000 0.0000 0.0000 0.0000 0.0000 0.0000 0.0000 0.0000 0.0000 0.0000 0.0000 0.0000
0.0000 95.0000 0.0000 0.0000 0.0000 0.0000 0.0000 0.0000 0.0000 0.0000 0.0000 0.0000 0.0000 0.0000 0.0000 0.0000 0.0000 0.0000 0.0000 0.0000 0.0000 0.0000 0.0000 0.0000 -51.4411 -10.2042 -21.0011 -101.4773 86.6901 -211.1899 -366.4816 7.0654 42.1585 70.9642 -14.9581 -24.0118 37.9331 0.0000 0.0000 7.4003 0.0000 0.0000 6.0647 5.0287 -22.3062 78.9093 0.0000 0.0000 10.2821 0.0000 0.0000 15.4015 -3.2088 18.6339 11.1563 0.0000 0.0000 12.7847 0.0000 0.0000 6.6281 1.8902 26.6879 13.3264 0.0000 0.0000 7.4569 0.0000 0.0000 -27.5768 20.9845 30.0598 20.9377 0.0000 0.0000 24.5685 0.0000 0.0000 0.0000 0.0000 0.0000 64.4243 -16.8456 26.4520 199.8873 77.3703 295.2398 346.7940 -16.8874 7.5837 -54.0402 -15.2171 22.0294 25.1360 0.0000 0.0000 10.3265 0.0000 0.0000 23.1728 0.0876 40.2927 29.8844 0.0000 0.0000 4.5752 0.0000 0.0000 17.0881 -3.4769 27.6140 24.7690 0.0000 0.0000 5.4653 0.0000 0.0000 29.6371 -4.7795 15.5641 30.6632 0.0000 0.0000 7.8268 0.0000 0.0000 62.1777 -9.7448 14.5991 20.4433 0.0000 0.0000 7.4565 0.0000 0.0000 0.0000 0.0000 0.0000 0.0000 0.0000 0.0000 0.0000 0.0000 0.0000 0.0000 0.0000 0.0000 0.0000 0.0000 0.0000 0.0000 0.0000 0.0000
0.0000 95.0000 0.0000 0.0000 0.0000 0.0000 0.0000 0.0000 0.0000 0.0000 0.0000 0.0000 0.0000 0.0000 0.0000 0.0000 0.0000 0.0000 0.0000 0.0000 0.0000 0.0000 0.0000 0.0000 -51.1258 -9.9339 -20.5956 -102.4378 88.1613 -211.9323 -388.6133 7.0558 26.8524 88.2691 -13.1261 -33.5455 51.9607 0.0000 0.0000 8.1142 0.0000 0.0000 25.5232 5.1014 -14.8669 76.0057 0.0000 0.0000 10.8514 0.0000 0.0000 36.7191 -11.9693 30.2891 4.4349 0.0000 0.0000 8.6950 0.0000 0.0000 23.2427 -4.3105 44.1386 15.8375 0.0000 0.0000 6.5972 0.0000 0.0000 -25.1223 23.6658 36.0755 34.4489 0.0000 0.0000 23.9413 0.0000 0.0000 0.0000 0.0000 0.0000 64.1633 -17.2164 27.1535 198.4378 77.8580 293.2132 341.5850 -13.7408 3.8176 -53.8436 -14.4890 17.5715 21.0977 0.0000 0.0000 23.2754 0.0000 0.0000 24.4601 -0.4646 44.0707 28.4048 0.0000 0.0000 4.4172 0.0000 0.0000 25.2484 -6.3898 32.7611 24.7136 0.0000 0.0000 7.1647 0.0000 0.0000 46.8548 -10.6547 22.2690 28.4188 0.0000 0.0000 6.5291 0.0000 0.0000 63.3557 -19.2642 22.9357 17.8233 0.0000 0.0000 5.3155 0.0000 0.0000 0.0000 0.0000 0.0000 0.0000 0.0000 0.0000 0.0000 0.0000 0.0000 0.0000 0.0000 0.0000 0.0000 0.0000 0.0000 0.0000 0.0000 0.0000
0.0000 95.0000 0.0000 0.0000 0.0000 0.0000 0.0000 0.0000 0.0000 0.0000 0.0000 0.0000 0.0000 0.0000 0.0000 0.0000 0.0000 0.0000 0.0000 0.0000 0.0000 0.0000 0.0000 0.0000 -50.4987 -9.9553 -20.9263 -61.5816 87.5196 -170.5643 -375.8740 14.5801 29.6349 80.4945 -14.6041 -24.4847 46.3158 0.0000 0.0000 18.6111 0.0000 0.0000 15.9092 3.4164 -12.6235 80.2690 0.0000 0.0000 16.4047 0.0000 0.0000 17.5648 -4.1761 21.7852 47.8861 0.0000 0.0000 44.8492 0.0000 0.0000 0.3163 4.7651 33.1364 19.0147 0.0000 0.0000 5.7089 0.0000 0.0000 -30.3262 17.9517 23.6931 16.2026 0.0000 0.0000 4.8613 0.0000 0.0000 0.0000 0.0000 0.0000 63.8493 -17.5360 27.8086 199.7293 76.7669 294.4555 340.4294 -7.9314 -12.4093 -57.3612 -15.4090 23.9056 15.9503 0.0000 0.0000 14.5713 0.0000 0.0000 19.7946 1.3702 65.9196 21.5131 0.0000 0.0000 8.1126 0.0000 0.0000 19.2264 -10.6142 62.2565 15.7487 0.0000 0.0000 7.8656 0.0000 0.0000 36.0583 -27.4714 58.1373 17.9199 0.0000 0.0000 6.9595 0.0000 0.0000 59.8185 -40.8934 44.6839 14.8443 0.0000 0.0000 1.2048 0.0000 0.0000 0.0000 0.0000 0.0000 0.0000 0.0000 0.0000 0.0000 0.0000 0.0000 0.0000 0.0000 0.0000 0.0000 0.0000 0.0000 0.0000 0.0000 0.0000
0.0000 95.0000 0.0000 0.0000 0.0000 0.0000 0.0000 0.0000 0.0000 0.0000 0.0000 0.0000 0.0000 0.0000 0.0000 0.0000 0.0000 0.0000 0.0000 0.0000 0.0000 0.0000 0.0000 0.0000 -50.6310 -10.0715 -21.1047 -47.1647 82.2657 -155.0130 -433.8164 9.1923 -10.3424 89.6004 -10.9338 -47.4212 20.2027 0.0000 0.0000 0.5320 0.0000 0.0000 -8.7201 1.3386 -9.1210 2.2262 0.0000 0.0000 6.1121 0.0000 0.0000 -10.3994 -1.2487 -18.4288 15.5958 0.0000 0.0000 10.3292 0.0000 0.0000 -5.7983 -1.7945 -11.0295 35.8869 0.0000 0.0000 11.9100 0.0000 0.0000 -11.2802 -2.9237 -9.1427 39.4948 0.0000 0.0000 12.9424 0.0000 0.0000 0.0000 0.0000 0.0000 63.8063 -17.2284 27.3540 205.9857 75.2176 301.0643 333.4969 -0.6704 -27.2857 -57.4184 -13.7218 11.2901 16.9952 0.0000 0.0000 43.2869 0.0000 0.0000 13.0345 3.8628 47.7463 41.5646 0.0000 0.0000 13.7856 0.0000 0.0000 4.1214 -0.0806 7.0106 80.3919 0.0000 0.0000 7.5786 0.0000 0.0000 14.1742 -3.2027 14.9006 66.9799 0.0000 0.0000 9.7788 0.0000 0.0000 37.8402 -10.0239 18.4967 78.1381 0.0000 0.0000 3.4092 0.0000 0.0000 0.0000 0.0000 0.0000 0.0000 0.0000 0.0000 0.0000 0.0000 0.0000 0.0000 0.0000 0.0000 0.0000 0.0000 0.0000 0.0000 0.0000 0.0000
0.0000 95.0000 0.0000 0.0000 0.0000 0.0000 0.0000 0.0000 0.0000 0.0000 0.0000 0.0000 0.0000 0.0000 0.0000 0.0000 0.0000 0.0000 0.0000 0.0000 0.0000 0.0000 0.0000 0.0000 -50.9492 -10.0938 -21.0029 -46.6491 78.7400 -153.9238 -433.9901 0.1478 -20.3919 89.3650 -13.6859 -28.6332 9.9722 0.0000 0.0000 3.2064 0.0000 0.0000 -12.8991 -1.4701 29.4561 11.4456 0.0000 0.0000 26.2620 0.0000 0.0000 12.4426 -3.6794 28.0629 21.6028 0.0000 0.0000 53.8103 0.0000 0.0000 19.5463 -1.6838 18.8405 39.1409 0.0000 0.0000 90.0000 0.0000 0.0000 -4.4322 -2.3928 -7.8355 32.1731 0.0000 0.0000 14.2067 0.0000 0.0000 0.0000 0.0000 0.0000 63.6904 -17.1468 27.2864 213.1144 74.3059 307.5847 349.6534 -14.7017 -15.9483 -64.6799 -14.5602 15.4300 20.5094 0.0000 0.0000 27.3215 0.0000 0.0000 1.1483 -1.4926 -8.9589 79.0956 0.0000 0.0000 16.4920 0.0000 0.0000 -10.2550 -2.8883 -26.6138 90.5395 0.0000 0.0000 14.7752 0.0000 0.0000 9.4023 7.9374 -31.4644 78.9976 0.0000 0.0000 9.7645 0.0000 0.0000 77.9083 16.7472 -4.9152 19.0978 0.0000 0.0000 1.9783 0.0000 0.0000 0.0000 0.0000 0.0000 0.0000 0.0000 0.0000 0.0000 0.0000 0.0000 0.0000 0.0000 0.0000 0.0000 0.0000 0.0000 0.0000 0.0000 0.0000
0.0000 95.0000 0.0000 0.0000 0.0000 0.0000 0.0000 0.0000 0.0000 0.0000 0.0000 0.0000 0.0000 0.0000 0.0000 0.0000 0.0000 0.0000 0.0000 0.0000 0.0000 0.0000 0.0000 0.0000 -50.9917 -10.3780 -21.5635 -54.1027 77.7461 -162.1585 -399.6376 16.4492 26.3237 75.2202 -14.2909 -52.4716 30.9108 0.0000 0.0000 9.1228 0.0000 0.0000 -15.8000 2.0101 -30.8974 21.8817 0.0000 0.0000 7.9990 0.0000 0.0000 -12.1454 -3.4457 -36.3462 26.2228 0.0000 0.0000 1.2412 0.0000 0.0000 -11.2494 -5.2329 -24.1331 41.4980 0.0000 0.0000 16.8780 0.0000 0.0000 -29.3424 -5.6645 -13.2345 42.1307 0.0000 0.0000 18.9784 0.0000 0.0000 0.0000 0.0000 0.0000 63.5310 -17.2032 27.4561 220.0493 74.6033 313.2295 330.0458 -14.5879 -12.4857 -51.6604 -12.6154 7.6961 15.8443 0.0000 0.0000 42.1239 0.0000 0.0000 15.4678 0.4030 -6.4156 87.2459 0.0000 0.0000 15.8917 0.0000 0.0000 3.6412 0.9828 -25.4289 96.6595 0.0000 0.0000 11.3097 0.0000 0.0000 22.8009 13.2672 -32.4695 88.5919 0.0000 0.0000 7.8242 0.0000 0.0000 97.7861 15.5420 -0.0147 17.9097 0.0000 0.0000 3.8578 0.0000 0.0000 0.0000 0.0000 0.0000 0.0000 0.0000 0.0000 0.0000 0.0000 0.0000 0.0000 0.0000 0.0000 0.0000 0.0000 0.0000 0.0000 0.0000 0.0000
0.0000 95.0000 0.0000 0.0000 0.0000 0.0000 0.0000 0.0000 0.0000 0.0000 0.0000 0.0000 0.0000 0.0000 0.0000 0.0000 0.0000 0.0000 0.0000 0.0000 0.0000 0.0000 0.0000 0.0000 -50.5074 -10.4541 -21.9513 -56.3224 81.6171 -164.6177 -385.6744 13.4526 29.1814 84.2584 -13.8360 -31.0474 34.9255 0.0000 0.0000 6.6461 0.0000 0.0000 23.2375 1.7318 -7.0711 77.3502 0.0000 0.0000 11.4697 0.0000 0.0000 31.8756 -7.2733 20.3227 17.1770 0.0000 0.0000 31.2955 0.0000 0.0000 17.2385 -1.3493 34.0232 9.2237 0.0000 0.0000 4.5283 0.0000 0.0000 -22.4889 15.5683 24.6670 22.3258 0.0000 0.0000 10.7021 0.0000 0.0000 0.0000 0.0000 0.0000 63.3598 -17.3682 27.8023 216.4910 75.4728 309.8041 332.9113 -3.3380 -19.6235 -55.9549 -15.9237 27.1148 20.4712 0.0000 0.0000 14.5891 0.0000 0.0000 20.2368 1.2275 91.4881 9.3940 0.0000 0.0000 5.8614 0.0000 0.0000 17.7910 -15.9913 88.5840 4.7546 0.0000 0.0000 2.7900 0.0000 0.0000 27.1239 -36.0785 84.1231 15.3160 0.0000 0.0000 12.0049 0.0000 0.0000 52.1348 -54.4390 64.1463 15.9369 0.0000 0.0000 5.2563 0.0000 0.0000 0.0000 0.0000 0.0000 0.0000 0.0000 0.0000 0.0000 0.0000 0.0000 0.0000 0.0000 0.0000 0.0000 0.0000 0.0000 0.0000 0.0000 0.0000
0.0000 95.0000 0.0000 0.0000 0.0000 0.0000 0.0000 0.0000 0.0000 0.0000 0.0000 0.0000 0.0000 0.0000 0.0000 0.0000 0.0000 0.0000 0.0000 0.0000 0.0000 0.0000 0.0000 0.0000 -49.9007 -10.2869 -21.8993 -58.8309 85.4650 -167.6386 -369.2428 11.8785 42.8600 76.5113 -14.7814 -23.5965 35.4072 0.0000 0.0000 26.8490 0.0000 0.0000 14.9398 4.5175 -16.2650 82.8945 0.0000 0.0000 16.1404 0.0000 0.0000 12.5474 -1.7286 10.8557 35.8570 0.0000 0.0000 46.8201 0.0000 0.0000 -7.5349 5.6572 24.3736 28.5036 0.0000 0.0000 9.6932 0.0000 0.0000 -41.1524 18.8965 19.2982 27.6501 0.0000 0.0000 11.9176 0.0000 0.0000 0.0000 0.0000 0.0000 63.3634 -17.5895 28.1461 212.7258 76.9146 305.7864 347.7055 -11.0733 2.4692 -55.1564 -15.9434 26.9228 21.3658 0.0000 0.0000 16.3018 0.0000 0.0000 22.4481 0.1252 50.6401 26.7187 0.0000 0.0000 4.2283 0.0000 0.0000 17.7640 -5.3621 38.1334 31.5051 0.0000 0.0000 8.8679 0.0000 0.0000 35.5824 -11.7913 28.7089 30.6353 0.0000 0.0000 3.0018 0.0000 0.0000 60.9350 -22.0047 26.1338 16.7286 0.0000 0.0000 2.8938 0.0000 0.0000 0.0000 0.0000 0.0000 0.0000 0.0000 0.0000 0.0000 0.0000 0.0000 0.0000 0.0000 0.0000 0.0000 0.0000 0.0000 0.0000 0.0000 0.0000
0.0000 95.0000 0.0000 0.0000 0.0000 0.0000 0.0000 0.0000 0.0000 0.0000 0.0000 0.0000 0.0000 0.0000 0.0000 0.0000 0.0000 0.0000 0.0000 0.0000 0.0000 0.0000 0.0000 0.0000 -49.5615 -10.1003 -21.6730 -103.9201 89.6688 -212.9113 -368.5927 3.8737 39.9191 72.4767 -14.8905 -20.9881 39.6541 0.0000 0.0000 10.4274 0.0000 0.0000 8.4631 6.1337 -25.0212 80.6414 0.0000 0.0000 10.2304 0.0000 0.0000 14.3444 -2.4405 14.4429 15.3721 0.0000 0.0000 18.6837 0.0000 0.0000 3.5573 2.7643 26.3148 16.0658 0.0000 0.0000 8.0054 0.0000 0.0000 -29.7393 21.8342 29.8422 23.2559 0.0000 0.0000 25.5482 0.0000 0.0000 0.0000 0.0000 0.0000 63.7008 -17.5670 27.9339 204.3100 77.6372 298.1060 359.1693 -19.6235 7.8772 -55.9524 -16.1716 28.8148 28.1532 0.0000 0.0000 4.4338 0.0000 0.0000 19.1491 1.3456 38.7812 20.6550 0.0000 0.0000 4.3281 0.0000 0.0000 12.8479 -2.4133 25.9640 23.1199 0.0000 0.0000 3.5944 0.0000 0.0000 20.3651 -3.3151 13.7086 29.8098 0.0000 0.0000 6.1526 0.0000 0.0000 53.2610 -3.5219 9.1523 20.1943 0.0000 0.0000 6.9772 0.0000 0.0000 0.0000 0.0000 0.0000 0.0000 0.0000 0.0000 0.0000 0.0000 0.0000 0.0000 0.0000 0.0000 0.0000 0.0000 0.0000 0.0000 0.0000 0.0000
0.0000 95.0000 0.0000 0.0000 0.0000 0.0000 0.0000 0.0000 0.0000 0.0000 0.0000 0.0000 0.0000 0.0000 0.0000 0.0000 0.0000 0.0000 0.0000 0.0000 0.0000 0.0000 0.0000 0.0000 -49.3447 -10.1015 -21.7811 -251.8106 88.2480 -360.1306 -369.5896 5.6396 33.9771 72.1417 -14.8872 -20.2437 40.6689 0.0000 0.0000 16.7558 0.0000 0.0000 10.4499 5.2607 -20.6215 77.9640 0.0000 0.0000 11.4874 0.0000 0.0000 13.0980 -1.9367 11.9792 30.1869 0.0000 0.0000 28.1992 0.0000 0.0000 -0.8296 3.9720 25.7054 18.6124 0.0000 0.0000 7.2203 0.0000 0.0000 -31.3371 19.7757 25.7828 16.0289 0.0000 0.0000 18.6149 0.0000 0.0000 0.0000 0.0000 0.0000 64.0309 -17.4653 27.6052 197.3850 77.8246 291.9305 359.3114 -24.7366 10.6016 -55.2747 -15.8847 26.5819 30.0437 0.0000 0.0000 4.2289 0.0000 0.0000 26.6538 -0.8817 37.9102 17.1607 0.0000 0.0000 4.4214 0.0000 0.0000 17.0526 -3.2406 26.1420 14.7733 0.0000 0.0000 3.5913 0.0000 0.0000 21.0869 -2.2711 10.4465 23.8058 0.0000 0.0000 7.8181 0.0000 0.0000 50.7629 0.1814 5.1446 15.2208 0.0000 0.0000 8.2874 0.0000 0.0000 0.0000 0.0000 0.0000 0.0000 0.0000 0.0000 0.0000 0.0000 0.0000 0.0000 0.0000 0.0000 0.0000 0.0000 0.0000 0.0000 0.0000 0.0000
0.0000 95.0000 0.0000 0.0000 0.0000 0.0000 0.0000 0.0000 0.0000 0.0000 0.0000 0.0000 0.0000 0.0000 0.0000 0.0000 0.0000 0.0000 0.0000 0.0000 0.0000 0.0000 0.0000 0.0000 -49.2068 -10.0274 -21.6915 -330.6723 87.6815 -437.8617 -393.2126 9.1020 14.2137 84.4753 -13.3592 -35.6996 37.7650 0.0000 0.0000 9.3960 0.0000 0.0000 15.1693 4.7132 -16.7910 49.2916 0.0000 0.0000 3.7742 0.0000 0.0000 10.2671 -1.5118 11.9373 15.9949 0.0000 0.0000 21.8549 0.0000 0.0000 4.4399 2.8877 29.7870 20.9224 0.0000 0.0000 24.8374 0.0000 0.0000 -22.9810 13.7682 21.2383 27.1040 0.0000 0.0000 22.1050 0.0000 0.0000 0.0000 0.0000 0.0000 63.9110 -17.6186 27.9042 203.0151 78.6775 296.3548 335.9764 -9.5856 -10.1417 -53.3820 -14.9035 20.0927 16.1468 0.0000 0.0000 5.9266 0.0000 0.0000 30.9850 -4.8970 63.2367 13.6577 0.0000 0.0000 5.1188 0.0000 0.0000 27.8887 -12.6092 52.7463 17.4655 0.0000 0.0000 7.3999 0.0000 0.0000 37.6096 -18.6464 40.7795 26.2843 0.0000 0.0000 4.5015 0.0000 0.0000 62.6644 -30.9071 33.7429 19.7136 0.0000 0.0000 2.5581 0.0000 0.0000 0.0000 0.0000 0.0000 0.0000 0.0000 0.0000 0.0000 0.0000 0.0000 0.0000 0.0000 0.0000 0.0000 0.0000 0.0000 0.0000 0.0000 0.0000
0.0000 95.0000 0.0000 0.0000 0.0000 0.0000 0.0000 0.0000 0.0000 0.0000 0.0000 0.0000 0.0000 0.0000 0.0000 0.0000 0.0000 0.0000 0.0000 0.0000 0.0000 0.0000 0.0000 0.0000 -49.6905 -9.9475 -21.2895 -368.1041 86.3349 -475.0386 -422.5993 3.5704 -3.3304 92.9199 -10.7407 -43.9657 29.8039 0.0000 0.0000 1.9341 0.0000 0.0000 12.4249 -9.9695 30.5791 37.0730 0.0000 0.0000 1.3331 0.0000 0.0000 -7.8350 1.9283 22.8424 23.7637 0.0000 0.0000 33.6272 0.0000 0.0000 -3.9161 3.9263 20.6164 23.3982 0.0000 0.0000 58.3129 0.0000 0.0000 -19.4395 2.4794 1.7459 29.0623 0.0000 0.0000 13.9431 0.0000 0.0000 0.0000 0.0000 0.0000 64.3631 -17.2149 27.0501 205.4665 78.1427 299.2475 364.4951 -9.6580 -5.8746 -71.7908 -15.0365 33.5019 19.7283 0.0000 0.0000 7.5455 0.0000 0.0000 9.8643 5.1999 48.6006 24.4278 0.0000 0.0000 2.9786 0.0000 0.0000 -2.7683 0.5686 27.9828 42.3900 0.0000 0.0000 4.7818 0.0000 0.0000 7.3901 -3.0237 16.6221 50.9755 0.0000 0.0000 6.6060 0.0000 0.0000 43.4639 -12.7768 20.9343 33.3380 0.0000 0.0000 3.3038 0.0000 0.0000 0.0000 0.0000 0.0000 0.0000 0.0000 0.0000 0.0000 0.0000 0.0000 0.0000 0.0000 0.0000 0.0000 0.0000 0.0000 0.0000 0.0000 0.0000
0.0000 95.0000 0.0000 0.0000 0.0000 0.0000 0.0000 0.0000 0.0000 0.0000 0.0000 0.0000 0.0000 0.0000 0.0000 0.0000 0.0000 0.0000 0.0000 0.0000 0.0000 0.0000 0.0000 0.0000 -50.3182 -10.1409 -21.3949 -381.4253 84.9026 -487.5801 -411.0273 11.8842 3.5119 89.6777 -11.4222 -44.0487 25.7511 0.0000 0.0000 4.4590 0.0000 0.0000 12.2219 -7.5738 23.2450 55.0823 0.0000 0.0000 12.7109 0.0000 0.0000 -6.1107 1.1738 16.9564 28.2594 0.0000 0.0000 34.5878 0.0000 0.0000 -11.7260 2.4701 7.2296 25.9213 0.0000 0.0000 61.0021 0.0000 0.0000 -25.8930 3.3018 1.9315 34.2717 0.0000 0.0000 11.3718 0.0000 0.0000 0.0000 0.0000 0.0000 64.4884 -17.0548 26.7415 211.3704 77.0843 305.0331 339.4154 -14.3099 -7.8299 -57.1644 -14.7178 18.7482 20.9428 0.0000 0.0000 21.1956 0.0000 0.0000 16.4578 1.5358 22.2089 59.9763 0.0000 0.0000 8.7290 0.0000 0.0000 9.3682 0.1189 3.3214 78.5566 0.0000 0.0000 4.8978 0.0000 0.0000 36.6420 2.7941 -1.1125 67.5032 0.0000 0.0000 8.1816 0.0000 0.0000 91.1549 -12.0847 13.0620 20.0958 0.0000 0.0000 7.7530 0.0000 0.0000 0.0000 0.0000 0.0000 0.0000 0.0000 0.0000 0.0000 0.0000 0.0000 0.0000 0.0000 0.0000 0.0000 0.0000 0.0000 0.0000 0.0000 0.0000
0.0000 95.0000 0.0000 0.0000 0.0000 0.0000 0.0000 0.0000 0.0000 0.0000 0.0000 0.0000 0.0000 0.0000 0.0000 0.0000 0.0000 0.0000 0.0000 0.0000 0.0000 0.0000 0.0000 0.0000 -50.8080 -10.2580 -21.4048 -385.4276 84.1174 -491.0222 -391.8525 7.4525 22.5986 85.6372 -13.6297 -31.7457 36.2223 0.0000 0.0000 15.8609 0.0000 0.0000 27.9812 8.4712 -21.7190 57.0862 0.0000 0.0000 14.2699 0.0000 0.0000 19.3179 -1.9689 6.7588 19.7727 0.0000 0.0000 26.2760 0.0000 0.0000 6.1209 2.2153 28.5297 4.9529 0.0000 0.0000 28.4808 0.0000 0.0000 -5.7080 11.8573 30.1384 45.2278 0.0000 0.0000 1.1859 0.0000 0.0000 0.0000 0.0000 0.0000 64.5995 -16.7642 26.2409 217.6022 76.5363 310.9921 352.9846 -12.6769 -11.5300 -64.0184 -15.3092 25.5023 17.7034 0.0000 0.0000 13.0308 0.0000 0.0000 16.1344 1.5542 21.4375 56.6930 0.0000 0.0000 9.7906 0.0000 0.0000 8.6975 0.0388 4.2622 73.1438 0.0000 0.0000 9.5004 0.0000 0.0000 28.9529 -0.0675 4.3385 64.2108 0.0000 0.0000 3.6862 0.0000 0.0000 70.6691 -9.6263 13.5905 23.3464 0.0000 0.0000 7.4080 0.0000 0.0000 0.0000 0.0000 0.0000 0.0000 0.0000 0.0000 0.0000 0.0000 0.0000 0.0000 0.0000 0.0000 0.0000 0.0000 0.0000 0.0000 0.0000 0.0000
0.0000 95.0000 0.0000 0.0000 0.0000 0.0000 0.0000 0.0000 0.0000 0.0000 0.0000 0.0000 0.0000 0.0000 0.0000 0.0000 0.0000 0.0000 0.0000 0.0000 0.0000 0.0000 0.0000 0.0000 -51.3810 -10.3659 -21.3562 -385.9570 84.7723 -491.2810 -404.9647 7.1349 5.7380 86.0488 -13.2905 -34.4074 24.4577 0.0000 0.0000 11.8257 0.0000 0.0000 22.4118 -7.6488 16.4726 41.1751 0.0000 0.0000 13.0532 0.0000 0.0000 23.1017 -8.7842 36.4219 11.2202 0.0000 0.0000 20.5951 0.0000 0.0000 6.1770 2.8685 35.5034 24.4695 0.0000 0.0000 22.8700 0.0000 0.0000 -5.7843 12.7877 32.3586 31.3344 0.0000 0.0000 10.7815 0.0000 0.0000 0.0000 0.0000 0.0000 64.6216 -16.6768 26.0962 221.4743 76.3010 314.4768 351.3430 -12.7378 -7.0984 -63.0078 -15.4410 26.4913 16.3536 0.0000 0.0000 4.7269 0.0000 0.0000 13.0686 2.7731 32.8408 44.0690 0.0000 0.0000 10.0062 0.0000 0.0000 3.8180 -0.3020 13.8146 62.7028 0.0000 0.0000 8.0289 0.0000 0.0000 32.1903 -1.5369 7.7741 59.1963 0.0000 0.0000 4.4238 0.0000 0.0000 75.6731 -6.3395 10.7777 25.2077 0.0000 0.0000 7.1486 0.0000 0.0000 0.0000 0.0000 0.0000 0.0000 0.0000 0.0000 0.0000 0.0000 0.0000 0.0000 0.0000 0.0000 0.0000 0.0000 0.0000 0.0000 0.0000 0.0000
0.0000 95.0000 0.0000 0.0000 0.0000 0.0000 0.0000 0.0000 0.0000 0.0000 0.0000 0.0000 0.0000 0.0000 0.0000 0.0000 0.0000 0.0000 0.0000 0.0000 0.0000 0.0000 0.0000 0.0000 -51.8810 -10.4203 -21.2340 -386.3395 86.0549 -491.7697 -373.9275 9.0134 29.7269 80.7784 -14.4563 -26.5917 37.5996 0.0000 0.0000 10.5710 0.0000 0.0000 22.1303 3.4459 -11.5112 78.8397 0.0000 0.0000 12.8966 0.0000 0.0000 17.4134 -3.3524 16.8641 36.9559 0.0000 0.0000 4.0977 0.0000 0.0000 6.7704 1.8061 26.2114 16.1988 0.0000 0.0000 14.1484 0.0000 0.0000 -29.7477 15.8155 20.7887 26.3737 0.0000 0.0000 26.5879 0.0000 0.0000 0.0000 0.0000 0.0000 64.8767 -16.6209 25.8870 222.0182 75.8433 315.0480 370.7920 -10.4979 -4.6047 -76.2868 -14.4154 37.3730 18.1010 0.0000 0.0000 10.2052 0.0000 0.0000 16.3235 2.5790 47.8396 18.0460 0.0000 0.0000 4.8961 0.0000 0.0000 4.0644 -0.5889 21.2530 46.1007 0.0000 0.0000 1.6416 0.0000 0.0000 10.1062 -2.8681 14.8546 55.4662 0.0000 0.0000 7.3796 0.0000 0.0000 44.4486 -9.8900 17.1610 32.2128 0.0000 0.0000 12.5930 0.0000 0.0000 0.0000 0.0000 0.0000 0.0000 0.0000 0.0000 0.0000 0.0000 0.0000 0.0000 0.0000 0.0000 0.0000 0.0000 0.0000 0.0000 0.0000 0.0000
0.0000 95.0000 0.0000 0.0000 0.0000 0.0000 0.0000 0.0000 0.0000 0.0000 0.0000 0.0000 0.0000 0.0000 0.0000 0.0000 0.0000 0.0000 0.0000 0.0000 0.0000 0.0000 0.0000 0.0000 -52.1880 -10.6049 -21.4606 -383.1752 87.7115 -488.5916 -355.4894 0.7918 32.3872 63.3728 -15.5099 -27.5706 36.9543 0.0000 0.0000 26.6563 0.0000 0.0000 0.0930 2.5940 -14.2338 84.4542 0.0000 0.0000 12.4442 0.0000 0.0000 -0.0280 0.0084 28.7363 100.6815 0.0000 0.0000 12.7764 0.0000 0.0000 -22.2554 14.6577 36.5832 72.7912 0.0000 0.0000 16.2537 0.0000 0.0000 -81.2815 1.5287 -5.5147 29.9338 0.0000 0.0000 42.6136 0.0000 0.0000 0.0000 0.0000 0.0000 65.8633 -16.6052 25.3936 221.8226 74.8298 314.8118 370.5290 -19.6860 -2.1598 -75.3340 -14.4906 40.7884 24.1380 0.0000 0.0000 9.1629 0.0000 0.0000 4.3527 7.0972 46.5947 17.5880 0.0000 0.0000 6.1742 0.0000 0.0000 -3.9927 0.8398 28.5183 33.5197 0.0000 0.0000 6.4986 0.0000 0.0000 -4.3599 -2.1792 18.9522 46.8968 0.0000 0.0000 5.7092 0.0000 0.0000 43.6061 -9.4443 16.7422 46.7682 0.0000 0.0000 14.3460 0.0000 0.0000 0.0000 0.0000 0.0000 0.0000 0.0000 0.0000 0.0000 0.0000 0.0000 0.0000 0.0000 0.0000 0.0000 0.0000 0.0000 0.0000 0.0000 0.0000
0.0000 95.0000 0.0000 0.0000 0.0000 0.0000 0.0000 0.0000 0.0000 0.0000 0.0000 0.0000 0.0000 0.0000 0.0000 0.0000 0.0000 0.0000 0.0000 0.0000 0.0000 0.0000 0.0000 0.0000 -52.8917 -10.8145 -21.5492 -356.1600 89.5416 -461.4015 -354.2416 -8.9717 34.9417 61.7718 -14.5158 -16.1395 29.2812 0.0000 0.0000 9.3719 0.0000 0.0000 -7.4219 6.9587 -54.3054 49.0126 0.0000 0.0000 6.1184 0.0000 0.0000 11.6525 2.6513 -30.3272 55.0444 0.0000 0.0000 16.0598 0.0000 0.0000 11.0779 -0.8391 -5.1620 56.1121 0.0000 0.0000 15.3472 0.0000 0.0000 -64.8492 4.5666 -2.0329 55.9298 0.0000 0.0000 32.7884 0.0000 0.0000 0.0000 0.0000 0.0000 67.3103 -16.5487 24.6431 219.9521 74.2295 312.9796 339.7847 -31.8416 13.4593 -57.2743 -14.9480 20.4517 21.0550 0.0000 0.0000 4.9958 0.0000 0.0000 16.8342 1.7668 30.7313 24.1954 0.0000 0.0000 10.1678 0.0000 0.0000 12.9576 -2.3952 25.6331 26.0984 0.0000 0.0000 3.9587 0.0000 0.0000 11.4632 -5.2710 24.1441 24.6711 0.0000 0.0000 11.1386 0.0000 0.0000 30.5994 -13.6436 25.7209 31.1675 0.0000 0.0000 15.0728 0.0000 0.0000 0.0000 0.0000 0.0000 0.0000 0.0000 0.0000 0.0000 0.0000 0.0000 0.0000 0.0000 0.0000 0.0000 0.0000 0.0000 0.0000 0.0000 0.0000
0.0000 95.0000 0.0000 0.0000 0.0000 0.0000 0.0000 0.0000 0.0000 0.0000 0.0000 0.0000 0.0000 0.0000 0.0000 0.0000 0.0000 0.0000 0.0000 0.0000 0.0000 0.0000 0.0000 0.0000 -53.3839 -10.8644 -21.4209 -288.6196 89.1993 -393.2730 -352.4751 -17.7456 32.1985 54.9590 -14.4766 -17.3410 22.0514 0.0000 0.0000 12.6049 0.0000 0.0000 -16.2502 2.5972 -47.5983 41.2917 0.0000 0.0000 8.1998 0.0000 0.0000 4.6577 1.3043 -36.0456 49.6873 0.0000 0.0000 14.9800 0.0000 0.0000 10.3480 -1.6925 -22.5417 57.9923 0.0000 0.0000 17.5308 0.0000 0.0000 0.4834 -7.2427 -23.8442 53.0922 0.0000 0.0000 6.5547 0.0000 0.0000 0.0000 0.0000 0.0000 68.9084 -16.4667 23.8178 218.3511 73.7325 311.3176 339.5918 -34.9135 12.3601 -60.4546 -14.6873 18.1398 14.5091 0.0000 0.0000 3.2208 0.0000 0.0000 25.3951 -0.4673 36.9876 12.0760 0.0000 0.0000 10.4813 0.0000 0.0000 16.6160 -4.5689 35.3311 15.0863 0.0000 0.0000 1.9171 0.0000 0.0000 12.0699 -8.7691 37.1848 18.0779 0.0000 0.0000 14.9217 0.0000 0.0000 9.4577 -13.9844 36.5704 21.0922 0.0000 0.0000 20.2004 0.0000 0.0000 0.0000 0.0000 0.0000 0.0000 0.0000 0.0000 0.0000 0.0000 0.0000 0.0000 0.0000 0.0000 0.0000 0.0000 0.0000 0.0000 0.0000 0.0000
0.0000 95.0000 0.0000 0.0000 0.0000 0.0000 0.0000 0.0000 0.0000 0.0000 0.0000 0.0000 0.0000 0.0000 0.0000 0.0000 0.0000 0.0000 0.0000 0.0000 0.0000 0.0000 0.0000 0.0000 -54.8601 -10.4550 -19.9946 -307.3561 89.3511 -411.9870 -316.6904 -31.4743 12.4219 38.7375 -9.4828 -2.2650 6.2123 0.0000 0.0000 6.6016 0.0000 0.0000 -40.1257 -9.5113 -60.7710 52.3083 0.0000 0.0000 19.2651 0.0000 0.0000 -22.7054 -11.3870 -57.5867 45.6018 0.0000 0.0000 19.3332 0.0000 0.0000 -18.3963 -15.2299 -50.6656 39.2704 0.0000 0.0000 9.6784 0.0000 0.0000 -12.8443 -19.6367 -46.7113 26.3878 0.0000 0.0000 5.9425 0.0000 0.0000 0.0000 0.0000 0.0000 71.1329 -15.6645 21.7785 218.2382 74.8858 311.0940 329.5774 -35.5766 13.8907 -57.7726 -13.6619 10.6326 15.0214 0.0000 0.0000 13.9730 0.0000 0.0000 27.2034 -1.4694 44.5349 36.9815 0.0000 0.0000 90.0000 0.0000 0.0000 13.9188 -5.4153 47.1280 31.2391 0.0000 0.0000 90.0000 0.0000 0.0000 3.8310 -8.7800 49.4655 49.5892 0.0000 0.0000 62.3802 0.0000 0.0000 -12.7305 -10.4769 49.0390 42.5562 0.0000 0.0000 44.1167 0.0000 0.0000 0.0000 0.0000 0.0000 0.0000 0.0000 0.0000 0.0000 0.0000 0.0000 0.0000 0.0000 0.0000 0.0000 0.0000 0.0000 0.0000 0.0000 0.0000
0.0000 95.0000 0.0000 0.0000 0.0000 0.0000 0.0000 0.0000 0.0000 0.0000 0.0000 0.0000 0.0000 0.0000 0.0000 0.0000 0.0000 0.0000 0.0000 0.0000 0.0000 0.0000 0.0000 0.0000 -56.0136 -10.2728 -19.1853 -373.3230 87.1699 -476.4967 -313.6983 -29.2837 6.7597 39.9195 -10.0467 -3.4781 2.1500 0.0000 0.0000 3.6214 0.0000 0.0000 -37.3037 -7.1584 -56.2579 71.8869 0.0000 0.0000 29.5031 0.0000 0.0000 -24.6384 -12.7478 -58.9523 65.6429 0.0000 0.0000 29.3300 0.0000 0.0000 -19.0368 -16.5568 -53.5411 57.1863 0.0000 0.0000 25.8329 0.0000 0.0000 -11.2685 -19.1432 -47.0130 29.9423 0.0000 0.0000 6.0242 0.0000 0.0000 0.0000 0.0000 0.0000 72.9623 -15.2679 20.5476 224.4312 76.9206 315.3682 348.2135 -41.2167 15.0449 -76.3903 -14.7124 26.2209 21.0693 0.0000 0.0000 5.2255 0.0000 0.0000 6.0331 6.1202 44.3030 39.7843 0.0000 0.0000 86.2771 0.0000 0.0000 -9.3776 3.4890 45.5155 53.4272 0.0000 0.0000 57.5209 0.0000 0.0000 -23.1050 1.7735 47.2774 53.8216 0.0000 0.0000 33.6738 0.0000 0.0000 -41.3990 0.0961 46.3399 40.2383 0.0000 0.0000 25.1379 0.0000 0.0000 0.0000 0.0000 0.0000 0.0000 0.0000 0.0000 0.0000 0.0000 0.0000 0.0000 0.0000 0.0000 0.0000 0.0000 0.0000 0.0000 0.0000 0.0000
0.0000 95.0000 0.0000 0.0000 0.0000 0.0000 0.0000 0.0000 0.0000 0.0000 0.0000 0.0000 0.0000 0.0000 0.0000 0.0000 0.0000 0.0000 0.0000 0.0000 0.0000 0.0000 0.0000 0.0000 -57.3891 -10.1939 -18.5103 -377.1826 82.5545 -477.0856 -322.7187 -22.0142 13.1974 49.0576 -12.6233 -9.0880 4.9445 0.0000 0.0000 0.2517 0.0000 0.0000 -54.3423 -24.6721 -78.4423 48.0122 0.0000 0.0000 35.7007 0.0000 0.0000 -43.7080 -32.0792 -76.0397 62.8761 0.0000 0.0000 40.3174 0.0000 0.0000 -45.0541 -37.5078 -65.1950 68.8739 0.0000 0.0000 58.0189 0.0000 0.0000 -54.7867 -43.6724 -50.6996 60.5614 0.0000 0.0000 86.3750 0.0000 0.0000 0.0000 0.0000 0.0000 74.3534 -14.7355 19.3515 247.3169 81.1087 334.4062 303.9238 -18.5374 74.9285 -61.6185 -11.9056 -9.7573 27.0292 0.0000 0.0000 17.3590 0.0000 0.0000 -20.8828 -3.4660 -6.4997 110.0000 0.0000 0.0000 31.3930 0.0000 0.0000 -33.3527 -2.7391 -4.3542 110.0000 0.0000 0.0000 48.0441 0.0000 0.0000 -44.5720 -3.6347 -4.4290 88.3472 0.0000 0.0000 69.2230 0.0000 0.0000 -54.7941 -4.4739 -2.9090 75.9882 0.0000 0.0000 73.8511 0.0000 0.0000 0.0000 0.0000 0.0000 0.0000 0.0000 0.0000 0.0000 0.0000 0.0000 0.0000 0.0000 0.0000 0.0000 0.0000 0.0000 0.0000 0.0000 0.0000
0.0000 95.0000 0.0000 0.0000 0.0000 0.0000 0.0000 0.0000 0.0000 0.0000 0.0000 0.0000 0.0000 0.0000 0.0000 0.0000 0.0000 0.0000 0.0000 0.0000 0.0000 0.0000 0.0000 0.0000 -58.3545 -9.9850 -17.7839 -378.3016 74.3920 -472.8822 -329.6265 -10.3259 24.0764 59.1624 -15.0511 -21.3877 3.7426 0.0000 0.0000 11.5904 0.0000 0.0000 -32.7596 -8.9744 -82.9984 41.5368 0.0000 0.0000 27.6726 0.0000 0.0000 -28.9187 -24.0314 -83.8457 54.0983 0.0000 0.0000 22.0736 0.0000 0.0000 -32.0100 -30.6058 -68.1241 59.3751 0.0000 0.0000 17.1781 0.0000 0.0000 -29.9272 -31.6543 -53.8163 64.1060 0.0000 0.0000 17.7962 0.0000 0.0000 0.0000 0.0000 0.0000 75.8280 -13.9616 17.8684 306.4332 81.3406 387.6880 340.9347 -13.6138 67.9274 -77.7632 -15.7527 -1.9041 53.1300 0.0000 0.0000 24.4724 0.0000 0.0000 -28.0973 -3.8304 -5.4257 95.2907 0.0000 0.0000 61.5384 0.0000 0.0000 -41.2111 -2.4175 -1.6521 75.8924 0.0000 0.0000 83.7619 0.0000 0.0000 -54.9416 -3.3913 -0.7464 62.4046 0.0000 0.0000 85.3448 0.0000 0.0000 -68.7175 -4.3661 1.9507 55.8344 0.0000 0.0000 78.3557 0.0000 0.0000 0.0000 0.0000 0.0000 0.0000 0.0000 0.0000 0.0000 0.0000 0.0000 0.0000 0.0000 0.0000 0.0000 0.0000 0.0000 0.0000 0.0000 0.0000
0.0000 95.0000 0.0000 0.0000 0.0000 0.0000 0.0000 0.0000 0.0000 0.0000 0.0000 0.0000 0.0000 0.0000 0.0000 0.0000 0.0000 0.0000 0.0000 0.0000 0.0000 0.0000 0.0000 0.0000 -58.8434 -9.7770 -17.2467 -377.4919 52.7440 -454.5800 -386.0017 6.3572 23.7855 77.3620 -13.5672 -55.4540 52.5086 0.0000 0.0000 31.8190 0.0000 0.0000 -35.1925 -3.6452 -39.5022 21.5243 0.0000 0.0000 43.7592 0.0000 0.0000 -23.0716 -9.5770 -49.4016 48.9556 0.0000 0.0000 80.3038 0.0000 0.0000 -17.2915 -14.9079 -51.1340 74.1760 0.0000 0.0000 58.6401 0.0000 0.0000 -12.7794 -20.2055 -47.9766 71.1664 0.0000 0.0000 53.9450 0.0000 0.0000 0.0000 0.0000 0.0000 76.3322 -12.7494 16.1802 351.8103 66.9042 420.5498 428.3100 2.7536 5.3536 -56.0541 -15.1672 21.9309 32.6158 0.0000 0.0000 7.5397 0.0000 0.0000 -14.5649 10.9228 36.0036 103.9228 0.0000 0.0000 31.5114 0.0000 0.0000 -30.4014 14.3882 54.6074 90.1004 0.0000 0.0000 42.4932 0.0000 0.0000 -40.5927 12.7408 63.6797 87.0822 0.0000 0.0000 38.7777 0.0000 0.0000 -52.6080 10.3772 76.9022 72.5854 0.0000 0.0000 34.9348 0.0000 0.0000 0.0000 0.0000 0.0000 0.0000 0.0000 0.0000 0.0000 0.0000 0.0000 0.0000 0.0000 0.0000 0.0000 0.0000 0.0000 0.0000 0.0000 0.0000
0.0000 95.0000 0.0000 0.0000 0.0000 0.0000 0.0000 0.0000 0.0000 0.0000 0.0000 0.0000 0.0000 0.0000 0.0000 0.0000 0.0000 0.0000 0.0000 0.0000 0.0000 0.0000 0.0000 0.0000 -59.6493 -8.6827 -15.0869 -383.1169 30.7243 -437.1963 -391.4368 36.5853 9.0595 50.6135 -14.5477 -18.2297 34.4121 0.0000 0.0000 5.5353 0.0000 0.0000 -25.2703 0.5524 -13.8556 29.5495 0.0000 0.0000 75.4761 0.0000 0.0000 -12.6963 -1.6955 -19.9244 71.1447 0.0000 0.0000 68.4193 0.0000 0.0000 -4.8682 -3.8717 -22.4392 95.9436 0.0000 0.0000 45.9703 0.0000 0.0000 4.6221 -5.9610 -21.3379 83.1814 0.0000 0.0000 51.3059 0.0000 0.0000 0.0000 0.0000 0.0000 78.4312 -9.0864 11.1232 362.8296 51.3292 418.5013 413.0057 24.4524 -6.6912 -43.4156 -12.7445 11.6840 18.9710 0.0000 0.0000 6.1626 0.0000 0.0000 -1.4340 7.4602 37.8508 110.0000 0.0000 0.0000 26.5622 0.0000 0.0000 -15.2283 7.4906 56.9524 102.0488 0.0000 0.0000 34.1407 0.0000 0.0000 -24.2591 3.6803 64.0587 100.0359 0.0000 0.0000 32.8062 0.0000 0.0000 -36.3776 -0.9507 73.7528 87.0108 0.0000 0.0000 30.5782 0.0000 0.0000 0.0000 0.0000 0.0000 0.0000 0.0000 0.0000 0.0000 0.0000 0.0000 0.0000 0.0000 0.0000 0.0000 0.0000 0.0000 0.0000 0.0000 0.0000
0.0000 95.0000 0.0000 0.0000 0.0000 0.0000 0.0000 0.0000 0.0000 0.0000 0.0000 0.0000 0.0000 0.0000 0.0000 0.0000 0.0000 0.0000 0.0000 0.0000 0.0000 0.0000 0.0000 0.0000 -61.5597 -7.0201 -11.7591 -389.0993 15.1838 -415.3425 -420.7622 70.9497 -20.7722 51.9172 -11.7440 -2.8626 18.9681 0.0000 0.0000 3.1582 0.0000 0.0000 -2.4791 1.7114 -10.0404 21.2604 0.0000 0.0000 51.4475 0.0000 0.0000 8.0515 0.5933 -13.1876 33.3041 0.0000 0.0000 45.1234 0.0000 0.0000 16.1750 -0.8762 -13.9443 43.7416 0.0000 0.0000 43.9330 0.0000 0.0000 25.3453 -2.8364 -12.9339 34.5471 0.0000 0.0000 36.6535 0.0000 0.0000 0.0000 0.0000 0.0000 79.8946 -5.9694 7.1246 366.2231 35.4587 404.9252 448.7033 61.2036 51.8712 -48.7495 -10.5119 -0.5547 11.9431 0.0000 0.0000 4.4947 0.0000 0.0000 -1.1615 0.8809 4.8618 10.2508 0.0000 0.0000 3.3488 0.0000 0.0000 -11.8493 0.3550 8.1919 8.6066 0.0000 0.0000 6.0288 0.0000 0.0000 -21.0387 -0.8997 6.0787 10.0826 0.0000 0.0000 2.8690 0.0000 0.0000 -30.1337 -2.2979 3.1302 7.5388 0.0000 0.0000 3.0163 0.0000 0.0000 0.0000 0.0000 0.0000 0.0000 0.0000 0.0000 0.0000 0.0000 0.0000 0.0000 0.0000 0.0000 0.0000 0.0000 0.0000 0.0000 0.0000 0.0000
0.0000 95.0000 0.0000 0.0000 0.0000 0.0000 0.0000 0.0000 0.0000 0.0000 0.0000 0.0000 0.0000 0.0000 0.0000 0.0000 0.0000 0.0000 0.0000 0.0000 0.0000 0.0000 0.0000 0.0000 -65.5313 -3.7041 -5.7523 -393.8388 5.5548 -385.9979 -328.3630 74.4643 50.7241 43.8527 -10.9274 -4.5270 15.8037 0.0000 0.0000 2.6451 0.0000 0.0000 -5.9203 1.7430 -11.4764 9.7378 0.0000 0.0000 4.1726 0.0000 0.0000 4.0840 0.2917 -12.9397 13.2321 0.0000 0.0000 2.7998 0.0000 0.0000 11.8262 -1.0953 -12.0058 14.4383 0.0000 0.0000 4.3459 0.0000 0.0000 19.3420 -2.6433 -9.4268 12.7840 0.0000 0.0000 5.9214 0.0000 0.0000 0.0000 0.0000 0.0000 81.3156 -3.9370 4.5834 366.3163 21.6119 387.9328 491.7022 74.1856 107.7053 -48.7495 -10.5119 -0.5547 11.9431 0.0000 0.0000 4.4947 0.0000 0.0000 -1.1615 0.8809 4.8618 10.2508 0.0000 0.0000 3.3488 0.0000 0.0000 -11.8493 0.3550 8.1919 8.6066 0.0000 0.0000 6.0288 0.0000 0.0000 -21.0387 -0.8997 6.0787 10.0826 0.0000 0.0000 2.8690 0.0000 0.0000 -30.1337 -2.2979 3.1302 7.5388 0.0000 0.0000 3.0163 0.0000 0.0000 0.0000 0.0000 0.0000 0.0000 0.0000 0.0000 0.0000 0.0000 0.0000 0.0000 0.0000 0.0000 0.0000 0.0000 0.0000 0.0000 0.0000 0.0000
0.0000 95.0000 0.0000 0.0000 0.0000 0.0000 0.0000 0.0000 0.0000 0.0000 0.0000 0.0000 0.0000 0.0000 0.0000 0.0000 0.0000 0.0000 0.0000 0.0000 0.0000 0.0000 0.0000 0.0000 -68.8897 -0.7267 -1.0595 -390.9732 2.7802 -369.1225 -254.3684 77.2831 108.6404 43.8527 -10.9274 -4.5270 15.8037 0.0000 0.0000 2.6451 0.0000 0.0000 -5.9203 1.7430 -11.4764 9.7378 0.0000 0.0000 4.1726 0.0000 0.0000 4.0840 0.2917 -12.9397 13.2321 0.0000 0.0000 2.7998 0.0000 0.0000 11.8262 -1.0953 -12.0058 14.4383 0.0000 0.0000 4.3459 0.0000 0.0000 19.3420 -2.6433 -9.4268 12.7840 0.0000 0.0000 5.9214 0.0000 0.0000 0.0000 0.0000 0.0000 82.8357 -2.6256 2.9761 364.0255 17.0099 380.6552 514.6423 71.3976 137.1106 -48.7495 -10.5119 -0.5547 11.9431 0.0000 0.0000 4.4947 0.0000 0.0000 -1.1615 0.8809 4.8618 10.2508 0.0000 0.0000 3.3488 0.0000 0.0000 -11.8493 0.3550 8.1919 8.6066 0.0000 0.0000 6.0288 0.0000 0.0000 -21.0387 -0.8997 6.0787 10.0826 0.0000 0.0000 2.8690 0.0000 0.0000 -30.1337 -2.2979 3.1302 7.5388 0.0000 0.0000 3.0163 0.0000 0.0000 0.0000 0.0000 0.0000 0.0000 0.0000 0.0000 0.0000 0.0000 0.0000 0.0000 0.0000 0.0000 0.0000 0.0000 0.0000 0.0000 0.0000 0.0000
0.0000 95.0000 0.0000 0.0000 0.0000 0.0000 0.0000 0.0000 0.0000 0.0000 0.0000 0.0000 0.0000 0.0000 0.0000 0.0000 0.0000 0.0000 0.0000 0.0000 0.0000 0.0000 0.0000 0.0000 -71.2221 1.9769 2.7599 -386.9637 -0.4677 -356.7539 -211.2004 70.7191 139.0691 43.8527 -10.9274 -4.5270 15.8037 0.0000 0.0000 2.6451 0.0000 0.0000 -5.9203 1.7430 -11.4764 9.7378 0.0000 0.0000 4.1726 0.0000 0.0000 4.0840 0.2917 -12.9397 13.2321 0.0000 0.0000 2.7998 0.0000 0.0000 11.8262 -1.0953 -12.0058 14.4383 0.0000 0.0000 4.3459 0.0000 0.0000 19.3420 -2.6433 -9.4268 12.7840 0.0000 0.0000 5.9214 0.0000 0.0000 0.0000 0.0000 0.0000 83.9162 -1.4622 1.6263 362.5794 13.0936 375.2344 525.9352 67.1676 153.7133 -48.7495 -10.5119 -0.5547 11.9431 0.0000 0.0000 4.4947 0.0000 0.0000 -1.1615 0.8809 4.8618 10.2508 0.0000 0.0000 3.3488 0.0000 0.0000 -11.8493 0.3550 8.1919 8.6066 0.0000 0.0000 6.0288 0.0000 0.0000 -21.0387 -0.8997 6.0787 10.0826 0.0000 0.0000 2.8690 0.0000 0.0000 -30.1337 -2.2979 3.1302 7.5388 0.0000 0.0000 3.0163 0.0000 0.0000 0.0000 0.0000 0.0000 0.0000 0.0000 0.0000 0.0000 0.0000 0.0000 0.0000 0.0000 0.0000 0.0000 0.0000 0.0000 0.0000 0.0000 0.0000
0.0000 95.0000 0.0000 0.0000 0.0000 0.0000 0.0000 0.0000 0.0000 0.0000 0.0000 0.0000 0.0000 0.0000 0.0000 0.0000 0.0000 0.0000 0.0000 0.0000 0.0000 0.0000 0.0000 0.0000 -73.1048 3.7619 5.0727 -382.4759 -2.2523 -352.4145 -195.9389 67.4994 148.5209 43.8527 -10.9274 -4.5270 15.8037 0.0000 0.0000 2.6451 0.0000 0.0000 -5.9203 1.7430 -11.4764 9.7378 0.0000 0.0000 4.1726 0.0000 0.0000 4.0840 0.2917 -12.9397 13.2321 0.0000 0.0000 2.7998 0.0000 0.0000 11.8262 -1.0953 -12.0058 14.4383 0.0000 0.0000 4.3459 0.0000 0.0000 19.3420 -2.6433 -9.4268 12.7840 0.0000 0.0000 5.9214 0.0000 0.0000 0.0000 0.0000 0.0000 84.5067 -0.6624 0.7292 361.6215 10.8918 372.3301 529.4367 64.2396 160.4222 -48.7495 -10.5119 -0.5547 11.9431 0.0000 0.0000 4.4947 0.0000 0.0000 -1.1615 0.8809 4.8618 10.2508 0.0000 0.0000 3.3488 0.0000 0.0000 -11.8493 0.3550 8.1919 8.6066 0.0000 0.0000 6.0288 0.0000 0.0000 -21.0387 -0.8997 6.0787 10.0826 0.0000 0.0000 2.8690 0.0000 0.0000 -30.1337 -2.2979 3.1302 7.5388 0.0000 0.0000 3.0163 0.0000 0.0000 0.0000 0.0000 0.0000 0.0000 0.0000 0.0000 0.0000 0.0000 0.0000 0.0000 0.0000 0.0000 0.0000 0.0000 0.0000 0.0000 0.0000 0.0000
0.0000 95.0000 0.0000 0.0000 0.0000 0.0000 0.0000 0.0000 0.0000 0.0000 0.0000 0.0000 0.0000 0.0000 0.0000 0.0000 0.0000 0.0000 0.0000 0.0000 0.0000 0.0000 0.0000 0.0000 -74.3534 4.6521 6.1316 -380.1499 -2.6017 -352.0362 -191.9081 66.7435 151.0931 43.8527 -10.9274 -4.5270 15.8037 0.0000 0.0000 2.6451 0.0000 0.0000 -5.9203 1.7430 -11.4764 9.7378 0.0000 0.0000 4.1726 0.0000 0.0000 4.0840 0.2917 -12.9397 13.2321 0.0000 0.0000 2.7998 0.0000 0.0000 11.8262 -1.0953 -12.0058 14.4383 0.0000 0.0000 4.3459 0.0000 0.0000 19.3420 -2.6433 -9.4268 12.7840 0.0000 0.0000 5.9214 0.0000 0.0000 0.0000 0.0000 0.0000 85.1863 0.0339 -0.0369 360.1828 9.5698 370.4388 529.9857 62.0262 163.3969 -48.7495 -10.5119 -0.5547 11.9431 0.0000 0.0000 4.4947 0.0000 0.0000 -1.1615 0.8809 4.8618 10.2508 0.0000 0.0000 3.3488 0.0000 0.0000 -11.8493 0.3550 8.1919 8.6066 0.0000 0.0000 6.0288 0.0000 0.0000 -21.0387 -0.8997 6.0787 10.0826 0.0000 0.0000 2.8690 0.0000 0.0000 -30.1337 -2.2979 3.1302 7.5388 0.0000 0.0000 3.0163 0.0000 0.0000 0.0000 0.0000 0.0000 0.0000 0.0000 0.0000 0.0000 0.0000 0.0000 0.0000 0.0000 0.0000 0.0000 0.0000 0.0000 0.0000 0.0000 0.0000
0.0000 95.0000 0.0000 0.0000 0.0000 0.0000 0.0000 0.0000 0.0000 0.0000 0.0000 0.0000 0.0000 0.0000 0.0000 0.0000 0.0000 0.0000 0.0000 0.0000 0.0000 0.0000 0.0000 0.0000 -75.2126 5.5450 7.1949 -378.4930 -2.9491 -351.5669 -188.6863 65.7534 152.8052 43.8527 -10.9274 -4.5270 15.8037 0.0000 0.0000 2.6451 0.0000 0.0000 -5.9203 1.7430 -11.4764 9.7378 0.0000 0.0000 4.1726 0.0000 0.0000 4.0840 0.2917 -12.9397 13.2321 0.0000 0.0000 2.7998 0.0000 0.0000 11.8262 -1.0953 -12.0058 14.4383 0.0000 0.0000 4.3459 0.0000 0.0000 19.3420 -2.6433 -9.4268 12.7840 0.0000 0.0000 5.9214 0.0000 0.0000 0.0000 0.0000 0.0000 85.8668 0.5439 -0.5846 359.2488 9.0595 369.6230 530.3521 60.9102 164.9786 -48.7495 -10.5119 -0.5547 11.9431 0.0000 0.0000 4.4947 0.0000 0.0000 -1.1615 0.8809 4.8618 10.2508 0.0000 0.0000 3.3488 0.0000 0.0000 -11.8493 0.3550 8.1919 8.6066 0.0000 0.0000 6.0288 0.0000 0.0000 -21.0387 -0.8997 6.0787 10.0826 0.0000 0.0000 2.8690 0.0000 0.0000 -30.1337 -2.2979 3.1302 7.5388 0.0000 0.0000 3.0163 0.0000 0.0000 0.0000 0.0000 0.0000 0.0000 0.0000 0.0000 0.0000 0.0000 0.0000 0.0000 0.0000 0.0000 0.0000 0.0000 0.0000 0.0000 0.0000 0.0000
0.0000 95.0000 0.0000 0.0000 0.0000 0.0000 0.0000 0.0000 0.0000 0.0000 0.0000 0.0000 0.0000 0.0000 0.0000 0.0000 0.0000 0.0000 0.0000 0.0000 0.0000 0.0000 0.0000 0.0000 -75.8883 5.9211 7.5896 -377.4913 -3.1002 -351.5640 -187.5728 65.4606 153.4418 43.8527 -10.9274 -4.5270 15.8037 0.0000 0.0000 2.6451 0.0000 0.0000 -5.9203 1.7430 -11.4764 9.7378 0.0000 0.0000 4.1726 0.0000 0.0000 4.0840 0.2917 -12.9397 13.2321 0.0000 0.0000 2.7998 0.0000 0.0000 11.8262 -1.0953 -12.0058 14.4383 0.0000 0.0000 4.3459 0.0000 0.0000 19.3420 -2.6433 -9.4268 12.7840 0.0000 0.0000 5.9214 0.0000 0.0000 0.0000 0.0000 0.0000 86.2130 0.9605 -1.0262 358.9059 8.8376 369.2919 530.8016 60.2710 166.1054 -48.7495 -10.5119 -0.5547 11.9431 0.0000 0.0000 4.4947 0.0000 0.0000 -1.1615 0.8809 4.8618 10.2508 0.0000 0.0000 3.3488 0.0000 0.0000 -11.8493 0.3550 8.1919 8.6066 0.0000 0.0000 6.0288 0.0000 0.0000 -21.0387 -0.8997 6.0787 10.0826 0.0000 0.0000 2.8690 0.0000 0.0000 -30.1337 -2.2979 3.1302 7.5388 0.0000 0.0000 3.0163 0.0000 0.0000 0.0000 0.0000 0.0000 0.0000 0.0000 0.0000 0.0000 0.0000 0.0000 0.0000 0.0000 0.0000 0.0000 0.0000 0.0000 0.0000 0.0000 0.0000
0.0000 95.0000 0.0000 0.0000 0.0000 0.0000 0.0000 0.0000 0.0000 0.0000 0.0000 0.0000 0.0000 0.0000 0.0000 0.0000 0.0000 0.0000 0.0000 0.0000 0.0000 0.0000 0.0000 0.0000 -76.7407 6.1550 7.7694 -375.9715 -4.1225 -350.3962 -184.5825 64.5280 155.0139 43.8527 -10.9274 -4.5270 15.8037 0.0000 0.0000 2.6451 0.0000 0.0000 -5.9203 1.7430 -11.4764 9.7378 0.0000 0.0000 4.1726 0.0000 0.0000 4.0840 0.2917 -12.9397 13.2321 0.0000 0.0000 2.7998 0.0000 0.0000 11.8262 -1.0953 -12.0058 14.4383 0.0000 0.0000 4.3459 0.0000 0.0000 19.3420 -2.6433 -9.4268 12.7840 0.0000 0.0000 5.9214 0.0000 0.0000 0.0000 0.0000 0.0000 86.4883 1.4109 -1.5002 358.7815 8.3360 368.7202 531.7027 59.3856 167.9121 -48.7495 -10.5119 -0.5547 11.9431 0.0000 0.0000 4.4947 0.0000 0.0000 -1.1615 0.8809 4.8618 10.2508 0.0000 0.0000 3.3488 0.0000 0.0000 -11.8493 0.3550 8.1919 8.6066 0.0000 0.0000 6.0288 0.0000 0.0000 -21.0387 -0.8997 6.0787 10.0826 0.0000 0.0000 2.8690 0.0000 0.0000 -30.1337 -2.2979 3.1302 7.5388 0.0000 0.0000 3.0163 0.0000 0.0000 0.0000 0.0000 0.0000 0.0000 0.0000 0.0000 0.0000 0.0000 0.0000 0.0000 0.0000 0.0000 0.0000 0.0000 0.0000 0.0000 0.0000 0.0000
0.0000 95.0000 0.0000 0.0000 0.0000 0.0000 0.0000 0.0000 0.0000 0.0000 0.0000 0.0000 0.0000 0.0000 0.0000 0.0000 0.0000 0.0000 0.0000 0.0000 0.0000 0.0000 0.0000 0.0000 -77.1699 6.6246 8.2977 -374.5081 -5.1071 -349.2355 -180.8010 63.3850 157.0395 43.8527 -10.9274 -4.5270 15.8037 0.0000 0.0000 2.6451 0.0000 0.0000 -5.9203 1.7430 -11.4764 9.7378 0.0000 0.0000 4.1726 0.0000 0.0000 4.0840 0.2917 -12.9397 13.2321 0.0000 0.0000 2.7998 0.0000 0.0000 11.8262 -1.0953 -12.0058 14.4383 0.0000 0.0000 4.3459 0.0000 0.0000 19.3420 -2.6433 -9.4268 12.7840 0.0000 0.0000 5.9214 0.0000 0.0000 0.0000 0.0000 0.0000 86.7590 1.4446 -1.5287 358.6063 8.2230 368.5414 531.9983 59.2376 168.3442 -48.7495 -10.5119 -0.5547 11.9431 0.0000 0.0000 4.4947 0.0000 0.0000 -1.1615 0.8809 4.8618 10.2508 0.0000 0.0000 3.3488 0.0000 0.0000 -11.8493 0.3550 8.1919 8.6066 0.0000 0.0000 6.0288 0.0000 0.0000 -21.0387 -0.8997 6.0787 10.0826 0.0000 0.0000 2.8690 0.0000 0.0000 -30.1337 -2.2979 3.1302 7.5388 0.0000 0.0000 3.0163 0.0000 0.0000 0.0000 0.0000 0.0000 0.0000 0.0000 0.0000 0.0000 0.0000 0.0000 0.0000 0.0000 0.0000 0.0000 0.0000 0.0000 0.0000 0.0000 0.0000
0.0000 95.0000 0.0000 0.0000 0.0000 0.0000 0.0000 0.0000 0.0000 0.0000 0.0000 0.0000 0.0000 0.0000 0.0000 0.0000 0.0000 0.0000 0.0000 0.0000 0.0000 0.0000 0.0000 0.0000 -77.6256 6.9047 8.5781 -373.4246 -5.5431 -348.9664 -178.9432 62.9831 158.2008 43.8527 -10.9274 -4.5270 15.8037 0.0000 0.0000 2.6451 0.0000 0.0000 -5.9203 1.7430 -11.4764 9.7378 0.0000 0.0000 4.1726 0.0000 0.0000 4.0840 0.2917 -12.9397 13.2321 0.0000 0.0000 2.7998 0.0000 0.0000 11.8262 -1.0953 -12.0058 14.4383 0.0000 0.0000 4.3459 0.0000 0.0000 19.3420 -2.6433 -9.4268 12.7840 0.0000 0.0000 5.9214 0.0000 0.0000 0.0000 0.0000 0.0000 86.8636 1.6743 -1.7686 358.7437 7.7964 368.1071 532.8251 58.6566 169.7274 -48.7495 -10.5119 -0.5547 11.9431 0.0000 0.0000 4.4947 0.0000 0.0000 -1.1615 0.8809 4.8618 10.2508 0.0000 0.0000 3.3488 0.0000 0.0000 -11.8493 0.3550 8.1919 8.6066 0.0000 0.0000 6.0288 0.0000 0.0000 -21.0387 -0.8997 6.0787 10.0826 0.0000 0.0000 2.8690 0.0000 0.0000 -30.1337 -2.2979 3.1302 7.5388 0.0000 0.0000 3.0163 0.0000 0.0000 0.0000 0.0000 0.0000 0.0000 0.0000 0.0000 0.0000 0.0000 0.0000 0.0000 0.0000 0.0000 0.0000 0.0000 0.0000 0.0000 0.0000 0.0000
0.0000 95.0000 0.0000 0.0000 0.0000 0.0000 0.0000 0.0000 0.0000 0.0000 0.0000 0.0000 0.0000 0.0000 0.0000 0.0000 0.0000 0.0000 0.0000 0.0000 0.0000 0.0000 0.0000 0.0000 -77.4081 7.0630 8.8086 -373.3385 -5.3187 -349.2489 -178.4945 63.0894 158.6898 43.8527 -10.9274 -4.5270 15.8037 0.0000 0.0000 2.6451 0.0000 0.0000 -5.9203 1.7430 -11.4764 9.7378 0.0000 0.0000 4.1726 0.0000 0.0000 4.0840 0.2917 -12.9397 13.2321 0.0000 0.0000 2.7998 0.0000 0.0000 11.8262 -1.0953 -12.0058 14.4383 0.0000 0.0000 4.3459 0.0000 0.0000 19.3420 -2.6433 -9.4268 12.7840 0.0000 0.0000 5.9214 0.0000 0.0000 0.0000 0.0000 0.0000 87.0469 1.4150 -1.4899 358.6520 8.1786 368.4574 532.6685 59.2556 168.9318 -48.7495 -10.5119 -0.5547 11.9431 0.0000 0.0000 4.4947 0.0000 0.0000 -1.1615 0.8809 4.8618 10.2508 0.0000 0.0000 3.3488 0.0000 0.0000 -11.8493 0.3550 8.1919 8.6066 0.0000 0.0000 6.0288 0.0000 0.0000 -21.0387 -0.8997 6.0787 10.0826 0.0000 0.0000 2.8690 0.0000 0.0000 -30.1337 -2.2979 3.1302 7.5388 0.0000 0.0000 3.0163 0.0000 0.0000 0.0000 0.0000 0.0000 0.0000 0.0000 0.0000 0.0000 0.0000 0.0000 0.0000 0.0000 0.0000 0.0000 0.0000 0.0000 0.0000 0.0000 0.0000
0.0000 95.0000 0.0000 0.0000 0.0000 0.0000 0.0000 0.0000 0.0000 0.0000 0.0000 0.0000 0.0000 0.0000 0.0000 0.0000 0.0000 0.0000 0.0000 0.0000 0.0000 0.0000 0.0000 0.0000 -77.4193 6.9939 8.7208 -373.4012 -4.8390 -349.9897 -179.3412 63.7191 158.6086 43.8527 -10.9274 -4.5270 15.8037 0.0000 0.0000 2.6451 0.0000 0.0000 -5.9203 1.7430 -11.4764 9.7378 0.0000 0.0000 4.1726 0.0000 0.0000 4.0840 0.2917 -12.9397 13.2321 0.0000 0.0000 2.7998 0.0000 0.0000 11.8262 -1.0953 -12.0058 14.4383 0.0000 0.0000 4.3459 0.0000 0.0000 19.3420 -2.6433 -9.4268 12.7840 0.0000 0.0000 5.9214 0.0000 0.0000 0.0000 0.0000 0.0000 87.7101 1.1542 -1.2013 357.6469 8.7012 368.7515 531.6121 59.8336 167.3359 -48.7495 -10.5119 -0.5547 11.9431 0.0000 0.0000 4.4947 0.0000 0.0000 -1.1615 0.8809 4.8618 10.2508 0.0000 0.0000 3.3488 0.0000 0.0000 -11.8493 0.3550 8.1919 8.6066 0.0000 0.0000 6.0288 0.0000 0.0000 -21.0387 -0.8997 6.0787 10.0826 0.0000 0.0000 2.8690 0.0000 0.0000 -30.1337 -2.2979 3.1302 7.5388 0.0000 0.0000 3.0163 0.0000 0.0000 0.0000 0.0000 0.0000 0.0000 0.0000 0.0000 0.0000 0.0000 0.0000 0.0000 0.0000 0.0000 0.0000 0.0000 0.0000 0.0000 0.0000 0.0000
