HIERARCHY
ROOT Hips
{
  OFFSET 0.000000 95.000000 0.000000
  CHANNELS 6 Xposition Yposition Zposition Zrotation Xrotation Yrotation
  JOINT Spine
  {
    OFFSET 0.000000 10.000000 0.000000
    CHANNELS 3 Zrotation Xrotation Yrotation
    JOINT Spine1
    {
      OFFSET 0.000000 12.000000 0.000000
      CHANNELS 3 Zrotation Xrotation Yrotation
      JOINT Spine2
      {
        OFFSET 0.000000 12.000000 0.000000
        CHANNELS 3 Zrotation Xrotation Yrotation
        JOINT Neck
        {
          OFFSET 0.000000 10.000000 0.000000
          CHANNELS 3 Zrotation Xrotation Yrotation
          JOINT Head
          {
            OFFSET 0.000000 8.000000 0.000000
            CHANNELS 3 Zrotation Xrotation Yrotation
            End Site
            {
              OFFSET 0.000000 10.000000 0.000000
            }
          }
        }
        JOINT LeftShoulder
        {
          OFFSET 6.000000 8.000000 0.000000
          CHANNELS 3 Zrotation Xrotation Yrotation
          JOINT LeftArm
          {
            OFFSET 12.000000 0.000000 0.000000
            CHANNELS 3 Zrotation Xrotation Yrotation
            JOINT LeftForeArm
            {
              OFFSET 24.000000 0.000000 0.000000
              CHANNELS 3 Zrotation Xrotation Yrotation
              JOINT LeftHand
              {
                OFFSET 22.000000 0.000000 0.000000
                CHANNELS 3 Zrotation Xrotation Yrotation
                JOINT LeftHandThumb1
                {
                  OFFSET 1.800000 -1.400000 0.500000
                  CHANNELS 3 Zrotation Xrotation Yrotation
                  JOINT LeftHandThumb2
                  {
                    OFFSET 2.400000 0.000000 0.000000
                    CHANNELS 3 Zrotation Xrotation Yrotation
                    JOINT LeftHandThumb3
                    {
                      OFFSET 1.900000 0.000000 0.000000
                      CHANNELS 3 Zrotation Xrotation Yrotation
                      End Site
                      {
                        OFFSET 1.600000 0.000000 0.000000
                      }
                    }
                  }
                }
                JOINT LeftHandIndex1
                {
                  OFFSET 6.600000 1.200000 0.300000
                  CHANNELS 3 Zrotation Xrotation Yrotation
                  JOINT LeftHandIndex2
                  {
                    OFFSET 2.000000 0.000000 0.000000
                    CHANNELS 3 Zrotation Xrotation Yrotation
                    JOINT LeftHandIndex3
                    {
                      OFFSET 1.200000 0.000000 0.000000
                      CHANNELS 3 Zrotation Xrotation Yrotation
                      End Site
                      {
                        OFFSET 1.000000 0.000000 0.000000
                      }
                    }
                  }
                }
                JOINT LeftHandMiddle1
                {
                  OFFSET 7.200000 0.000000 0.300000
                  CHANNELS 3 Zrotation Xrotation Yrotation
                  JOINT LeftHandMiddle2
                  {
                    OFFSET 3.000000 0.000000 0.000000
                    CHANNELS 3 Zrotation Xrotation Yrotation
                    JOINT LeftHandMiddle3
                    {
                      OFFSET 2.000000 0.000000 0.000000
                      CHANNELS 3 Zrotation Xrotation Yrotation
                      End Site
                      {
                        OFFSET 1.600000 0.000000 0.000000
                      }
                    }
                  }
                }
                JOINT LeftHandRing1
                {
                  OFFSET 7.100000 -1.000000 0.400000
                  CHANNELS 3 Zrotation Xrotation Yrotation
                  JOINT LeftHandRing2
                  {
                    OFFSET 2.600000 0.000000 0.000000
                    CHANNELS 3 Zrotation Xrotation Yrotation
                    JOINT LeftHandRing3
                    {
                      OFFSET 1.600000 0.000000 0.000000
                      CHANNELS 3 Zrotation Xrotation Yrotation
                      End Site
                      {
                        OFFSET 1.300000 0.000000 0.000000
                      }
                    }
                  }
                }
                JOINT LeftHandPinky1
                {
                  OFFSET 6.500000 -2.000000 0.500000
                  CHANNELS 3 Zrotation Xrotation Yrotation
                  JOINT LeftHandPinky2
                  {
                    OFFSET 1.900000 0.000000 0.000000
                    CHANNELS 3 Zrotation Xrotation Yrotation
                    JOINT LeftHandPinky3
                    {
                      OFFSET 1.400000 0.000000 0.000000
                      CHANNELS 3 Zrotation Xrotation Yrotation
                      End Site
                      {
                        OFFSET 1.300000 0.000000 0.000000
                      }
                    }
                  }
                }
              }
            }
          }
        }
        JOINT RightShoulder
        {
          OFFSET -6.000000 8.000000 0.000000
          CHANNELS 3 Zrotation Xrotation Yrotation
          JOINT RightArm
          {
            OFFSET -12.000000 0.000000 0.000000
            CHANNELS 3 Zrotation Xrotation Yrotation
            JOINT RightForeArm
            {
              OFFSET -24.000000 0.000000 0.000000
              CHANNELS 3 Zrotation Xrotation Yrotation
              JOINT RightHand
              {
                OFFSET -22.000000 0.000000 0.000000
                CHANNELS 3 Zrotation Xrotation Yrotation
                JOINT RightHandThumb1
                {
                  OFFSET -1.800000 -1.400000 0.500000
                  CHANNELS 3 Zrotation Xrotation Yrotation
                  JOINT RightHandThumb2
                  {
                    OFFSET -2.400000 0.000000 0.000000
                    CHANNELS 3 Zrotation Xrotation Yrotation
                    JOINT RightHandThumb3
                    {
                      OFFSET -1.900000 0.000000 0.000000
                      CHANNELS 3 Zrotation Xrotation Yrotation
                      End Site
                      {
                        OFFSET -1.600000 0.000000 0.000000
                      }
                    }
                  }
                }
                JOINT RightHandIndex1
                {
                  OFFSET -6.600000 1.200000 0.300000
                  CHANNELS 3 Zrotation Xrotation Yrotation
                  JOINT RightHandIndex2
                  {
                    OFFSET -2.000000 0.000000 0.000000
                    CHANNELS 3 Zrotation Xrotation Yrotation
                    JOINT RightHandIndex3
                    {
                      OFFSET -1.200000 0.000000 0.000000
                      CHANNELS 3 Zrotation Xrotation Yrotation
                      End Site
                      {
                        OFFSET -1.000000 0.000000 0.000000
                      }
                    }
                  }
                }
                JOINT RightHandMiddle1
                {
                  OFFSET -7.200000 0.000000 0.300000
                  CHANNELS 3 Zrotation Xrotation Yrotation
                  JOINT RightHandMiddle2
                  {
                    OFFSET -3.000000 0.000000 0.000000
                    CHANNELS 3 Zrotation Xrotation Yrotation
                    JOINT RightHandMiddle3
                    {
                      OFFSET -2.000000 0.000000 0.000000
                      CHANNELS 3 Zrotation Xrotation Yrotation
                      End Site
                      {
                        OFFSET -1.600000 0.000000 0.000000
                      }
                    }
                  }
                }
                JOINT RightHandRing1
                {
                  OFFSET -7.100000 -1.000000 0.400000
                  CHANNELS 3 Zrotation Xrotation Yrotation
                  JOINT RightHandRing2
                  {
                    OFFSET -2.600000 0.000000 0.000000
                    CHANNELS 3 Zrotation Xrotation Yrotation
                    JOINT RightHandRing3
                    {
                      OFFSET -1.600000 0.000000 0.000000
                      CHANNELS 3 Zrotation Xrotation Yrotation
                      End Site
                      {
                        OFFSET -1.300000 0.000000 0.000000
                      }
                    }
                  }
                }
                JOINT RightHandPinky1
                {
                  OFFSET -6.500000 -2.000000 0.500000
                  CHANNELS 3 Zrotation Xrotation Yrotation
                  JOINT RightHandPinky2
                  {
                    OFFSET -1.900000 0.000000 0.000000
                    CHANNELS 3 Zrotation Xrotation Yrotation
                    JOINT RightHandPinky3
                    {
                      OFFSET -1.400000 0.000000 0.000000
                      CHANNELS 3 Zrotation Xrotation Yrotation
                      End Site
                      {
                        OFFSET -1.300000 0.000000 0.000000
                      }
                    }
                  }
                }
              }
            }
          }
        }
      }
    }
  }
  JOINT LeftUpLeg
  {
    OFFSET 10.000000 -5.000000 0.000000
    CHANNELS 3 Zrotation Xrotation Yrotation
    JOINT LeftLeg
    {
      OFFSET 0.000000 -42.000000 0.000000
      CHANNELS 3 Zrotation Xrotation Yrotation
      JOINT LeftFoot
      {
        OFFSET 0.000000 -42.000000 4.000000
        CHANNELS 3 Zrotation Xrotation Yrotation
        End Site
        {
          OFFSET 0.000000 0.000000 12.000000
        }
      }
    }
  }
  JOINT RightUpLeg
  {
    OFFSET -10.000000 -5.000000 0.000000
    CHANNELS 3 Zrotation Xrotation Yrotation
    JOINT RightLeg
    {
      OFFSET 0.000000 -42.000000 0.000000
      CHANNELS 3 Zrotation Xrotation Yrotation
      JOINT RightFoot
      {
        OFFSET 0.000000 -42.000000 4.000000
        CHANNELS 3 Zrotation Xrotation Yrotation
        End Site
        {
          OFFSET 0.000000 0.000000 12.000000
        }
      }
    }
  }
}
MOTION
Frames: 60
Frame Time: 0.033333
0.0000 95.0000 0.0000 0.0000 0.0000 0.0000 0.0000 0.0000 0.0000 0.0000 0.0000 0.0000 0.0000 0.0000 0.0000 0.0000 0.0000 0.0000 0.0000 0.0000 0.0000 0.0000 0.0000 0.0000 -81.3388 -3.6903 -4.2945 -13.4085 -4.0251 4.7927 60.3706 31.8075 -21.1353 95.6606 -15.4364 -17.1184 8.5339 0.0000 0.0000 14.8258 0.0000 0.0000 9.9936 -0.7546 1.0656 45.2763 0.0000 0.0000 21.3632 0.0000 0.0000 18.2063 -0.4332 -2.0687 42.0817 0.0000 0.0000 14.5583 0.0000 0.0000 15.6503 -0.8608 3.2517 36.7214 0.0000 0.0000 13.6018 0.0000 0.0000 12.2977 0.8344 9.0165 19.1342 0.0000 0.0000 11.2171 0.0000 0.0000 0.0000 0.0000 0.0000 89.0002 -4.5176 4.5971 -3.0133 14.3177 13.4223 104.2267 -40.0122 76.9723 -54.2917 -14.0023 14.4873 14.4831 0.0000 0.0000 6.4747 0.0000 0.0000 10.2720 2.8505 26.2844 12.4319 0.0000 0.0000 10.4343 0.0000 0.0000 9.3906 -1.1432 18.6239 25.2197 0.0000 0.0000 8.8778 0.0000 0.0000 6.2546 -4.4656 24.3877 23.8863 0.0000 0.0000 14.5118 0.0000 0.0000 -2.1582 -7.3123 24.9505 12.2511 0.0000 0.0000 10.1539 0.0000 0.0000 0.0000 0.0000 0.0000 0.0000 0.0000 0.0000 0.0000 0.0000 0.0000 0.0000 0.0000 0.0000 0.0000 0.0000 0.0000 0.0000 0.0000 0.0000
0.0000 95.0000 0.0000 0.0000 0.0000 0.0000 0.0000 0.0000 0.0000 0.0000 0.0000 0.0000 0.0000 0.0000 0.0000 0.0000 0.0000 0.0000 0.0000 0.0000 0.0000 0.0000 0.0000 0.0000 -81.3597 -3.6220 -4.2134 -13.1701 -3.7277 4.3699 60.2850 31.4566 -20.9012 95.6606 -15.4364 -17.1184 8.5339 0.0000 0.0000 14.8258 0.0000 0.0000 9.9936 -0.7546 1.0656 45.2763 0.0000 0.0000 21.3632 0.0000 0.0000 18.2063 -0.4332 -2.0687 42.0817 0.0000 0.0000 14.5583 0.0000 0.0000 15.6503 -0.8608 3.2517 36.7214 0.0000 0.0000 13.6018 0.0000 0.0000 12.2977 0.8344 9.0165 19.1342 0.0000 0.0000 11.2171 0.0000 0.0000 0.0000 0.0000 0.0000 89.0009 -4.7963 4.8806 -3.2350 14.4827 13.4804 103.7701 -40.3208 76.8912 -54.2917 -14.0023 14.4873 14.4831 0.0000 0.0000 6.4747 0.0000 0.0000 10.2720 2.8505 26.2844 12.4319 0.0000 0.0000 10.4343 0.0000 0.0000 9.3906 -1.1432 18.6239 25.2197 0.0000 0.0000 8.8778 0.0000 0.0000 6.2546 -4.4656 24.3877 23.8863 0.0000 0.0000 14.5118 0.0000 0.0000 -2.1582 -7.3123 24.9505 12.2511 0.0000 0.0000 10.1539 0.0000 0.0000 0.0000 0.0000 0.0000 0.0000 0.0000 0.0000 0.0000 0.0000 0.0000 0.0000 0.0000 0.0000 0.0000 0.0000 0.0000 0.0000 0.0000 0.0000
0.0000 95.0000 0.0000 0.0000 0.0000 0.0000 0.0000 0.0000 0.0000 0.0000 0.0000 0.0000 0.0000 0.0000 0.0000 0.0000 0.0000 0.0000 0.0000 0.0000 0.0000 0.0000 0.0000 0.0000 -81.3485 -3.6764 -4.2775 -13.0867 -3.6582 4.2507 60.2618 31.2756 -20.7632 95.6606 -15.4364 -17.1184 8.5339 0.0000 0.0000 14.8258 0.0000 0.0000 9.9936 -0.7546 1.0656 45.2763 0.0000 0.0000 21.3632 0.0000 0.0000 18.2063 -0.4332 -2.0687 42.0817 0.0000 0.0000 14.5583 0.0000 0.0000 15.6503 -0.8608 3.2517 36.7214 0.0000 0.0000 13.6018 0.0000 0.0000 12.2977 0.8344 9.0165 19.1342 0.0000 0.0000 11.2171 0.0000 0.0000 0.0000 0.0000 0.0000 88.9692 -4.7839 4.8707 -3.3290 14.6146 13.5833 103.6542 -40.4949 76.8800 -54.2917 -14.0023 14.4873 14.4831 0.0000 0.0000 6.4747 0.0000 0.0000 10.2720 2.8505 26.2844 12.4319 0.0000 0.0000 10.4343 0.0000 0.0000 9.3906 -1.1432 18.6239 25.2197 0.0000 0.0000 8.8778 0.0000 0.0000 6.2546 -4.4656 24.3877 23.8863 0.0000 0.0000 14.5118 0.0000 0.0000 -2.1582 -7.3123 24.9505 12.2511 0.0000 0.0000 10.1539 0.0000 0.0000 0.0000 0.0000 0.0000 0.0000 0.0000 0.0000 0.0000 0.0000 0.0000 0.0000 0.0000 0.0000 0.0000 0.0000 0.0000 0.0000 0.0000 0.0000
0.0000 95.0000 0.0000 0.0000 0.0000 0.0000 0.0000 0.0000 0.0000 0.0000 0.0000 0.0000 0.0000 0.0000 0.0000 0.0000 0.0000 0.0000 0.0000 0.0000 0.0000 0.0000 0.0000 0.0000 -81.4922 -3.7805 -4.3876 -12.9362 -3.6144 4.1433 60.3491 31.0977 -20.5396 95.6606 -15.4364 -17.1184 8.5339 0.0000 0.0000 14.8258 0.0000 0.0000 9.9936 -0.7546 1.0656 45.2763 0.0000 0.0000 21.3632 0.0000 0.0000 18.2063 -0.4332 -2.0687 42.0817 0.0000 0.0000 14.5583 0.0000 0.0000 15.6503 -0.8608 3.2517 36.7214 0.0000 0.0000 13.6018 0.0000 0.0000 12.2977 0.8344 9.0165 19.1342 0.0000 0.0000 11.2171 0.0000 0.0000 0.0000 0.0000 0.0000 88.8707 -4.9275 5.0255 -3.2888 14.6941 13.6786 103.3747 -40.6130 76.8259 -54.2917 -14.0023 14.4873 14.4831 0.0000 0.0000 6.4747 0.0000 0.0000 10.2720 2.8505 26.2844 12.4319 0.0000 0.0000 10.4343 0.0000 0.0000 9.3906 -1.1432 18.6239 25.2197 0.0000 0.0000 8.8778 0.0000 0.0000 6.2546 -4.4656 24.3877 23.8863 0.0000 0.0000 14.5118 0.0000 0.0000 -2.1582 -7.3123 24.9505 12.2511 0.0000 0.0000 10.1539 0.0000 0.0000 0.0000 0.0000 0.0000 0.0000 0.0000 0.0000 0.0000 0.0000 0.0000 0.0000 0.0000 0.0000 0.0000 0.0000 0.0000 0.0000 0.0000 0.0000
0.0000 95.0000 0.0000 0.0000 0.0000 0.0000 0.0000 0.0000 0.0000 0.0000 0.0000 0.0000 0.0000 0.0000 0.0000 0.0000 0.0000 0.0000 0.0000 0.0000 0.0000 0.0000 0.0000 0.0000 -81.4871 -3.9179 -4.5473 -12.8493 -3.5550 4.0146 60.3735 30.8323 -20.2905 95.6606 -15.4364 -17.1184 8.5339 0.0000 0.0000 14.8258 0.0000 0.0000 9.9936 -0.7546 1.0656 45.2763 0.0000 0.0000 21.3632 0.0000 0.0000 18.2063 -0.4332 -2.0687 42.0817 0.0000 0.0000 14.5583 0.0000 0.0000 15.6503 -0.8608 3.2517 36.7214 0.0000 0.0000 13.6018 0.0000 0.0000 12.2977 0.8344 9.0165 19.1342 0.0000 0.0000 11.2171 0.0000 0.0000 0.0000 0.0000 0.0000 88.8035 -4.9544 5.0588 -3.1217 14.6813 13.7332 103.3077 -40.5291 76.8022 -54.2917 -14.0023 14.4873 14.4831 0.0000 0.0000 6.4747 0.0000 0.0000 10.2720 2.8505 26.2844 12.4319 0.0000 0.0000 10.4343 0.0000 0.0000 9.3906 -1.1432 18.6239 25.2197 0.0000 0.0000 8.8778 0.0000 0.0000 6.2546 -4.4656 24.3877 23.8863 0.0000 0.0000 14.5118 0.0000 0.0000 -2.1582 -7.3123 24.9505 12.2511 0.0000 0.0000 10.1539 0.0000 0.0000 0.0000 0.0000 0.0000 0.0000 0.0000 0.0000 0.0000 0.0000 0.0000 0.0000 0.0000 0.0000 0.0000 0.0000 0.0000 0.0000 0.0000 0.0000
0.0000 95.0000 0.0000 0.0000 0.0000 0.0000 0.0000 0.0000 0.0000 0.0000 0.0000 0.0000 0.0000 0.0000 0.0000 0.0000 0.0000 0.0000 0.0000 0.0000 0.0000 0.0000 0.0000 0.0000 -81.3600 -4.1629 -4.8425 -13.1812 -3.5812 3.9811 60.7379 30.6398 -19.8354 95.6606 -15.4364 -17.1184 8.5339 0.0000 0.0000 14.8258 0.0000 0.0000 9.9936 -0.7546 1.0656 45.2763 0.0000 0.0000 21.3632 0.0000 0.0000 18.2063 -0.4332 -2.0687 42.0817 0.0000 0.0000 14.5583 0.0000 0.0000 15.6503 -0.8608 3.2517 36.7214 0.0000 0.0000 13.6018 0.0000 0.0000 12.2977 0.8344 9.0165 19.1342 0.0000 0.0000 11.2171 0.0000 0.0000 0.0000 0.0000 0.0000 88.6781 -5.0956 5.2144 -3.1657 14.5822 13.6398 103.2523 -40.6696 76.8030 -54.2917 -14.0023 14.4873 14.4831 0.0000 0.0000 6.4747 0.0000 0.0000 10.2720 2.8505 26.2844 12.4319 0.0000 0.0000 10.4343 0.0000 0.0000 9.3906 -1.1432 18.6239 25.2197 0.0000 0.0000 8.8778 0.0000 0.0000 6.2546 -4.4656 24.3877 23.8863 0.0000 0.0000 14.5118 0.0000 0.0000 -2.1582 -7.3123 24.9505 12.2511 0.0000 0.0000 10.1539 0.0000 0.0000 0.0000 0.0000 0.0000 0.0000 0.0000 0.0000 0.0000 0.0000 0.0000 0.0000 0.0000 0.0000 0.0000 0.0000 0.0000 0.0000 0.0000 0.0000
0.0000 95.0000 0.0000 0.0000 0.0000 0.0000 0.0000 0.0000 0.0000 0.0000 0.0000 0.0000 0.0000 0.0000 0.0000 0.0000 0.0000 0.0000 0.0000 0.0000 0.0000 0.0000 0.0000 0.0000 -81.2696 -4.4152 -5.1441 -13.3765 -3.7369 4.1339 60.9183 30.5581 -19.6228 95.6606 -15.4364 -17.1184 8.5339 0.0000 0.0000 14.8258 0.0000 0.0000 9.9936 -0.7546 1.0656 45.2763 0.0000 0.0000 21.3632 0.0000 0.0000 18.2063 -0.4332 -2.0687 42.0817 0.0000 0.0000 14.5583 0.0000 0.0000 15.6503 -0.8608 3.2517 36.7214 0.0000 0.0000 13.6018 0.0000 0.0000 12.2977 0.8344 9.0165 19.1342 0.0000 0.0000 11.2171 0.0000 0.0000 0.0000 0.0000 0.0000 88.5068 -4.9347 5.0648 -2.4796 14.3885 13.7327 103.4670 -40.1205 76.8008 -54.2917 -14.0023 14.4873 14.4831 0.0000 0.0000 6.4747 0.0000 0.0000 10.2720 2.8505 26.2844 12.4319 0.0000 0.0000 10.4343 0.0000 0.0000 9.3906 -1.1432 18.6239 25.2197 0.0000 0.0000 8.8778 0.0000 0.0000 6.2546 -4.4656 24.3877 23.8863 0.0000 0.0000 14.5118 0.0000 0.0000 -2.1582 -7.3123 24.9505 12.2511 0.0000 0.0000 10.1539 0.0000 0.0000 0.0000 0.0000 0.0000 0.0000 0.0000 0.0000 0.0000 0.0000 0.0000 0.0000 0.0000 0.0000 0.0000 0.0000 0.0000 0.0000 0.0000 0.0000
0.0000 95.0000 0.0000 0.0000 0.0000 0.0000 0.0000 0.0000 0.0000 0.0000 0.0000 0.0000 0.0000 0.0000 0.0000 0.0000 0.0000 0.0000 0.0000 0.0000 0.0000 0.0000 0.0000 0.0000 -81.1425 -4.4593 -5.2070 -13.7106 -3.8622 4.3100 61.0970 30.7232 -19.6244 95.6606 -15.4364 -17.1184 8.5339 0.0000 0.0000 14.8258 0.0000 0.0000 9.9936 -0.7546 1.0656 45.2763 0.0000 0.0000 21.3632 0.0000 0.0000 18.2063 -0.4332 -2.0687 42.0817 0.0000 0.0000 14.5583 0.0000 0.0000 15.6503 -0.8608 3.2517 36.7214 0.0000 0.0000 13.6018 0.0000 0.0000 12.2977 0.8344 9.0165 19.1342 0.0000 0.0000 11.2171 0.0000 0.0000 0.0000 0.0000 0.0000 88.4556 -4.7332 4.8624 -2.2293 14.1444 13.6078 103.9141 -39.8115 76.8797 -54.2917 -14.0023 14.4873 14.4831 0.0000 0.0000 6.4747 0.0000 0.0000 10.2720 2.8505 26.2844 12.4319 0.0000 0.0000 10.4343 0.0000 0.0000 9.3906 -1.1432 18.6239 25.2197 0.0000 0.0000 8.8778 0.0000 0.0000 6.2546 -4.4656 24.3877 23.8863 0.0000 0.0000 14.5118 0.0000 0.0000 -2.1582 -7.3123 24.9505 12.2511 0.0000 0.0000 10.1539 0.0000 0.0000 0.0000 0.0000 0.0000 0.0000 0.0000 0.0000 0.0000 0.0000 0.0000 0.0000 0.0000 0.0000 0.0000 0.0000 0.0000 0.0000 0.0000 0.0000
0.0000 95.0000 0.0000 0.0000 0.0000 0.0000 0.0000 0.0000 0.0000 0.0000 0.0000 0.0000 0.0000 0.0000 0.0000 0.0000 0.0000 0.0000 0.0000 0.0000 0.0000 0.0000 0.0000 0.0000 -81.1481 -4.1524 -4.8484 -13.7787 -4.1021 4.7727 60.8222 31.4097 -20.4320 95.6606 -15.4364 -17.1184 8.5339 0.0000 0.0000 14.8258 0.0000 0.0000 9.9936 -0.7546 1.0656 45.2763 0.0000 0.0000 21.3632 0.0000 0.0000 18.2063 -0.4332 -2.0687 42.0817 0.0000 0.0000 14.5583 0.0000 0.0000 15.6503 -0.8608 3.2517 36.7214 0.0000 0.0000 13.6018 0.0000 0.0000 12.2977 0.8344 9.0165 19.1342 0.0000 0.0000 11.2171 0.0000 0.0000 0.0000 0.0000 0.0000 88.4201 -4.6856 4.8165 -2.0958 13.9958 13.5185 104.1028 -39.6546 76.9116 -54.2917 -14.0023 14.4873 14.4831 0.0000 0.0000 6.4747 0.0000 0.0000 10.2720 2.8505 26.2844 12.4319 0.0000 0.0000 10.4343 0.0000 0.0000 9.3906 -1.1432 18.6239 25.2197 0.0000 0.0000 8.8778 0.0000 0.0000 6.2546 -4.4656 24.3877 23.8863 0.0000 0.0000 14.5118 0.0000 0.0000 -2.1582 -7.3123 24.9505 12.2511 0.0000 0.0000 10.1539 0.0000 0.0000 0.0000 0.0000 0.0000 0.0000 0.0000 0.0000 0.0000 0.0000 0.0000 0.0000 0.0000 0.0000 0.0000 0.0000 0.0000 0.0000 0.0000 0.0000
0.0000 95.0000 0.0000 0.0000 0.0000 0.0000 0.0000 0.0000 0.0000 0.0000 0.0000 0.0000 0.0000 0.0000 0.0000 0.0000 0.0000 0.0000 0.0000 0.0000 0.0000 0.0000 0.0000 0.0000 -80.9877 -3.8918 -4.5570 -14.0105 -3.8718 4.5268 60.8804 31.4712 -20.4385 95.6606 -15.4364 -17.1184 8.5339 0.0000 0.0000 14.8258 0.0000 0.0000 9.9936 -0.7546 1.0656 45.2763 0.0000 0.0000 21.3632 0.0000 0.0000 18.2063 -0.4332 -2.0687 42.0817 0.0000 0.0000 14.5583 0.0000 0.0000 15.6503 -0.8608 3.2517 36.7214 0.0000 0.0000 13.6018 0.0000 0.0000 12.2977 0.8344 9.0165 19.1342 0.0000 0.0000 11.2171 0.0000 0.0000 0.0000 0.0000 0.0000 88.5084 -4.6214 4.7432 -2.3676 14.0210 13.4429 104.2287 -39.8127 76.9557 -54.2917 -14.0023 14.4873 14.4831 0.0000 0.0000 6.4747 0.0000 0.0000 10.2720 2.8505 26.2844 12.4319 0.0000 0.0000 10.4343 0.0000 0.0000 9.3906 -1.1432 18.6239 25.2197 0.0000 0.0000 8.8778 0.0000 0.0000 6.2546 -4.4656 24.3877 23.8863 0.0000 0.0000 14.5118 0.0000 0.0000 -2.1582 -7.3123 24.9505 12.2511 0.0000 0.0000 10.1539 0.0000 0.0000 0.0000 0.0000 0.0000 0.0000 0.0000 0.0000 0.0000 0.0000 0.0000 0.0000 0.0000 0.0000 0.0000 0.0000 0.0000 0.0000 0.0000 0.0000
0.0000 95.0000 0.0000 0.0000 0.0000 0.0000 0.0000 0.0000 0.0000 0.0000 0.0000 0.0000 0.0000 0.0000 0.0000 0.0000 0.0000 0.0000 0.0000 0.0000 0.0000 0.0000 0.0000 0.0000 -80.9221 -3.8837 -4.5528 -14.1545 -3.6840 4.2492 61.0841 31.2787 -20.1117 95.6606 -15.4364 -17.1184 8.5339 0.0000 0.0000 14.8258 0.0000 0.0000 9.9936 -0.7546 1.0656 45.2763 0.0000 0.0000 21.3632 0.0000 0.0000 18.2063 -0.4332 -2.0687 42.0817 0.0000 0.0000 14.5583 0.0000 0.0000 15.6503 -0.8608 3.2517 36.7214 0.0000 0.0000 13.6018 0.0000 0.0000 12.2977 0.8344 9.0165 19.1342 0.0000 0.0000 11.2171 0.0000 0.0000 0.0000 0.0000 0.0000 88.4905 -4.4782 4.5976 -2.5006 14.0139 13.4117 104.4370 -39.9291 77.0156 -54.2917 -14.0023 14.4873 14.4831 0.0000 0.0000 6.4747 0.0000 0.0000 10.2720 2.8505 26.2844 12.4319 0.0000 0.0000 10.4343 0.0000 0.0000 9.3906 -1.1432 18.6239 25.2197 0.0000 0.0000 8.8778 0.0000 0.0000 6.2546 -4.4656 24.3877 23.8863 0.0000 0.0000 14.5118 0.0000 0.0000 -2.1582 -7.3123 24.9505 12.2511 0.0000 0.0000 10.1539 0.0000 0.0000 0.0000 0.0000 0.0000 0.0000 0.0000 0.0000 0.0000 0.0000 0.0000 0.0000 0.0000 0.0000 0.0000 0.0000 0.0000 0.0000 0.0000 0.0000
0.0000 95.0000 0.0000 0.0000 0.0000 0.0000 0.0000 0.0000 0.0000 0.0000 0.0000 0.0000 0.0000 0.0000 0.0000 0.0000 0.0000 0.0000 0.0000 0.0000 0.0000 0.0000 0.0000 0.0000 -80.8857 -3.9940 -4.6852 -13.9453 -3.5929 4.0770 60.9446 30.9484 -19.9382 95.6606 -15.4364 -17.1184 8.5339 0.0000 0.0000 14.8258 0.0000 0.0000 9.9936 -0.7546 1.0656 45.2763 0.0000 0.0000 21.3632 0.0000 0.0000 18.2063 -0.4332 -2.0687 42.0817 0.0000 0.0000 14.5583 0.0000 0.0000 15.6503 -0.8608 3.2517 36.7214 0.0000 0.0000 13.6018 0.0000 0.0000 12.2977 0.8344 9.0165 19.1342 0.0000 0.0000 11.2171 0.0000 0.0000 0.0000 0.0000 0.0000 88.2611 -4.5199 4.6591 -2.0193 13.7844 13.3873 104.5049 -39.6316 77.0074 -54.2917 -14.0023 14.4873 14.4831 0.0000 0.0000 6.4747 0.0000 0.0000 10.2720 2.8505 26.2844 12.4319 0.0000 0.0000 10.4343 0.0000 0.0000 9.3906 -1.1432 18.6239 25.2197 0.0000 0.0000 8.8778 0.0000 0.0000 6.2546 -4.4656 24.3877 23.8863 0.0000 0.0000 14.5118 0.0000 0.0000 -2.1582 -7.3123 24.9505 12.2511 0.0000 0.0000 10.1539 0.0000 0.0000 0.0000 0.0000 0.0000 0.0000 0.0000 0.0000 0.0000 0.0000 0.0000 0.0000 0.0000 0.0000 0.0000 0.0000 0.0000 0.0000 0.0000 0.0000
0.0000 95.0000 0.0000 0.0000 0.0000 0.0000 0.0000 0.0000 0.0000 0.0000 0.0000 0.0000 0.0000 0.0000 0.0000 0.0000 0.0000 0.0000 0.0000 0.0000 0.0000 0.0000 0.0000 0.0000 -80.6367 -3.8093 -4.4882 -14.6727 -3.6071 4.1760 61.3426 31.3531 -19.9710 95.6606 -15.4364 -17.1184 8.5339 0.0000 0.0000 14.8258 0.0000 0.0000 9.9936 -0.7546 1.0656 45.2763 0.0000 0.0000 21.3632 0.0000 0.0000 18.2063 -0.4332 -2.0687 42.0817 0.0000 0.0000 14.5583 0.0000 0.0000 15.6503 -0.8608 3.2517 36.7214 0.0000 0.0000 13.6018 0.0000 0.0000 12.2977 0.8344 9.0165 19.1342 0.0000 0.0000 11.2171 0.0000 0.0000 0.0000 0.0000 0.0000 87.7842 -4.7601 4.9476 -1.0808 13.5449 13.5370 104.2021 -39.1946 76.8966 -54.2917 -14.0023 14.4873 14.4831 0.0000 0.0000 6.4747 0.0000 0.0000 10.2720 2.8505 26.2844 12.4319 0.0000 0.0000 10.4343 0.0000 0.0000 9.3906 -1.1432 18.6239 25.2197 0.0000 0.0000 8.8778 0.0000 0.0000 6.2546 -4.4656 24.3877 23.8863 0.0000 0.0000 14.5118 0.0000 0.0000 -2.1582 -7.3123 24.9505 12.2511 0.0000 0.0000 10.1539 0.0000 0.0000 0.0000 0.0000 0.0000 0.0000 0.0000 0.0000 0.0000 0.0000 0.0000 0.0000 0.0000 0.0000 0.0000 0.0000 0.0000 0.0000 0.0000 0.0000
0.0000 95.0000 0.0000 0.0000 0.0000 0.0000 0.0000 0.0000 0.0000 0.0000 0.0000 0.0000 0.0000 0.0000 0.0000 0.0000 0.0000 0.0000 0.0000 0.0000 0.0000 0.0000 0.0000 0.0000 -79.8288 -2.7179 -3.2486 -17.3817 -3.1446 3.9535 63.0328 32.8158 -19.8733 95.6606 -15.4364 -17.1184 8.5339 0.0000 0.0000 14.8258 0.0000 0.0000 9.9936 -0.7546 1.0656 45.2763 0.0000 0.0000 21.3632 0.0000 0.0000 18.2063 -0.4332 -2.0687 42.0817 0.0000 0.0000 14.5583 0.0000 0.0000 15.6503 -0.8608 3.2517 36.7214 0.0000 0.0000 13.6018 0.0000 0.0000 12.2977 0.8344 9.0165 19.1342 0.0000 0.0000 11.2171 0.0000 0.0000 0.0000 0.0000 0.0000 86.6279 -4.4196 4.6874 2.8348 13.6662 15.2502 103.2504 -36.8762 76.4459 -54.2917 -14.0023 14.4873 14.4831 0.0000 0.0000 6.4747 0.0000 0.0000 10.2720 2.8505 26.2844 12.4319 0.0000 0.0000 10.4343 0.0000 0.0000 9.3906 -1.1432 18.6239 25.2197 0.0000 0.0000 8.8778 0.0000 0.0000 6.2546 -4.4656 24.3877 23.8863 0.0000 0.0000 14.5118 0.0000 0.0000 -2.1582 -7.3123 24.9505 12.2511 0.0000 0.0000 10.1539 0.0000 0.0000 0.0000 0.0000 0.0000 0.0000 0.0000 0.0000 0.0000 0.0000 0.0000 0.0000 0.0000 0.0000 0.0000 0.0000 0.0000 0.0000 0.0000 0.0000
0.0000 95.0000 0.0000 0.0000 0.0000 0.0000 0.0000 0.0000 0.0000 0.0000 0.0000 0.0000 0.0000 0.0000 0.0000 0.0000 0.0000 0.0000 0.0000 0.0000 0.0000 0.0000 0.0000 0.0000 -79.1885 -3.0930 -3.7391 -19.3791 -0.9241 -0.0326 66.0897 29.5620 -14.8749 95.6606 -15.4364 -17.1184 8.5339 0.0000 0.0000 14.8258 0.0000 0.0000 9.9936 -0.7546 1.0656 45.2763 0.0000 0.0000 21.3632 0.0000 0.0000 18.2063 -0.4332 -2.0687 42.0817 0.0000 0.0000 14.5583 0.0000 0.0000 15.6503 -0.8608 3.2517 36.7214 0.0000 0.0000 13.6018 0.0000 0.0000 12.2977 0.8344 9.0165 19.1342 0.0000 0.0000 11.2171 0.0000 0.0000 0.0000 0.0000 0.0000 85.5642 -6.3057 6.8127 9.3080 21.0376 26.9680 89.3985 -37.5939 72.7935 -54.2917 -14.0023 14.4873 14.4831 0.0000 0.0000 6.4747 0.0000 0.0000 10.2720 2.8505 26.2844 12.4319 0.0000 0.0000 10.4343 0.0000 0.0000 9.3906 -1.1432 18.6239 25.2197 0.0000 0.0000 8.8778 0.0000 0.0000 6.2546 -4.4656 24.3877 23.8863 0.0000 0.0000 14.5118 0.0000 0.0000 -2.1582 -7.3123 24.9505 12.2511 0.0000 0.0000 10.1539 0.0000 0.0000 0.0000 0.0000 0.0000 0.0000 0.0000 0.0000 0.0000 0.0000 0.0000 0.0000 0.0000 0.0000 0.0000 0.0000 0.0000 0.0000 0.0000 0.0000
0.0000 95.0000 0.0000 0.0000 0.0000 0.0000 0.0000 0.0000 0.0000 0.0000 0.0000 0.0000 0.0000 0.0000 0.0000 0.0000 0.0000 0.0000 0.0000 0.0000 0.0000 0.0000 0.0000 0.0000 -78.5308 -2.9405 -3.5966 -25.8806 0.3159 -2.9786 -33.2587 -16.1801 18.7207 -30.7053 20.4880 6.8373 60.8680 0.0000 0.0000 40.5642 0.0000 0.0000 -6.9589 0.4844 -1.4325 10.6150 0.0000 0.0000 1.8466 0.0000 0.0000 -1.3514 0.0619 0.4769 18.9504 0.0000 0.0000 2.8704 0.0000 0.0000 2.2776 0.1180 2.0378 19.8399 0.0000 0.0000 1.3764 0.0000 0.0000 5.1450 1.2364 6.2518 6.6113 0.0000 0.0000 12.1226 0.0000 0.0000 0.0000 0.0000 0.0000 85.0104 -8.4508 9.2176 21.1391 34.5166 52.9712 62.9203 -45.1418 69.4446 -54.2917 -14.0023 14.4873 14.4831 0.0000 0.0000 6.4747 0.0000 0.0000 10.2720 2.8505 26.2844 12.4319 0.0000 0.0000 10.4343 0.0000 0.0000 9.3906 -1.1432 18.6239 25.2197 0.0000 0.0000 8.8778 0.0000 0.0000 6.2546 -4.4656 24.3877 23.8863 0.0000 0.0000 14.5118 0.0000 0.0000 -2.1582 -7.3123 24.9505 12.2511 0.0000 0.0000 10.1539 0.0000 0.0000 0.0000 0.0000 0.0000 0.0000 0.0000 0.0000 0.0000 0.0000 0.0000 0.0000 0.0000 0.0000 0.0000 0.0000 0.0000 0.0000 0.0000 0.0000
0.0000 95.0000 0.0000 0.0000 0.0000 0.0000 0.0000 0.0000 0.0000 0.0000 0.0000 0.0000 0.0000 0.0000 0.0000 0.0000 0.0000 0.0000 0.0000 0.0000 0.0000 0.0000 0.0000 0.0000 -77.2871 -2.2548 -2.8199 -40.7220 1.3161 -7.9551 -64.7407 -34.9034 13.8169 -25.2332 6.1298 -2.0237 17.7332 0.0000 0.0000 51.6970 0.0000 0.0000 37.2727 7.5315 -16.9970 5.0435 0.0000 0.0000 4.3547 0.0000 0.0000 47.2183 3.9086 -13.6998 6.6899 0.0000 0.0000 0.9614 0.0000 0.0000 54.8038 1.7314 -13.7503 4.3533 0.0000 0.0000 1.0740 0.0000 0.0000 59.5374 -1.9817 -10.1801 8.2942 0.0000 0.0000 1.8456 0.0000 0.0000 0.0000 0.0000 0.0000 84.1000 -9.7900 10.8478 42.9380 48.6998 97.2890 -40.4678 -10.2933 87.8505 -31.8348 -4.7329 -6.8339 9.1948 0.0000 0.0000 4.2343 0.0000 0.0000 4.3110 -0.1872 -2.6652 4.4096 0.0000 0.0000 1.9990 0.0000 0.0000 -4.8550 -0.2802 -1.8299 4.3531 0.0000 0.0000 4.3119 0.0000 0.0000 -13.1609 -0.6458 -3.5129 6.4067 0.0000 0.0000 5.6083 0.0000 0.0000 -28.5538 -1.7145 -7.5579 16.6142 0.0000 0.0000 7.2687 0.0000 0.0000 0.0000 0.0000 0.0000 0.0000 0.0000 0.0000 0.0000 0.0000 0.0000 0.0000 0.0000 0.0000 0.0000 0.0000 0.0000 0.0000 0.0000 0.0000
0.0000 95.0000 0.0000 0.0000 0.0000 0.0000 0.0000 0.0000 0.0000 0.0000 0.0000 0.0000 0.0000 0.0000 0.0000 0.0000 0.0000 0.0000 0.0000 0.0000 0.0000 0.0000 0.0000 0.0000 -76.7992 -4.7168 -5.9493 -57.8643 2.0630 -33.1083 -94.3763 -58.5558 37.5796 -16.9132 11.4001 5.6366 17.8138 0.0000 0.0000 29.9715 0.0000 0.0000 32.4644 14.3215 -31.6000 13.4689 0.0000 0.0000 10.7778 0.0000 0.0000 46.6218 10.2773 -28.3487 12.7168 0.0000 0.0000 9.0207 0.0000 0.0000 55.4302 6.8498 -27.6731 14.5996 0.0000 0.0000 10.5522 0.0000 0.0000 62.6815 1.1630 -22.1772 19.9005 0.0000 0.0000 9.8737 0.0000 0.0000 0.0000 0.0000 0.0000 83.4174 -12.0004 13.4521 71.3988 57.0619 147.0811 -45.1080 -2.2197 49.1875 -39.4212 -5.0700 -12.0298 0.5134 0.0000 0.0000 16.6739 0.0000 0.0000 -7.3210 -0.7546 -1.6766 3.1212 0.0000 0.0000 2.8409 0.0000 0.0000 -20.5255 -0.8249 0.2183 6.0332 0.0000 0.0000 1.9685 0.0000 0.0000 -30.0972 -1.7476 -0.6071 4.6414 0.0000 0.0000 1.4183 0.0000 0.0000 -38.6721 -2.9572 -4.0725 2.8304 0.0000 0.0000 6.6143 0.0000 0.0000 0.0000 0.0000 0.0000 0.0000 0.0000 0.0000 0.0000 0.0000 0.0000 0.0000 0.0000 0.0000 0.0000 0.0000 0.0000 0.0000 0.0000 0.0000
0.0000 95.0000 0.0000 0.0000 0.0000 0.0000 0.0000 0.0000 0.0000 0.0000 0.0000 0.0000 0.0000 0.0000 0.0000 0.0000 0.0000 0.0000 0.0000 0.0000 0.0000 0.0000 0.0000 0.0000 -76.0122 -6.0799 -7.7755 -65.2259 5.1563 -84.3059 -200.9193 -54.3949 142.9931 -9.3754 12.8541 10.6029 17.4562 0.0000 0.0000 17.3677 0.0000 0.0000 6.8153 8.0126 -33.6332 26.0419 0.0000 0.0000 22.5789 0.0000 0.0000 21.5675 5.1218 -31.2018 29.0709 0.0000 0.0000 24.2925 0.0000 0.0000 33.7043 2.6534 -28.7575 31.6135 0.0000 0.0000 31.2883 0.0000 0.0000 47.0774 -0.8045 -22.4949 24.1709 0.0000 0.0000 32.8114 0.0000 0.0000 0.0000 0.0000 0.0000 82.4114 -13.5218 15.4210 91.9998 59.5771 179.3493 -80.5125 -36.3155 56.8127 -8.4139 6.8234 -13.2098 15.5716 0.0000 0.0000 12.1437 0.0000 0.0000 16.2651 0.7932 1.7993 0.6154 0.0000 0.0000 4.1959 0.0000 0.0000 10.3444 0.3228 1.2068 1.7228 0.0000 0.0000 3.2415 0.0000 0.0000 -2.0372 -0.2699 1.2671 8.9151 0.0000 0.0000 4.6215 0.0000 0.0000 -22.3795 -1.3355 -2.9983 21.6261 0.0000 0.0000 17.7866 0.0000 0.0000 0.0000 0.0000 0.0000 0.0000 0.0000 0.0000 0.0000 0.0000 0.0000 0.0000 0.0000 0.0000 0.0000 0.0000 0.0000 0.0000 0.0000 0.0000
0.0000 95.0000 0.0000 0.0000 0.0000 0.0000 0.0000 0.0000 0.0000 0.0000 0.0000 0.0000 0.0000 0.0000 0.0000 0.0000 0.0000 0.0000 0.0000 0.0000 0.0000 0.0000 0.0000 0.0000 -75.3930 -6.9587 -8.9972 -72.2755 24.3397 -159.6132 -246.4447 18.7140 147.9668 4.3486 13.2575 19.1425 16.7302 0.0000 0.0000 4.7935 0.0000 0.0000 -29.1385 1.3485 0.7442 23.2596 0.0000 0.0000 15.0008 0.0000 0.0000 -21.9015 1.5424 3.1871 29.6342 0.0000 0.0000 20.3651 0.0000 0.0000 -10.2143 1.5575 4.1588 32.9308 0.0000 0.0000 25.8615 0.0000 0.0000 5.1391 0.5477 3.6118 31.7355 0.0000 0.0000 25.7889 0.0000 0.0000 0.0000 0.0000 0.0000 81.0869 -15.2065 17.7393 111.0805 61.1277 205.7808 -95.2581 -52.3870 66.7649 -7.9171 9.0569 -16.0016 22.0444 0.0000 0.0000 11.7322 0.0000 0.0000 14.5122 0.8547 3.9006 3.4417 0.0000 0.0000 4.3191 0.0000 0.0000 4.2556 -0.0947 7.3212 8.0431 0.0000 0.0000 3.5325 0.0000 0.0000 -4.4317 -0.8219 5.6626 12.4492 0.0000 0.0000 4.8948 0.0000 0.0000 -18.0466 -1.0102 -2.2953 20.4970 0.0000 0.0000 12.2110 0.0000 0.0000 0.0000 0.0000 0.0000 0.0000 0.0000 0.0000 0.0000 0.0000 0.0000 0.0000 0.0000 0.0000 0.0000 0.0000 0.0000 0.0000 0.0000 0.0000
0.0000 95.0000 0.0000 0.0000 0.0000 0.0000 0.0000 0.0000 0.0000 0.0000 0.0000 0.0000 0.0000 0.0000 0.0000 0.0000 0.0000 0.0000 0.0000 0.0000 0.0000 0.0000 0.0000 0.0000 -73.7706 -8.3284 -11.0832 -90.2397 39.9338 -206.5350 -297.2594 44.3935 108.7382 13.2031 11.8352 23.7278 16.1996 0.0000 0.0000 2.5059 0.0000 0.0000 -25.5276 1.6332 11.4411 17.4790 0.0000 0.0000 11.6222 0.0000 0.0000 -18.8123 3.0249 13.3400 22.4984 0.0000 0.0000 12.0557 0.0000 0.0000 -8.6487 3.5714 13.8915 23.4269 0.0000 0.0000 15.2375 0.0000 0.0000 2.2327 3.7788 13.6061 19.8999 0.0000 0.0000 15.2637 0.0000 0.0000 0.0000 0.0000 0.0000 79.6099 -16.2873 19.4878 119.7218 65.3472 214.3835 -139.3957 -10.3576 152.6813 -28.5874 3.2783 -22.3852 3.0644 0.0000 0.0000 3.7125 0.0000 0.0000 16.4548 0.5797 -4.2733 4.1148 0.0000 0.0000 1.5267 0.0000 0.0000 5.9281 0.5727 -6.2549 3.6110 0.0000 0.0000 1.5829 0.0000 0.0000 -3.0916 0.5943 -6.7448 5.8256 0.0000 0.0000 2.9831 0.0000 0.0000 -15.7964 -0.7557 -2.5813 8.6033 0.0000 0.0000 2.7491 0.0000 0.0000 0.0000 0.0000 0.0000 0.0000 0.0000 0.0000 0.0000 0.0000 0.0000 0.0000 0.0000 0.0000 0.0000 0.0000 0.0000 0.0000 0.0000 0.0000
0.0000 95.0000 0.0000 0.0000 0.0000 0.0000 0.0000 0.0000 0.0000 0.0000 0.0000 0.0000 0.0000 0.0000 0.0000 0.0000 0.0000 0.0000 0.0000 0.0000 0.0000 0.0000 0.0000 0.0000 -71.3957 -10.3020 -14.3019 -99.2263 50.5331 -215.0559 -326.5433 40.5047 121.9119 58.3887 -12.6086 -1.9951 44.5083 0.0000 0.0000 44.7518 0.0000 0.0000 -24.4282 0.9663 -3.5137 6.3846 0.0000 0.0000 3.4790 0.0000 0.0000 -12.0371 0.3307 -1.6357 7.0079 0.0000 0.0000 3.2473 0.0000 0.0000 1.6911 -0.2805 -1.4751 7.1208 0.0000 0.0000 3.7543 0.0000 0.0000 15.4887 -1.2132 -0.3822 11.2319 0.0000 0.0000 2.8232 0.0000 0.0000 0.0000 0.0000 0.0000 78.0823 -17.1553 21.0726 128.0812 72.0285 219.9645 -129.2028 -0.0643 151.1550 -31.5453 2.7874 -24.3086 3.5059 0.0000 0.0000 7.4476 0.0000 0.0000 -6.6174 -13.7653 -50.9597 32.1093 0.0000 0.0000 10.7567 0.0000 0.0000 -19.6037 -14.2308 -66.9281 11.2468 0.0000 0.0000 12.1456 0.0000 0.0000 -28.8430 -10.3252 -66.1955 15.4972 0.0000 0.0000 9.6500 0.0000 0.0000 -35.3380 -3.1938 -50.3373 20.6659 0.0000 0.0000 7.7067 0.0000 0.0000 0.0000 0.0000 0.0000 0.0000 0.0000 0.0000 0.0000 0.0000 0.0000 0.0000 0.0000 0.0000 0.0000 0.0000 0.0000 0.0000 0.0000 0.0000
0.0000 95.0000 0.0000 0.0000 0.0000 0.0000 0.0000 0.0000 0.0000 0.0000 0.0000 0.0000 0.0000 0.0000 0.0000 0.0000 0.0000 0.0000 0.0000 0.0000 0.0000 0.0000 0.0000 0.0000 -68.4909 -11.4416 -16.7430 -103.1030 59.9870 -215.1500 -224.4037 47.9983 151.6776 -0.5256 3.8032 4.6023 8.4027 0.0000 0.0000 14.9183 0.0000 0.0000 14.9352 -2.9209 6.8986 9.0696 0.0000 0.0000 4.4945 0.0000 0.0000 19.5470 -2.1695 7.7742 9.8580 0.0000 0.0000 14.4188 0.0000 0.0000 24.5400 -2.0297 8.8446 6.4844 0.0000 0.0000 5.2162 0.0000 0.0000 27.4938 -1.3838 10.7273 3.1211 0.0000 0.0000 1.4176 0.0000 0.0000 0.0000 0.0000 0.0000 77.0136 -17.8151 22.2880 148.4817 74.6246 240.1831 -123.3292 -23.2580 105.6239 -17.9666 6.7716 -19.6824 7.7063 0.0000 0.0000 10.1410 0.0000 0.0000 35.8146 23.6373 -107.8064 42.5873 0.0000 0.0000 3.5894 0.0000 0.0000 28.3432 43.8103 -110.9721 28.1192 0.0000 0.0000 2.6709 0.0000 0.0000 21.3213 53.6186 -106.7873 20.2665 0.0000 0.0000 5.2897 0.0000 0.0000 17.8755 59.3238 -92.3255 21.9272 0.0000 0.0000 5.6273 0.0000 0.0000 0.0000 0.0000 0.0000 0.0000 0.0000 0.0000 0.0000 0.0000 0.0000 0.0000 0.0000 0.0000 0.0000 0.0000 0.0000 0.0000 0.0000 0.0000
0.0000 95.0000 0.0000 0.0000 0.0000 0.0000 0.0000 0.0000 0.0000 0.0000 0.0000 0.0000 0.0000 0.0000 0.0000 0.0000 0.0000 0.0000 0.0000 0.0000 0.0000 0.0000 0.0000 0.0000 -65.4203 -12.2718 -19.0050 -110.5242 68.6865 -219.8177 -248.7009 47.4569 130.7782 6.5538 3.4207 7.3942 10.0766 0.0000 0.0000 22.8076 0.0000 0.0000 -5.1624 -0.1164 2.5739 4.6575 0.0000 0.0000 4.5094 0.0000 0.0000 2.6053 -0.1832 3.2723 1.6097 0.0000 0.0000 1.4236 0.0000 0.0000 4.8107 0.2082 4.8547 5.1131 0.0000 0.0000 0.7633 0.0000 0.0000 9.6344 0.8286 7.1032 6.6201 0.0000 0.0000 3.7126 0.0000 0.0000 0.0000 0.0000 0.0000 75.6859 -18.2016 23.3016 174.1979 75.3954 265.5522 -43.2857 -32.7655 18.4959 -55.9815 -10.9097 -6.5992 6.4411 0.0000 0.0000 18.4433 0.0000 0.0000 48.1761 -7.1512 37.0336 39.0203 0.0000 0.0000 23.7063 0.0000 0.0000 33.4885 -10.3925 38.4094 37.6096 0.0000 0.0000 22.3942 0.0000 0.0000 19.1572 -11.6428 39.4808 38.2395 0.0000 0.0000 21.1702 0.0000 0.0000 3.8531 -13.6610 40.0763 35.3911 0.0000 0.0000 19.7219 0.0000 0.0000 0.0000 0.0000 0.0000 0.0000 0.0000 0.0000 0.0000 0.0000 0.0000 0.0000 0.0000 0.0000 0.0000 0.0000 0.0000 0.0000 0.0000 0.0000
0.0000 95.0000 0.0000 0.0000 0.0000 0.0000 0.0000 0.0000 0.0000 0.0000 0.0000 0.0000 0.0000 0.0000 0.0000 0.0000 0.0000 0.0000 0.0000 0.0000 0.0000 0.0000 0.0000 0.0000 -63.7520 -12.0852 -19.3211 -125.5770 73.6965 -234.8323 -266.0518 40.2705 107.5992 9.4345 2.8478 8.0446 7.4318 0.0000 0.0000 25.4034 0.0000 0.0000 -6.8358 -0.1735 3.9805 7.3896 0.0000 0.0000 5.8386 0.0000 0.0000 -5.5749 0.6729 8.9828 14.5345 0.0000 0.0000 9.3434 0.0000 0.0000 -1.5367 1.5854 9.6259 12.6523 0.0000 0.0000 8.6012 0.0000 0.0000 6.5817 2.2446 11.0559 18.7426 0.0000 0.0000 11.8929 0.0000 0.0000 0.0000 0.0000 0.0000 74.5395 -17.8331 23.2996 201.2118 69.9326 294.3429 -74.5329 -37.4437 65.6138 -60.9350 -11.4990 -11.7752 2.8021 0.0000 0.0000 14.7018 0.0000 0.0000 27.9371 0.7983 6.8511 110.0000 0.0000 0.0000 24.8650 0.0000 0.0000 13.2591 -0.6724 10.5525 110.0000 0.0000 0.0000 23.0499 0.0000 0.0000 -0.2500 -1.6597 11.8994 110.0000 0.0000 0.0000 21.2964 0.0000 0.0000 -11.9358 -2.9565 10.5621 110.0000 0.0000 0.0000 18.6700 0.0000 0.0000 0.0000 0.0000 0.0000 0.0000 0.0000 0.0000 0.0000 0.0000 0.0000 0.0000 0.0000 0.0000 0.0000 0.0000 0.0000 0.0000 0.0000 0.0000
0.0000 95.0000 0.0000 0.0000 0.0000 0.0000 0.0000 0.0000 0.0000 0.0000 0.0000 0.0000 0.0000 0.0000 0.0000 0.0000 0.0000 0.0000 0.0000 0.0000 0.0000 0.0000 0.0000 0.0000 -62.9389 -11.7687 -19.1163 -135.2779 78.8350 -242.0975 -235.5038 39.9954 124.3382 4.3512 5.2620 8.7934 2.2722 0.0000 0.0000 23.9105 0.0000 0.0000 6.4107 -2.1703 7.7671 5.9209 0.0000 0.0000 2.1981 0.0000 0.0000 14.8077 -1.6926 8.1987 6.8208 0.0000 0.0000 5.2702 0.0000 0.0000 16.0019 -0.8909 7.8004 1.8255 0.0000 0.0000 5.3286 0.0000 0.0000 26.0547 -1.3028 8.5190 8.7003 0.0000 0.0000 12.1597 0.0000 0.0000 0.0000 0.0000 0.0000 73.6563 -17.1626 22.7861 220.3881 68.4396 311.8353 -56.5785 -33.6537 59.0238 -62.2944 -12.2921 -7.6382 6.8620 0.0000 0.0000 21.2333 0.0000 0.0000 40.4889 -1.0794 16.3586 110.0000 0.0000 0.0000 38.7951 0.0000 0.0000 29.7080 -4.1861 20.4634 110.0000 0.0000 0.0000 42.9068 0.0000 0.0000 18.3670 -5.8490 22.2904 110.0000 0.0000 0.0000 34.3076 0.0000 0.0000 6.1503 -8.5119 24.5281 110.0000 0.0000 0.0000 34.2312 0.0000 0.0000 0.0000 0.0000 0.0000 0.0000 0.0000 0.0000 0.0000 0.0000 0.0000 0.0000 0.0000 0.0000 0.0000 0.0000 0.0000 0.0000 0.0000 0.0000
0.0000 95.0000 0.0000 0.0000 0.0000 0.0000 0.0000 0.0000 0.0000 0.0000 0.0000 0.0000 0.0000 0.0000 0.0000 0.0000 0.0000 0.0000 0.0000 0.0000 0.0000 0.0000 0.0000 0.0000 -61.9064 -10.9857 -18.2183 -118.1251 84.6365 -221.7582 -211.5675 34.0209 137.2147 0.6090 8.2367 10.6376 1.4675 0.0000 0.0000 24.5474 0.0000 0.0000 13.9367 -5.0849 14.1037 1.7329 0.0000 0.0000 4.0160 0.0000 0.0000 23.6379 -4.3652 15.8726 0.7221 0.0000 0.0000 7.8400 0.0000 0.0000 26.8314 -3.1205 16.8738 2.4466 0.0000 0.0000 5.4747 0.0000 0.0000 39.1434 -3.6419 17.9082 5.3624 0.0000 0.0000 10.9063 0.0000 0.0000 0.0000 0.0000 0.0000 72.6202 -16.8913 22.8466 237.0186 70.7533 325.0067 -27.4794 -22.6228 70.7564 -91.1287 -19.7906 -11.6007 6.6683 0.0000 0.0000 17.8375 0.0000 0.0000 72.1885 -0.3825 7.7214 28.0615 0.0000 0.0000 13.9464 0.0000 0.0000 56.9689 -3.0052 10.3074 38.3578 0.0000 0.0000 30.6104 0.0000 0.0000 50.7710 -3.8447 10.8118 45.9936 0.0000 0.0000 45.0708 0.0000 0.0000 48.3763 -4.5676 10.4483 59.9867 0.0000 0.0000 90.0000 0.0000 0.0000 0.0000 0.0000 0.0000 0.0000 0.0000 0.0000 0.0000 0.0000 0.0000 0.0000 0.0000 0.0000 0.0000 0.0000 0.0000 0.0000 0.0000 0.0000
0.0000 95.0000 0.0000 0.0000 0.0000 0.0000 0.0000 0.0000 0.0000 0.0000 0.0000 0.0000 0.0000 0.0000 0.0000 0.0000 0.0000 0.0000 0.0000 0.0000 0.0000 0.0000 0.0000 0.0000 -61.6589 -11.0153 -18.3553 -16.5374 83.2487 -112.4377 -367.3869 10.2711 28.8452 99.4821 -13.8126 -24.7059 5.3353 0.0000 0.0000 14.2842 0.0000 0.0000 -36.1395 -9.2940 -71.2897 8.2216 0.0000 0.0000 5.2417 0.0000 0.0000 -24.7954 -15.5659 -68.5165 12.7455 0.0000 0.0000 11.8344 0.0000 0.0000 -23.9225 -20.0238 -56.2514 33.8923 0.0000 0.0000 18.1182 0.0000 0.0000 -36.0730 -27.2626 -43.1827 33.6916 0.0000 0.0000 14.4539 0.0000 0.0000 0.0000 0.0000 0.0000 72.8674 -16.0597 21.6387 259.2516 72.5114 343.4226 -165.8495 -8.4178 133.7594 11.1690 21.4787 -18.1277 9.1435 0.0000 0.0000 2.7156 0.0000 0.0000 -56.1256 -54.7491 -61.9599 6.4477 0.0000 0.0000 25.9337 0.0000 0.0000 -47.8819 -51.9016 -90.4790 4.0214 0.0000 0.0000 27.1615 0.0000 0.0000 -48.9067 -42.8786 -98.8254 20.1404 0.0000 0.0000 3.9786 0.0000 0.0000 -51.4279 -30.6378 -109.8170 32.4041 0.0000 0.0000 18.5106 0.0000 0.0000 0.0000 0.0000 0.0000 0.0000 0.0000 0.0000 0.0000 0.0000 0.0000 0.0000 0.0000 0.0000 0.0000 0.0000 0.0000 0.0000 0.0000 0.0000
0.0000 95.0000 0.0000 0.0000 0.0000 0.0000 0.0000 0.0000 0.0000 0.0000 0.0000 0.0000 0.0000 0.0000 0.0000 0.0000 0.0000 0.0000 0.0000 0.0000 0.0000 0.0000 0.0000 0.0000 -62.3676 -11.7694 -19.3292 31.6400 76.9652 -56.1425 -321.5458 55.6848 16.5692 -3.1366 17.9697 19.6629 16.9161 0.0000 0.0000 2.6902 0.0000 0.0000 -7.0634 -0.6073 7.7629 3.7055 0.0000 0.0000 9.3105 0.0000 0.0000 13.5197 -1.6755 9.2931 6.4774 0.0000 0.0000 6.5001 0.0000 0.0000 25.5358 -2.3974 11.5933 7.8889 0.0000 0.0000 4.9042 0.0000 0.0000 36.0816 -2.9841 20.4052 7.8982 0.0000 0.0000 2.1376 0.0000 0.0000 0.0000 0.0000 0.0000 75.8648 -14.4860 18.5230 267.4077 68.3455 350.0546 -143.7891 -26.0340 128.0887 5.3738 10.7108 -10.3814 2.2016 0.0000 0.0000 4.2541 0.0000 0.0000 22.9654 1.8115 -35.9966 11.9519 0.0000 0.0000 22.6254 0.0000 0.0000 4.0627 0.7355 -15.7426 9.2118 0.0000 0.0000 10.8556 0.0000 0.0000 -4.7960 1.2766 -15.5127 16.3303 0.0000 0.0000 10.9853 0.0000 0.0000 -31.9154 -1.8945 -22.1460 17.4243 0.0000 0.0000 19.5405 0.0000 0.0000 0.0000 0.0000 0.0000 0.0000 0.0000 0.0000 0.0000 0.0000 0.0000 0.0000 0.0000 0.0000 0.0000 0.0000 0.0000 0.0000 0.0000 0.0000
0.0000 95.0000 0.0000 0.0000 0.0000 0.0000 0.0000 0.0000 0.0000 0.0000 0.0000 0.0000 0.0000 0.0000 0.0000 0.0000 0.0000 0.0000 0.0000 0.0000 0.0000 0.0000 0.0000 0.0000 -62.5820 -12.0551 -19.7110 44.9519 71.5030 -38.9775 -297.8743 21.4225 85.5354 62.2265 -12.8993 1.2362 13.8194 0.0000 0.0000 12.6756 0.0000 0.0000 -0.5349 0.2241 -1.1292 4.3638 0.0000 0.0000 3.8613 0.0000 0.0000 -0.1924 0.0109 1.7225 1.5212 0.0000 0.0000 2.9297 0.0000 0.0000 8.5125 -0.2604 3.2778 1.5351 0.0000 0.0000 3.8048 0.0000 0.0000 12.7689 0.0423 5.2565 1.1357 0.0000 0.0000 4.0410 0.0000 0.0000 0.0000 0.0000 0.0000 77.4345 -14.0722 17.5054 269.5883 66.5544 351.2769 -119.6117 -30.3836 101.2286 -3.5658 3.2054 -5.6616 9.7496 0.0000 0.0000 14.1492 0.0000 0.0000 14.8110 0.7772 2.3000 0.5683 0.0000 0.0000 5.2382 0.0000 0.0000 -8.3265 -0.2114 1.8683 2.1864 0.0000 0.0000 2.0277 0.0000 0.0000 -13.6553 -0.7584 -0.0849 2.6483 0.0000 0.0000 1.8857 0.0000 0.0000 -28.4063 -1.7042 -7.3607 10.7580 0.0000 0.0000 3.8621 0.0000 0.0000 0.0000 0.0000 0.0000 0.0000 0.0000 0.0000 0.0000 0.0000 0.0000 0.0000 0.0000 0.0000 0.0000 0.0000 0.0000 0.0000 0.0000 0.0000
0.0000 95.0000 0.0000 0.0000 0.0000 0.0000 0.0000 0.0000 0.0000 0.0000 0.0000 0.0000 0.0000 0.0000 0.0000 0.0000 0.0000 0.0000 0.0000 0.0000 0.0000 0.0000 0.0000 0.0000 -62.6725 -12.2106 -19.9272 49.5710 67.9823 -32.2139 -297.1247 18.9248 80.2259 61.7618 -12.8167 1.2061 12.1873 0.0000 0.0000 11.1717 0.0000 0.0000 -1.1080 0.1262 -0.4419 4.5588 0.0000 0.0000 3.6231 0.0000 0.0000 -0.3089 0.0196 2.4816 1.9683 0.0000 0.0000 2.4435 0.0000 0.0000 8.1377 -0.2032 3.6482 1.7560 0.0000 0.0000 3.4941 0.0000 0.0000 12.6461 0.0904 5.4302 1.3512 0.0000 0.0000 3.7940 0.0000 0.0000 0.0000 0.0000 0.0000 78.2506 -13.8165 16.9441 268.7568 65.6659 350.5347 -116.6548 -22.9354 99.8851 -9.4564 3.5121 -9.0377 7.4006 0.0000 0.0000 15.9469 0.0000 0.0000 14.6602 0.6125 -0.8162 3.6887 0.0000 0.0000 2.6361 0.0000 0.0000 -7.7028 -0.4225 -1.4976 4.9531 0.0000 0.0000 0.8456 0.0000 0.0000 -13.8245 -0.7068 -3.3093 3.5568 0.0000 0.0000 1.6867 0.0000 0.0000 -23.4642 -1.0978 -6.6669 2.0176 0.0000 0.0000 2.0909 0.0000 0.0000 0.0000 0.0000 0.0000 0.0000 0.0000 0.0000 0.0000 0.0000 0.0000 0.0000 0.0000 0.0000 0.0000 0.0000 0.0000 0.0000 0.0000 0.0000
0.0000 95.0000 0.0000 0.0000 0.0000 0.0000 0.0000 0.0000 0.0000 0.0000 0.0000 0.0000 0.0000 0.0000 0.0000 0.0000 0.0000 0.0000 0.0000 0.0000 0.0000 0.0000 0.0000 0.0000 -62.9570 -12.4042 -20.1287 55.7188 65.1847 -24.9147 -295.7129 19.6331 76.5459 61.6518 -12.9030 0.1517 11.8628 0.0000 0.0000 7.9829 0.0000 0.0000 -2.1078 0.0896 0.0363 3.8423 0.0000 0.0000 3.4706 0.0000 0.0000 -0.0987 0.0066 2.9094 1.5640 0.0000 0.0000 2.3075 0.0000 0.0000 8.3416 -0.1758 4.3197 1.4484 0.0000 0.0000 2.9324 0.0000 0.0000 13.5454 0.0345 5.7245 0.8649 0.0000 0.0000 2.7437 0.0000 0.0000 0.0000 0.0000 0.0000 78.7976 -13.5629 16.4755 268.4509 65.3451 350.3513 -115.4424 -19.1033 101.7293 -10.4718 4.7723 -11.4740 6.3218 0.0000 0.0000 12.0545 0.0000 0.0000 16.5942 0.6599 -2.3015 2.8359 0.0000 0.0000 4.1773 0.0000 0.0000 -4.2420 -0.2157 -1.0483 5.4680 0.0000 0.0000 1.5578 0.0000 0.0000 -11.5062 -0.4793 -4.1199 4.3070 0.0000 0.0000 2.8080 0.0000 0.0000 -28.5815 -1.5009 -12.0168 10.9327 0.0000 0.0000 5.0815 0.0000 0.0000 0.0000 0.0000 0.0000 0.0000 0.0000 0.0000 0.0000 0.0000 0.0000 0.0000 0.0000 0.0000 0.0000 0.0000 0.0000 0.0000 0.0000 0.0000
0.0000 95.0000 0.0000 0.0000 0.0000 0.0000 0.0000 0.0000 0.0000 0.0000 0.0000 0.0000 0.0000 0.0000 0.0000 0.0000 0.0000 0.0000 0.0000 0.0000 0.0000 0.0000 0.0000 0.0000 -63.0115 -12.4275 -20.1451 57.7155 63.7817 -22.4217 -295.8844 17.8309 72.9618 61.9658 -12.9424 0.3096 13.5246 0.0000 0.0000 10.2504 0.0000 0.0000 -1.1871 0.1371 -0.4867 4.2738 0.0000 0.0000 3.5046 0.0000 0.0000 -0.4192 0.0280 2.8745 1.8956 0.0000 0.0000 2.0238 0.0000 0.0000 7.4956 -0.1150 4.0737 1.1923 0.0000 0.0000 2.6399 0.0000 0.0000 11.8473 0.2013 5.4956 1.3079 0.0000 0.0000 3.2660 0.0000 0.0000 0.0000 0.0000 0.0000 79.3507 -13.5425 16.2921 266.0915 64.8802 348.4387 -113.9404 -19.0920 101.5670 -11.1246 4.4436 -11.3671 7.0292 0.0000 0.0000 11.5934 0.0000 0.0000 14.4853 0.4503 -3.6882 3.9440 0.0000 0.0000 3.0751 0.0000 0.0000 -6.1425 -0.3822 -2.3429 5.0228 0.0000 0.0000 1.2715 0.0000 0.0000 -13.8833 -0.6757 -5.2564 3.8605 0.0000 0.0000 3.0471 0.0000 0.0000 -30.7588 -1.8631 -12.8079 7.9388 0.0000 0.0000 5.9759 0.0000 0.0000 0.0000 0.0000 0.0000 0.0000 0.0000 0.0000 0.0000 0.0000 0.0000 0.0000 0.0000 0.0000 0.0000 0.0000 0.0000 0.0000 0.0000 0.0000
0.0000 95.0000 0.0000 0.0000 0.0000 0.0000 0.0000 0.0000 0.0000 0.0000 0.0000 0.0000 0.0000 0.0000 0.0000 0.0000 0.0000 0.0000 0.0000 0.0000 0.0000 0.0000 0.0000 0.0000 -63.3553 -12.1753 -19.6115 58.6150 63.8889 -21.9756 -296.0069 18.0458 72.2587 61.2952 -12.7983 0.5583 12.7929 0.0000 0.0000 9.5628 0.0000 0.0000 -1.7717 0.1748 -0.5701 3.5654 0.0000 0.0000 3.4854 0.0000 0.0000 0.0425 -0.0029 2.9722 1.7376 0.0000 0.0000 2.4375 0.0000 0.0000 7.7869 -0.1390 4.1107 1.3123 0.0000 0.0000 2.9950 0.0000 0.0000 12.8303 -0.0058 5.0422 1.1281 0.0000 0.0000 2.9931 0.0000 0.0000 0.0000 0.0000 0.0000 79.6570 -13.5021 16.1568 265.3964 65.1686 347.8868 -114.5291 -18.2918 102.1482 -11.6694 4.8124 -12.2493 6.2831 0.0000 0.0000 12.7545 0.0000 0.0000 14.1770 0.3831 -4.4641 4.8646 0.0000 0.0000 4.9092 0.0000 0.0000 -6.6262 -0.4211 -2.4923 6.6337 0.0000 0.0000 1.3141 0.0000 0.0000 -12.7699 -0.5760 -4.7901 4.2931 0.0000 0.0000 2.2912 0.0000 0.0000 -28.1396 -1.5119 -10.3288 7.2927 0.0000 0.0000 4.4884 0.0000 0.0000 0.0000 0.0000 0.0000 0.0000 0.0000 0.0000 0.0000 0.0000 0.0000 0.0000 0.0000 0.0000 0.0000 0.0000 0.0000 0.0000 0.0000 0.0000
0.0000 95.0000 0.0000 0.0000 0.0000 0.0000 0.0000 0.0000 0.0000 0.0000 0.0000 0.0000 0.0000 0.0000 0.0000 0.0000 0.0000 0.0000 0.0000 0.0000 0.0000 0.0000 0.0000 0.0000 -63.9904 -12.2727 -19.5283 61.3269 63.7226 -19.3917 -295.7239 18.0638 73.1538 61.5101 -12.7924 0.9908 13.1151 0.0000 0.0000 9.5315 0.0000 0.0000 -1.7670 0.1659 -0.5175 3.7646 0.0000 0.0000 3.1799 0.0000 0.0000 -0.1615 0.0105 2.6473 1.9105 0.0000 0.0000 2.2599 0.0000 0.0000 7.4385 -0.1480 3.5664 1.4073 0.0000 0.0000 3.0566 0.0000 0.0000 12.3366 -0.0595 4.4628 0.9131 0.0000 0.0000 3.5627 0.0000 0.0000 0.0000 0.0000 0.0000 79.8450 -13.1256 15.6563 265.1350 66.0848 348.1126 -114.3299 -19.5907 101.3924 -10.4058 4.5618 -11.1230 8.0599 0.0000 0.0000 15.5897 0.0000 0.0000 13.4689 0.3895 -3.4153 5.3904 0.0000 0.0000 5.2178 0.0000 0.0000 -7.0114 -0.3935 -1.6442 5.7060 0.0000 0.0000 1.8439 0.0000 0.0000 -14.1058 -0.7224 -3.7981 4.4927 0.0000 0.0000 1.9194 0.0000 0.0000 -28.9212 -1.6807 -9.4079 7.1857 0.0000 0.0000 5.3544 0.0000 0.0000 0.0000 0.0000 0.0000 0.0000 0.0000 0.0000 0.0000 0.0000 0.0000 0.0000 0.0000 0.0000 0.0000 0.0000 0.0000 0.0000 0.0000 0.0000
0.0000 95.0000 0.0000 0.0000 0.0000 0.0000 0.0000 0.0000 0.0000 0.0000 0.0000 0.0000 0.0000 0.0000 0.0000 0.0000 0.0000 0.0000 0.0000 0.0000 0.0000 0.0000 0.0000 0.0000 -64.2749 -12.3402 -19.5284 60.4775 63.9683 -19.9813 -296.8861 17.9299 73.0719 64.6065 -13.4412 -0.1611 14.4629 0.0000 0.0000 11.1212 0.0000 0.0000 -3.3189 0.4020 -1.6581 6.9119 0.0000 0.0000 4.9803 0.0000 0.0000 -2.6170 0.1663 2.4974 2.8780 0.0000 0.0000 2.9120 0.0000 0.0000 6.5922 -0.0934 3.3353 0.1594 0.0000 0.0000 3.3206 0.0000 0.0000 11.1206 0.0652 4.3958 3.1947 0.0000 0.0000 2.4313 0.0000 0.0000 0.0000 0.0000 0.0000 79.7745 -13.2244 15.7932 265.3287 66.2105 348.1739 -116.9760 -19.8791 106.3863 -9.4231 5.0571 -11.2804 7.2837 0.0000 0.0000 13.3858 0.0000 0.0000 9.3060 -0.7298 -11.5230 45.8393 0.0000 0.0000 32.3941 0.0000 0.0000 -8.2916 -0.6663 -4.4012 24.4891 0.0000 0.0000 10.7422 0.0000 0.0000 -16.8309 -0.9844 -6.5646 13.7817 0.0000 0.0000 5.2469 0.0000 0.0000 -33.0225 -2.3130 -9.1032 29.2437 0.0000 0.0000 14.5113 0.0000 0.0000 0.0000 0.0000 0.0000 0.0000 0.0000 0.0000 0.0000 0.0000 0.0000 0.0000 0.0000 0.0000 0.0000 0.0000 0.0000 0.0000 0.0000 0.0000
0.0000 95.0000 0.0000 0.0000 0.0000 0.0000 0.0000 0.0000 0.0000 0.0000 0.0000 0.0000 0.0000 0.0000 0.0000 0.0000 0.0000 0.0000 0.0000 0.0000 0.0000 0.0000 0.0000 0.0000 -64.6262 -12.7212 -19.9905 53.5865 62.8990 -24.1075 -235.4779 26.4010 76.3148 95.1564 -9.1515 -49.4037 18.0009 0.0000 0.0000 27.4225 0.0000 0.0000 42.6270 21.9680 -38.7528 51.3342 0.0000 0.0000 13.5129 0.0000 0.0000 61.8727 29.1549 -51.6843 35.8791 0.0000 0.0000 10.8807 0.0000 0.0000 72.0937 29.2216 -59.7008 28.1030 0.0000 0.0000 9.2566 0.0000 0.0000 78.8436 25.5714 -69.9433 23.9284 0.0000 0.0000 7.1407 0.0000 0.0000 0.0000 0.0000 0.0000 79.4789 -13.9568 16.7507 271.9375 65.3135 352.0849 -138.7111 -36.6847 124.7672 14.4877 25.2088 -19.5038 22.3680 0.0000 0.0000 3.5028 0.0000 0.0000 -15.7964 -20.7144 -55.1797 45.9755 0.0000 0.0000 9.7263 0.0000 0.0000 -38.7110 -28.8192 -67.5932 33.1249 0.0000 0.0000 7.7342 0.0000 0.0000 -46.3171 -21.9111 -62.6199 44.2454 0.0000 0.0000 11.7586 0.0000 0.0000 -60.5679 -18.1861 -52.9993 54.3684 0.0000 0.0000 13.0851 0.0000 0.0000 0.0000 0.0000 0.0000 0.0000 0.0000 0.0000 0.0000 0.0000 0.0000 0.0000 0.0000 0.0000 0.0000 0.0000 0.0000 0.0000 0.0000 0.0000
0.0000 95.0000 0.0000 0.0000 0.0000 0.0000 0.0000 0.0000 0.0000 0.0000 0.0000 0.0000 0.0000 0.0000 0.0000 0.0000 0.0000 0.0000 0.0000 0.0000 0.0000 0.0000 0.0000 0.0000 -64.1352 -13.0650 -20.7158 43.5165 60.5748 -30.4517 -411.8598 45.8433 -38.4348 70.9159 -15.1795 -35.7817 7.2588 0.0000 0.0000 24.4113 0.0000 0.0000 -22.2695 0.4134 -37.9100 6.4596 0.0000 0.0000 4.2325 0.0000 0.0000 -17.8586 -6.1539 -42.5458 10.4430 0.0000 0.0000 6.7526 0.0000 0.0000 -12.3832 -9.9238 -41.0868 13.0507 0.0000 0.0000 3.8670 0.0000 0.0000 -16.1251 -12.4830 -29.3564 19.7618 0.0000 0.0000 10.0649 0.0000 0.0000 0.0000 0.0000 0.0000 78.5819 -14.2884 17.4183 283.7656 64.4995 360.3772 -220.8711 -37.2692 203.4113 -31.7624 13.5564 -46.1455 18.3421 0.0000 0.0000 1.8187 0.0000 0.0000 -12.3455 -9.9285 -30.5378 11.5147 0.0000 0.0000 7.8465 0.0000 0.0000 -24.4094 -9.5567 -37.4886 16.0194 0.0000 0.0000 7.4135 0.0000 0.0000 -31.4755 -7.1033 -37.2300 18.3214 0.0000 0.0000 7.3329 0.0000 0.0000 -43.0120 -6.0374 -35.3647 19.4090 0.0000 0.0000 11.7581 0.0000 0.0000 0.0000 0.0000 0.0000 0.0000 0.0000 0.0000 0.0000 0.0000 0.0000 0.0000 0.0000 0.0000 0.0000 0.0000 0.0000 0.0000 0.0000 0.0000
0.0000 95.0000 0.0000 0.0000 0.0000 0.0000 0.0000 0.0000 0.0000 0.0000 0.0000 0.0000 0.0000 0.0000 0.0000 0.0000 0.0000 0.0000 0.0000 0.0000 0.0000 0.0000 0.0000 0.0000 -62.7623 -13.1237 -21.3597 27.4430 54.7926 -40.1904 -333.6375 55.3663 29.8505 72.1321 -15.2879 -66.0566 20.5259 0.0000 0.0000 8.9443 0.0000 0.0000 -42.3342 -13.4880 -71.5690 7.8265 0.0000 0.0000 4.3990 0.0000 0.0000 -33.7944 -24.1482 -75.0768 9.1259 0.0000 0.0000 7.2378 0.0000 0.0000 -27.1639 -29.5105 -72.1933 8.0860 0.0000 0.0000 9.6722 0.0000 0.0000 -32.4720 -33.2599 -54.1376 14.4441 0.0000 0.0000 10.9550 0.0000 0.0000 0.0000 0.0000 0.0000 77.6955 -14.2692 17.6678 299.9695 62.2132 371.6834 -242.8346 -38.0172 220.5437 -24.7253 18.1200 -44.6426 17.2904 0.0000 0.0000 7.4978 0.0000 0.0000 -0.1356 -5.2745 -27.9115 12.5368 0.0000 0.0000 7.2938 0.0000 0.0000 -11.1980 -3.8572 -33.1424 15.4646 0.0000 0.0000 7.4613 0.0000 0.0000 -19.7265 -2.2302 -33.1217 19.0519 0.0000 0.0000 9.2418 0.0000 0.0000 -31.5724 -1.5214 -33.9521 21.7176 0.0000 0.0000 15.5804 0.0000 0.0000 0.0000 0.0000 0.0000 0.0000 0.0000 0.0000 0.0000 0.0000 0.0000 0.0000 0.0000 0.0000 0.0000 0.0000 0.0000 0.0000 0.0000 0.0000
0.0000 95.0000 0.0000 0.0000 0.0000 0.0000 0.0000 0.0000 0.0000 0.0000 0.0000 0.0000 0.0000 0.0000 0.0000 0.0000 0.0000 0.0000 0.0000 0.0000 0.0000 0.0000 0.0000 0.0000 -61.7358 -12.4808 -20.7341 9.6026 46.3205 -50.3879 -418.0289 55.6050 -53.9310 64.2870 -16.1347 -36.6675 27.1128 0.0000 0.0000 19.3164 0.0000 0.0000 -27.0355 -0.6679 -32.5200 3.4808 0.0000 0.0000 3.0978 0.0000 0.0000 -15.2738 -4.2280 -35.5560 4.8907 0.0000 0.0000 7.3620 0.0000 0.0000 -6.7044 -6.8390 -35.3955 6.2278 0.0000 0.0000 10.4852 0.0000 0.0000 -2.6321 -9.7101 -29.7545 8.6962 0.0000 0.0000 9.3474 0.0000 0.0000 0.0000 0.0000 0.0000 78.0288 -13.6544 16.8117 317.0759 59.9238 383.6771 -222.0573 -46.6646 202.2083 -39.5682 11.9665 -55.2540 18.5369 0.0000 0.0000 11.9532 0.0000 0.0000 -10.3480 -11.6489 -38.3074 13.3589 0.0000 0.0000 8.8656 0.0000 0.0000 -19.9744 -8.7573 -42.2289 24.5978 0.0000 0.0000 35.7013 0.0000 0.0000 -27.3175 -6.4508 -45.8861 38.8407 0.0000 0.0000 59.3852 0.0000 0.0000 -35.3026 -3.1287 -47.1715 30.0867 0.0000 0.0000 65.6080 0.0000 0.0000 0.0000 0.0000 0.0000 0.0000 0.0000 0.0000 0.0000 0.0000 0.0000 0.0000 0.0000 0.0000 0.0000 0.0000 0.0000 0.0000 0.0000 0.0000
0.0000 95.0000 0.0000 0.0000 0.0000 0.0000 0.0000 0.0000 0.0000 0.0000 0.0000 0.0000 0.0000 0.0000 0.0000 0.0000 0.0000 0.0000 0.0000 0.0000 0.0000 0.0000 0.0000 0.0000 -62.5831 -11.6401 -19.0400 -5.3872 34.7842 -53.8117 -473.1372 57.9255 -115.4924 46.2826 -12.7957 -10.9803 17.7830 0.0000 0.0000 9.5412 0.0000 0.0000 -17.8730 1.2834 -20.6017 6.0672 0.0000 0.0000 2.3438 0.0000 0.0000 -9.8924 -1.6286 -23.4253 4.9774 0.0000 0.0000 2.7300 0.0000 0.0000 -1.2404 -3.5828 -23.9813 8.7549 0.0000 0.0000 4.5537 0.0000 0.0000 10.3767 -5.4835 -22.4136 10.6655 0.0000 0.0000 3.3429 0.0000 0.0000 0.0000 0.0000 0.0000 79.0320 -11.7124 14.1771 334.7299 54.6875 394.9687 -245.5678 -49.4806 221.4015 -28.4957 13.3435 -41.4696 16.9411 0.0000 0.0000 9.7765 0.0000 0.0000 2.3974 -4.2100 -26.2108 19.6071 0.0000 0.0000 17.0271 0.0000 0.0000 -7.0302 -2.1187 -28.7338 21.3462 0.0000 0.0000 7.6225 0.0000 0.0000 -15.9073 -0.8640 -29.1200 28.3955 0.0000 0.0000 8.6193 0.0000 0.0000 -24.4274 0.6230 -27.5261 24.0358 0.0000 0.0000 14.6768 0.0000 0.0000 0.0000 0.0000 0.0000 0.0000 0.0000 0.0000 0.0000 0.0000 0.0000 0.0000 0.0000 0.0000 0.0000 0.0000 0.0000 0.0000 0.0000 0.0000
0.0000 95.0000 0.0000 0.0000 0.0000 0.0000 0.0000 0.0000 0.0000 0.0000 0.0000 0.0000 0.0000 0.0000 0.0000 0.0000 0.0000 0.0000 0.0000 0.0000 0.0000 0.0000 0.0000 0.0000 -65.6512 -10.0346 -15.5000 -17.7740 19.9669 -45.1744 -520.8230 53.9271 -162.4821 46.2826 -12.7957 -10.9803 17.7830 0.0000 0.0000 9.5412 0.0000 0.0000 -17.8730 1.2834 -20.6017 6.0672 0.0000 0.0000 2.3438 0.0000 0.0000 -9.8924 -1.6286 -23.4253 4.9774 0.0000 0.0000 2.7300 0.0000 0.0000 -1.2404 -3.5828 -23.9813 8.7549 0.0000 0.0000 4.5537 0.0000 0.0000 10.3767 -5.4835 -22.4136 10.6655 0.0000 0.0000 3.3429 0.0000 0.0000 0.0000 0.0000 0.0000 79.5034 -9.3113 11.1840 349.3169 42.8060 397.9613 -243.6146 -68.0328 225.0589 -28.4957 13.3435 -41.4696 16.9411 0.0000 0.0000 9.7765 0.0000 0.0000 2.3974 -4.2100 -26.2108 19.6071 0.0000 0.0000 17.0271 0.0000 0.0000 -7.0302 -2.1187 -28.7338 21.3462 0.0000 0.0000 7.6225 0.0000 0.0000 -15.9073 -0.8640 -29.1200 28.3955 0.0000 0.0000 8.6193 0.0000 0.0000 -24.4274 0.6230 -27.5261 24.0358 0.0000 0.0000 14.6768 0.0000 0.0000 0.0000 0.0000 0.0000 0.0000 0.0000 0.0000 0.0000 0.0000 0.0000 0.0000 0.0000 0.0000 0.0000 0.0000 0.0000 0.0000 0.0000 0.0000
0.0000 95.0000 0.0000 0.0000 0.0000 0.0000 0.0000 0.0000 0.0000 0.0000 0.0000 0.0000 0.0000 0.0000 0.0000 0.0000 0.0000 0.0000 0.0000 0.0000 0.0000 0.0000 0.0000 0.0000 -67.9882 -8.2358 -12.1877 -24.6076 10.3213 -31.9507 -538.9661 37.6377 -185.8448 46.2826 -12.7957 -10.9803 17.7830 0.0000 0.0000 9.5412 0.0000 0.0000 -17.8730 1.2834 -20.6017 6.0672 0.0000 0.0000 2.3438 0.0000 0.0000 -9.8924 -1.6286 -23.4253 4.9774 0.0000 0.0000 2.7300 0.0000 0.0000 -1.2404 -3.5828 -23.9813 8.7549 0.0000 0.0000 4.5537 0.0000 0.0000 10.3767 -5.4835 -22.4136 10.6655 0.0000 0.0000 3.3429 0.0000 0.0000 0.0000 0.0000 0.0000 79.6796 -7.7161 9.2420 356.8959 32.4335 394.2311 -254.4658 -82.7568 242.1588 -28.4957 13.3435 -41.4696 16.9411 0.0000 0.0000 9.7765 0.0000 0.0000 2.3974 -4.2100 -26.2108 19.6071 0.0000 0.0000 17.0271 0.0000 0.0000 -7.0302 -2.1187 -28.7338 21.3462 0.0000 0.0000 7.6225 0.0000 0.0000 -15.9073 -0.8640 -29.1200 28.3955 0.0000 0.0000 8.6193 0.0000 0.0000 -24.4274 0.6230 -27.5261 24.0358 0.0000 0.0000 14.6768 0.0000 0.0000 0.0000 0.0000 0.0000 0.0000 0.0000 0.0000 0.0000 0.0000 0.0000 0.0000 0.0000 0.0000 0.0000 0.0000 0.0000 0.0000 0.0000 0.0000
0.0000 95.0000 0.0000 0.0000 0.0000 0.0000 0.0000 0.0000 0.0000 0.0000 0.0000 0.0000 0.0000 0.0000 0.0000 0.0000 0.0000 0.0000 0.0000 0.0000 0.0000 0.0000 0.0000 0.0000 -71.0844 -6.7879 -9.4908 -25.6369 5.5127 -19.2102 -541.2447 23.7142 -197.0501 46.2826 -12.7957 -10.9803 17.7830 0.0000 0.0000 9.5412 0.0000 0.0000 -17.8730 1.2834 -20.6017 6.0672 0.0000 0.0000 2.3438 0.0000 0.0000 -9.8924 -1.6286 -23.4253 4.9774 0.0000 0.0000 2.7300 0.0000 0.0000 -1.2404 -3.5828 -23.9813 8.7549 0.0000 0.0000 4.5537 0.0000 0.0000 10.3767 -5.4835 -22.4136 10.6655 0.0000 0.0000 3.3429 0.0000 0.0000 0.0000 0.0000 0.0000 80.1915 -6.7413 8.0030 360.1888 25.4824 389.0578 -364.5623 -85.1726 357.8634 -28.4957 13.3435 -41.4696 16.9411 0.0000 0.0000 9.7765 0.0000 0.0000 2.3974 -4.2100 -26.2108 19.6071 0.0000 0.0000 17.0271 0.0000 0.0000 -7.0302 -2.1187 -28.7338 21.3462 0.0000 0.0000 7.6225 0.0000 0.0000 -15.9073 -0.8640 -29.1200 28.3955 0.0000 0.0000 8.6193 0.0000 0.0000 -24.4274 0.6230 -27.5261 24.0358 0.0000 0.0000 14.6768 0.0000 0.0000 0.0000 0.0000 0.0000 0.0000 0.0000 0.0000 0.0000 0.0000 0.0000 0.0000 0.0000 0.0000 0.0000 0.0000 0.0000 0.0000 0.0000 0.0000
0.0000 95.0000 0.0000 0.0000 0.0000 0.0000 0.0000 0.0000 0.0000 0.0000 0.0000 0.0000 0.0000 0.0000 0.0000 0.0000 0.0000 0.0000 0.0000 0.0000 0.0000 0.0000 0.0000 0.0000 -73.5064 -5.0347 -6.7381 -25.2462 1.9734 -8.8064 -539.0675 12.7705 -205.3293 46.2826 -12.7957 -10.9803 17.7830 0.0000 0.0000 9.5412 0.0000 0.0000 -17.8730 1.2834 -20.6017 6.0672 0.0000 0.0000 2.3438 0.0000 0.0000 -9.8924 -1.6286 -23.4253 4.9774 0.0000 0.0000 2.7300 0.0000 0.0000 -1.2404 -3.5828 -23.9813 8.7549 0.0000 0.0000 4.5537 0.0000 0.0000 10.3767 -5.4835 -22.4136 10.6655 0.0000 0.0000 3.3429 0.0000 0.0000 0.0000 0.0000 0.0000 80.9692 -5.6211 6.5831 362.0504 20.3469 384.1929 -384.8079 -77.7765 383.5202 -28.4957 13.3435 -41.4696 16.9411 0.0000 0.0000 9.7765 0.0000 0.0000 2.3974 -4.2100 -26.2108 19.6071 0.0000 0.0000 17.0271 0.0000 0.0000 -7.0302 -2.1187 -28.7338 21.3462 0.0000 0.0000 7.6225 0.0000 0.0000 -15.9073 -0.8640 -29.1200 28.3955 0.0000 0.0000 8.6193 0.0000 0.0000 -24.4274 0.6230 -27.5261 24.0358 0.0000 0.0000 14.6768 0.0000 0.0000 0.0000 0.0000 0.0000 0.0000 0.0000 0.0000 0.0000 0.0000 0.0000 0.0000 0.0000 0.0000 0.0000 0.0000 0.0000 0.0000 0.0000 0.0000
0.0000 95.0000 0.0000 0.0000 0.0000 0.0000 0.0000 0.0000 0.0000 0.0000 0.0000 0.0000 0.0000 0.0000 0.0000 0.0000 0.0000 0.0000 0.0000 0.0000 0.0000 0.0000 0.0000 0.0000 -75.8831 -4.1529 -5.3252 -23.3857 0.2265 -3.5412 -536.8582 7.7193 -209.5328 46.2826 -12.7957 -10.9803 17.7830 0.0000 0.0000 9.5412 0.0000 0.0000 -17.8730 1.2834 -20.6017 6.0672 0.0000 0.0000 2.3438 0.0000 0.0000 -9.8924 -1.6286 -23.4253 4.9774 0.0000 0.0000 2.7300 0.0000 0.0000 -1.2404 -3.5828 -23.9813 8.7549 0.0000 0.0000 4.5537 0.0000 0.0000 10.3767 -5.4835 -22.4136 10.6655 0.0000 0.0000 3.3429 0.0000 0.0000 0.0000 0.0000 0.0000 82.2507 -5.1483 5.8951 362.0577 17.5082 380.5171 -385.8727 -73.2102 388.1375 -28.4957 13.3435 -41.4696 16.9411 0.0000 0.0000 9.7765 0.0000 0.0000 2.3974 -4.2100 -26.2108 19.6071 0.0000 0.0000 17.0271 0.0000 0.0000 -7.0302 -2.1187 -28.7338 21.3462 0.0000 0.0000 7.6225 0.0000 0.0000 -15.9073 -0.8640 -29.1200 28.3955 0.0000 0.0000 8.6193 0.0000 0.0000 -24.4274 0.6230 -27.5261 24.0358 0.0000 0.0000 14.6768 0.0000 0.0000 0.0000 0.0000 0.0000 0.0000 0.0000 0.0000 0.0000 0.0000 0.0000 0.0000 0.0000 0.0000 0.0000 0.0000 0.0000 0.0000 0.0000 0.0000
0.0000 95.0000 0.0000 0.0000 0.0000 0.0000 0.0000 0.0000 0.0000 0.0000 0.0000 0.0000 0.0000 0.0000 0.0000 0.0000 0.0000 0.0000 0.0000 0.0000 0.0000 0.0000 0.0000 0.0000 -77.5979 -3.9064 -4.8578 -21.3908 -0.2694 -1.9482 -535.7369 6.4706 -210.8178 46.2826 -12.7957 -10.9803 17.7830 0.0000 0.0000 9.5412 0.0000 0.0000 -17.8730 1.2834 -20.6017 6.0672 0.0000 0.0000 2.3438 0.0000 0.0000 -9.8924 -1.6286 -23.4253 4.9774 0.0000 0.0000 2.7300 0.0000 0.0000 -1.2404 -3.5828 -23.9813 8.7549 0.0000 0.0000 4.5537 0.0000 0.0000 10.3767 -5.4835 -22.4136 10.6655 0.0000 0.0000 3.3429 0.0000 0.0000 0.0000 0.0000 0.0000 83.3384 -4.8841 5.4868 361.2797 16.3361 378.5237 -384.9276 -71.1706 389.1365 -28.4957 13.3435 -41.4696 16.9411 0.0000 0.0000 9.7765 0.0000 0.0000 2.3974 -4.2100 -26.2108 19.6071 0.0000 0.0000 17.0271 0.0000 0.0000 -7.0302 -2.1187 -28.7338 21.3462 0.0000 0.0000 7.6225 0.0000 0.0000 -15.9073 -0.8640 -29.1200 28.3955 0.0000 0.0000 8.6193 0.0000 0.0000 -24.4274 0.6230 -27.5261 24.0358 0.0000 0.0000 14.6768 0.0000 0.0000 0.0000 0.0000 0.0000 0.0000 0.0000 0.0000 0.0000 0.0000 0.0000 0.0000 0.0000 0.0000 0.0000 0.0000 0.0000 0.0000 0.0000 0.0000
0.0000 95.0000 0.0000 0.0000 0.0000 0.0000 0.0000 0.0000 0.0000 0.0000 0.0000 0.0000 0.0000 0.0000 0.0000 0.0000 0.0000 0.0000 0.0000 0.0000 0.0000 0.0000 0.0000 0.0000 -78.9357 -3.8655 -4.6937 -19.5493 -0.9645 -0.3943 -534.5480 5.5602 -211.9253 46.2826 -12.7957 -10.9803 17.7830 0.0000 0.0000 9.5412 0.0000 0.0000 -17.8730 1.2834 -20.6017 6.0672 0.0000 0.0000 2.3438 0.0000 0.0000 -9.8924 -1.6286 -23.4253 4.9774 0.0000 0.0000 2.7300 0.0000 0.0000 -1.2404 -3.5828 -23.9813 8.7549 0.0000 0.0000 4.5537 0.0000 0.0000 10.3767 -5.4835 -22.4136 10.6655 0.0000 0.0000 3.3429 0.0000 0.0000 0.0000 0.0000 0.0000 84.2342 -4.5294 5.0092 361.0214 15.2744 377.0036 -384.6917 -69.1759 390.5450 -28.4957 13.3435 -41.4696 16.9411 0.0000 0.0000 9.7765 0.0000 0.0000 2.3974 -4.2100 -26.2108 19.6071 0.0000 0.0000 17.0271 0.0000 0.0000 -7.0302 -2.1187 -28.7338 21.3462 0.0000 0.0000 7.6225 0.0000 0.0000 -15.9073 -0.8640 -29.1200 28.3955 0.0000 0.0000 8.6193 0.0000 0.0000 -24.4274 0.6230 -27.5261 24.0358 0.0000 0.0000 14.6768 0.0000 0.0000 0.0000 0.0000 0.0000 0.0000 0.0000 0.0000 0.0000 0.0000 0.0000 0.0000 0.0000 0.0000 0.0000 0.0000 0.0000 0.0000 0.0000 0.0000
0.0000 95.0000 0.0000 0.0000 0.0000 0.0000 0.0000 0.0000 0.0000 0.0000 0.0000 0.0000 0.0000 0.0000 0.0000 0.0000 0.0000 0.0000 0.0000 0.0000 0.0000 0.0000 0.0000 0.0000 -79.5438 -3.8973 -4.6816 -18.5049 -1.3053 0.2827 -533.8686 5.3299 -212.3675 46.2826 -12.7957 -10.9803 17.7830 0.0000 0.0000 9.5412 0.0000 0.0000 -17.8730 1.2834 -20.6017 6.0672 0.0000 0.0000 2.3438 0.0000 0.0000 -9.8924 -1.6286 -23.4253 4.9774 0.0000 0.0000 2.7300 0.0000 0.0000 -1.2404 -3.5828 -23.9813 8.7549 0.0000 0.0000 4.5537 0.0000 0.0000 10.3767 -5.4835 -22.4136 10.6655 0.0000 0.0000 3.3429 0.0000 0.0000 0.0000 0.0000 0.0000 84.9827 -4.1724 4.5544 360.8500 14.4320 375.8340 -384.4434 -67.5175 391.6605 -28.4957 13.3435 -41.4696 16.9411 0.0000 0.0000 9.7765 0.0000 0.0000 2.3974 -4.2100 -26.2108 19.6071 0.0000 0.0000 17.0271 0.0000 0.0000 -7.0302 -2.1187 -28.7338 21.3462 0.0000 0.0000 7.6225 0.0000 0.0000 -15.9073 -0.8640 -29.1200 28.3955 0.0000 0.0000 8.6193 0.0000 0.0000 -24.4274 0.6230 -27.5261 24.0358 0.0000 0.0000 14.6768 0.0000 0.0000 0.0000 0.0000 0.0000 0.0000 0.0000 0.0000 0.0000 0.0000 0.0000 0.0000 0.0000 0.0000 0.0000 0.0000 0.0000 0.0000 0.0000 0.0000
0.0000 95.0000 0.0000 0.0000 0.0000 0.0000 0.0000 0.0000 0.0000 0.0000 0.0000 0.0000 0.0000 0.0000 0.0000 0.0000 0.0000 0.0000 0.0000 0.0000 0.0000 0.0000 0.0000 0.0000 -79.9399 -3.6249 -4.3239 -17.8054 -1.5864 0.9380 -533.1069 4.7937 -213.0663 46.2826 -12.7957 -10.9803 17.7830 0.0000 0.0000 9.5412 0.0000 0.0000 -17.8730 1.2834 -20.6017 6.0672 0.0000 0.0000 2.3438 0.0000 0.0000 -9.8924 -1.6286 -23.4253 4.9774 0.0000 0.0000 2.7300 0.0000 0.0000 -1.2404 -3.5828 -23.9813 8.7549 0.0000 0.0000 4.5537 0.0000 0.0000 10.3767 -5.4835 -22.4136 10.6655 0.0000 0.0000 3.3429 0.0000 0.0000 0.0000 0.0000 0.0000 85.8930 -4.1954 4.5071 360.2991 14.3559 375.3196 -384.8279 -66.9895 392.2771 -28.4957 13.3435 -41.4696 16.9411 0.0000 0.0000 9.7765 0.0000 0.0000 2.3974 -4.2100 -26.2108 19.6071 0.0000 0.0000 17.0271 0.0000 0.0000 -7.0302 -2.1187 -28.7338 21.3462 0.0000 0.0000 7.6225 0.0000 0.0000 -15.9073 -0.8640 -29.1200 28.3955 0.0000 0.0000 8.6193 0.0000 0.0000 -24.4274 0.6230 -27.5261 24.0358 0.0000 0.0000 14.6768 0.0000 0.0000 0.0000 0.0000 0.0000 0.0000 0.0000 0.0000 0.0000 0.0000 0.0000 0.0000 0.0000 0.0000 0.0000 0.0000 0.0000 0.0000 0.0000 0.0000
0.0000 95.0000 0.0000 0.0000 0.0000 0.0000 0.0000 0.0000 0.0000 0.0000 0.0000 0.0000 0.0000 0.0000 0.0000 0.0000 0.0000 0.0000 0.0000 0.0000 0.0000 0.0000 0.0000 0.0000 -80.4500 -3.5063 -4.1449 -16.6715 -1.6513 1.1613 -532.3934 4.8811 -213.3107 46.2826 -12.7957 -10.9803 17.7830 0.0000 0.0000 9.5412 0.0000 0.0000 -17.8730 1.2834 -20.6017 6.0672 0.0000 0.0000 2.3438 0.0000 0.0000 -9.8924 -1.6286 -23.4253 4.9774 0.0000 0.0000 2.7300 0.0000 0.0000 -1.2404 -3.5828 -23.9813 8.7549 0.0000 0.0000 4.5537 0.0000 0.0000 10.3767 -5.4835 -22.4136 10.6655 0.0000 0.0000 3.3429 0.0000 0.0000 0.0000 0.0000 0.0000 86.5954 -4.2909 4.5534 359.5988 14.5850 375.1331 -384.9215 -67.0635 392.2759 -28.4957 13.3435 -41.4696 16.9411 0.0000 0.0000 9.7765 0.0000 0.0000 2.3974 -4.2100 -26.2108 19.6071 0.0000 0.0000 17.0271 0.0000 0.0000 -7.0302 -2.1187 -28.7338 21.3462 0.0000 0.0000 7.6225 0.0000 0.0000 -15.9073 -0.8640 -29.1200 28.3955 0.0000 0.0000 8.6193 0.0000 0.0000 -24.4274 0.6230 -27.5261 24.0358 0.0000 0.0000 14.6768 0.0000 0.0000 0.0000 0.0000 0.0000 0.0000 0.0000 0.0000 0.0000 0.0000 0.0000 0.0000 0.0000 0.0000 0.0000 0.0000 0.0000 0.0000 0.0000 0.0000
0.0000 95.0000 0.0000 0.0000 0.0000 0.0000 0.0000 0.0000 0.0000 0.0000 0.0000 0.0000 0.0000 0.0000 0.0000 0.0000 0.0000 0.0000 0.0000 0.0000 0.0000 0.0000 0.0000 0.0000 -80.5860 -3.7934 -4.4735 -16.1668 -1.8118 1.3251 -532.1897 5.2075 -213.1645 46.2826 -12.7957 -10.9803 17.7830 0.0000 0.0000 9.5412 0.0000 0.0000 -17.8730 1.2834 -20.6017 6.0672 0.0000 0.0000 2.3438 0.0000 0.0000 -9.8924 -1.6286 -23.4253 4.9774 0.0000 0.0000 2.7300 0.0000 0.0000 -1.2404 -3.5828 -23.9813 8.7549 0.0000 0.0000 4.5537 0.0000 0.0000 10.3767 -5.4835 -22.4136 10.6655 0.0000 0.0000 3.3429 0.0000 0.0000 0.0000 0.0000 0.0000 86.8835 -4.0383 4.2640 359.2062 14.2634 374.6172 -384.0128 -66.5239 392.1603 -28.4957 13.3435 -41.4696 16.9411 0.0000 0.0000 9.7765 0.0000 0.0000 2.3974 -4.2100 -26.2108 19.6071 0.0000 0.0000 17.0271 0.0000 0.0000 -7.0302 -2.1187 -28.7338 21.3462 0.0000 0.0000 7.6225 0.0000 0.0000 -15.9073 -0.8640 -29.1200 28.3955 0.0000 0.0000 8.6193 0.0000 0.0000 -24.4274 0.6230 -27.5261 24.0358 0.0000 0.0000 14.6768 0.0000 0.0000 0.0000 0.0000 0.0000 0.0000 0.0000 0.0000 0.0000 0.0000 0.0000 0.0000 0.0000 0.0000 0.0000 0.0000 0.0000 0.0000 0.0000 0.0000
0.0000 95.0000 0.0000 0.0000 0.0000 0.0000 0.0000 0.0000 0.0000 0.0000 0.0000 0.0000 0.0000 0.0000 0.0000 0.0000 0.0000 0.0000 0.0000 0.0000 0.0000 0.0000 0.0000 0.0000 -80.6176 -3.6076 -4.2521 -15.8122 -1.9640 1.6600 -531.6311 5.0003 -213.5545 46.2826 -12.7957 -10.9803 17.7830 0.0000 0.0000 9.5412 0.0000 0.0000 -17.8730 1.2834 -20.6017 6.0672 0.0000 0.0000 2.3438 0.0000 0.0000 -9.8924 -1.6286 -23.4253 4.9774 0.0000 0.0000 2.7300 0.0000 0.0000 -1.2404 -3.5828 -23.9813 8.7549 0.0000 0.0000 4.5537 0.0000 0.0000 10.3767 -5.4835 -22.4136 10.6655 0.0000 0.0000 3.3429 0.0000 0.0000 0.0000 0.0000 0.0000 87.0934 -3.7402 3.9348 359.1688 14.3222 374.6322 -383.9179 -66.2086 392.3429 -28.4957 13.3435 -41.4696 16.9411 0.0000 0.0000 9.7765 0.0000 0.0000 2.3974 -4.2100 -26.2108 19.6071 0.0000 0.0000 17.0271 0.0000 0.0000 -7.0302 -2.1187 -28.7338 21.3462 0.0000 0.0000 7.6225 0.0000 0.0000 -15.9073 -0.8640 -29.1200 28.3955 0.0000 0.0000 8.6193 0.0000 0.0000 -24.4274 0.6230 -27.5261 24.0358 0.0000 0.0000 14.6768 0.0000 0.0000 0.0000 0.0000 0.0000 0.0000 0.0000 0.0000 0.0000 0.0000 0.0000 0.0000 0.0000 0.0000 0.0000 0.0000 0.0000 0.0000 0.0000 0.0000
0.0000 95.0000 0.0000 0.0000 0.0000 0.0000 0.0000 0.0000 0.0000 0.0000 0.0000 0.0000 0.0000 0.0000 0.0000 0.0000 0.0000 0.0000 0.0000 0.0000 0.0000 0.0000 0.0000 0.0000 -80.7087 -3.2659 -3.8433 -15.3289 -2.1057 2.0335 -530.8912 4.6784 -214.1121 46.2826 -12.7957 -10.9803 17.7830 0.0000 0.0000 9.5412 0.0000 0.0000 -17.8730 1.2834 -20.6017 6.0672 0.0000 0.0000 2.3438 0.0000 0.0000 -9.8924 -1.6286 -23.4253 4.9774 0.0000 0.0000 2.7300 0.0000 0.0000 -1.2404 -3.5828 -23.9813 8.7549 0.0000 0.0000 4.5537 0.0000 0.0000 10.3767 -5.4835 -22.4136 10.6655 0.0000 0.0000 3.3429 0.0000 0.0000 0.0000 0.0000 0.0000 87.2272 -3.4706 3.6427 359.0418 14.4434 374.6991 -383.6190 -66.0796 392.2720 -28.4957 13.3435 -41.4696 16.9411 0.0000 0.0000 9.7765 0.0000 0.0000 2.3974 -4.2100 -26.2108 19.6071 0.0000 0.0000 17.0271 0.0000 0.0000 -7.0302 -2.1187 -28.7338 21.3462 0.0000 0.0000 7.6225 0.0000 0.0000 -15.9073 -0.8640 -29.1200 28.3955 0.0000 0.0000 8.6193 0.0000 0.0000 -24.4274 0.6230 -27.5261 24.0358 0.0000 0.0000 14.6768 0.0000 0.0000 0.0000 0.0000 0.0000 0.0000 0.0000 0.0000 0.0000 0.0000 0.0000 0.0000 0.0000 0.0000 0.0000 0.0000 0.0000 0.0000 0.0000 0.0000
0.0000 95.0000 0.0000 0.0000 0.0000 0.0000 0.0000 0.0000 0.0000 0.0000 0.0000 0.0000 0.0000 0.0000 0.0000 0.0000 0.0000 0.0000 0.0000 0.0000 0.0000 0.0000 0.0000 0.0000 -80.9374 -2.5523 -2.9915 -15.0299 -2.3865 2.7354 -529.9911 3.6346 -215.2808 46.2826 -12.7957 -10.9803 17.7830 0.0000 0.0000 9.5412 0.0000 0.0000 -17.8730 1.2834 -20.6017 6.0672 0.0000 0.0000 2.3438 0.0000 0.0000 -9.8924 -1.6286 -23.4253 4.9774 0.0000 0.0000 2.7300 0.0000 0.0000 -1.2404 -3.5828 -23.9813 8.7549 0.0000 0.0000 4.5537 0.0000 0.0000 10.3767 -5.4835 -22.4136 10.6655 0.0000 0.0000 3.3429 0.0000 0.0000 0.0000 0.0000 0.0000 87.2764 -3.6953 3.8751 359.1631 14.4215 374.6883 -384.2201 -66.1285 392.5719 -28.4957 13.3435 -41.4696 16.9411 0.0000 0.0000 9.7765 0.0000 0.0000 2.3974 -4.2100 -26.2108 19.6071 0.0000 0.0000 17.0271 0.0000 0.0000 -7.0302 -2.1187 -28.7338 21.3462 0.0000 0.0000 7.6225 0.0000 0.0000 -15.9073 -0.8640 -29.1200 28.3955 0.0000 0.0000 8.6193 0.0000 0.0000 -24.4274 0.6230 -27.5261 24.0358 0.0000 0.0000 14.6768 0.0000 0.0000 0.0000 0.0000 0.0000 0.0000 0.0000 0.0000 0.0000 0.0000 0.0000 0.0000 0.0000 0.0000 0.0000 0.0000 0.0000 0.0000 0.0000 0.0000
0.0000 95.0000 0.0000 0.0000 0.0000 0.0000 0.0000 0.0000 0.0000 0.0000 0.0000 0.0000 0.0000 0.0000 0.0000 0.0000 0.0000 0.0000 0.0000 0.0000 0.0000 0.0000 0.0000 0.0000 -81.1481 -1.8684 -2.1819 -14.8702 -2.3312 2.8912 -529.5029 2.9312 -216.0234 46.2826 -12.7957 -10.9803 17.7830 0.0000 0.0000 9.5412 0.0000 0.0000 -17.8730 1.2834 -20.6017 6.0672 0.0000 0.0000 2.3438 0.0000 0.0000 -9.8924 -1.6286 -23.4253 4.9774 0.0000 0.0000 2.7300 0.0000 0.0000 -1.2404 -3.5828 -23.9813 8.7549 0.0000 0.0000 4.5537 0.0000 0.0000 10.3767 -5.4835 -22.4136 10.6655 0.0000 0.0000 3.3429 0.0000 0.0000 0.0000 0.0000 0.0000 87.3759 -3.6600 3.8315 358.9066 14.2660 374.4277 -383.7220 -66.0013 392.3883 -28.4957 13.3435 -41.4696 16.9411 0.0000 0.0000 9.7765 0.0000 0.0000 2.3974 -4.2100 -26.2108 19.6071 0.0000 0.0000 17.0271 0.0000 0.0000 -7.0302 -2.1187 -28.7338 21.3462 0.0000 0.0000 7.6225 0.0000 0.0000 -15.9073 -0.8640 -29.1200 28.3955 0.0000 0.0000 8.6193 0.0000 0.0000 -24.4274 0.6230 -27.5261 24.0358 0.0000 0.0000 14.6768 0.0000 0.0000 0.0000 0.0000 0.0000 0.0000 0.0000 0.0000 0.0000 0.0000 0.0000 0.0000 0.0000 0.0000 0.0000 0.0000 0.0000 0.0000 0.0000 0.0000
0.0000 95.0000 0.0000 0.0000 0.0000 0.0000 0.0000 0.0000 0.0000 0.0000 0.0000 0.0000 0.0000 0.0000 0.0000 0.0000 0.0000 0.0000 0.0000 0.0000 0.0000 0.0000 0.0000 0.0000 -81.3154 -1.5948 -1.8569 -14.6480 -2.1654 2.7248 -529.3724 2.8497 -216.1448 46.2826 -12.7957 -10.9803 17.7830 0.0000 0.0000 9.5412 0.0000 0.0000 -17.8730 1.2834 -20.6017 6.0672 0.0000 0.0000 2.3438 0.0000 0.0000 -9.8924 -1.6286 -23.4253 4.9774 0.0000 0.0000 2.7300 0.0000 0.0000 -1.2404 -3.5828 -23.9813 8.7549 0.0000 0.0000 4.5537 0.0000 0.0000 10.3767 -5.4835 -22.4136 10.6655 0.0000 0.0000 3.3429 0.0000 0.0000 0.0000 0.0000 0.0000 87.3866 -3.8460 4.0254 358.8464 14.1940 374.3208 -383.8211 -66.0933 392.3748 -28.4957 13.3435 -41.4696 16.9411 0.0000 0.0000 9.7765 0.0000 0.0000 2.3974 -4.2100 -26.2108 19.6071 0.0000 0.0000 17.0271 0.0000 0.0000 -7.0302 -2.1187 -28.7338 21.3462 0.0000 0.0000 7.6225 0.0000 0.0000 -15.9073 -0.8640 -29.1200 28.3955 0.0000 0.0000 8.6193 0.0000 0.0000 -24.4274 0.6230 -27.5261 24.0358 0.0000 0.0000 14.6768 0.0000 0.0000 0.0000 0.0000 0.0000 0.0000 0.0000 0.0000 0.0000 0.0000 0.0000 0.0000 0.0000 0.0000 0.0000 0.0000 0.0000 0.0000 0.0000 0.0000
0.0000 95.0000 0.0000 0.0000 0.0000 0.0000 0.0000 0.0000 0.0000 0.0000 0.0000 0.0000 0.0000 0.0000 0.0000 0.0000 0.0000 0.0000 0.0000 0.0000 0.0000 0.0000 0.0000 0.0000 -81.4230 -1.5381 -1.7875 -14.5404 -2.0289 2.5309 -529.4415 2.9353 -216.0494 46.2826 -12.7957 -10.9803 17.7830 0.0000 0.0000 9.5412 0.0000 0.0000 -17.8730 1.2834 -20.6017 6.0672 0.0000 0.0000 2.3438 0.0000 0.0000 -9.8924 -1.6286 -23.4253 4.9774 0.0000 0.0000 2.7300 0.0000 0.0000 -1.2404 -3.5828 -23.9813 8.7549 0.0000 0.0000 4.5537 0.0000 0.0000 10.3767 -5.4835 -22.4136 10.6655 0.0000 0.0000 3.3429 0.0000 0.0000 0.0000 0.0000 0.0000 87.4205 -3.8543 4.0317 358.9184 14.2843 374.4255 -384.0959 -66.1234 392.5062 -28.4957 13.3435 -41.4696 16.9411 0.0000 0.0000 9.7765 0.0000 0.0000 2.3974 -4.2100 -26.2108 19.6071 0.0000 0.0000 17.0271 0.0000 0.0000 -7.0302 -2.1187 -28.7338 21.3462 0.0000 0.0000 7.6225 0.0000 0.0000 -15.9073 -0.8640 -29.1200 28.3955 0.0000 0.0000 8.6193 0.0000 0.0000 -24.4274 0.6230 -27.5261 24.0358 0.0000 0.0000 14.6768 0.0000 0.0000 0.0000 0.0000 0.0000 0.0000 0.0000 0.0000 0.0000 0.0000 0.0000 0.0000 0.0000 0.0000 0.0000 0.0000 0.0000 0.0000 0.0000 0.0000
0.0000 95.0000 0.0000 0.0000 0.0000 0.0000 0.0000 0.0000 0.0000 0.0000 0.0000 0.0000 0.0000 0.0000 0.0000 0.0000 0.0000 0.0000 0.0000 0.0000 0.0000 0.0000 0.0000 0.0000 -81.4606 -1.7994 -2.0897 -14.5380 -1.9444 2.3092 -529.7565 3.2833 -215.6466 46.2826 -12.7957 -10.9803 17.7830 0.0000 0.0000 9.5412 0.0000 0.0000 -17.8730 1.2834 -20.6017 6.0672 0.0000 0.0000 2.3438 0.0000 0.0000 -9.8924 -1.6286 -23.4253 4.9774 0.0000 0.0000 2.7300 0.0000 0.0000 -1.2404 -3.5828 -23.9813 8.7549 0.0000 0.0000 4.5537 0.0000 0.0000 10.3767 -5.4835 -22.4136 10.6655 0.0000 0.0000 3.3429 0.0000 0.0000 0.0000 0.0000 0.0000 87.5866 -3.6151 3.7706 358.8033 14.2397 374.3203 -383.7853 -65.8279 392.5532 -28.4957 13.3435 -41.4696 16.9411 0.0000 0.0000 9.7765 0.0000 0.0000 2.3974 -4.2100 -26.2108 19.6071 0.0000 0.0000 17.0271 0.0000 0.0000 -7.0302 -2.1187 -28.7338 21.3462 0.0000 0.0000 7.6225 0.0000 0.0000 -15.9073 -0.8640 -29.1200 28.3955 0.0000 0.0000 8.6193 0.0000 0.0000 -24.4274 0.6230 -27.5261 24.0358 0.0000 0.0000 14.6768 0.0000 0.0000 0.0000 0.0000 0.0000 0.0000 0.0000 0.0000 0.0000 0.0000 0.0000 0.0000 0.0000 0.0000 0.0000 0.0000 0.0000 0.0000 0.0000 0.0000
0.0000 95.0000 0.0000 0.0000 0.0000 0.0000 0.0000 0.0000 0.0000 0.0000 0.0000 0.0000 0.0000 0.0000 0.0000 0.0000 0.0000 0.0000 0.0000 0.0000 0.0000 0.0000 0.0000 0.0000 -81.6072 -2.4004 -2.7804 -14.0950 -2.3229 2.6643 -529.6983 3.6917 -215.3732 46.2826 -12.7957 -10.9803 17.7830 0.0000 0.0000 9.5412 0.0000 0.0000 -17.8730 1.2834 -20.6017 6.0672 0.0000 0.0000 2.3438 0.0000 0.0000 -9.8924 -1.6286 -23.4253 4.9774 0.0000 0.0000 2.7300 0.0000 0.0000 -1.2404 -3.5828 -23.9813 8.7549 0.0000 0.0000 4.5537 0.0000 0.0000 10.3767 -5.4835 -22.4136 10.6655 0.0000 0.0000 3.3429 0.0000 0.0000 0.0000 0.0000 0.0000 87.8649 -3.9931 4.1446 358.9029 14.2524 374.2703 -384.9428 -65.8505 393.1777 -28.4957 13.3435 -41.4696 16.9411 0.0000 0.0000 9.7765 0.0000 0.0000 2.3974 -4.2100 -26.2108 19.6071 0.0000 0.0000 17.0271 0.0000 0.0000 -7.0302 -2.1187 -28.7338 21.3462 0.0000 0.0000 7.6225 0.0000 0.0000 -15.9073 -0.8640 -29.1200 28.3955 0.0000 0.0000 8.6193 0.0000 0.0000 -24.4274 0.6230 -27.5261 24.0358 0.0000 0.0000 14.6768 0.0000 0.0000 0.0000 0.0000 0.0000 0.0000 0.0000 0.0000 0.0000 0.0000 0.0000 0.0000 0.0000 0.0000 0.0000 0.0000 0.0000 0.0000 0.0000 0.0000
