HIERARCHY
ROOT Hips
{
  OFFSET 0.000000 95.000000 0.000000
  CHANNELS 6 Xposition Yposition Zposition Zrotation Xrotation Yrotation
  JOINT Spine
  {
    OFFSET 0.000000 10.000000 0.000000
    CHANNELS 3 Zrotation Xrotation Yrotation
    JOINT Spine1
    {
      OFFSET 0.000000 12.000000 0.000000
      CHANNELS 3 Zrotation Xrotation Yrotation
      JOINT Spine2
      {
        OFFSET 0.000000 12.000000 0.000000
        CHANNELS 3 Zrotation Xrotation Yrotation
        JOINT Neck
        {
          OFFSET 0.000000 10.000000 0.000000
          CHANNELS 3 Zrotation Xrotation Yrotation
          JOINT Head
          {
            OFFSET 0.000000 8.000000 0.000000
            CHANNELS 3 Zrotation Xrotation Yrotation
            End Site
            {
              OFFSET 0.000000 10.000000 0.000000
            }
          }
        }
        JOINT LeftShoulder
        {
          OFFSET 6.000000 8.000000 0.000000
          CHANNELS 3 Zrotation Xrotation Yrotation
          JOINT LeftArm
          {
            OFFSET 12.000000 0.000000 0.000000
            CHANNELS 3 Zrotation Xrotation Yrotation
            JOINT LeftForeArm
            {
              OFFSET 24.000000 0.000000 0.000000
              CHANNELS 3 Zrotation Xrotation Yrotation
              JOINT LeftHand
              {
                OFFSET 22.000000 0.000000 0.000000
                CHANNELS 3 Zrotation Xrotation Yrotation
                JOINT LeftHandThumb1
                {
                  OFFSET 1.800000 -1.400000 0.500000
                  CHANNELS 3 Zrotation Xrotation Yrotation
                  JOINT LeftHandThumb2
                  {
                    OFFSET 2.400000 0.000000 0.000000
                    CHANNELS 3 Zrotation Xrotation Yrotation
                    JOINT LeftHandThumb3
                    {
                      OFFSET 1.900000 0.000000 0.000000
                      CHANNELS 3 Zrotation Xrotation Yrotation
                      End Site
                      {
                        OFFSET 1.600000 0.000000 0.000000
                      }
                    }
                  }
                }
                JOINT LeftHandIndex1
                {
                  OFFSET 6.600000 1.200000 0.300000
                  CHANNELS 3 Zrotation Xrotation Yrotation
                  JOINT LeftHandIndex2
                  {
                    OFFSET 2.000000 0.000000 0.000000
                    CHANNELS 3 Zrotation Xrotation Yrotation
                    JOINT LeftHandIndex3
                    {
                      OFFSET 1.200000 0.000000 0.000000
                      CHANNELS 3 Zrotation Xrotation Yrotation
                      End Site
                      {
                        OFFSET 1.000000 0.000000 0.000000
                      }
                    }
                  }
                }
                JOINT LeftHandMiddle1
                {
                  OFFSET 7.200000 0.000000 0.300000
                  CHANNELS 3 Zrotation Xrotation Yrotation
                  JOINT LeftHandMiddle2
                  {
                    OFFSET 3.000000 0.000000 0.000000
                    CHANNELS 3 Zrotation Xrotation Yrotation
                    JOINT LeftHandMiddle3
                    {
                      OFFSET 2.000000 0.000000 0.000000
                      CHANNELS 3 Zrotation Xrotation Yrotation
                      End Site
                      {
                        OFFSET 1.600000 0.000000 0.000000
                      }
                    }
                  }
                }
                JOINT LeftHandRing1
                {
                  OFFSET 7.100000 -1.000000 0.400000
                  CHANNELS 3 Zrotation Xrotation Yrotation
                  JOINT LeftHandRing2
                  {
                    OFFSET 2.600000 0.000000 0.000000
                    CHANNELS 3 Zrotation Xrotation Yrotation
                    JOINT LeftHandRing3
                    {
                      OFFSET 1.600000 0.000000 0.000000
                      CHANNELS 3 Zrotation Xrotation Yrotation
                      End Site
                      {
                        OFFSET 1.300000 0.000000 0.000000
                      }
                    }
                  }
                }
                JOINT LeftHandPinky1
                {
                  OFFSET 6.500000 -2.000000 0.500000
                  CHANNELS 3 Zrotation Xrotation Yrotation
                  JOINT LeftHandPinky2
                  {
                    OFFSET 1.900000 0.000000 0.000000
                    CHANNELS 3 Zrotation Xrotation Yrotation
                    JOINT LeftHandPinky3
                    {
                      OFFSET 1.400000 0.000000 0.000000
                      CHANNELS 3 Zrotation Xrotation Yrotation
                      End Site
                      {
                        OFFSET 1.300000 0.000000 0.000000
                      }
                    }
                  }
                }
              }
            }
          }
        }
        JOINT RightShoulder
        {
          OFFSET -6.000000 8.000000 0.000000
          CHANNELS 3 Zrotation Xrotation Yrotation
          JOINT RightArm
          {
            OFFSET -12.000000 0.000000 0.000000
            CHANNELS 3 Zrotation Xrotation Yrotation
            JOINT RightForeArm
            {
              OFFSET -24.000000 0.000000 0.000000
              CHANNELS 3 Zrotation Xrotation Yrotation
              JOINT RightHand
              {
                OFFSET -22.000000 0.000000 0.000000
                CHANNELS 3 Zrotation Xrotation Yrotation
                JOINT RightHandThumb1
                {
                  OFFSET -1.800000 -1.400000 0.500000
                  CHANNELS 3 Zrotation Xrotation Yrotation
                  JOINT RightHandThumb2
                  {
                    OFFSET -2.400000 0.000000 0.000000
                    CHANNELS 3 Zrotation Xrotation Yrotation
                    JOINT RightHandThumb3
                    {
                      OFFSET -1.900000 0.000000 0.000000
                      CHANNELS 3 Zrotation Xrotation Yrotation
                      End Site
                      {
                        OFFSET -1.600000 0.000000 0.000000
                      }
                    }
                  }
                }
                JOINT RightHandIndex1
                {
                  OFFSET -6.600000 1.200000 0.300000
                  CHANNELS 3 Zrotation Xrotation Yrotation
                  JOINT RightHandIndex2
                  {
                    OFFSET -2.000000 0.000000 0.000000
                    CHANNELS 3 Zrotation Xrotation Yrotation
                    JOINT RightHandIndex3
                    {
                      OFFSET -1.200000 0.000000 0.000000
                      CHANNELS 3 Zrotation Xrotation Yrotation
                      End Site
                      {
                        OFFSET -1.000000 0.000000 0.000000
                      }
                    }
                  }
                }
                JOINT RightHandMiddle1
                {
                  OFFSET -7.200000 0.000000 0.300000
                  CHANNELS 3 Zrotation Xrotation Yrotation
                  JOINT RightHandMiddle2
                  {
                    OFFSET -3.000000 0.000000 0.000000
                    CHANNELS 3 Zrotation Xrotation Yrotation
                    JOINT RightHandMiddle3
                    {
                      OFFSET -2.000000 0.000000 0.000000
                      CHANNELS 3 Zrotation Xrotation Yrotation
                      End Site
                      {
                        OFFSET -1.600000 0.000000 0.000000
                      }
                    }
                  }
                }
                JOINT RightHandRing1
                {
                  OFFSET -7.100000 -1.000000 0.400000
                  CHANNELS 3 Zrotation Xrotation Yrotation
                  JOINT RightHandRing2
                  {
                    OFFSET -2.600000 0.000000 0.000000
                    CHANNELS 3 Zrotation Xrotation Yrotation
                    JOINT RightHandRing3
                    {
                      OFFSET -1.600000 0.000000 0.000000
                      CHANNELS 3 Zrotation Xrotation Yrotation
                      End Site
                      {
                        OFFSET -1.300000 0.000000 0.000000
                      }
                    }
                  }
                }
                JOINT RightHandPinky1
                {
                  OFFSET -6.500000 -2.000000 0.500000
                  CHANNELS 3 Zrotation Xrotation Yrotation
                  JOINT RightHandPinky2
                  {
                    OFFSET -1.900000 0.000000 0.000000
                    CHANNELS 3 Zrotation Xrotation Yrotation
                    JOINT RightHandPinky3
                    {
                      OFFSET -1.400000 0.000000 0.000000
                      CHANNELS 3 Zrotation Xrotation Yrotation
                      End Site
                      {
                        OFFSET -1.300000 0.000000 0.000000
                      }
                    }
                  }
                }
              }
            }
          }
        }
      }
    }
  }
  JOINT LeftUpLeg
  {
    OFFSET 10.000000 -5.000000 0.000000
    CHANNELS 3 Zrotation Xrotation Yrotation
    JOINT LeftLeg
    {
      OFFSET 0.000000 -42.000000 0.000000
      CHANNELS 3 Zrotation Xrotation Yrotation
      JOINT LeftFoot
      {
        OFFSET 0.000000 -42.000000 4.000000
        CHANNELS 3 Zrotation Xrotation Yrotation
        End Site
        {
          OFFSET 0.000000 0.000000 12.000000
        }
      }
    }
  }
  JOINT RightUpLeg
  {
    OFFSET -10.000000 -5.000000 0.000000
    CHANNELS 3 Zrotation Xrotation Yrotation
    JOINT RightLeg
    {
      OFFSET 0.000000 -42.000000 0.000000
      CHANNELS 3 Zrotation Xrotation Yrotation
      JOINT RightFoot
      {
        OFFSET 0.000000 -42.000000 4.000000
        CHANNELS 3 Zrotation Xrotation Yrotation
        End Site
        {
          OFFSET 0.000000 0.000000 12.000000
        }
      }
    }
  }
}
MOTION
Frames: 60
Frame Time: 0.033333
0.0000 95.0000 0.0000 0.0000 0.0000 0.0000 0.0000 0.0000 0.0000 0.0000 0.0000 0.0000 0.0000 0.0000 0.0000 0.0000 0.0000 0.0000 0.0000 0.0000 0.0000 0.0000 0.0000 0.0000 -76.4765 11.9037 15.0732 -7.7593 -2.7674 6.1502 -164.1345 -6.6502 165.6409 51.3838 -9.3098 9.0739 9.5692 0.0000 0.0000 3.6758 0.0000 0.0000 -0.6576 -0.5447 3.2619 18.5491 0.0000 0.0000 2.2180 0.0000 0.0000 10.1771 -0.3931 -0.3600 23.9134 0.0000 0.0000 10.5768 0.0000 0.0000 18.2765 -1.0207 0.2632 29.0733 0.0000 0.0000 10.5306 0.0000 0.0000 25.6074 -1.7529 1.6099 24.7855 0.0000 0.0000 22.0078 0.0000 0.0000 0.0000 0.0000 0.0000 88.1465 -3.2950 3.4033 -3.0362 7.0911 6.7357 167.3599 12.7446 172.8005 -63.4548 -12.4125 -9.4650 11.8476 0.0000 0.0000 1.4192 0.0000 0.0000 4.1946 -0.3518 -3.7481 160.1883 0.0000 0.0000 11.9729 0.0000 0.0000 -10.1193 -0.2310 2.1638 156.7378 0.0000 0.0000 17.1423 0.0000 0.0000 -18.9846 -1.0059 1.8566 152.3083 0.0000 0.0000 18.0501 0.0000 0.0000 -28.7442 -2.2588 3.5738 144.9694 0.0000 0.0000 19.2823 0.0000 0.0000 0.0000 0.0000 0.0000 0.0000 0.0000 0.0000 0.0000 0.0000 0.0000 0.0000 0.0000 0.0000 0.0000 0.0000 0.0000 0.0000 0.0000 0.0000
0.0000 95.0000 0.0000 0.0000 0.0000 0.0000 0.0000 0.0000 0.0000 0.0000 0.0000 0.0000 0.0000 0.0000 0.0000 0.0000 0.0000 0.0000 0.0000 0.0000 0.0000 0.0000 0.0000 0.0000 -77.1359 11.6502 14.5821 -6.9668 -2.7771 5.7490 -164.0307 -6.0613 166.2969 51.3838 -9.3098 9.0739 9.5692 0.0000 0.0000 3.6758 0.0000 0.0000 -0.6576 -0.5447 3.2619 18.5491 0.0000 0.0000 2.2180 0.0000 0.0000 10.1771 -0.3931 -0.3600 23.9134 0.0000 0.0000 10.5768 0.0000 0.0000 18.2765 -1.0207 0.2632 29.0733 0.0000 0.0000 10.5306 0.0000 0.0000 25.6074 -1.7529 1.6099 24.7855 0.0000 0.0000 22.0078 0.0000 0.0000 0.0000 0.0000 0.0000 88.2365 -3.0046 3.0985 -2.8532 7.1733 6.8560 167.6335 12.5659 173.0450 -63.4548 -12.4125 -9.4650 11.8476 0.0000 0.0000 1.4192 0.0000 0.0000 4.1946 -0.3518 -3.7481 160.1883 0.0000 0.0000 11.9729 0.0000 0.0000 -10.1193 -0.2310 2.1638 156.7378 0.0000 0.0000 17.1423 0.0000 0.0000 -18.9846 -1.0059 1.8566 152.3083 0.0000 0.0000 18.0501 0.0000 0.0000 -28.7442 -2.2588 3.5738 144.9694 0.0000 0.0000 19.2823 0.0000 0.0000 0.0000 0.0000 0.0000 0.0000 0.0000 0.0000 0.0000 0.0000 0.0000 0.0000 0.0000 0.0000 0.0000 0.0000 0.0000 0.0000 0.0000 0.0000
0.0000 95.0000 0.0000 0.0000 0.0000 0.0000 0.0000 0.0000 0.0000 0.0000 0.0000 0.0000 0.0000 0.0000 0.0000 0.0000 0.0000 0.0000 0.0000 0.0000 0.0000 0.0000 0.0000 0.0000 -77.9040 11.1977 13.8285 -6.0393 -2.6909 5.1652 -163.9269 -5.1212 167.3501 51.3838 -9.3098 9.0739 9.5692 0.0000 0.0000 3.6758 0.0000 0.0000 -0.6576 -0.5447 3.2619 18.5491 0.0000 0.0000 2.2180 0.0000 0.0000 10.1771 -0.3931 -0.3600 23.9134 0.0000 0.0000 10.5768 0.0000 0.0000 18.2765 -1.0207 0.2632 29.0733 0.0000 0.0000 10.5306 0.0000 0.0000 25.6074 -1.7529 1.6099 24.7855 0.0000 0.0000 22.0078 0.0000 0.0000 0.0000 0.0000 0.0000 88.2881 -3.0001 3.0911 -2.8493 7.1140 6.7932 167.7050 12.5044 173.1249 -63.4548 -12.4125 -9.4650 11.8476 0.0000 0.0000 1.4192 0.0000 0.0000 4.1946 -0.3518 -3.7481 160.1883 0.0000 0.0000 11.9729 0.0000 0.0000 -10.1193 -0.2310 2.1638 156.7378 0.0000 0.0000 17.1423 0.0000 0.0000 -18.9846 -1.0059 1.8566 152.3083 0.0000 0.0000 18.0501 0.0000 0.0000 -28.7442 -2.2588 3.5738 144.9694 0.0000 0.0000 19.2823 0.0000 0.0000 0.0000 0.0000 0.0000 0.0000 0.0000 0.0000 0.0000 0.0000 0.0000 0.0000 0.0000 0.0000 0.0000 0.0000 0.0000 0.0000 0.0000 0.0000
0.0000 95.0000 0.0000 0.0000 0.0000 0.0000 0.0000 0.0000 0.0000 0.0000 0.0000 0.0000 0.0000 0.0000 0.0000 0.0000 0.0000 0.0000 0.0000 0.0000 0.0000 0.0000 0.0000 0.0000 -77.8314 11.2988 13.9707 -6.0396 -2.6525 5.1333 -163.8695 -5.2004 167.2593 51.3838 -9.3098 9.0739 9.5692 0.0000 0.0000 3.6758 0.0000 0.0000 -0.6576 -0.5447 3.2619 18.5491 0.0000 0.0000 2.2180 0.0000 0.0000 10.1771 -0.3931 -0.3600 23.9134 0.0000 0.0000 10.5768 0.0000 0.0000 18.2765 -1.0207 0.2632 29.0733 0.0000 0.0000 10.5306 0.0000 0.0000 25.6074 -1.7529 1.6099 24.7855 0.0000 0.0000 22.0078 0.0000 0.0000 0.0000 0.0000 0.0000 88.2700 -2.8789 2.9672 -2.6501 6.9948 6.7204 167.9207 12.3021 173.3831 -63.4548 -12.4125 -9.4650 11.8476 0.0000 0.0000 1.4192 0.0000 0.0000 4.1946 -0.3518 -3.7481 160.1883 0.0000 0.0000 11.9729 0.0000 0.0000 -10.1193 -0.2310 2.1638 156.7378 0.0000 0.0000 17.1423 0.0000 0.0000 -18.9846 -1.0059 1.8566 152.3083 0.0000 0.0000 18.0501 0.0000 0.0000 -28.7442 -2.2588 3.5738 144.9694 0.0000 0.0000 19.2823 0.0000 0.0000 0.0000 0.0000 0.0000 0.0000 0.0000 0.0000 0.0000 0.0000 0.0000 0.0000 0.0000 0.0000 0.0000 0.0000 0.0000 0.0000 0.0000 0.0000
0.0000 95.0000 0.0000 0.0000 0.0000 0.0000 0.0000 0.0000 0.0000 0.0000 0.0000 0.0000 0.0000 0.0000 0.0000 0.0000 0.0000 0.0000 0.0000 0.0000 0.0000 0.0000 0.0000 0.0000 -78.0292 11.1902 13.7887 -6.1285 -2.4588 4.8752 -164.2065 -4.8665 167.6431 51.3838 -9.3098 9.0739 9.5692 0.0000 0.0000 3.6758 0.0000 0.0000 -0.6576 -0.5447 3.2619 18.5491 0.0000 0.0000 2.2180 0.0000 0.0000 10.1771 -0.3931 -0.3600 23.9134 0.0000 0.0000 10.5768 0.0000 0.0000 18.2765 -1.0207 0.2632 29.0733 0.0000 0.0000 10.5306 0.0000 0.0000 25.6074 -1.7529 1.6099 24.7855 0.0000 0.0000 22.0078 0.0000 0.0000 0.0000 0.0000 0.0000 88.4228 -2.8411 2.9204 -2.6594 6.8891 6.6003 168.0950 12.1588 173.5684 -63.4548 -12.4125 -9.4650 11.8476 0.0000 0.0000 1.4192 0.0000 0.0000 4.1946 -0.3518 -3.7481 160.1883 0.0000 0.0000 11.9729 0.0000 0.0000 -10.1193 -0.2310 2.1638 156.7378 0.0000 0.0000 17.1423 0.0000 0.0000 -18.9846 -1.0059 1.8566 152.3083 0.0000 0.0000 18.0501 0.0000 0.0000 -28.7442 -2.2588 3.5738 144.9694 0.0000 0.0000 19.2823 0.0000 0.0000 0.0000 0.0000 0.0000 0.0000 0.0000 0.0000 0.0000 0.0000 0.0000 0.0000 0.0000 0.0000 0.0000 0.0000 0.0000 0.0000 0.0000 0.0000
0.0000 95.0000 0.0000 0.0000 0.0000 0.0000 0.0000 0.0000 0.0000 0.0000 0.0000 0.0000 0.0000 0.0000 0.0000 0.0000 0.0000 0.0000 0.0000 0.0000 0.0000 0.0000 0.0000 0.0000 -77.6730 11.6289 14.4177 -6.0648 -2.3444 4.7875 -163.8400 -5.2569 167.1948 51.3838 -9.3098 9.0739 9.5692 0.0000 0.0000 3.6758 0.0000 0.0000 -0.6576 -0.5447 3.2619 18.5491 0.0000 0.0000 2.2180 0.0000 0.0000 10.1771 -0.3931 -0.3600 23.9134 0.0000 0.0000 10.5768 0.0000 0.0000 18.2765 -1.0207 0.2632 29.0733 0.0000 0.0000 10.5306 0.0000 0.0000 25.6074 -1.7529 1.6099 24.7855 0.0000 0.0000 22.0078 0.0000 0.0000 0.0000 0.0000 0.0000 88.4697 -2.7729 2.8479 -2.8291 6.6623 6.3508 168.0284 11.8634 173.8819 -63.4548 -12.4125 -9.4650 11.8476 0.0000 0.0000 1.4192 0.0000 0.0000 4.1946 -0.3518 -3.7481 160.1883 0.0000 0.0000 11.9729 0.0000 0.0000 -10.1193 -0.2310 2.1638 156.7378 0.0000 0.0000 17.1423 0.0000 0.0000 -18.9846 -1.0059 1.8566 152.3083 0.0000 0.0000 18.0501 0.0000 0.0000 -28.7442 -2.2588 3.5738 144.9694 0.0000 0.0000 19.2823 0.0000 0.0000 0.0000 0.0000 0.0000 0.0000 0.0000 0.0000 0.0000 0.0000 0.0000 0.0000 0.0000 0.0000 0.0000 0.0000 0.0000 0.0000 0.0000 0.0000
0.0000 95.0000 0.0000 0.0000 0.0000 0.0000 0.0000 0.0000 0.0000 0.0000 0.0000 0.0000 0.0000 0.0000 0.0000 0.0000 0.0000 0.0000 0.0000 0.0000 0.0000 0.0000 0.0000 0.0000 -77.5968 11.5398 14.3270 -6.2749 -2.2586 4.7418 -163.9899 -5.1251 167.3475 51.3838 -9.3098 9.0739 9.5692 0.0000 0.0000 3.6758 0.0000 0.0000 -0.6576 -0.5447 3.2619 18.5491 0.0000 0.0000 2.2180 0.0000 0.0000 10.1771 -0.3931 -0.3600 23.9134 0.0000 0.0000 10.5768 0.0000 0.0000 18.2765 -1.0207 0.2632 29.0733 0.0000 0.0000 10.5306 0.0000 0.0000 25.6074 -1.7529 1.6099 24.7855 0.0000 0.0000 22.0078 0.0000 0.0000 0.0000 0.0000 0.0000 88.5379 -2.6656 2.7344 -2.8077 6.5341 6.2288 168.1528 11.6414 174.1439 -63.4548 -12.4125 -9.4650 11.8476 0.0000 0.0000 1.4192 0.0000 0.0000 4.1946 -0.3518 -3.7481 160.1883 0.0000 0.0000 11.9729 0.0000 0.0000 -10.1193 -0.2310 2.1638 156.7378 0.0000 0.0000 17.1423 0.0000 0.0000 -18.9846 -1.0059 1.8566 152.3083 0.0000 0.0000 18.0501 0.0000 0.0000 -28.7442 -2.2588 3.5738 144.9694 0.0000 0.0000 19.2823 0.0000 0.0000 0.0000 0.0000 0.0000 0.0000 0.0000 0.0000 0.0000 0.0000 0.0000 0.0000 0.0000 0.0000 0.0000 0.0000 0.0000 0.0000 0.0000 0.0000
0.0000 95.0000 0.0000 0.0000 0.0000 0.0000 0.0000 0.0000 0.0000 0.0000 0.0000 0.0000 0.0000 0.0000 0.0000 0.0000 0.0000 0.0000 0.0000 0.0000 0.0000 0.0000 0.0000 0.0000 -77.7854 11.3420 14.0355 -6.0055 -2.4289 4.8347 -163.8609 -5.0011 167.4835 51.3838 -9.3098 9.0739 9.5692 0.0000 0.0000 3.6758 0.0000 0.0000 -0.6576 -0.5447 3.2619 18.5491 0.0000 0.0000 2.2180 0.0000 0.0000 10.1771 -0.3931 -0.3600 23.9134 0.0000 0.0000 10.5768 0.0000 0.0000 18.2765 -1.0207 0.2632 29.0733 0.0000 0.0000 10.5306 0.0000 0.0000 25.6074 -1.7529 1.6099 24.7855 0.0000 0.0000 22.0078 0.0000 0.0000 0.0000 0.0000 0.0000 88.4756 -2.4737 2.5404 -2.6518 6.6737 6.4070 168.2252 11.6096 174.1894 -63.4548 -12.4125 -9.4650 11.8476 0.0000 0.0000 1.4192 0.0000 0.0000 4.1946 -0.3518 -3.7481 160.1883 0.0000 0.0000 11.9729 0.0000 0.0000 -10.1193 -0.2310 2.1638 156.7378 0.0000 0.0000 17.1423 0.0000 0.0000 -18.9846 -1.0059 1.8566 152.3083 0.0000 0.0000 18.0501 0.0000 0.0000 -28.7442 -2.2588 3.5738 144.9694 0.0000 0.0000 19.2823 0.0000 0.0000 0.0000 0.0000 0.0000 0.0000 0.0000 0.0000 0.0000 0.0000 0.0000 0.0000 0.0000 0.0000 0.0000 0.0000 0.0000 0.0000 0.0000 0.0000
0.0000 95.0000 0.0000 0.0000 0.0000 0.0000 0.0000 0.0000 0.0000 0.0000 0.0000 0.0000 0.0000 0.0000 0.0000 0.0000 0.0000 0.0000 0.0000 0.0000 0.0000 0.0000 0.0000 0.0000 -78.4434 10.8871 13.3185 -5.2072 -2.6701 4.7765 -163.6615 -4.4931 168.0522 51.3838 -9.3098 9.0739 9.5692 0.0000 0.0000 3.6758 0.0000 0.0000 -0.6576 -0.5447 3.2619 18.5491 0.0000 0.0000 2.2180 0.0000 0.0000 10.1771 -0.3931 -0.3600 23.9134 0.0000 0.0000 10.5768 0.0000 0.0000 18.2765 -1.0207 0.2632 29.0733 0.0000 0.0000 10.5306 0.0000 0.0000 25.6074 -1.7529 1.6099 24.7855 0.0000 0.0000 22.0078 0.0000 0.0000 0.0000 0.0000 0.0000 88.0910 -2.3578 2.4376 -2.1651 6.6703 6.5289 168.3239 11.5630 174.2549 -63.4548 -12.4125 -9.4650 11.8476 0.0000 0.0000 1.4192 0.0000 0.0000 4.1946 -0.3518 -3.7481 160.1883 0.0000 0.0000 11.9729 0.0000 0.0000 -10.1193 -0.2310 2.1638 156.7378 0.0000 0.0000 17.1423 0.0000 0.0000 -18.9846 -1.0059 1.8566 152.3083 0.0000 0.0000 18.0501 0.0000 0.0000 -28.7442 -2.2588 3.5738 144.9694 0.0000 0.0000 19.2823 0.0000 0.0000 0.0000 0.0000 0.0000 0.0000 0.0000 0.0000 0.0000 0.0000 0.0000 0.0000 0.0000 0.0000 0.0000 0.0000 0.0000 0.0000 0.0000 0.0000
0.0000 95.0000 0.0000 0.0000 0.0000 0.0000 0.0000 0.0000 0.0000 0.0000 0.0000 0.0000 0.0000 0.0000 0.0000 0.0000 0.0000 0.0000 0.0000 0.0000 0.0000 0.0000 0.0000 0.0000 -78.6098 11.0094 13.4282 -4.6488 -2.9130 4.9032 -163.2210 -4.7373 167.7671 51.3838 -9.3098 9.0739 9.5692 0.0000 0.0000 3.6758 0.0000 0.0000 -0.6576 -0.5447 3.2619 18.5491 0.0000 0.0000 2.2180 0.0000 0.0000 10.1771 -0.3931 -0.3600 23.9134 0.0000 0.0000 10.5768 0.0000 0.0000 18.2765 -1.0207 0.2632 29.0733 0.0000 0.0000 10.5306 0.0000 0.0000 25.6074 -1.7529 1.6099 24.7855 0.0000 0.0000 22.0078 0.0000 0.0000 0.0000 0.0000 0.0000 87.9431 -2.4846 2.5754 -2.1189 6.2634 6.1425 168.2971 11.3104 174.5266 -63.4548 -12.4125 -9.4650 11.8476 0.0000 0.0000 1.4192 0.0000 0.0000 4.1946 -0.3518 -3.7481 160.1883 0.0000 0.0000 11.9729 0.0000 0.0000 -10.1193 -0.2310 2.1638 156.7378 0.0000 0.0000 17.1423 0.0000 0.0000 -18.9846 -1.0059 1.8566 152.3083 0.0000 0.0000 18.0501 0.0000 0.0000 -28.7442 -2.2588 3.5738 144.9694 0.0000 0.0000 19.2823 0.0000 0.0000 0.0000 0.0000 0.0000 0.0000 0.0000 0.0000 0.0000 0.0000 0.0000 0.0000 0.0000 0.0000 0.0000 0.0000 0.0000 0.0000 0.0000 0.0000
0.0000 95.0000 0.0000 0.0000 0.0000 0.0000 0.0000 0.0000 0.0000 0.0000 0.0000 0.0000 0.0000 0.0000 0.0000 0.0000 0.0000 0.0000 0.0000 0.0000 0.0000 0.0000 0.0000 0.0000 -79.0141 10.7216 12.9852 -4.5252 -3.1814 5.1437 -163.4166 -4.6385 167.8833 51.3838 -9.3098 9.0739 9.5692 0.0000 0.0000 3.6758 0.0000 0.0000 -0.6576 -0.5447 3.2619 18.5491 0.0000 0.0000 2.2180 0.0000 0.0000 10.1771 -0.3931 -0.3600 23.9134 0.0000 0.0000 10.5768 0.0000 0.0000 18.2765 -1.0207 0.2632 29.0733 0.0000 0.0000 10.5306 0.0000 0.0000 25.6074 -1.7529 1.6099 24.7855 0.0000 0.0000 22.0078 0.0000 0.0000 0.0000 0.0000 0.0000 87.9533 -2.3578 2.4436 -2.0840 6.0916 5.9819 168.3827 11.0292 174.8451 -63.4548 -12.4125 -9.4650 11.8476 0.0000 0.0000 1.4192 0.0000 0.0000 4.1946 -0.3518 -3.7481 160.1883 0.0000 0.0000 11.9729 0.0000 0.0000 -10.1193 -0.2310 2.1638 156.7378 0.0000 0.0000 17.1423 0.0000 0.0000 -18.9846 -1.0059 1.8566 152.3083 0.0000 0.0000 18.0501 0.0000 0.0000 -28.7442 -2.2588 3.5738 144.9694 0.0000 0.0000 19.2823 0.0000 0.0000 0.0000 0.0000 0.0000 0.0000 0.0000 0.0000 0.0000 0.0000 0.0000 0.0000 0.0000 0.0000 0.0000 0.0000 0.0000 0.0000 0.0000 0.0000
0.0000 95.0000 0.0000 0.0000 0.0000 0.0000 0.0000 0.0000 0.0000 0.0000 0.0000 0.0000 0.0000 0.0000 0.0000 0.0000 0.0000 0.0000 0.0000 0.0000 0.0000 0.0000 0.0000 0.0000 -78.9516 10.6635 12.9294 -4.6274 -2.8662 4.7774 -163.5443 -4.2716 168.3010 51.3838 -9.3098 9.0739 9.5692 0.0000 0.0000 3.6758 0.0000 0.0000 -0.6576 -0.5447 3.2619 18.5491 0.0000 0.0000 2.2180 0.0000 0.0000 10.1771 -0.3931 -0.3600 23.9134 0.0000 0.0000 10.5768 0.0000 0.0000 18.2765 -1.0207 0.2632 29.0733 0.0000 0.0000 10.5306 0.0000 0.0000 25.6074 -1.7529 1.6099 24.7855 0.0000 0.0000 22.0078 0.0000 0.0000 0.0000 0.0000 0.0000 88.1504 -2.5329 2.6160 -2.3126 5.9127 5.7428 168.3823 10.9960 174.8813 -63.4548 -12.4125 -9.4650 11.8476 0.0000 0.0000 1.4192 0.0000 0.0000 4.1946 -0.3518 -3.7481 160.1883 0.0000 0.0000 11.9729 0.0000 0.0000 -10.1193 -0.2310 2.1638 156.7378 0.0000 0.0000 17.1423 0.0000 0.0000 -18.9846 -1.0059 1.8566 152.3083 0.0000 0.0000 18.0501 0.0000 0.0000 -28.7442 -2.2588 3.5738 144.9694 0.0000 0.0000 19.2823 0.0000 0.0000 0.0000 0.0000 0.0000 0.0000 0.0000 0.0000 0.0000 0.0000 0.0000 0.0000 0.0000 0.0000 0.0000 0.0000 0.0000 0.0000 0.0000 0.0000
0.0000 95.0000 0.0000 0.0000 0.0000 0.0000 0.0000 0.0000 0.0000 0.0000 0.0000 0.0000 0.0000 0.0000 0.0000 0.0000 0.0000 0.0000 0.0000 0.0000 0.0000 0.0000 0.0000 0.0000 -78.8574 10.6219 12.9005 -4.9274 -2.8290 4.8297 -163.7495 -4.2646 168.3112 51.3838 -9.3098 9.0739 9.5692 0.0000 0.0000 3.6758 0.0000 0.0000 -0.6576 -0.5447 3.2619 18.5491 0.0000 0.0000 2.2180 0.0000 0.0000 10.1771 -0.3931 -0.3600 23.9134 0.0000 0.0000 10.5768 0.0000 0.0000 18.2765 -1.0207 0.2632 29.0733 0.0000 0.0000 10.5306 0.0000 0.0000 25.6074 -1.7529 1.6099 24.7855 0.0000 0.0000 22.0078 0.0000 0.0000 0.0000 0.0000 0.0000 88.2531 -2.5761 2.6559 -2.1386 5.6135 5.4603 168.7149 10.7613 175.1804 -63.4548 -12.4125 -9.4650 11.8476 0.0000 0.0000 1.4192 0.0000 0.0000 4.1946 -0.3518 -3.7481 160.1883 0.0000 0.0000 11.9729 0.0000 0.0000 -10.1193 -0.2310 2.1638 156.7378 0.0000 0.0000 17.1423 0.0000 0.0000 -18.9846 -1.0059 1.8566 152.3083 0.0000 0.0000 18.0501 0.0000 0.0000 -28.7442 -2.2588 3.5738 144.9694 0.0000 0.0000 19.2823 0.0000 0.0000 0.0000 0.0000 0.0000 0.0000 0.0000 0.0000 0.0000 0.0000 0.0000 0.0000 0.0000 0.0000 0.0000 0.0000 0.0000 0.0000 0.0000 0.0000
0.0000 95.0000 0.0000 0.0000 0.0000 0.0000 0.0000 0.0000 0.0000 0.0000 0.0000 0.0000 0.0000 0.0000 0.0000 0.0000 0.0000 0.0000 0.0000 0.0000 0.0000 0.0000 0.0000 0.0000 -79.0325 10.0114 12.1234 -5.2040 -2.2852 4.1415 -164.3199 -3.0510 169.6712 51.3838 -9.3098 9.0739 9.5692 0.0000 0.0000 3.6758 0.0000 0.0000 -0.6576 -0.5447 3.2619 18.5491 0.0000 0.0000 2.2180 0.0000 0.0000 10.1771 -0.3931 -0.3600 23.9134 0.0000 0.0000 10.5768 0.0000 0.0000 18.2765 -1.0207 0.2632 29.0733 0.0000 0.0000 10.5306 0.0000 0.0000 25.6074 -1.7529 1.6099 24.7855 0.0000 0.0000 22.0078 0.0000 0.0000 0.0000 0.0000 0.0000 87.7528 -2.7035 2.8116 -1.1463 5.8428 5.8789 169.1486 11.2141 174.7500 -63.4548 -12.4125 -9.4650 11.8476 0.0000 0.0000 1.4192 0.0000 0.0000 4.1946 -0.3518 -3.7481 160.1883 0.0000 0.0000 11.9729 0.0000 0.0000 -10.1193 -0.2310 2.1638 156.7378 0.0000 0.0000 17.1423 0.0000 0.0000 -18.9846 -1.0059 1.8566 152.3083 0.0000 0.0000 18.0501 0.0000 0.0000 -28.7442 -2.2588 3.5738 144.9694 0.0000 0.0000 19.2823 0.0000 0.0000 0.0000 0.0000 0.0000 0.0000 0.0000 0.0000 0.0000 0.0000 0.0000 0.0000 0.0000 0.0000 0.0000 0.0000 0.0000 0.0000 0.0000 0.0000
0.0000 95.0000 0.0000 0.0000 0.0000 0.0000 0.0000 0.0000 0.0000 0.0000 0.0000 0.0000 0.0000 0.0000 0.0000 0.0000 0.0000 0.0000 0.0000 0.0000 0.0000 0.0000 0.0000 0.0000 -79.1687 9.1182 11.0174 -5.5202 -1.2009 2.7125 -164.9590 -0.9176 172.0117 51.3838 -9.3098 9.0739 9.5692 0.0000 0.0000 3.6758 0.0000 0.0000 -0.6576 -0.5447 3.2619 18.5491 0.0000 0.0000 2.2180 0.0000 0.0000 10.1771 -0.3931 -0.3600 23.9134 0.0000 0.0000 10.5768 0.0000 0.0000 18.2765 -1.0207 0.2632 29.0733 0.0000 0.0000 10.5306 0.0000 0.0000 25.6074 -1.7529 1.6099 24.7855 0.0000 0.0000 22.0078 0.0000 0.0000 0.0000 0.0000 0.0000 87.2786 -2.6716 2.8016 0.0979 6.5320 6.8387 169.7610 12.0020 173.9953 -63.4548 -12.4125 -9.4650 11.8476 0.0000 0.0000 1.4192 0.0000 0.0000 4.1946 -0.3518 -3.7481 160.1883 0.0000 0.0000 11.9729 0.0000 0.0000 -10.1193 -0.2310 2.1638 156.7378 0.0000 0.0000 17.1423 0.0000 0.0000 -18.9846 -1.0059 1.8566 152.3083 0.0000 0.0000 18.0501 0.0000 0.0000 -28.7442 -2.2588 3.5738 144.9694 0.0000 0.0000 19.2823 0.0000 0.0000 0.0000 0.0000 0.0000 0.0000 0.0000 0.0000 0.0000 0.0000 0.0000 0.0000 0.0000 0.0000 0.0000 0.0000 0.0000 0.0000 0.0000 0.0000
0.0000 95.0000 0.0000 0.0000 0.0000 0.0000 0.0000 0.0000 0.0000 0.0000 0.0000 0.0000 0.0000 0.0000 0.0000 0.0000 0.0000 0.0000 0.0000 0.0000 0.0000 0.0000 0.0000 0.0000 -79.2631 8.1742 9.8622 -5.4848 0.4528 0.4195 -165.1667 1.9906 175.1805 51.3838 -9.3098 9.0739 9.5692 0.0000 0.0000 3.6758 0.0000 0.0000 -0.6576 -0.5447 3.2619 18.5491 0.0000 0.0000 2.2180 0.0000 0.0000 10.1771 -0.3931 -0.3600 23.9134 0.0000 0.0000 10.5768 0.0000 0.0000 18.2765 -1.0207 0.2632 29.0733 0.0000 0.0000 10.5306 0.0000 0.0000 25.6074 -1.7529 1.6099 24.7855 0.0000 0.0000 22.0078 0.0000 0.0000 0.0000 0.0000 0.0000 86.1382 -3.4052 3.6427 4.4840 10.9603 12.8615 167.9049 46.2275 174.3569 -59.7129 -13.5019 7.8842 20.9922 0.0000 0.0000 5.0470 0.0000 0.0000 9.1207 1.1043 6.9284 107.7828 0.0000 0.0000 59.9188 0.0000 0.0000 -2.5247 0.0901 8.8586 138.7900 0.0000 0.0000 35.4499 0.0000 0.0000 -12.6948 -0.9744 9.3032 141.4933 0.0000 0.0000 29.6566 0.0000 0.0000 -24.1702 -2.3834 7.0950 139.4315 0.0000 0.0000 29.7860 0.0000 0.0000 0.0000 0.0000 0.0000 0.0000 0.0000 0.0000 0.0000 0.0000 0.0000 0.0000 0.0000 0.0000 0.0000 0.0000 0.0000 0.0000 0.0000 0.0000
0.0000 95.0000 0.0000 0.0000 0.0000 0.0000 0.0000 0.0000 0.0000 0.0000 0.0000 0.0000 0.0000 0.0000 0.0000 0.0000 0.0000 0.0000 0.0000 0.0000 0.0000 0.0000 0.0000 0.0000 -78.6431 8.7723 10.6992 -4.5515 1.8669 -1.5362 -163.7689 2.9191 176.3724 51.3838 -9.3098 9.0739 9.5692 0.0000 0.0000 3.6758 0.0000 0.0000 -0.6576 -0.5447 3.2619 18.5491 0.0000 0.0000 2.2180 0.0000 0.0000 10.1771 -0.3931 -0.3600 23.9134 0.0000 0.0000 10.5768 0.0000 0.0000 18.2765 -1.0207 0.2632 29.0733 0.0000 0.0000 10.5306 0.0000 0.0000 25.6074 -1.7529 1.6099 24.7855 0.0000 0.0000 22.0078 0.0000 0.0000 0.0000 0.0000 0.0000 84.2500 -7.1904 7.9485 8.6416 23.6792 30.2881 151.4283 73.1731 156.0747 -61.6616 -14.9194 20.3378 29.3417 0.0000 0.0000 7.3531 0.0000 0.0000 13.9556 1.6415 17.5665 50.8360 0.0000 0.0000 99.6134 0.0000 0.0000 1.8449 -0.2522 20.3412 94.1724 0.0000 0.0000 75.6220 0.0000 0.0000 -7.3557 -2.0419 21.5222 117.0789 0.0000 0.0000 52.1197 0.0000 0.0000 -17.7637 -4.2643 20.6017 118.1837 0.0000 0.0000 49.4053 0.0000 0.0000 0.0000 0.0000 0.0000 0.0000 0.0000 0.0000 0.0000 0.0000 0.0000 0.0000 0.0000 0.0000 0.0000 0.0000 0.0000 0.0000 0.0000 0.0000
0.0000 95.0000 0.0000 0.0000 0.0000 0.0000 0.0000 0.0000 0.0000 0.0000 0.0000 0.0000 0.0000 0.0000 0.0000 0.0000 0.0000 0.0000 0.0000 0.0000 0.0000 0.0000 0.0000 0.0000 -77.4965 11.1790 13.9054 -5.6787 5.6438 -6.1928 -164.0951 4.2718 177.8311 51.3838 -9.3098 9.0739 9.5692 0.0000 0.0000 3.6758 0.0000 0.0000 -0.6576 -0.5447 3.2619 18.5491 0.0000 0.0000 2.2180 0.0000 0.0000 10.1771 -0.3931 -0.3600 23.9134 0.0000 0.0000 10.5768 0.0000 0.0000 18.2765 -1.0207 0.2632 29.0733 0.0000 0.0000 10.5306 0.0000 0.0000 25.6074 -1.7529 1.6099 24.7855 0.0000 0.0000 22.0078 0.0000 0.0000 0.0000 0.0000 0.0000 82.0531 -12.2787 14.0946 9.6553 48.9605 58.4027 287.7418 43.5434 -13.3129 -44.0248 -16.7357 27.3863 55.3594 0.0000 0.0000 20.3758 0.0000 0.0000 39.5730 -9.7410 63.2250 25.7439 0.0000 0.0000 18.6610 0.0000 0.0000 26.4093 -15.3499 64.5131 43.7031 0.0000 0.0000 39.6644 0.0000 0.0000 22.7309 -23.5662 65.9149 59.1342 0.0000 0.0000 67.2636 0.0000 0.0000 15.6052 -30.5064 65.3415 53.6450 0.0000 0.0000 72.0547 0.0000 0.0000 0.0000 0.0000 0.0000 0.0000 0.0000 0.0000 0.0000 0.0000 0.0000 0.0000 0.0000 0.0000 0.0000 0.0000 0.0000 0.0000 0.0000 0.0000
0.0000 95.0000 0.0000 0.0000 0.0000 0.0000 0.0000 0.0000 0.0000 0.0000 0.0000 0.0000 0.0000 0.0000 0.0000 0.0000 0.0000 0.0000 0.0000 0.0000 0.0000 0.0000 0.0000 0.0000 -76.6801 12.1470 15.3245 -6.8520 7.8103 -9.0236 -164.4470 5.5267 179.1580 51.3838 -9.3098 9.0739 9.5692 0.0000 0.0000 3.6758 0.0000 0.0000 -0.6576 -0.5447 3.2619 18.5491 0.0000 0.0000 2.2180 0.0000 0.0000 10.1771 -0.3931 -0.3600 23.9134 0.0000 0.0000 10.5768 0.0000 0.0000 18.2765 -1.0207 0.2632 29.0733 0.0000 0.0000 10.5306 0.0000 0.0000 25.6074 -1.7529 1.6099 24.7855 0.0000 0.0000 22.0078 0.0000 0.0000 0.0000 0.0000 0.0000 79.5966 -16.6606 19.9363 4.9238 81.8928 79.4824 304.2372 5.3696 -10.9980 -42.3342 -13.8309 16.0314 51.7135 0.0000 0.0000 30.5304 0.0000 0.0000 27.8511 -2.9416 60.7874 58.8510 0.0000 0.0000 17.5115 0.0000 0.0000 15.6064 -8.9974 64.4951 74.2622 0.0000 0.0000 21.2164 0.0000 0.0000 11.5480 -19.0625 72.7338 77.7689 0.0000 0.0000 37.8523 0.0000 0.0000 1.3506 -27.0355 77.2388 69.6175 0.0000 0.0000 38.6584 0.0000 0.0000 0.0000 0.0000 0.0000 0.0000 0.0000 0.0000 0.0000 0.0000 0.0000 0.0000 0.0000 0.0000 0.0000 0.0000 0.0000 0.0000 0.0000 0.0000
0.0000 95.0000 0.0000 0.0000 0.0000 0.0000 0.0000 0.0000 0.0000 0.0000 0.0000 0.0000 0.0000 0.0000 0.0000 0.0000 0.0000 0.0000 0.0000 0.0000 0.0000 0.0000 0.0000 0.0000 -77.8516 9.9161 12.2616 -7.9674 7.7324 -9.0998 -166.1140 8.1496 181.6638 51.3838 -9.3098 9.0739 9.5692 0.0000 0.0000 3.6758 0.0000 0.0000 -0.6576 -0.5447 3.2619 18.5491 0.0000 0.0000 2.2180 0.0000 0.0000 10.1771 -0.3931 -0.3600 23.9134 0.0000 0.0000 10.5768 0.0000 0.0000 18.2765 -1.0207 0.2632 29.0733 0.0000 0.0000 10.5306 0.0000 0.0000 25.6074 -1.7529 1.6099 24.7855 0.0000 0.0000 22.0078 0.0000 0.0000 0.0000 0.0000 0.0000 75.3208 -22.4003 28.7788 -156.2550 66.9853 -69.1110 312.8668 -13.2751 -24.5425 -40.0631 -10.2183 3.9779 9.5535 0.0000 0.0000 6.2007 0.0000 0.0000 12.8882 3.1211 37.0597 11.1159 0.0000 0.0000 3.1187 0.0000 0.0000 4.7774 -2.0150 50.4910 108.9863 0.0000 0.0000 18.5808 0.0000 0.0000 -3.3981 -7.2209 59.6413 109.6198 0.0000 0.0000 22.9353 0.0000 0.0000 -13.6324 -17.3164 80.2366 88.0646 0.0000 0.0000 32.1447 0.0000 0.0000 0.0000 0.0000 0.0000 0.0000 0.0000 0.0000 0.0000 0.0000 0.0000 0.0000 0.0000 0.0000 0.0000 0.0000 0.0000 0.0000 0.0000 0.0000
0.0000 95.0000 0.0000 0.0000 0.0000 0.0000 0.0000 0.0000 0.0000 0.0000 0.0000 0.0000 0.0000 0.0000 0.0000 0.0000 0.0000 0.0000 0.0000 0.0000 0.0000 0.0000 0.0000 0.0000 -77.4427 9.0809 11.3130 -11.0589 9.3193 -11.6823 -167.0023 16.6819 182.0429 52.7391 -10.0214 7.2049 13.1096 0.0000 0.0000 6.0157 0.0000 0.0000 0.0279 -0.4059 2.2203 14.5960 0.0000 0.0000 3.7834 0.0000 0.0000 12.1105 -0.3563 -1.4138 15.5106 0.0000 0.0000 2.5985 0.0000 0.0000 20.5919 -1.0690 -1.8483 15.6743 0.0000 0.0000 3.1255 0.0000 0.0000 26.3243 -1.9378 -0.2217 13.7725 0.0000 0.0000 9.5250 0.0000 0.0000 0.0000 0.0000 0.0000 70.4563 -26.1529 36.4149 -153.2028 51.8470 -65.4085 315.1236 -39.8780 -8.2663 -35.4633 -7.2661 -2.4806 9.7757 0.0000 0.0000 19.6829 0.0000 0.0000 28.7768 -1.4634 37.3064 16.9658 0.0000 0.0000 7.0346 0.0000 0.0000 21.2538 -7.3715 42.6684 106.3553 0.0000 0.0000 24.7307 0.0000 0.0000 13.8591 -12.1813 47.0946 112.6828 0.0000 0.0000 26.1336 0.0000 0.0000 1.3493 -18.7599 56.6934 103.8804 0.0000 0.0000 27.1467 0.0000 0.0000 0.0000 0.0000 0.0000 0.0000 0.0000 0.0000 0.0000 0.0000 0.0000 0.0000 0.0000 0.0000 0.0000 0.0000 0.0000 0.0000 0.0000 0.0000
0.0000 95.0000 0.0000 0.0000 0.0000 0.0000 0.0000 0.0000 0.0000 0.0000 0.0000 0.0000 0.0000 0.0000 0.0000 0.0000 0.0000 0.0000 0.0000 0.0000 0.0000 0.0000 0.0000 0.0000 -77.3797 7.0405 8.7850 -15.6063 11.0218 -15.5152 -162.0464 36.1556 180.9262 58.7046 -13.4797 -8.5543 24.6431 0.0000 0.0000 5.3129 0.0000 0.0000 -4.3320 1.0573 -6.0375 38.7255 0.0000 0.0000 38.8928 0.0000 0.0000 7.3779 0.3045 -9.4917 53.8376 0.0000 0.0000 56.6067 0.0000 0.0000 12.8404 -0.9853 -9.8354 63.0090 0.0000 0.0000 54.1423 0.0000 0.0000 18.3776 -2.3411 -7.1402 54.4332 0.0000 0.0000 55.2207 0.0000 0.0000 0.0000 0.0000 0.0000 65.0871 -27.8676 42.4911 -148.8078 45.7475 -63.4332 310.9510 -53.8296 1.6367 -31.0009 -6.6619 -1.4862 10.8796 0.0000 0.0000 5.1421 0.0000 0.0000 37.8822 -4.2178 37.8306 15.1886 0.0000 0.0000 4.5678 0.0000 0.0000 34.4030 -12.2033 42.8715 105.4904 0.0000 0.0000 24.2215 0.0000 0.0000 30.4069 -18.5787 46.3334 109.4643 0.0000 0.0000 23.5910 0.0000 0.0000 15.2243 -23.5808 52.6533 103.5521 0.0000 0.0000 23.7310 0.0000 0.0000 0.0000 0.0000 0.0000 0.0000 0.0000 0.0000 0.0000 0.0000 0.0000 0.0000 0.0000 0.0000 0.0000 0.0000 0.0000 0.0000 0.0000 0.0000
0.0000 95.0000 0.0000 0.0000 0.0000 0.0000 0.0000 0.0000 0.0000 0.0000 0.0000 0.0000 0.0000 0.0000 0.0000 0.0000 0.0000 0.0000 0.0000 0.0000 0.0000 0.0000 0.0000 0.0000 -76.5069 5.4095 6.8579 -21.8462 10.9579 -17.6679 -160.1195 48.7767 181.6163 69.1492 -15.0466 -24.8124 40.0115 0.0000 0.0000 5.4480 0.0000 0.0000 -3.9456 1.8732 -11.5931 56.0813 0.0000 0.0000 38.5447 0.0000 0.0000 7.7437 0.7259 -15.4663 61.9290 0.0000 0.0000 45.5716 0.0000 0.0000 12.8078 -1.1656 -16.2776 63.0222 0.0000 0.0000 43.4810 0.0000 0.0000 18.7860 -3.2889 -14.2000 55.6282 0.0000 0.0000 43.2671 0.0000 0.0000 0.0000 0.0000 0.0000 64.3856 -27.7326 42.8205 -151.4290 40.2578 -63.4232 315.1371 -59.7158 1.8457 -30.8353 -6.0137 -3.0110 10.8406 0.0000 0.0000 10.6354 0.0000 0.0000 39.4303 -4.1287 34.7248 19.2384 0.0000 0.0000 6.1202 0.0000 0.0000 36.2813 -12.3096 41.2084 105.9839 0.0000 0.0000 25.1402 0.0000 0.0000 32.5780 -18.2127 43.7292 109.8413 0.0000 0.0000 26.8380 0.0000 0.0000 20.9350 -27.2634 54.2932 96.7976 0.0000 0.0000 27.3378 0.0000 0.0000 0.0000 0.0000 0.0000 0.0000 0.0000 0.0000 0.0000 0.0000 0.0000 0.0000 0.0000 0.0000 0.0000 0.0000 0.0000 0.0000 0.0000 0.0000
0.0000 95.0000 0.0000 0.0000 0.0000 0.0000 0.0000 0.0000 0.0000 0.0000 0.0000 0.0000 0.0000 0.0000 0.0000 0.0000 0.0000 0.0000 0.0000 0.0000 0.0000 0.0000 0.0000 0.0000 -76.4890 5.4187 6.8718 -28.2120 9.6509 -16.3742 -125.7139 48.0788 200.3371 102.1449 -6.5815 -51.7565 59.2800 0.0000 0.0000 30.8178 0.0000 0.0000 34.5876 9.6801 -21.7565 15.9726 0.0000 0.0000 8.7838 0.0000 0.0000 50.0114 11.3751 -28.8780 30.2681 0.0000 0.0000 34.2583 0.0000 0.0000 53.5941 9.3456 -35.7572 42.7933 0.0000 0.0000 21.4156 0.0000 0.0000 61.9668 6.6785 -43.6037 36.8040 0.0000 0.0000 24.0185 0.0000 0.0000 0.0000 0.0000 0.0000 64.3251 -26.9950 41.7856 -152.2308 40.1703 -62.6274 316.0309 -55.9655 -2.0755 -32.6296 -6.6789 -2.3634 7.6472 0.0000 0.0000 3.0673 0.0000 0.0000 36.6667 -3.4445 35.1553 12.8666 0.0000 0.0000 7.5469 0.0000 0.0000 31.1321 -10.5774 41.5356 105.6984 0.0000 0.0000 22.8822 0.0000 0.0000 26.6585 -16.7098 45.5965 108.1802 0.0000 0.0000 23.6485 0.0000 0.0000 13.3188 -23.5655 54.4431 97.9498 0.0000 0.0000 25.5034 0.0000 0.0000 0.0000 0.0000 0.0000 0.0000 0.0000 0.0000 0.0000 0.0000 0.0000 0.0000 0.0000 0.0000 0.0000 0.0000 0.0000 0.0000 0.0000 0.0000
0.0000 95.0000 0.0000 0.0000 0.0000 0.0000 0.0000 0.0000 0.0000 0.0000 0.0000 0.0000 0.0000 0.0000 0.0000 0.0000 0.0000 0.0000 0.0000 0.0000 0.0000 0.0000 0.0000 0.0000 -76.6075 4.2141 5.3339 -38.3855 10.2015 -22.6112 -132.1276 55.6060 182.5641 110.9208 -7.6640 -41.2237 49.5133 0.0000 0.0000 32.2458 0.0000 0.0000 5.9081 4.2712 -19.2445 16.1777 0.0000 0.0000 10.0374 0.0000 0.0000 11.9885 1.9536 -23.2183 19.3562 0.0000 0.0000 9.2321 0.0000 0.0000 15.2235 -1.0086 -24.1983 22.8707 0.0000 0.0000 11.8278 0.0000 0.0000 18.7034 -4.4957 -23.0728 23.3545 0.0000 0.0000 11.7053 0.0000 0.0000 0.0000 0.0000 0.0000 64.3361 -26.6720 41.3029 -151.4900 41.3286 -61.9599 326.7742 -44.0107 -16.0849 -36.0043 -7.1965 -3.0235 6.5876 0.0000 0.0000 6.3492 0.0000 0.0000 27.5333 -0.7611 32.0706 19.3219 0.0000 0.0000 10.4108 0.0000 0.0000 13.8840 -3.7176 34.6215 84.5078 0.0000 0.0000 25.9875 0.0000 0.0000 9.1909 -9.6385 44.1924 112.7648 0.0000 0.0000 24.3804 0.0000 0.0000 -4.3671 -14.6230 52.0777 104.8244 0.0000 0.0000 28.8232 0.0000 0.0000 0.0000 0.0000 0.0000 0.0000 0.0000 0.0000 0.0000 0.0000 0.0000 0.0000 0.0000 0.0000 0.0000 0.0000 0.0000 0.0000 0.0000 0.0000
0.0000 95.0000 0.0000 0.0000 0.0000 0.0000 0.0000 0.0000 0.0000 0.0000 0.0000 0.0000 0.0000 0.0000 0.0000 0.0000 0.0000 0.0000 0.0000 0.0000 0.0000 0.0000 0.0000 0.0000 -75.8068 3.6815 4.7275 -65.9475 7.0078 -42.0745 -79.0622 55.8806 197.6749 76.3853 -15.6037 5.6577 11.2086 0.0000 0.0000 8.7451 0.0000 0.0000 -38.6614 3.7301 12.5173 14.4520 0.0000 0.0000 8.6169 0.0000 0.0000 -40.4319 6.5683 12.9419 7.4960 0.0000 0.0000 5.2226 0.0000 0.0000 -34.8479 8.6784 13.6285 5.1555 0.0000 0.0000 7.3903 0.0000 0.0000 -17.6046 5.7967 8.9014 7.3640 0.0000 0.0000 2.2673 0.0000 0.0000 0.0000 0.0000 0.0000 68.7617 -24.9461 35.8308 -162.7152 40.5862 -65.3401 336.6320 19.8873 -46.3663 -46.6566 -8.4753 -7.3179 11.8390 0.0000 0.0000 4.3620 0.0000 0.0000 6.0510 2.6453 18.5659 112.5718 0.0000 0.0000 20.0603 0.0000 0.0000 -7.2180 1.0502 21.3070 120.4145 0.0000 0.0000 18.4283 0.0000 0.0000 -23.2677 0.7280 31.3257 111.6623 0.0000 0.0000 21.3599 0.0000 0.0000 -51.8999 3.1146 42.4504 85.7297 0.0000 0.0000 23.8861 0.0000 0.0000 0.0000 0.0000 0.0000 0.0000 0.0000 0.0000 0.0000 0.0000 0.0000 0.0000 0.0000 0.0000 0.0000 0.0000 0.0000 0.0000 0.0000 0.0000
0.0000 95.0000 0.0000 0.0000 0.0000 0.0000 0.0000 0.0000 0.0000 0.0000 0.0000 0.0000 0.0000 0.0000 0.0000 0.0000 0.0000 0.0000 0.0000 0.0000 0.0000 0.0000 0.0000 0.0000 -74.2189 2.9992 3.9636 -76.8200 16.1104 -206.1530 55.8695 -40.5922 362.0336 70.1167 -14.1419 8.7472 12.3212 0.0000 0.0000 14.7357 0.0000 0.0000 -44.6755 4.7227 12.6697 24.4292 0.0000 0.0000 8.4862 0.0000 0.0000 -44.2570 6.4302 10.9582 11.9546 0.0000 0.0000 2.6045 0.0000 0.0000 -36.3675 8.3814 12.3869 10.2153 0.0000 0.0000 5.3921 0.0000 0.0000 -23.0141 6.9140 9.0799 17.9645 0.0000 0.0000 1.1854 0.0000 0.0000 0.0000 0.0000 0.0000 72.5214 -22.6953 30.6025 -175.0947 39.9918 -69.4206 373.8262 49.4222 -45.6852 -69.0391 -14.0427 -4.1136 14.5529 0.0000 0.0000 16.2991 0.0000 0.0000 48.2480 -3.7924 23.9738 23.4835 0.0000 0.0000 10.2375 0.0000 0.0000 46.1863 -7.9512 23.2866 14.3905 0.0000 0.0000 6.3227 0.0000 0.0000 39.4358 -8.8006 21.3426 12.3190 0.0000 0.0000 8.7602 0.0000 0.0000 21.3323 -3.7472 10.4899 21.3159 0.0000 0.0000 1.9601 0.0000 0.0000 0.0000 0.0000 0.0000 0.0000 0.0000 0.0000 0.0000 0.0000 0.0000 0.0000 0.0000 0.0000 0.0000 0.0000 0.0000 0.0000 0.0000 0.0000
0.0000 95.0000 0.0000 0.0000 0.0000 0.0000 0.0000 0.0000 0.0000 0.0000 0.0000 0.0000 0.0000 0.0000 0.0000 0.0000 0.0000 0.0000 0.0000 0.0000 0.0000 0.0000 0.0000 0.0000 -72.9817 1.8159 2.4548 -134.5762 19.2056 -333.5266 226.5959 -26.5733 531.9483 62.7477 -11.9128 12.7767 14.5637 0.0000 0.0000 32.4988 0.0000 0.0000 -52.7370 5.9274 12.2387 40.0623 0.0000 0.0000 9.4433 0.0000 0.0000 -48.8839 5.4705 7.2295 27.6451 0.0000 0.0000 3.4178 0.0000 0.0000 -37.0621 7.1298 9.6485 34.1020 0.0000 0.0000 9.7833 0.0000 0.0000 -29.3527 7.9271 8.6652 36.1290 0.0000 0.0000 2.6659 0.0000 0.0000 0.0000 0.0000 0.0000 74.8017 -20.0024 25.9759 -188.8789 41.2639 -75.7767 334.9717 24.2424 -44.6426 -59.3923 -13.7361 10.1522 7.6250 0.0000 0.0000 14.8508 0.0000 0.0000 -17.4255 17.3798 50.7274 60.1502 0.0000 0.0000 15.8687 0.0000 0.0000 -35.3406 19.0191 60.2455 77.0066 0.0000 0.0000 20.8626 0.0000 0.0000 -43.7909 16.5637 69.8141 79.7979 0.0000 0.0000 26.9495 0.0000 0.0000 -60.6940 15.2830 74.5005 69.9970 0.0000 0.0000 31.4521 0.0000 0.0000 0.0000 0.0000 0.0000 0.0000 0.0000 0.0000 0.0000 0.0000 0.0000 0.0000 0.0000 0.0000 0.0000 0.0000 0.0000 0.0000 0.0000 0.0000
0.0000 95.0000 0.0000 0.0000 0.0000 0.0000 0.0000 0.0000 0.0000 0.0000 0.0000 0.0000 0.0000 0.0000 0.0000 0.0000 0.0000 0.0000 0.0000 0.0000 0.0000 0.0000 0.0000 0.0000 -71.5903 2.3864 3.3089 -148.6546 4.5489 -360.5890 203.0932 -11.9333 515.4774 68.7155 -13.7215 10.5464 9.2519 0.0000 0.0000 69.1525 0.0000 0.0000 -37.3749 1.0757 -3.9509 33.3495 0.0000 0.0000 10.8958 0.0000 0.0000 -23.2172 -0.7136 -8.2447 26.1037 0.0000 0.0000 13.0901 0.0000 0.0000 -13.6353 -1.1960 -7.4861 25.0727 0.0000 0.0000 11.7666 0.0000 0.0000 -11.9771 -2.3147 -7.6885 17.7801 0.0000 0.0000 2.6424 0.0000 0.0000 0.0000 0.0000 0.0000 76.0525 -17.5855 22.3765 -200.1804 40.6123 -80.3021 334.3348 36.2700 -52.7746 -56.6117 -12.2879 1.7150 4.3279 0.0000 0.0000 6.1094 0.0000 0.0000 -23.0401 15.5136 40.6189 54.3961 0.0000 0.0000 13.0491 0.0000 0.0000 -39.2983 14.3760 43.6801 74.7702 0.0000 0.0000 12.6843 0.0000 0.0000 -48.5893 12.8869 51.1388 86.0233 0.0000 0.0000 24.6708 0.0000 0.0000 -68.2771 12.9204 55.1890 76.4798 0.0000 0.0000 32.0853 0.0000 0.0000 0.0000 0.0000 0.0000 0.0000 0.0000 0.0000 0.0000 0.0000 0.0000 0.0000 0.0000 0.0000 0.0000 0.0000 0.0000 0.0000 0.0000 0.0000
0.0000 95.0000 0.0000 0.0000 0.0000 0.0000 0.0000 0.0000 0.0000 0.0000 0.0000 0.0000 0.0000 0.0000 0.0000 0.0000 0.0000 0.0000 0.0000 0.0000 0.0000 0.0000 0.0000 0.0000 -71.4651 0.8553 1.1888 -152.0666 9.9705 -350.4357 198.7355 -2.9807 532.0278 80.4580 -16.9605 12.7237 12.9994 0.0000 0.0000 48.9988 0.0000 0.0000 -41.0559 3.6423 9.9777 31.0981 0.0000 0.0000 14.6590 0.0000 0.0000 -25.7083 1.9193 3.6247 34.3193 0.0000 0.0000 13.2333 0.0000 0.0000 -13.6797 1.7189 3.4986 24.8673 0.0000 0.0000 13.0481 0.0000 0.0000 -7.2299 1.6151 2.7604 33.0549 0.0000 0.0000 7.4930 0.0000 0.0000 0.0000 0.0000 0.0000 75.6896 -17.5661 22.4949 -200.5264 46.5714 -85.3769 334.4019 28.6280 -52.5146 -51.7981 -11.5567 1.9675 14.6121 0.0000 0.0000 5.6797 0.0000 0.0000 -6.5213 8.9321 37.5144 64.5546 0.0000 0.0000 26.2065 0.0000 0.0000 -30.1763 12.5241 49.0659 97.9970 0.0000 0.0000 19.7627 0.0000 0.0000 -45.4048 15.6939 64.2899 89.9446 0.0000 0.0000 29.2364 0.0000 0.0000 -62.5576 15.3370 71.0210 79.7507 0.0000 0.0000 33.9593 0.0000 0.0000 0.0000 0.0000 0.0000 0.0000 0.0000 0.0000 0.0000 0.0000 0.0000 0.0000 0.0000 0.0000 0.0000 0.0000 0.0000 0.0000 0.0000 0.0000
0.0000 95.0000 0.0000 0.0000 0.0000 0.0000 0.0000 0.0000 0.0000 0.0000 0.0000 0.0000 0.0000 0.0000 0.0000 0.0000 0.0000 0.0000 0.0000 0.0000 0.0000 0.0000 0.0000 0.0000 -71.2927 -0.2334 -0.3255 -153.2390 13.3071 -344.1140 197.1044 -21.4917 523.5681 71.9427 -14.5032 17.2882 6.0320 0.0000 0.0000 37.5087 0.0000 0.0000 -31.9952 1.3544 -0.6479 40.2309 0.0000 0.0000 15.6768 0.0000 0.0000 -19.5986 -0.2284 -6.0941 31.5269 0.0000 0.0000 14.3513 0.0000 0.0000 -10.2258 -0.8163 -6.0126 18.0743 0.0000 0.0000 13.1563 0.0000 0.0000 -6.5086 -1.8581 -6.3984 16.8192 0.0000 0.0000 8.2626 0.0000 0.0000 0.0000 0.0000 0.0000 75.3519 -17.4284 22.4531 -201.8632 49.4709 -88.5537 323.5121 34.3281 -62.6507 -56.5653 -12.6099 3.9823 9.7733 0.0000 0.0000 5.2330 0.0000 0.0000 -18.3084 21.1828 58.8976 83.0847 0.0000 0.0000 18.1415 0.0000 0.0000 -35.0879 18.5810 59.4900 90.1898 0.0000 0.0000 18.9295 0.0000 0.0000 -46.8218 17.2361 66.2930 91.5785 0.0000 0.0000 24.4341 0.0000 0.0000 -68.9378 17.7946 66.9295 82.2750 0.0000 0.0000 28.4985 0.0000 0.0000 0.0000 0.0000 0.0000 0.0000 0.0000 0.0000 0.0000 0.0000 0.0000 0.0000 0.0000 0.0000 0.0000 0.0000 0.0000 0.0000 0.0000 0.0000
0.0000 95.0000 0.0000 0.0000 0.0000 0.0000 0.0000 0.0000 0.0000 0.0000 0.0000 0.0000 0.0000 0.0000 0.0000 0.0000 0.0000 0.0000 0.0000 0.0000 0.0000 0.0000 0.0000 0.0000 -71.2073 -0.2470 -0.3449 -153.0383 15.0484 -342.0515 205.8920 -3.4076 518.2258 73.2334 -14.9058 0.3039 14.8539 0.0000 0.0000 42.8856 0.0000 0.0000 -46.7086 3.7745 7.2407 20.8306 0.0000 0.0000 10.2318 0.0000 0.0000 -42.5364 2.1269 0.6889 10.7859 0.0000 0.0000 3.6967 0.0000 0.0000 -31.9748 2.4044 1.0689 3.2949 0.0000 0.0000 8.8971 0.0000 0.0000 -20.9751 0.1783 -2.9685 19.7835 0.0000 0.0000 9.7582 0.0000 0.0000 0.0000 0.0000 0.0000 74.6315 -17.5843 22.9409 -201.7243 54.5447 -92.4374 318.6564 39.2578 -70.8855 -63.3508 -13.6916 5.6373 14.2675 0.0000 0.0000 10.5542 0.0000 0.0000 -25.2383 19.4699 47.4216 93.3111 0.0000 0.0000 17.5196 0.0000 0.0000 -56.8187 30.8699 58.8551 74.2209 0.0000 0.0000 21.7799 0.0000 0.0000 -64.6397 32.0574 72.4661 71.3369 0.0000 0.0000 26.1976 0.0000 0.0000 -83.1057 27.8406 68.8635 68.4813 0.0000 0.0000 29.2635 0.0000 0.0000 0.0000 0.0000 0.0000 0.0000 0.0000 0.0000 0.0000 0.0000 0.0000 0.0000 0.0000 0.0000 0.0000 0.0000 0.0000 0.0000 0.0000 0.0000
0.0000 95.0000 0.0000 0.0000 0.0000 0.0000 0.0000 0.0000 0.0000 0.0000 0.0000 0.0000 0.0000 0.0000 0.0000 0.0000 0.0000 0.0000 0.0000 0.0000 0.0000 0.0000 0.0000 0.0000 -71.1639 -0.2794 -0.3905 -153.8113 12.9371 -344.6056 212.0061 -9.2512 511.2262 66.2383 -13.7764 -1.1063 14.7921 0.0000 0.0000 28.9772 0.0000 0.0000 -41.1267 0.9519 -4.8352 28.2337 0.0000 0.0000 14.2761 0.0000 0.0000 -36.1511 -1.7125 -10.0155 22.7049 0.0000 0.0000 16.1447 0.0000 0.0000 -27.1937 -1.6672 -8.2914 27.6866 0.0000 0.0000 24.7189 0.0000 0.0000 -20.3582 -3.1757 -9.4275 18.0955 0.0000 0.0000 11.6650 0.0000 0.0000 0.0000 0.0000 0.0000 74.7427 -16.8335 21.9284 -202.0294 55.3603 -92.1114 329.7806 28.2290 -64.6178 -56.7944 -12.8512 5.4510 8.6243 0.0000 0.0000 2.4829 0.0000 0.0000 -27.0337 18.9157 44.6420 65.6119 0.0000 0.0000 18.6663 0.0000 0.0000 -52.1780 35.2062 70.6552 66.9014 0.0000 0.0000 23.9452 0.0000 0.0000 -54.4562 29.0325 80.9921 72.6580 0.0000 0.0000 28.9366 0.0000 0.0000 -68.5829 21.7805 76.8641 74.1093 0.0000 0.0000 30.5783 0.0000 0.0000 0.0000 0.0000 0.0000 0.0000 0.0000 0.0000 0.0000 0.0000 0.0000 0.0000 0.0000 0.0000 0.0000 0.0000 0.0000 0.0000 0.0000 0.0000
0.0000 95.0000 0.0000 0.0000 0.0000 0.0000 0.0000 0.0000 0.0000 0.0000 0.0000 0.0000 0.0000 0.0000 0.0000 0.0000 0.0000 0.0000 0.0000 0.0000 0.0000 0.0000 0.0000 0.0000 -71.4862 -1.2789 -1.7768 -152.8456 22.3241 -331.0131 217.9583 -25.5624 506.7310 67.9048 -14.0645 -1.5124 11.8827 0.0000 0.0000 32.0899 0.0000 0.0000 -37.7268 -0.7731 -16.1929 29.3968 0.0000 0.0000 11.3702 0.0000 0.0000 -32.6691 -4.2308 -19.1386 20.7350 0.0000 0.0000 14.0416 0.0000 0.0000 -22.3649 -4.9973 -18.1099 18.0975 0.0000 0.0000 25.5153 0.0000 0.0000 -13.8364 -6.7634 -17.7330 15.0937 0.0000 0.0000 11.0070 0.0000 0.0000 0.0000 0.0000 0.0000 74.1759 -16.8508 22.1716 -198.5065 59.6181 -91.8862 320.4056 31.8198 -69.9519 -56.8322 -12.8097 5.1244 7.5891 0.0000 0.0000 17.5960 0.0000 0.0000 -13.1395 8.3189 29.1772 83.8637 0.0000 0.0000 29.6734 0.0000 0.0000 -51.1829 26.5801 57.2760 86.7147 0.0000 0.0000 34.0037 0.0000 0.0000 -54.1481 24.6952 72.7044 81.8626 0.0000 0.0000 39.1539 0.0000 0.0000 -69.3294 19.2326 69.8005 78.6479 0.0000 0.0000 40.6386 0.0000 0.0000 0.0000 0.0000 0.0000 0.0000 0.0000 0.0000 0.0000 0.0000 0.0000 0.0000 0.0000 0.0000 0.0000 0.0000 0.0000 0.0000 0.0000 0.0000
0.0000 95.0000 0.0000 0.0000 0.0000 0.0000 0.0000 0.0000 0.0000 0.0000 0.0000 0.0000 0.0000 0.0000 0.0000 0.0000 0.0000 0.0000 0.0000 0.0000 0.0000 0.0000 0.0000 0.0000 -71.5792 -2.2838 -3.1674 -152.2512 30.1887 -319.3502 214.7533 -30.4632 521.5635 65.8075 -14.0890 -7.1587 13.9443 0.0000 0.0000 41.4847 0.0000 0.0000 -39.0422 0.0988 -10.0548 31.3747 0.0000 0.0000 13.7824 0.0000 0.0000 -35.0726 -2.0701 -11.3165 25.2062 0.0000 0.0000 19.2818 0.0000 0.0000 -22.3814 -2.8857 -12.0618 29.4804 0.0000 0.0000 28.4829 0.0000 0.0000 -11.6028 -3.8312 -11.2939 14.3563 0.0000 0.0000 8.8657 0.0000 0.0000 0.0000 0.0000 0.0000 74.0271 -16.6405 21.9556 -196.4743 62.2747 -91.5942 317.5305 29.0054 -67.2501 -57.2383 -13.3473 8.6484 8.1491 0.0000 0.0000 6.9671 0.0000 0.0000 -9.4343 8.7215 33.6412 66.5573 0.0000 0.0000 37.4928 0.0000 0.0000 -36.7581 18.5967 57.2385 96.2483 0.0000 0.0000 25.8111 0.0000 0.0000 -44.5774 16.7018 68.7390 92.9907 0.0000 0.0000 37.0362 0.0000 0.0000 -61.3826 16.8508 77.6390 78.0107 0.0000 0.0000 43.7033 0.0000 0.0000 0.0000 0.0000 0.0000 0.0000 0.0000 0.0000 0.0000 0.0000 0.0000 0.0000 0.0000 0.0000 0.0000 0.0000 0.0000 0.0000 0.0000 0.0000
0.0000 95.0000 0.0000 0.0000 0.0000 0.0000 0.0000 0.0000 0.0000 0.0000 0.0000 0.0000 0.0000 0.0000 0.0000 0.0000 0.0000 0.0000 0.0000 0.0000 0.0000 0.0000 0.0000 0.0000 -71.7540 -2.0282 -2.8040 -153.2375 28.6509 -322.1666 217.3809 -28.6155 501.9042 74.7623 -15.0316 -9.4726 16.1578 0.0000 0.0000 39.3580 0.0000 0.0000 -29.5203 -0.4142 -21.8977 16.2547 0.0000 0.0000 9.4079 0.0000 0.0000 -19.7447 -4.1549 -28.3199 10.4662 0.0000 0.0000 12.3255 0.0000 0.0000 -13.0996 -5.8799 -25.4135 13.8627 0.0000 0.0000 18.9976 0.0000 0.0000 -6.6720 -8.4667 -24.1812 14.9639 0.0000 0.0000 10.0792 0.0000 0.0000 0.0000 0.0000 0.0000 73.8659 -16.2156 21.4620 -195.0049 64.6983 -91.2717 320.2808 24.8337 -66.1458 -57.0140 -13.3185 8.5997 7.2678 0.0000 0.0000 13.6628 0.0000 0.0000 -19.0832 14.2199 40.9580 57.2766 0.0000 0.0000 32.1248 0.0000 0.0000 -46.8760 28.5955 65.6714 82.5645 0.0000 0.0000 27.4610 0.0000 0.0000 -49.9943 25.7481 81.6137 77.9210 0.0000 0.0000 37.2854 0.0000 0.0000 -64.4010 19.8179 79.5673 75.7563 0.0000 0.0000 42.8213 0.0000 0.0000 0.0000 0.0000 0.0000 0.0000 0.0000 0.0000 0.0000 0.0000 0.0000 0.0000 0.0000 0.0000 0.0000 0.0000 0.0000 0.0000 0.0000 0.0000
0.0000 95.0000 0.0000 0.0000 0.0000 0.0000 0.0000 0.0000 0.0000 0.0000 0.0000 0.0000 0.0000 0.0000 0.0000 0.0000 0.0000 0.0000 0.0000 0.0000 0.0000 0.0000 0.0000 0.0000 -71.8121 -2.2418 -3.0959 -153.3394 31.6424 -318.3782 220.6311 -35.2642 499.5252 77.0468 -15.2975 -7.5933 14.8792 0.0000 0.0000 36.0550 0.0000 0.0000 -28.5803 -0.4254 -24.0055 18.6096 0.0000 0.0000 9.3589 0.0000 0.0000 -22.5976 -4.8363 -28.6408 14.0817 0.0000 0.0000 11.3355 0.0000 0.0000 -12.8036 -6.3141 -27.2605 12.8195 0.0000 0.0000 20.9712 0.0000 0.0000 -3.1464 -8.3362 -25.4346 13.3565 0.0000 0.0000 10.5060 0.0000 0.0000 0.0000 0.0000 0.0000 73.9931 -16.1002 21.2626 -190.1311 66.1139 -87.6838 320.2071 22.9302 -63.7816 -54.9029 -13.1405 8.7997 7.1945 0.0000 0.0000 20.3609 0.0000 0.0000 -14.0202 11.0987 37.0256 69.6340 0.0000 0.0000 37.8584 0.0000 0.0000 -43.4704 25.5092 63.9482 88.5831 0.0000 0.0000 32.1007 0.0000 0.0000 -46.5180 24.0731 84.2210 78.3701 0.0000 0.0000 46.3239 0.0000 0.0000 -61.5709 17.8607 80.0453 76.5416 0.0000 0.0000 50.9982 0.0000 0.0000 0.0000 0.0000 0.0000 0.0000 0.0000 0.0000 0.0000 0.0000 0.0000 0.0000 0.0000 0.0000 0.0000 0.0000 0.0000 0.0000 0.0000 0.0000
0.0000 95.0000 0.0000 0.0000 0.0000 0.0000 0.0000 0.0000 0.0000 0.0000 0.0000 0.0000 0.0000 0.0000 0.0000 0.0000 0.0000 0.0000 0.0000 0.0000 0.0000 0.0000 0.0000 0.0000 -72.0445 -2.1894 -3.0106 -153.1244 32.2013 -317.6095 212.2337 -22.7078 484.6409 82.8973 -15.3990 -13.7691 16.3029 0.0000 0.0000 29.6661 0.0000 0.0000 -18.7156 1.4292 -36.0496 10.1900 0.0000 0.0000 9.8539 0.0000 0.0000 -7.9016 -2.6389 -41.6590 17.5110 0.0000 0.0000 8.3656 0.0000 0.0000 -0.7319 -5.7729 -38.7202 11.9168 0.0000 0.0000 24.2066 0.0000 0.0000 4.8961 -9.7572 -35.6937 19.0455 0.0000 0.0000 16.5762 0.0000 0.0000 0.0000 0.0000 0.0000 74.0525 -15.7700 20.8088 -184.5540 67.8004 -83.3204 316.0148 25.1805 -65.9675 -57.7606 -13.4784 9.2501 7.2376 0.0000 0.0000 16.6227 0.0000 0.0000 -18.1526 11.9024 35.7024 70.7898 0.0000 0.0000 37.9289 0.0000 0.0000 -45.9676 24.1745 58.3503 92.2521 0.0000 0.0000 29.0571 0.0000 0.0000 -50.0807 25.6322 81.2151 79.4846 0.0000 0.0000 45.9520 0.0000 0.0000 -64.3448 21.4466 83.6216 73.4436 0.0000 0.0000 52.7046 0.0000 0.0000 0.0000 0.0000 0.0000 0.0000 0.0000 0.0000 0.0000 0.0000 0.0000 0.0000 0.0000 0.0000 0.0000 0.0000 0.0000 0.0000 0.0000 0.0000
0.0000 95.0000 0.0000 0.0000 0.0000 0.0000 0.0000 0.0000 0.0000 0.0000 0.0000 0.0000 0.0000 0.0000 0.0000 0.0000 0.0000 0.0000 0.0000 0.0000 0.0000 0.0000 0.0000 0.0000 -72.1277 -1.9916 -2.7345 -153.7716 30.5914 -320.2112 203.8898 -17.3693 479.7146 91.9653 -13.4042 -29.1617 14.3349 0.0000 0.0000 31.1745 0.0000 0.0000 -18.0054 1.7874 -42.6250 15.5604 0.0000 0.0000 8.9371 0.0000 0.0000 -8.3838 -3.2641 -47.2585 15.2771 0.0000 0.0000 10.7555 0.0000 0.0000 0.5871 -6.3590 -45.2798 7.4629 0.0000 0.0000 25.7490 0.0000 0.0000 4.6894 -11.1715 -40.5973 10.3425 0.0000 0.0000 15.2871 0.0000 0.0000 0.0000 0.0000 0.0000 74.4384 -15.4515 20.2531 -179.4886 68.0529 -78.6636 317.1077 19.9887 -61.3074 -54.8290 -12.8590 7.0703 7.3624 0.0000 0.0000 12.3372 0.0000 0.0000 -14.4291 10.5387 34.9797 71.6417 0.0000 0.0000 36.0729 0.0000 0.0000 -41.5073 23.2260 61.7158 92.6153 0.0000 0.0000 32.3615 0.0000 0.0000 -45.3420 22.5595 82.9292 81.7520 0.0000 0.0000 49.7946 0.0000 0.0000 -59.6493 18.4532 85.8018 76.0005 0.0000 0.0000 62.2773 0.0000 0.0000 0.0000 0.0000 0.0000 0.0000 0.0000 0.0000 0.0000 0.0000 0.0000 0.0000 0.0000 0.0000 0.0000 0.0000 0.0000 0.0000 0.0000 0.0000
0.0000 95.0000 0.0000 0.0000 0.0000 0.0000 0.0000 0.0000 0.0000 0.0000 0.0000 0.0000 0.0000 0.0000 0.0000 0.0000 0.0000 0.0000 0.0000 0.0000 0.0000 0.0000 0.0000 0.0000 -72.0752 -2.6804 -3.6836 -153.2528 35.3140 -313.1203 220.0965 -34.3345 498.5965 79.3698 -15.1070 -15.7815 13.0240 0.0000 0.0000 48.8373 0.0000 0.0000 -29.7283 -1.4046 -33.4022 15.8953 0.0000 0.0000 7.6379 0.0000 0.0000 -27.1966 -7.0288 -33.2638 8.1921 0.0000 0.0000 12.1792 0.0000 0.0000 -14.3653 -8.1609 -32.7241 10.0473 0.0000 0.0000 26.3632 0.0000 0.0000 -1.6555 -9.8983 -30.9431 12.5248 0.0000 0.0000 12.6549 0.0000 0.0000 0.0000 0.0000 0.0000 74.6820 -15.5143 20.2471 -174.3203 68.0730 -74.3681 317.2487 18.6501 -60.2941 -57.2087 -13.2689 8.0984 6.9739 0.0000 0.0000 16.1458 0.0000 0.0000 -16.3913 11.5518 36.2161 70.4655 0.0000 0.0000 33.2925 0.0000 0.0000 -41.4800 22.7078 60.6440 93.1467 0.0000 0.0000 26.1793 0.0000 0.0000 -45.3263 22.7126 83.3327 80.9187 0.0000 0.0000 46.7075 0.0000 0.0000 -60.2999 18.2094 83.6917 77.4716 0.0000 0.0000 55.6249 0.0000 0.0000 0.0000 0.0000 0.0000 0.0000 0.0000 0.0000 0.0000 0.0000 0.0000 0.0000 0.0000 0.0000 0.0000 0.0000 0.0000 0.0000 0.0000 0.0000
0.0000 95.0000 0.0000 0.0000 0.0000 0.0000 0.0000 0.0000 0.0000 0.0000 0.0000 0.0000 0.0000 0.0000 0.0000 0.0000 0.0000 0.0000 0.0000 0.0000 0.0000 0.0000 0.0000 0.0000 -72.6139 -3.5011 -4.7638 -152.9376 38.5254 -307.2056 212.8267 -37.0745 491.9498 90.4640 -14.9508 -19.5371 13.3731 0.0000 0.0000 36.4164 0.0000 0.0000 -21.2391 0.7296 -35.9802 12.5866 0.0000 0.0000 7.0353 0.0000 0.0000 -12.7312 -3.8327 -38.1621 14.1165 0.0000 0.0000 10.2043 0.0000 0.0000 -0.7360 -5.7536 -38.5911 9.8920 0.0000 0.0000 19.5425 0.0000 0.0000 10.1443 -9.1955 -39.2149 13.0188 0.0000 0.0000 10.4325 0.0000 0.0000 0.0000 0.0000 0.0000 74.6383 -15.5335 20.2875 -171.0614 68.2864 -71.7011 316.4228 19.8716 -60.7809 -58.8800 -13.4962 8.5471 6.5825 0.0000 0.0000 19.6744 0.0000 0.0000 -17.4230 11.0048 33.8470 72.0001 0.0000 0.0000 35.8307 0.0000 0.0000 -44.5123 23.0276 57.6969 93.5486 0.0000 0.0000 27.4574 0.0000 0.0000 -48.1675 23.1388 78.9841 82.4681 0.0000 0.0000 47.2964 0.0000 0.0000 -61.5765 18.5019 81.7578 77.0539 0.0000 0.0000 54.4114 0.0000 0.0000 0.0000 0.0000 0.0000 0.0000 0.0000 0.0000 0.0000 0.0000 0.0000 0.0000 0.0000 0.0000 0.0000 0.0000 0.0000 0.0000 0.0000 0.0000
0.0000 95.0000 0.0000 0.0000 0.0000 0.0000 0.0000 0.0000 0.0000 0.0000 0.0000 0.0000 0.0000 0.0000 0.0000 0.0000 0.0000 0.0000 0.0000 0.0000 0.0000 0.0000 0.0000 0.0000 -73.1506 -4.0682 -5.4809 -152.8994 40.2023 -303.7558 212.4793 -39.1056 505.1799 85.9543 -14.7106 -21.5865 11.9323 0.0000 0.0000 44.1587 0.0000 0.0000 -29.4946 -0.8641 -27.5393 10.4732 0.0000 0.0000 5.2574 0.0000 0.0000 -21.6553 -4.9313 -30.1479 9.6604 0.0000 0.0000 8.4663 0.0000 0.0000 -9.8892 -6.5265 -30.5408 8.0873 0.0000 0.0000 14.0039 0.0000 0.0000 3.0262 -9.2063 -32.0986 13.1090 0.0000 0.0000 8.6486 0.0000 0.0000 0.0000 0.0000 0.0000 74.5747 -15.6681 20.4848 -167.3563 68.9557 -69.1228 315.4031 19.2729 -60.0942 -57.0726 -13.2743 8.2390 6.7218 0.0000 0.0000 6.5522 0.0000 0.0000 -17.5329 13.1228 39.5113 52.2925 0.0000 0.0000 41.4891 0.0000 0.0000 -43.4324 23.8569 60.6562 91.5781 0.0000 0.0000 32.4384 0.0000 0.0000 -46.8868 23.0166 81.0463 81.3240 0.0000 0.0000 50.9408 0.0000 0.0000 -59.2430 17.6642 84.5479 75.1823 0.0000 0.0000 57.9958 0.0000 0.0000 0.0000 0.0000 0.0000 0.0000 0.0000 0.0000 0.0000 0.0000 0.0000 0.0000 0.0000 0.0000 0.0000 0.0000 0.0000 0.0000 0.0000 0.0000
0.0000 95.0000 0.0000 0.0000 0.0000 0.0000 0.0000 0.0000 0.0000 0.0000 0.0000 0.0000 0.0000 0.0000 0.0000 0.0000 0.0000 0.0000 0.0000 0.0000 0.0000 0.0000 0.0000 0.0000 -73.4882 -3.7790 -5.0603 -152.9504 39.5858 -304.8606 212.8185 -42.2812 514.7958 75.5836 -14.9318 -17.7383 12.2554 0.0000 0.0000 47.2801 0.0000 0.0000 -34.2305 -0.7632 -18.9793 9.0950 0.0000 0.0000 6.5760 0.0000 0.0000 -28.9413 -4.3000 -21.3258 5.6986 0.0000 0.0000 7.6056 0.0000 0.0000 -16.2042 -5.5666 -22.4503 1.8819 0.0000 0.0000 9.4592 0.0000 0.0000 -5.8343 -7.7156 -22.4962 6.5403 0.0000 0.0000 7.1882 0.0000 0.0000 0.0000 0.0000 0.0000 74.7221 -15.8602 20.6798 -164.2975 69.8073 -67.3870 313.3113 18.4413 -59.1926 -57.1730 -12.8087 4.7996 6.6193 0.0000 0.0000 5.0918 0.0000 0.0000 -14.6337 8.8930 29.8630 83.1845 0.0000 0.0000 28.3973 0.0000 0.0000 -41.9155 21.1509 56.7456 93.6994 0.0000 0.0000 27.1608 0.0000 0.0000 -47.3644 21.1372 75.6013 83.7287 0.0000 0.0000 42.5194 0.0000 0.0000 -59.7585 18.2875 85.1048 71.8784 0.0000 0.0000 59.5075 0.0000 0.0000 0.0000 0.0000 0.0000 0.0000 0.0000 0.0000 0.0000 0.0000 0.0000 0.0000 0.0000 0.0000 0.0000 0.0000 0.0000 0.0000 0.0000 0.0000
0.0000 95.0000 0.0000 0.0000 0.0000 0.0000 0.0000 0.0000 0.0000 0.0000 0.0000 0.0000 0.0000 0.0000 0.0000 0.0000 0.0000 0.0000 0.0000 0.0000 0.0000 0.0000 0.0000 0.0000 -73.7833 -4.2830 -5.7041 -153.2696 41.6076 -301.6360 232.7391 -56.3164 476.3874 97.0757 -13.6950 -25.7648 16.9911 0.0000 0.0000 18.6254 0.0000 0.0000 -7.4327 5.4331 -42.8889 8.2177 0.0000 0.0000 3.0991 0.0000 0.0000 9.0847 3.5223 -47.0880 9.2142 0.0000 0.0000 4.9358 0.0000 0.0000 18.1379 -0.1217 -45.5489 5.6194 0.0000 0.0000 3.5717 0.0000 0.0000 22.2275 -6.4887 -45.6622 10.3569 0.0000 0.0000 5.9052 0.0000 0.0000 0.0000 0.0000 0.0000 75.0707 -16.1717 20.9527 -160.7676 69.9966 -65.1394 315.2269 17.3647 -54.8063 -55.4924 -12.1738 2.1387 5.3584 0.0000 0.0000 2.7990 0.0000 0.0000 -15.7900 11.8785 37.6710 95.8286 0.0000 0.0000 18.4660 0.0000 0.0000 -35.4804 17.8917 57.1715 92.4619 0.0000 0.0000 23.5429 0.0000 0.0000 -40.5593 17.6466 79.8738 78.7907 0.0000 0.0000 34.6553 0.0000 0.0000 -49.3106 13.5134 100.3492 56.6236 0.0000 0.0000 64.7270 0.0000 0.0000 0.0000 0.0000 0.0000 0.0000 0.0000 0.0000 0.0000 0.0000 0.0000 0.0000 0.0000 0.0000 0.0000 0.0000 0.0000 0.0000 0.0000 0.0000
0.0000 95.0000 0.0000 0.0000 0.0000 0.0000 0.0000 0.0000 0.0000 0.0000 0.0000 0.0000 0.0000 0.0000 0.0000 0.0000 0.0000 0.0000 0.0000 0.0000 0.0000 0.0000 0.0000 0.0000 -73.4877 -5.6391 -7.5485 -152.8528 50.1845 -289.7118 245.8356 -55.5930 459.8954 103.3108 -9.6854 -39.5091 26.4019 0.0000 0.0000 16.1214 0.0000 0.0000 6.0817 12.0628 -49.8926 4.3883 0.0000 0.0000 5.2876 0.0000 0.0000 18.8263 9.0461 -55.7896 8.1611 0.0000 0.0000 4.6886 0.0000 0.0000 24.6783 3.2852 -57.5348 10.4979 0.0000 0.0000 3.7603 0.0000 0.0000 32.2352 -3.3097 -58.4454 10.9788 0.0000 0.0000 4.7295 0.0000 0.0000 0.0000 0.0000 0.0000 75.4653 -16.3803 21.0733 -155.5516 72.4667 -62.5283 313.0560 13.9177 -46.7761 -51.3653 -10.7507 -1.8171 8.3643 0.0000 0.0000 4.0134 0.0000 0.0000 -9.0697 16.3241 59.3097 86.9242 0.0000 0.0000 18.8025 0.0000 0.0000 -25.9310 17.7145 72.9552 77.4151 0.0000 0.0000 20.8604 0.0000 0.0000 -30.4996 12.5315 91.6962 66.8407 0.0000 0.0000 30.7258 0.0000 0.0000 -37.8708 2.2696 109.9392 49.3755 0.0000 0.0000 53.9593 0.0000 0.0000 0.0000 0.0000 0.0000 0.0000 0.0000 0.0000 0.0000 0.0000 0.0000 0.0000 0.0000 0.0000 0.0000 0.0000 0.0000 0.0000 0.0000 0.0000
0.0000 95.0000 0.0000 0.0000 0.0000 0.0000 0.0000 0.0000 0.0000 0.0000 0.0000 0.0000 0.0000 0.0000 0.0000 0.0000 0.0000 0.0000 0.0000 0.0000 0.0000 0.0000 0.0000 0.0000 -73.0649 -7.5238 -10.1439 -146.2928 65.9509 -264.4849 88.4732 -57.8708 289.5827 65.5986 -13.5028 1.4735 13.6773 0.0000 0.0000 26.7373 0.0000 0.0000 -18.5553 0.9328 -6.0549 5.4743 0.0000 0.0000 7.1461 0.0000 0.0000 -2.2569 -0.0755 -8.6019 8.6801 0.0000 0.0000 7.9726 0.0000 0.0000 6.5888 -1.1134 -9.0562 13.0144 0.0000 0.0000 10.5138 0.0000 0.0000 18.2282 -2.6367 -9.2807 12.9033 0.0000 0.0000 10.4738 0.0000 0.0000 0.0000 0.0000 0.0000 76.5491 -15.8960 20.0688 -146.4240 79.4959 -57.8863 325.7510 9.3714 -15.9368 -61.8921 -13.5315 5.8425 4.8779 0.0000 0.0000 10.9543 0.0000 0.0000 19.7100 1.5036 73.8701 41.0851 0.0000 0.0000 22.8062 0.0000 0.0000 6.2800 -4.8409 80.0020 39.8490 0.0000 0.0000 29.0600 0.0000 0.0000 -4.3730 -8.7484 74.4718 41.4273 0.0000 0.0000 42.6468 0.0000 0.0000 -17.7193 -10.3226 59.4215 33.5249 0.0000 0.0000 27.0045 0.0000 0.0000 0.0000 0.0000 0.0000 0.0000 0.0000 0.0000 0.0000 0.0000 0.0000 0.0000 0.0000 0.0000 0.0000 0.0000 0.0000 0.0000 0.0000 0.0000
0.0000 95.0000 0.0000 0.0000 0.0000 0.0000 0.0000 0.0000 0.0000 0.0000 0.0000 0.0000 0.0000 0.0000 0.0000 0.0000 0.0000 0.0000 0.0000 0.0000 0.0000 0.0000 0.0000 0.0000 -72.7707 -7.5008 -10.1671 -110.2720 74.4244 -216.5611 79.9991 -35.6700 303.7369 54.1425 -10.4915 6.4840 13.3609 0.0000 0.0000 46.3811 0.0000 0.0000 -6.9389 -0.1848 4.1433 12.9863 0.0000 0.0000 125.2779 0.0000 0.0000 -3.0452 -0.0241 -5.6793 20.6130 0.0000 0.0000 133.4096 0.0000 0.0000 5.4973 -0.7662 -4.9877 30.3914 0.0000 0.0000 69.0662 0.0000 0.0000 16.3655 -2.0559 -5.4083 23.6080 0.0000 0.0000 35.2229 0.0000 0.0000 0.0000 0.0000 0.0000 77.3508 -14.3489 17.8740 -58.0698 86.6437 24.9052 367.8732 5.8587 5.5328 -80.8505 -13.9904 33.5800 41.5030 0.0000 0.0000 31.8989 0.0000 0.0000 38.4277 -6.3000 48.7321 8.7650 0.0000 0.0000 58.8417 0.0000 0.0000 23.6204 -10.4882 52.1701 39.4876 0.0000 0.0000 111.8979 0.0000 0.0000 9.2830 -11.8698 52.8127 66.1032 0.0000 0.0000 74.3068 0.0000 0.0000 -8.8602 -11.6393 47.7347 61.4773 0.0000 0.0000 55.2900 0.0000 0.0000 0.0000 0.0000 0.0000 0.0000 0.0000 0.0000 0.0000 0.0000 0.0000 0.0000 0.0000 0.0000 0.0000 0.0000 0.0000 0.0000 0.0000 0.0000
0.0000 95.0000 0.0000 0.0000 0.0000 0.0000 0.0000 0.0000 0.0000 0.0000 0.0000 0.0000 0.0000 0.0000 0.0000 0.0000 0.0000 0.0000 0.0000 0.0000 0.0000 0.0000 0.0000 0.0000 -72.8453 -8.5329 -11.5463 -40.7841 69.3918 -125.4457 43.4517 -42.4776 360.3093 64.7921 -14.4442 -13.7254 16.4317 0.0000 0.0000 23.2876 0.0000 0.0000 -3.4842 5.1679 -32.8276 5.6156 0.0000 0.0000 1.9952 0.0000 0.0000 0.1338 0.0434 -40.6818 12.2357 0.0000 0.0000 3.7379 0.0000 0.0000 11.5685 -2.2412 -40.3691 20.9224 0.0000 0.0000 4.4539 0.0000 0.0000 30.0013 -3.7145 -42.5195 18.7833 0.0000 0.0000 3.2979 0.0000 0.0000 0.0000 0.0000 0.0000 78.5546 -11.9167 14.5453 12.1016 69.5563 82.7950 409.9302 14.8181 4.7963 -62.6000 -16.3727 36.6538 44.6093 0.0000 0.0000 17.8489 0.0000 0.0000 21.1801 0.8108 24.3886 98.5615 0.0000 0.0000 57.9976 0.0000 0.0000 5.6213 -1.3728 32.1999 116.4060 0.0000 0.0000 38.4213 0.0000 0.0000 -5.1132 -3.9025 37.2444 118.7856 0.0000 0.0000 31.3455 0.0000 0.0000 -22.0188 -5.5447 36.7616 109.3527 0.0000 0.0000 33.4982 0.0000 0.0000 0.0000 0.0000 0.0000 0.0000 0.0000 0.0000 0.0000 0.0000 0.0000 0.0000 0.0000 0.0000 0.0000 0.0000 0.0000 0.0000 0.0000 0.0000
0.0000 95.0000 0.0000 0.0000 0.0000 0.0000 0.0000 0.0000 0.0000 0.0000 0.0000 0.0000 0.0000 0.0000 0.0000 0.0000 0.0000 0.0000 0.0000 0.0000 0.0000 0.0000 0.0000 0.0000 -72.8927 -7.1687 -9.6964 -25.3092 45.8064 -84.2829 -15.8065 -23.8308 398.7699 82.9787 -11.8561 -54.9267 38.3918 0.0000 0.0000 24.9748 0.0000 0.0000 -25.9109 -2.0642 -63.3006 60.5738 0.0000 0.0000 16.5862 0.0000 0.0000 -20.6869 -12.2294 -65.5943 64.3704 0.0000 0.0000 13.6935 0.0000 0.0000 -8.6191 -17.5824 -74.3163 64.2206 0.0000 0.0000 12.1682 0.0000 0.0000 8.3216 -24.3285 -89.0530 50.6399 0.0000 0.0000 11.6787 0.0000 0.0000 0.0000 0.0000 0.0000 79.1667 -9.5013 11.4797 15.7006 51.1519 70.7989 421.9661 40.9669 24.3106 -62.7164 -14.9290 20.4825 31.9649 0.0000 0.0000 12.9621 0.0000 0.0000 4.6361 2.6682 17.5229 141.9463 0.0000 0.0000 28.8349 0.0000 0.0000 -13.3420 2.2885 24.1540 130.4858 0.0000 0.0000 36.7142 0.0000 0.0000 -25.4930 1.0752 29.6144 126.1318 0.0000 0.0000 38.3662 0.0000 0.0000 -40.4674 -1.2456 29.4922 119.6793 0.0000 0.0000 39.6613 0.0000 0.0000 0.0000 0.0000 0.0000 0.0000 0.0000 0.0000 0.0000 0.0000 0.0000 0.0000 0.0000 0.0000 0.0000 0.0000 0.0000 0.0000 0.0000 0.0000
0.0000 95.0000 0.0000 0.0000 0.0000 0.0000 0.0000 0.0000 0.0000 0.0000 0.0000 0.0000 0.0000 0.0000 0.0000 0.0000 0.0000 0.0000 0.0000 0.0000 0.0000 0.0000 0.0000 0.0000 -74.6602 -1.0489 -1.3754 -23.2485 22.3555 -45.0361 -4.1186 21.4018 390.0887 38.2554 -6.9146 5.4265 6.9509 0.0000 0.0000 7.8717 0.0000 0.0000 -28.0129 -1.1834 -36.4816 112.0807 0.0000 0.0000 29.3627 0.0000 0.0000 -17.5357 -5.2333 -37.7820 116.4774 0.0000 0.0000 24.2172 0.0000 0.0000 -7.9209 -7.7311 -37.8933 118.2510 0.0000 0.0000 23.0881 0.0000 0.0000 4.3416 -9.9150 -35.7422 115.9286 0.0000 0.0000 23.8380 0.0000 0.0000 0.0000 0.0000 0.0000 80.6675 -5.2738 6.2095 18.6556 32.9856 52.4286 485.1880 59.2513 94.4349 -56.7628 -11.6612 -2.7666 12.3426 0.0000 0.0000 2.0565 0.0000 0.0000 -13.5452 1.0134 5.3599 116.0178 0.0000 0.0000 35.9900 0.0000 0.0000 -28.1868 1.2094 9.5864 111.2304 0.0000 0.0000 42.6457 0.0000 0.0000 -35.7233 -0.4148 9.0490 113.3937 0.0000 0.0000 38.8296 0.0000 0.0000 -41.5025 -2.4644 8.0531 106.9117 0.0000 0.0000 43.6873 0.0000 0.0000 0.0000 0.0000 0.0000 0.0000 0.0000 0.0000 0.0000 0.0000 0.0000 0.0000 0.0000 0.0000 0.0000 0.0000 0.0000 0.0000 0.0000 0.0000
0.0000 95.0000 0.0000 0.0000 0.0000 0.0000 0.0000 0.0000 0.0000 0.0000 0.0000 0.0000 0.0000 0.0000 0.0000 0.0000 0.0000 0.0000 0.0000 0.0000 0.0000 0.0000 0.0000 0.0000 -74.9187 3.7588 4.9045 -18.9982 14.5749 -25.2957 1.1087 33.3523 377.6467 36.5371 -6.7297 4.7277 4.6556 0.0000 0.0000 5.9618 0.0000 0.0000 -28.0265 -0.6564 -28.8047 120.9622 0.0000 0.0000 27.5162 0.0000 0.0000 -18.2683 -3.9905 -29.2227 122.2353 0.0000 0.0000 25.8017 0.0000 0.0000 -8.0632 -5.9491 -29.7828 122.3121 0.0000 0.0000 26.1848 0.0000 0.0000 3.7171 -6.8598 -24.2075 124.9550 0.0000 0.0000 25.8914 0.0000 0.0000 0.0000 0.0000 0.0000 81.7304 -3.0907 3.5721 16.2424 23.9465 36.9976 510.3663 65.1014 122.6903 -59.5855 -12.5483 -0.0887 11.6245 0.0000 0.0000 9.9475 0.0000 0.0000 -1.3524 0.1704 1.1958 9.7444 0.0000 0.0000 2.5990 0.0000 0.0000 -9.2236 0.0543 5.4447 8.1875 0.0000 0.0000 6.1999 0.0000 0.0000 -16.7486 -0.9123 2.7993 10.9971 0.0000 0.0000 2.9599 0.0000 0.0000 -25.4311 -1.9204 0.8037 7.1027 0.0000 0.0000 3.5169 0.0000 0.0000 0.0000 0.0000 0.0000 0.0000 0.0000 0.0000 0.0000 0.0000 0.0000 0.0000 0.0000 0.0000 0.0000 0.0000 0.0000 0.0000 0.0000 0.0000
0.0000 95.0000 0.0000 0.0000 0.0000 0.0000 0.0000 0.0000 0.0000 0.0000 0.0000 0.0000 0.0000 0.0000 0.0000 0.0000 0.0000 0.0000 0.0000 0.0000 0.0000 0.0000 0.0000 0.0000 -75.5223 5.6354 7.2714 -15.0425 9.6083 -14.1378 2.9091 43.7738 368.0995 36.5371 -6.7297 4.7277 4.6556 0.0000 0.0000 5.9618 0.0000 0.0000 -28.0265 -0.6564 -28.8047 120.9622 0.0000 0.0000 27.5162 0.0000 0.0000 -18.2683 -3.9905 -29.2227 122.2353 0.0000 0.0000 25.8017 0.0000 0.0000 -8.0632 -5.9491 -29.7828 122.3121 0.0000 0.0000 26.1848 0.0000 0.0000 3.7171 -6.8598 -24.2075 124.9550 0.0000 0.0000 25.8914 0.0000 0.0000 0.0000 0.0000 0.0000 82.8227 -1.6187 1.8353 12.4964 16.9997 24.2564 529.4447 57.4164 150.4315 -59.5855 -12.5483 -0.0887 11.6245 0.0000 0.0000 9.9475 0.0000 0.0000 -1.3524 0.1704 1.1958 9.7444 0.0000 0.0000 2.5990 0.0000 0.0000 -9.2236 0.0543 5.4447 8.1875 0.0000 0.0000 6.1999 0.0000 0.0000 -16.7486 -0.9123 2.7993 10.9971 0.0000 0.0000 2.9599 0.0000 0.0000 -25.4311 -1.9204 0.8037 7.1027 0.0000 0.0000 3.5169 0.0000 0.0000 0.0000 0.0000 0.0000 0.0000 0.0000 0.0000 0.0000 0.0000 0.0000 0.0000 0.0000 0.0000 0.0000 0.0000 0.0000 0.0000 0.0000 0.0000
0.0000 95.0000 0.0000 0.0000 0.0000 0.0000 0.0000 0.0000 0.0000 0.0000 0.0000 0.0000 0.0000 0.0000 0.0000 0.0000 0.0000 0.0000 0.0000 0.0000 0.0000 0.0000 0.0000 0.0000 -76.4101 5.8504 7.4292 -12.0100 6.8799 -9.0740 1.4513 48.0116 362.7635 36.5371 -6.7297 4.7277 4.6556 0.0000 0.0000 5.9618 0.0000 0.0000 -28.0265 -0.6564 -28.8047 120.9622 0.0000 0.0000 27.5162 0.0000 0.0000 -18.2683 -3.9905 -29.2227 122.2353 0.0000 0.0000 25.8017 0.0000 0.0000 -8.0632 -5.9491 -29.7828 122.3121 0.0000 0.0000 26.1848 0.0000 0.0000 3.7171 -6.8598 -24.2075 124.9550 0.0000 0.0000 25.8914 0.0000 0.0000 0.0000 0.0000 0.0000 83.7049 -1.1477 1.2813 9.0788 12.5452 16.5849 533.0759 51.1537 160.0498 -59.5855 -12.5483 -0.0887 11.6245 0.0000 0.0000 9.9475 0.0000 0.0000 -1.3524 0.1704 1.1958 9.7444 0.0000 0.0000 2.5990 0.0000 0.0000 -9.2236 0.0543 5.4447 8.1875 0.0000 0.0000 6.1999 0.0000 0.0000 -16.7486 -0.9123 2.7993 10.9971 0.0000 0.0000 2.9599 0.0000 0.0000 -25.4311 -1.9204 0.8037 7.1027 0.0000 0.0000 3.5169 0.0000 0.0000 0.0000 0.0000 0.0000 0.0000 0.0000 0.0000 0.0000 0.0000 0.0000 0.0000 0.0000 0.0000 0.0000 0.0000 0.0000 0.0000 0.0000 0.0000
0.0000 95.0000 0.0000 0.0000 0.0000 0.0000 0.0000 0.0000 0.0000 0.0000 0.0000 0.0000 0.0000 0.0000 0.0000 0.0000 0.0000 0.0000 0.0000 0.0000 0.0000 0.0000 0.0000 0.0000 -77.5690 5.9027 7.3419 -9.7890 3.3803 -3.5762 0.5653 52.4973 357.4395 36.5371 -6.7297 4.7277 4.6556 0.0000 0.0000 5.9618 0.0000 0.0000 -28.0265 -0.6564 -28.8047 120.9622 0.0000 0.0000 27.5162 0.0000 0.0000 -18.2683 -3.9905 -29.2227 122.2353 0.0000 0.0000 25.8017 0.0000 0.0000 -8.0632 -5.9491 -29.7828 122.3121 0.0000 0.0000 26.1848 0.0000 0.0000 3.7171 -6.8598 -24.2075 124.9550 0.0000 0.0000 25.8914 0.0000 0.0000 0.0000 0.0000 0.0000 84.7450 -1.2955 1.4201 5.3502 9.5532 11.6065 532.2453 47.1134 163.5237 -59.5855 -12.5483 -0.0887 11.6245 0.0000 0.0000 9.9475 0.0000 0.0000 -1.3524 0.1704 1.1958 9.7444 0.0000 0.0000 2.5990 0.0000 0.0000 -9.2236 0.0543 5.4447 8.1875 0.0000 0.0000 6.1999 0.0000 0.0000 -16.7486 -0.9123 2.7993 10.9971 0.0000 0.0000 2.9599 0.0000 0.0000 -25.4311 -1.9204 0.8037 7.1027 0.0000 0.0000 3.5169 0.0000 0.0000 0.0000 0.0000 0.0000 0.0000 0.0000 0.0000 0.0000 0.0000 0.0000 0.0000 0.0000 0.0000 0.0000 0.0000 0.0000 0.0000 0.0000 0.0000
0.0000 95.0000 0.0000 0.0000 0.0000 0.0000 0.0000 0.0000 0.0000 0.0000 0.0000 0.0000 0.0000 0.0000 0.0000 0.0000 0.0000 0.0000 0.0000 0.0000 0.0000 0.0000 0.0000 0.0000 -78.0909 6.5795 8.1072 -7.9180 0.7112 0.2452 -2.0113 56.3265 351.2818 36.5371 -6.7297 4.7277 4.6556 0.0000 0.0000 5.9618 0.0000 0.0000 -28.0265 -0.6564 -28.8047 120.9622 0.0000 0.0000 27.5162 0.0000 0.0000 -18.2683 -3.9905 -29.2227 122.2353 0.0000 0.0000 25.8017 0.0000 0.0000 -8.0632 -5.9491 -29.7828 122.3121 0.0000 0.0000 26.1848 0.0000 0.0000 3.7171 -6.8598 -24.2075 124.9550 0.0000 0.0000 25.8914 0.0000 0.0000 0.0000 0.0000 0.0000 85.7218 -1.4596 1.5729 2.6205 8.4860 9.6198 530.6996 45.5287 163.9574 -59.5855 -12.5483 -0.0887 11.6245 0.0000 0.0000 9.9475 0.0000 0.0000 -1.3524 0.1704 1.1958 9.7444 0.0000 0.0000 2.5990 0.0000 0.0000 -9.2236 0.0543 5.4447 8.1875 0.0000 0.0000 6.1999 0.0000 0.0000 -16.7486 -0.9123 2.7993 10.9971 0.0000 0.0000 2.9599 0.0000 0.0000 -25.4311 -1.9204 0.8037 7.1027 0.0000 0.0000 3.5169 0.0000 0.0000 0.0000 0.0000 0.0000 0.0000 0.0000 0.0000 0.0000 0.0000 0.0000 0.0000 0.0000 0.0000 0.0000 0.0000 0.0000 0.0000 0.0000 0.0000
0.0000 95.0000 0.0000 0.0000 0.0000 0.0000 0.0000 0.0000 0.0000 0.0000 0.0000 0.0000 0.0000 0.0000 0.0000 0.0000 0.0000 0.0000 0.0000 0.0000 0.0000 0.0000 0.0000 0.0000 -79.0015 7.2157 8.7476 -6.3374 -0.7416 2.0487 -3.8384 58.4119 347.4482 36.5371 -6.7297 4.7277 4.6556 0.0000 0.0000 5.9618 0.0000 0.0000 -28.0265 -0.6564 -28.8047 120.9622 0.0000 0.0000 27.5162 0.0000 0.0000 -18.2683 -3.9905 -29.2227 122.2353 0.0000 0.0000 25.8017 0.0000 0.0000 -8.0632 -5.9491 -29.7828 122.3121 0.0000 0.0000 26.1848 0.0000 0.0000 3.7171 -6.8598 -24.2075 124.9550 0.0000 0.0000 25.8914 0.0000 0.0000 0.0000 0.0000 0.0000 86.3145 -1.3821 1.4740 0.9657 8.1463 8.8393 529.5967 44.7321 163.9325 -59.5855 -12.5483 -0.0887 11.6245 0.0000 0.0000 9.9475 0.0000 0.0000 -1.3524 0.1704 1.1958 9.7444 0.0000 0.0000 2.5990 0.0000 0.0000 -9.2236 0.0543 5.4447 8.1875 0.0000 0.0000 6.1999 0.0000 0.0000 -16.7486 -0.9123 2.7993 10.9971 0.0000 0.0000 2.9599 0.0000 0.0000 -25.4311 -1.9204 0.8037 7.1027 0.0000 0.0000 3.5169 0.0000 0.0000 0.0000 0.0000 0.0000 0.0000 0.0000 0.0000 0.0000 0.0000 0.0000 0.0000 0.0000 0.0000 0.0000 0.0000 0.0000 0.0000 0.0000 0.0000
0.0000 95.0000 0.0000 0.0000 0.0000 0.0000 0.0000 0.0000 0.0000 0.0000 0.0000 0.0000 0.0000 0.0000 0.0000 0.0000 0.0000 0.0000 0.0000 0.0000 0.0000 0.0000 0.0000 0.0000 -79.8797 7.4871 8.9365 -4.8515 -1.5319 2.7742 -5.4130 59.2263 345.1479 36.5371 -6.7297 4.7277 4.6556 0.0000 0.0000 5.9618 0.0000 0.0000 -28.0265 -0.6564 -28.8047 120.9622 0.0000 0.0000 27.5162 0.0000 0.0000 -18.2683 -3.9905 -29.2227 122.2353 0.0000 0.0000 25.8017 0.0000 0.0000 -8.0632 -5.9491 -29.7828 122.3121 0.0000 0.0000 26.1848 0.0000 0.0000 3.7171 -6.8598 -24.2075 124.9550 0.0000 0.0000 25.8914 0.0000 0.0000 0.0000 0.0000 0.0000 86.3912 -1.7657 1.8806 0.0083 8.4260 8.9474 528.1321 45.0943 162.3714 -59.5855 -12.5483 -0.0887 11.6245 0.0000 0.0000 9.9475 0.0000 0.0000 -1.3524 0.1704 1.1958 9.7444 0.0000 0.0000 2.5990 0.0000 0.0000 -9.2236 0.0543 5.4447 8.1875 0.0000 0.0000 6.1999 0.0000 0.0000 -16.7486 -0.9123 2.7993 10.9971 0.0000 0.0000 2.9599 0.0000 0.0000 -25.4311 -1.9204 0.8037 7.1027 0.0000 0.0000 3.5169 0.0000 0.0000 0.0000 0.0000 0.0000 0.0000 0.0000 0.0000 0.0000 0.0000 0.0000 0.0000 0.0000 0.0000 0.0000 0.0000 0.0000 0.0000 0.0000 0.0000
0.0000 95.0000 0.0000 0.0000 0.0000 0.0000 0.0000 0.0000 0.0000 0.0000 0.0000 0.0000 0.0000 0.0000 0.0000 0.0000 0.0000 0.0000 0.0000 0.0000 0.0000 0.0000 0.0000 0.0000 -80.1852 7.7008 9.1417 -4.0496 -1.1259 2.0997 -6.1181 58.8305 344.9430 36.5371 -6.7297 4.7277 4.6556 0.0000 0.0000 5.9618 0.0000 0.0000 -28.0265 -0.6564 -28.8047 120.9622 0.0000 0.0000 27.5162 0.0000 0.0000 -18.2683 -3.9905 -29.2227 122.2353 0.0000 0.0000 25.8017 0.0000 0.0000 -8.0632 -5.9491 -29.7828 122.3121 0.0000 0.0000 26.1848 0.0000 0.0000 3.7171 -6.8598 -24.2075 124.9550 0.0000 0.0000 25.8914 0.0000 0.0000 0.0000 0.0000 0.0000 87.0650 -1.6164 1.7014 -1.3193 8.3997 8.5785 527.4202 44.6276 162.3023 -59.5855 -12.5483 -0.0887 11.6245 0.0000 0.0000 9.9475 0.0000 0.0000 -1.3524 0.1704 1.1958 9.7444 0.0000 0.0000 2.5990 0.0000 0.0000 -9.2236 0.0543 5.4447 8.1875 0.0000 0.0000 6.1999 0.0000 0.0000 -16.7486 -0.9123 2.7993 10.9971 0.0000 0.0000 2.9599 0.0000 0.0000 -25.4311 -1.9204 0.8037 7.1027 0.0000 0.0000 3.5169 0.0000 0.0000 0.0000 0.0000 0.0000 0.0000 0.0000 0.0000 0.0000 0.0000 0.0000 0.0000 0.0000 0.0000 0.0000 0.0000 0.0000 0.0000 0.0000 0.0000
0.0000 95.0000 0.0000 0.0000 0.0000 0.0000 0.0000 0.0000 0.0000 0.0000 0.0000 0.0000 0.0000 0.0000 0.0000 0.0000 0.0000 0.0000 0.0000 0.0000 0.0000 0.0000 0.0000 0.0000 -80.4441 7.1380 8.4357 -3.3952 -1.8865 2.8631 -7.1622 58.8507 343.9655 36.5371 -6.7297 4.7277 4.6556 0.0000 0.0000 5.9618 0.0000 0.0000 -28.0265 -0.6564 -28.8047 120.9622 0.0000 0.0000 27.5162 0.0000 0.0000 -18.2683 -3.9905 -29.2227 122.2353 0.0000 0.0000 25.8017 0.0000 0.0000 -8.0632 -5.9491 -29.7828 122.3121 0.0000 0.0000 26.1848 0.0000 0.0000 3.7171 -6.8598 -24.2075 124.9550 0.0000 0.0000 25.8914 0.0000 0.0000 0.0000 0.0000 0.0000 86.9971 -1.9827 2.0894 -1.6221 8.3025 8.4191 526.8530 44.7800 161.6724 -59.5855 -12.5483 -0.0887 11.6245 0.0000 0.0000 9.9475 0.0000 0.0000 -1.3524 0.1704 1.1958 9.7444 0.0000 0.0000 2.5990 0.0000 0.0000 -9.2236 0.0543 5.4447 8.1875 0.0000 0.0000 6.1999 0.0000 0.0000 -16.7486 -0.9123 2.7993 10.9971 0.0000 0.0000 2.9599 0.0000 0.0000 -25.4311 -1.9204 0.8037 7.1027 0.0000 0.0000 3.5169 0.0000 0.0000 0.0000 0.0000 0.0000 0.0000 0.0000 0.0000 0.0000 0.0000 0.0000 0.0000 0.0000 0.0000 0.0000 0.0000 0.0000 0.0000 0.0000 0.0000
0.0000 95.0000 0.0000 0.0000 0.0000 0.0000 0.0000 0.0000 0.0000 0.0000 0.0000 0.0000 0.0000 0.0000 0.0000 0.0000 0.0000 0.0000 0.0000 0.0000 0.0000 0.0000 0.0000 0.0000 -80.1507 6.8468 8.1339 -3.6491 -2.3381 3.4734 -7.4772 59.0528 343.4499 36.5371 -6.7297 4.7277 4.6556 0.0000 0.0000 5.9618 0.0000 0.0000 -28.0265 -0.6564 -28.8047 120.9622 0.0000 0.0000 27.5162 0.0000 0.0000 -18.2683 -3.9905 -29.2227 122.2353 0.0000 0.0000 25.8017 0.0000 0.0000 -8.0632 -5.9491 -29.7828 122.3121 0.0000 0.0000 26.1848 0.0000 0.0000 3.7171 -6.8598 -24.2075 124.9550 0.0000 0.0000 25.8914 0.0000 0.0000 0.0000 0.0000 0.0000 87.4119 -1.9004 1.9882 -2.0031 7.6490 7.6374 527.3590 44.0754 162.8574 -59.5855 -12.5483 -0.0887 11.6245 0.0000 0.0000 9.9475 0.0000 0.0000 -1.3524 0.1704 1.1958 9.7444 0.0000 0.0000 2.5990 0.0000 0.0000 -9.2236 0.0543 5.4447 8.1875 0.0000 0.0000 6.1999 0.0000 0.0000 -16.7486 -0.9123 2.7993 10.9971 0.0000 0.0000 2.9599 0.0000 0.0000 -25.4311 -1.9204 0.8037 7.1027 0.0000 0.0000 3.5169 0.0000 0.0000 0.0000 0.0000 0.0000 0.0000 0.0000 0.0000 0.0000 0.0000 0.0000 0.0000 0.0000 0.0000 0.0000 0.0000 0.0000 0.0000 0.0000 0.0000
