HIERARCHY
ROOT Hips
{
  OFFSET 0.000000 95.000000 0.000000
  CHANNELS 6 Xposition Yposition Zposition Zrotation Xrotation Yrotation
  JOINT Spine
  {
    OFFSET 0.000000 10.000000 0.000000
    CHANNELS 3 Zrotation Xrotation Yrotation
    JOINT Spine1
    {
      OFFSET 0.000000 12.000000 0.000000
      CHANNELS 3 Zrotation Xrotation Yrotation
      JOINT Spine2
      {
        OFFSET 0.000000 12.000000 0.000000
        CHANNELS 3 Zrotation Xrotation Yrotation
        JOINT Neck
        {
          OFFSET 0.000000 10.000000 0.000000
          CHANNELS 3 Zrotation Xrotation Yrotation
          JOINT Head
          {
            OFFSET 0.000000 8.000000 0.000000
            CHANNELS 3 Zrotation Xrotation Yrotation
            End Site
            {
              OFFSET 0.000000 10.000000 0.000000
            }
          }
        }
        JOINT LeftShoulder
        {
          OFFSET 6.000000 8.000000 0.000000
          CHANNELS 3 Zrotation Xrotation Yrotation
          JOINT LeftArm
          {
            OFFSET 12.000000 0.000000 0.000000
            CHANNELS 3 Zrotation Xrotation Yrotation
            JOINT LeftForeArm
            {
              OFFSET 24.000000 0.000000 0.000000
              CHANNELS 3 Zrotation Xrotation Yrotation
              JOINT LeftHand
              {
                OFFSET 22.000000 0.000000 0.000000
                CHANNELS 3 Zrotation Xrotation Yrotation
                JOINT LeftHandThumb1
                {
                  OFFSET 1.800000 -1.400000 0.500000
                  CHANNELS 3 Zrotation Xrotation Yrotation
                  JOINT LeftHandThumb2
                  {
                    OFFSET 2.400000 0.000000 0.000000
                    CHANNELS 3 Zrotation Xrotation Yrotation
                    JOINT LeftHandThumb3
                    {
                      OFFSET 1.900000 0.000000 0.000000
                      CHANNELS 3 Zrotation Xrotation Yrotation
                      End Site
                      {
                        OFFSET 1.600000 0.000000 0.000000
                      }
                    }
                  }
                }
                JOINT LeftHandIndex1
                {
                  OFFSET 6.600000 1.200000 0.300000
                  CHANNELS 3 Zrotation Xrotation Yrotation
                  JOINT LeftHandIndex2
                  {
                    OFFSET 2.000000 0.000000 0.000000
                    CHANNELS 3 Zrotation Xrotation Yrotation
                    JOINT LeftHandIndex3
                    {
                      OFFSET 1.200000 0.000000 0.000000
                      CHANNELS 3 Zrotation Xrotation Yrotation
                      End Site
                      {
                        OFFSET 1.000000 0.000000 0.000000
                      }
                    }
                  }
                }
                JOINT LeftHandMiddle1
                {
                  OFFSET 7.200000 0.000000 0.300000
                  CHANNELS 3 Zrotation Xrotation Yrotation
                  JOINT LeftHandMiddle2
                  {
                    OFFSET 3.000000 0.000000 0.000000
                    CHANNELS 3 Zrotation Xrotation Yrotation
                    JOINT LeftHandMiddle3
                    {
                      OFFSET 2.000000 0.000000 0.000000
                      CHANNELS 3 Zrotation Xrotation Yrotation
                      End Site
                      {
                        OFFSET 1.600000 0.000000 0.000000
                      }
                    }
                  }
                }
                JOINT LeftHandRing1
                {
                  OFFSET 7.100000 -1.000000 0.400000
                  CHANNELS 3 Zrotation Xrotation Yrotation
                  JOINT LeftHandRing2
                  {
                    OFFSET 2.600000 0.000000 0.000000
                    CHANNELS 3 Zrotation Xrotation Yrotation
                    JOINT LeftHandRing3
                    {
                      OFFSET 1.600000 0.000000 0.000000
                      CHANNELS 3 Zrotation Xrotation Yrotation
                      End Site
                      {
                        OFFSET 1.300000 0.000000 0.000000
                      }
                    }
                  }
                }
                JOINT LeftHandPinky1
                {
                  OFFSET 6.500000 -2.000000 0.500000
                  CHANNELS 3 Zrotation Xrotation Yrotation
                  JOINT LeftHandPinky2
                  {
                    OFFSET 1.900000 0.000000 0.000000
                    CHANNELS 3 Zrotation Xrotation Yrotation
                    JOINT LeftHandPinky3
                    {
                      OFFSET 1.400000 0.000000 0.000000
                      CHANNELS 3 Zrotation Xrotation Yrotation
                      End Site
                      {
                        OFFSET 1.300000 0.000000 0.000000
                      }
                    }
                  }
                }
              }
            }
          }
        }
        JOINT RightShoulder
        {
          OFFSET -6.000000 8.000000 0.000000
          CHANNELS 3 Zrotation Xrotation Yrotation
          JOINT RightArm
          {
            OFFSET -12.000000 0.000000 0.000000
            CHANNELS 3 Zrotation Xrotation Yrotation
            JOINT RightForeArm
            {
              OFFSET -24.000000 0.000000 0.000000
              CHANNELS 3 Zrotation Xrotation Yrotation
              JOINT RightHand
              {
                OFFSET -22.000000 0.000000 0.000000
                CHANNELS 3 Zrotation Xrotation Yrotation
                JOINT RightHandThumb1
                {
                  OFFSET -1.800000 -1.400000 0.500000
                  CHANNELS 3 Zrotation Xrotation Yrotation
                  JOINT RightHandThumb2
                  {
                    OFFSET -2.400000 0.000000 0.000000
                    CHANNELS 3 Zrotation Xrotation Yrotation
                    JOINT RightHandThumb3
                    {
                      OFFSET -1.900000 0.000000 0.000000
                      CHANNELS 3 Zrotation Xrotation Yrotation
                      End Site
                      {
                        OFFSET -1.600000 0.000000 0.000000
                      }
                    }
                  }
                }
                JOINT RightHandIndex1
                {
                  OFFSET -6.600000 1.200000 0.300000
                  CHANNELS 3 Zrotation Xrotation Yrotation
                  JOINT RightHandIndex2
                  {
                    OFFSET -2.000000 0.000000 0.000000
                    CHANNELS 3 Zrotation Xrotation Yrotation
                    JOINT RightHandIndex3
                    {
                      OFFSET -1.200000 0.000000 0.000000
                      CHANNELS 3 Zrotation Xrotation Yrotation
                      End Site
                      {
                        OFFSET -1.000000 0.000000 0.000000
                      }
                    }
                  }
                }
                JOINT RightHandMiddle1
                {
                  OFFSET -7.200000 0.000000 0.300000
                  CHANNELS 3 Zrotation Xrotation Yrotation
                  JOINT RightHandMiddle2
                  {
                    OFFSET -3.000000 0.000000 0.000000
                    CHANNELS 3 Zrotation Xrotation Yrotation
                    JOINT RightHandMiddle3
                    {
                      OFFSET -2.000000 0.000000 0.000000
                      CHANNELS 3 Zrotation Xrotation Yrotation
                      End Site
                      {
                        OFFSET -1.600000 0.000000 0.000000
                      }
                    }
                  }
                }
                JOINT RightHandRing1
                {
                  OFFSET -7.100000 -1.000000 0.400000
                  CHANNELS 3 Zrotation Xrotation Yrotation
                  JOINT RightHandRing2
                  {
                    OFFSET -2.600000 0.000000 0.000000
                    CHANNELS 3 Zrotation Xrotation Yrotation
                    JOINT RightHandRing3
                    {
                      OFFSET -1.600000 0.000000 0.000000
                      CHANNELS 3 Zrotation Xrotation Yrotation
                      End Site
                      {
                        OFFSET -1.300000 0.000000 0.000000
                      }
                    }
                  }
                }
                JOINT RightHandPinky1
                {
                  OFFSET -6.500000 -2.000000 0.500000
                  CHANNELS 3 Zrotation Xrotation Yrotation
                  JOINT RightHandPinky2
                  {
                    OFFSET -1.900000 0.000000 0.000000
                    CHANNELS 3 Zrotation Xrotation Yrotation
                    JOINT RightHandPinky3
                    {
                      OFFSET -1.400000 0.000000 0.000000
                      CHANNELS 3 Zrotation Xrotation Yrotation
                      End Site
                      {
                        OFFSET -1.300000 0.000000 0.000000
                      }
                    }
                  }
                }
              }
            }
          }
        }
      }
    }
  }
  JOINT LeftUpLeg
  {
    OFFSET 10.000000 -5.000000 0.000000
    CHANNELS 3 Zrotation Xrotation Yrotation
    JOINT LeftLeg
    {
      OFFSET 0.000000 -42.000000 0.000000
      CHANNELS 3 Zrotation Xrotation Yrotation
      JOINT LeftFoot
      {
        OFFSET 0.000000 -42.000000 4.000000
        CHANNELS 3 Zrotation Xrotation Yrotation
        End Site
        {
          OFFSET 0.000000 0.000000 12.000000
        }
      }
    }
  }
  JOINT RightUpLeg
  {
    OFFSET -10.000000 -5.000000 0.000000
    CHANNELS 3 Zrotation Xrotation Yrotation
    JOINT RightLeg
    {
      OFFSET 0.000000 -42.000000 0.000000
      CHANNELS 3 Zrotation Xrotation Yrotation
      JOINT RightFoot
      {
        OFFSET 0.000000 -42.000000 4.000000
        CHANNELS 3 Zrotation Xrotation Yrotation
        End Site
        {
          OFFSET 0.000000 0.000000 12.000000
        }
      }
    }
  }
}
MOTION
Frames: 60
Frame Time: 0.033333
0.0000 95.0000 0.0000 0.0000 0.0000 0.0000 0.0000 0.0000 0.0000 0.0000 0.0000 0.0000 0.0000 0.0000 0.0000 0.0000 0.0000 0.0000 0.0000 0.0000 0.0000 0.0000 0.0000 0.0000 -78.0684 10.9253 13.4539 -3.2597 -3.3601 5.0572 -163.9496 19.5022 168.7498 51.3042 -10.8112 1.4482 7.2205 0.0000 0.0000 10.7344 0.0000 0.0000 -4.6467 -0.1766 2.7537 4.0601 0.0000 0.0000 2.1529 0.0000 0.0000 6.2232 -0.3437 1.5440 5.4229 0.0000 0.0000 1.3053 0.0000 0.0000 14.0557 -0.7579 1.4408 6.4148 0.0000 0.0000 2.4750 0.0000 0.0000 22.2278 -1.5135 1.1481 6.1590 0.0000 0.0000 2.5106 0.0000 0.0000 0.0000 0.0000 0.0000 88.4958 1.3589 -1.3950 -3.4734 5.6814 5.5765 161.3230 13.7177 -174.8253 -59.5314 -12.2554 -2.4414 21.1462 0.0000 0.0000 9.6099 0.0000 0.0000 13.1096 0.6509 0.9904 157.9759 0.0000 0.0000 10.4590 0.0000 0.0000 3.2617 0.0306 3.6964 172.2646 0.0000 0.0000 2.1150 0.0000 0.0000 -5.6737 -0.6256 3.4064 173.9298 0.0000 0.0000 5.3816 0.0000 0.0000 -15.2770 -1.4406 1.8421 171.8790 0.0000 0.0000 5.9719 0.0000 0.0000 0.0000 0.0000 0.0000 0.0000 0.0000 0.0000 0.0000 0.0000 0.0000 0.0000 0.0000 0.0000 0.0000 0.0000 0.0000 0.0000 0.0000 0.0000
0.0000 95.0000 0.0000 0.0000 0.0000 0.0000 0.0000 0.0000 0.0000 0.0000 0.0000 0.0000 0.0000 0.0000 0.0000 0.0000 0.0000 0.0000 0.0000 0.0000 0.0000 0.0000 0.0000 0.0000 -78.0257 11.2807 13.9007 -3.4435 -3.3997 5.1906 -164.0933 19.0432 168.1508 51.3042 -10.8112 1.4482 7.2205 0.0000 0.0000 10.7344 0.0000 0.0000 -4.6467 -0.1766 2.7537 4.0601 0.0000 0.0000 2.1529 0.0000 0.0000 6.2232 -0.3437 1.5440 5.4229 0.0000 0.0000 1.3053 0.0000 0.0000 14.0557 -0.7579 1.4408 6.4148 0.0000 0.0000 2.4750 0.0000 0.0000 22.2278 -1.5135 1.1481 6.1590 0.0000 0.0000 2.5106 0.0000 0.0000 0.0000 0.0000 0.0000 88.3817 0.7548 -0.7764 -3.3629 5.8895 5.7607 161.3522 14.4886 -175.6599 -59.5314 -12.2554 -2.4414 21.1462 0.0000 0.0000 9.6099 0.0000 0.0000 13.1096 0.6509 0.9904 157.9759 0.0000 0.0000 10.4590 0.0000 0.0000 3.2617 0.0306 3.6964 172.2646 0.0000 0.0000 2.1150 0.0000 0.0000 -5.6737 -0.6256 3.4064 173.9298 0.0000 0.0000 5.3816 0.0000 0.0000 -15.2770 -1.4406 1.8421 171.8790 0.0000 0.0000 5.9719 0.0000 0.0000 0.0000 0.0000 0.0000 0.0000 0.0000 0.0000 0.0000 0.0000 0.0000 0.0000 0.0000 0.0000 0.0000 0.0000 0.0000 0.0000 0.0000 0.0000
0.0000 95.0000 0.0000 0.0000 0.0000 0.0000 0.0000 0.0000 0.0000 0.0000 0.0000 0.0000 0.0000 0.0000 0.0000 0.0000 0.0000 0.0000 0.0000 0.0000 0.0000 0.0000 0.0000 0.0000 -77.9005 11.5657 14.2822 -3.9365 -3.2757 5.2316 -164.5098 18.7432 167.6329 51.3042 -10.8112 1.4482 7.2205 0.0000 0.0000 10.7344 0.0000 0.0000 -4.6467 -0.1766 2.7537 4.0601 0.0000 0.0000 2.1529 0.0000 0.0000 6.2232 -0.3437 1.5440 5.4229 0.0000 0.0000 1.3053 0.0000 0.0000 14.0557 -0.7579 1.4408 6.4148 0.0000 0.0000 2.4750 0.0000 0.0000 22.2278 -1.5135 1.1481 6.1590 0.0000 0.0000 2.5106 0.0000 0.0000 0.0000 0.0000 0.0000 88.1723 0.6315 -0.6520 -3.1660 6.1157 6.0129 161.3378 14.8375 -176.0403 -59.5314 -12.2554 -2.4414 21.1462 0.0000 0.0000 9.6099 0.0000 0.0000 13.1096 0.6509 0.9904 157.9759 0.0000 0.0000 10.4590 0.0000 0.0000 3.2617 0.0306 3.6964 172.2646 0.0000 0.0000 2.1150 0.0000 0.0000 -5.6737 -0.6256 3.4064 173.9298 0.0000 0.0000 5.3816 0.0000 0.0000 -15.2770 -1.4406 1.8421 171.8790 0.0000 0.0000 5.9719 0.0000 0.0000 0.0000 0.0000 0.0000 0.0000 0.0000 0.0000 0.0000 0.0000 0.0000 0.0000 0.0000 0.0000 0.0000 0.0000 0.0000 0.0000 0.0000 0.0000
0.0000 95.0000 0.0000 0.0000 0.0000 0.0000 0.0000 0.0000 0.0000 0.0000 0.0000 0.0000 0.0000 0.0000 0.0000 0.0000 0.0000 0.0000 0.0000 0.0000 0.0000 0.0000 0.0000 0.0000 -78.0310 11.6260 14.3234 -3.9660 -3.1085 5.0212 -164.7300 18.8633 167.6860 51.3042 -10.8112 1.4482 7.2205 0.0000 0.0000 10.7344 0.0000 0.0000 -4.6467 -0.1766 2.7537 4.0601 0.0000 0.0000 2.1529 0.0000 0.0000 6.2232 -0.3437 1.5440 5.4229 0.0000 0.0000 1.3053 0.0000 0.0000 14.0557 -0.7579 1.4408 6.4148 0.0000 0.0000 2.4750 0.0000 0.0000 22.2278 -1.5135 1.1481 6.1590 0.0000 0.0000 2.5106 0.0000 0.0000 0.0000 0.0000 0.0000 88.0733 0.5587 -0.5778 -3.1484 6.2532 6.1554 161.2522 15.0512 -176.2807 -59.5314 -12.2554 -2.4414 21.1462 0.0000 0.0000 9.6099 0.0000 0.0000 13.1096 0.6509 0.9904 157.9759 0.0000 0.0000 10.4590 0.0000 0.0000 3.2617 0.0306 3.6964 172.2646 0.0000 0.0000 2.1150 0.0000 0.0000 -5.6737 -0.6256 3.4064 173.9298 0.0000 0.0000 5.3816 0.0000 0.0000 -15.2770 -1.4406 1.8421 171.8790 0.0000 0.0000 5.9719 0.0000 0.0000 0.0000 0.0000 0.0000 0.0000 0.0000 0.0000 0.0000 0.0000 0.0000 0.0000 0.0000 0.0000 0.0000 0.0000 0.0000 0.0000 0.0000 0.0000
0.0000 95.0000 0.0000 0.0000 0.0000 0.0000 0.0000 0.0000 0.0000 0.0000 0.0000 0.0000 0.0000 0.0000 0.0000 0.0000 0.0000 0.0000 0.0000 0.0000 0.0000 0.0000 0.0000 0.0000 -77.9007 11.7284 14.4823 -4.4591 -3.2292 5.3670 -165.0547 18.4933 167.1296 51.3042 -10.8112 1.4482 7.2205 0.0000 0.0000 10.7344 0.0000 0.0000 -4.6467 -0.1766 2.7537 4.0601 0.0000 0.0000 2.1529 0.0000 0.0000 6.2232 -0.3437 1.5440 5.4229 0.0000 0.0000 1.3053 0.0000 0.0000 14.0557 -0.7579 1.4408 6.4148 0.0000 0.0000 2.4750 0.0000 0.0000 22.2278 -1.5135 1.1481 6.1590 0.0000 0.0000 2.5106 0.0000 0.0000 0.0000 0.0000 0.0000 88.0534 0.4622 -0.4782 -3.3072 6.2422 6.1252 161.0750 15.1453 -176.3997 -59.5314 -12.2554 -2.4414 21.1462 0.0000 0.0000 9.6099 0.0000 0.0000 13.1096 0.6509 0.9904 157.9759 0.0000 0.0000 10.4590 0.0000 0.0000 3.2617 0.0306 3.6964 172.2646 0.0000 0.0000 2.1150 0.0000 0.0000 -5.6737 -0.6256 3.4064 173.9298 0.0000 0.0000 5.3816 0.0000 0.0000 -15.2770 -1.4406 1.8421 171.8790 0.0000 0.0000 5.9719 0.0000 0.0000 0.0000 0.0000 0.0000 0.0000 0.0000 0.0000 0.0000 0.0000 0.0000 0.0000 0.0000 0.0000 0.0000 0.0000 0.0000 0.0000 0.0000 0.0000
0.0000 95.0000 0.0000 0.0000 0.0000 0.0000 0.0000 0.0000 0.0000 0.0000 0.0000 0.0000 0.0000 0.0000 0.0000 0.0000 0.0000 0.0000 0.0000 0.0000 0.0000 0.0000 0.0000 0.0000 -77.9723 11.5252 14.2144 -4.9882 -3.1140 5.3813 -165.6919 18.7131 167.1372 51.3042 -10.8112 1.4482 7.2205 0.0000 0.0000 10.7344 0.0000 0.0000 -4.6467 -0.1766 2.7537 4.0601 0.0000 0.0000 2.1529 0.0000 0.0000 6.2232 -0.3437 1.5440 5.4229 0.0000 0.0000 1.3053 0.0000 0.0000 14.0557 -0.7579 1.4408 6.4148 0.0000 0.0000 2.4750 0.0000 0.0000 22.2278 -1.5135 1.1481 6.1590 0.0000 0.0000 2.5106 0.0000 0.0000 0.0000 0.0000 0.0000 88.0728 0.0750 -0.0776 -3.4945 6.3020 6.1373 160.9202 15.5723 -176.8828 -59.5314 -12.2554 -2.4414 21.1462 0.0000 0.0000 9.6099 0.0000 0.0000 13.1096 0.6509 0.9904 157.9759 0.0000 0.0000 10.4590 0.0000 0.0000 3.2617 0.0306 3.6964 172.2646 0.0000 0.0000 2.1150 0.0000 0.0000 -5.6737 -0.6256 3.4064 173.9298 0.0000 0.0000 5.3816 0.0000 0.0000 -15.2770 -1.4406 1.8421 171.8790 0.0000 0.0000 5.9719 0.0000 0.0000 0.0000 0.0000 0.0000 0.0000 0.0000 0.0000 0.0000 0.0000 0.0000 0.0000 0.0000 0.0000 0.0000 0.0000 0.0000 0.0000 0.0000 0.0000
0.0000 95.0000 0.0000 0.0000 0.0000 0.0000 0.0000 0.0000 0.0000 0.0000 0.0000 0.0000 0.0000 0.0000 0.0000 0.0000 0.0000 0.0000 0.0000 0.0000 0.0000 0.0000 0.0000 0.0000 -77.7420 11.5808 14.3409 -5.3923 -3.1409 5.5882 -165.8497 18.4938 166.8258 51.3042 -10.8112 1.4482 7.2205 0.0000 0.0000 10.7344 0.0000 0.0000 -4.6467 -0.1766 2.7537 4.0601 0.0000 0.0000 2.1529 0.0000 0.0000 6.2232 -0.3437 1.5440 5.4229 0.0000 0.0000 1.3053 0.0000 0.0000 14.0557 -0.7579 1.4408 6.4148 0.0000 0.0000 2.4750 0.0000 0.0000 22.2278 -1.5135 1.1481 6.1590 0.0000 0.0000 2.5106 0.0000 0.0000 0.0000 0.0000 0.0000 88.0954 -0.2043 0.2112 -3.6683 6.3229 6.1173 160.7785 15.8582 -177.2122 -59.5314 -12.2554 -2.4414 21.1462 0.0000 0.0000 9.6099 0.0000 0.0000 13.1096 0.6509 0.9904 157.9759 0.0000 0.0000 10.4590 0.0000 0.0000 3.2617 0.0306 3.6964 172.2646 0.0000 0.0000 2.1150 0.0000 0.0000 -5.6737 -0.6256 3.4064 173.9298 0.0000 0.0000 5.3816 0.0000 0.0000 -15.2770 -1.4406 1.8421 171.8790 0.0000 0.0000 5.9719 0.0000 0.0000 0.0000 0.0000 0.0000 0.0000 0.0000 0.0000 0.0000 0.0000 0.0000 0.0000 0.0000 0.0000 0.0000 0.0000 0.0000 0.0000 0.0000 0.0000
0.0000 95.0000 0.0000 0.0000 0.0000 0.0000 0.0000 0.0000 0.0000 0.0000 0.0000 0.0000 0.0000 0.0000 0.0000 0.0000 0.0000 0.0000 0.0000 0.0000 0.0000 0.0000 0.0000 0.0000 -78.3082 11.0983 13.6085 -4.9882 -3.0251 5.1955 -166.0602 19.3119 167.6779 51.3042 -10.8112 1.4482 7.2205 0.0000 0.0000 10.7344 0.0000 0.0000 -4.6467 -0.1766 2.7537 4.0601 0.0000 0.0000 2.1529 0.0000 0.0000 6.2232 -0.3437 1.5440 5.4229 0.0000 0.0000 1.3053 0.0000 0.0000 14.0557 -0.7579 1.4408 6.4148 0.0000 0.0000 2.4750 0.0000 0.0000 22.2278 -1.5135 1.1481 6.1590 0.0000 0.0000 2.5106 0.0000 0.0000 0.0000 0.0000 0.0000 87.9510 -0.2282 0.2365 -3.2186 6.4028 6.2593 161.0865 15.9546 -177.2848 -59.5314 -12.2554 -2.4414 21.1462 0.0000 0.0000 9.6099 0.0000 0.0000 13.1096 0.6509 0.9904 157.9759 0.0000 0.0000 10.4590 0.0000 0.0000 3.2617 0.0306 3.6964 172.2646 0.0000 0.0000 2.1150 0.0000 0.0000 -5.6737 -0.6256 3.4064 173.9298 0.0000 0.0000 5.3816 0.0000 0.0000 -15.2770 -1.4406 1.8421 171.8790 0.0000 0.0000 5.9719 0.0000 0.0000 0.0000 0.0000 0.0000 0.0000 0.0000 0.0000 0.0000 0.0000 0.0000 0.0000 0.0000 0.0000 0.0000 0.0000 0.0000 0.0000 0.0000 0.0000
0.0000 95.0000 0.0000 0.0000 0.0000 0.0000 0.0000 0.0000 0.0000 0.0000 0.0000 0.0000 0.0000 0.0000 0.0000 0.0000 0.0000 0.0000 0.0000 0.0000 0.0000 0.0000 0.0000 0.0000 -78.1235 11.0175 13.5540 -5.5578 -2.8229 5.1341 -166.5066 19.4597 167.6700 51.3042 -10.8112 1.4482 7.2205 0.0000 0.0000 10.7344 0.0000 0.0000 -4.6467 -0.1766 2.7537 4.0601 0.0000 0.0000 2.1529 0.0000 0.0000 6.2232 -0.3437 1.5440 5.4229 0.0000 0.0000 1.3053 0.0000 0.0000 14.0557 -0.7579 1.4408 6.4148 0.0000 0.0000 2.4750 0.0000 0.0000 22.2278 -1.5135 1.1481 6.1590 0.0000 0.0000 2.5106 0.0000 0.0000 0.0000 0.0000 0.0000 87.9568 -0.2370 0.2456 -3.3168 6.3750 6.2198 160.9942 15.9408 -177.2797 -59.5314 -12.2554 -2.4414 21.1462 0.0000 0.0000 9.6099 0.0000 0.0000 13.1096 0.6509 0.9904 157.9759 0.0000 0.0000 10.4590 0.0000 0.0000 3.2617 0.0306 3.6964 172.2646 0.0000 0.0000 2.1150 0.0000 0.0000 -5.6737 -0.6256 3.4064 173.9298 0.0000 0.0000 5.3816 0.0000 0.0000 -15.2770 -1.4406 1.8421 171.8790 0.0000 0.0000 5.9719 0.0000 0.0000 0.0000 0.0000 0.0000 0.0000 0.0000 0.0000 0.0000 0.0000 0.0000 0.0000 0.0000 0.0000 0.0000 0.0000 0.0000 0.0000 0.0000 0.0000
0.0000 95.0000 0.0000 0.0000 0.0000 0.0000 0.0000 0.0000 0.0000 0.0000 0.0000 0.0000 0.0000 0.0000 0.0000 0.0000 0.0000 0.0000 0.0000 0.0000 0.0000 0.0000 0.0000 0.0000 -77.7772 10.5917 13.1117 -6.8569 -1.7295 4.0757 -167.7919 20.7972 168.6503 51.3042 -10.8112 1.4482 7.2205 0.0000 0.0000 10.7344 0.0000 0.0000 -4.6467 -0.1766 2.7537 4.0601 0.0000 0.0000 2.1529 0.0000 0.0000 6.2232 -0.3437 1.5440 5.4229 0.0000 0.0000 1.3053 0.0000 0.0000 14.0557 -0.7579 1.4408 6.4148 0.0000 0.0000 2.4750 0.0000 0.0000 22.2278 -1.5135 1.1481 6.1590 0.0000 0.0000 2.5106 0.0000 0.0000 0.0000 0.0000 0.0000 87.9936 -0.2904 0.3008 -2.6682 5.8887 5.8059 161.7276 15.4848 -176.7066 -59.5314 -12.2554 -2.4414 21.1462 0.0000 0.0000 9.6099 0.0000 0.0000 13.1096 0.6509 0.9904 157.9759 0.0000 0.0000 10.4590 0.0000 0.0000 3.2617 0.0306 3.6964 172.2646 0.0000 0.0000 2.1150 0.0000 0.0000 -5.6737 -0.6256 3.4064 173.9298 0.0000 0.0000 5.3816 0.0000 0.0000 -15.2770 -1.4406 1.8421 171.8790 0.0000 0.0000 5.9719 0.0000 0.0000 0.0000 0.0000 0.0000 0.0000 0.0000 0.0000 0.0000 0.0000 0.0000 0.0000 0.0000 0.0000 0.0000 0.0000 0.0000 0.0000 0.0000 0.0000
0.0000 95.0000 0.0000 0.0000 0.0000 0.0000 0.0000 0.0000 0.0000 0.0000 0.0000 0.0000 0.0000 0.0000 0.0000 0.0000 0.0000 0.0000 0.0000 0.0000 0.0000 0.0000 0.0000 0.0000 -78.0889 9.5909 11.8107 -7.2492 -0.4845 2.3110 -168.8014 23.3148 170.9776 51.3042 -10.8112 1.4482 7.2205 0.0000 0.0000 10.7344 0.0000 0.0000 -4.6467 -0.1766 2.7537 4.0601 0.0000 0.0000 2.1529 0.0000 0.0000 6.2232 -0.3437 1.5440 5.4229 0.0000 0.0000 1.3053 0.0000 0.0000 14.0557 -0.7579 1.4408 6.4148 0.0000 0.0000 2.4750 0.0000 0.0000 22.2278 -1.5135 1.1481 6.1590 0.0000 0.0000 2.5106 0.0000 0.0000 0.0000 0.0000 0.0000 87.6114 -0.5884 0.6135 -1.6240 5.7148 5.7710 162.4318 15.6013 -176.7623 -59.5314 -12.2554 -2.4414 21.1462 0.0000 0.0000 9.6099 0.0000 0.0000 13.1096 0.6509 0.9904 157.9759 0.0000 0.0000 10.4590 0.0000 0.0000 3.2617 0.0306 3.6964 172.2646 0.0000 0.0000 2.1150 0.0000 0.0000 -5.6737 -0.6256 3.4064 173.9298 0.0000 0.0000 5.3816 0.0000 0.0000 -15.2770 -1.4406 1.8421 171.8790 0.0000 0.0000 5.9719 0.0000 0.0000 0.0000 0.0000 0.0000 0.0000 0.0000 0.0000 0.0000 0.0000 0.0000 0.0000 0.0000 0.0000 0.0000 0.0000 0.0000 0.0000 0.0000 0.0000
0.0000 95.0000 0.0000 0.0000 0.0000 0.0000 0.0000 0.0000 0.0000 0.0000 0.0000 0.0000 0.0000 0.0000 0.0000 0.0000 0.0000 0.0000 0.0000 0.0000 0.0000 0.0000 0.0000 0.0000 -78.2611 8.5402 10.4874 -7.7607 1.3200 -0.2672 -169.7501 26.5785 174.0448 51.3042 -10.8112 1.4482 7.2205 0.0000 0.0000 10.7344 0.0000 0.0000 -4.6467 -0.1766 2.7537 4.0601 0.0000 0.0000 2.1529 0.0000 0.0000 6.2232 -0.3437 1.5440 5.4229 0.0000 0.0000 1.3053 0.0000 0.0000 14.0557 -0.7579 1.4408 6.4148 0.0000 0.0000 2.4750 0.0000 0.0000 22.2278 -1.5135 1.1481 6.1590 0.0000 0.0000 2.5106 0.0000 0.0000 0.0000 0.0000 0.0000 86.8871 -1.2574 1.3276 0.4143 6.3019 6.7007 163.7815 16.8680 -177.9559 -59.5314 -12.2554 -2.4414 21.1462 0.0000 0.0000 9.6099 0.0000 0.0000 13.1096 0.6509 0.9904 157.9759 0.0000 0.0000 10.4590 0.0000 0.0000 3.2617 0.0306 3.6964 172.2646 0.0000 0.0000 2.1150 0.0000 0.0000 -5.6737 -0.6256 3.4064 173.9298 0.0000 0.0000 5.3816 0.0000 0.0000 -15.2770 -1.4406 1.8421 171.8790 0.0000 0.0000 5.9719 0.0000 0.0000 0.0000 0.0000 0.0000 0.0000 0.0000 0.0000 0.0000 0.0000 0.0000 0.0000 0.0000 0.0000 0.0000 0.0000 0.0000 0.0000 0.0000 0.0000
0.0000 95.0000 0.0000 0.0000 0.0000 0.0000 0.0000 0.0000 0.0000 0.0000 0.0000 0.0000 0.0000 0.0000 0.0000 0.0000 0.0000 0.0000 0.0000 0.0000 0.0000 0.0000 0.0000 0.0000 -78.6617 7.3209 8.9287 -8.2032 2.8285 -2.5504 -170.6298 29.7991 177.0005 51.3042 -10.8112 1.4482 7.2205 0.0000 0.0000 10.7344 0.0000 0.0000 -4.6467 -0.1766 2.7537 4.0601 0.0000 0.0000 2.1529 0.0000 0.0000 6.2232 -0.3437 1.5440 5.4229 0.0000 0.0000 1.3053 0.0000 0.0000 14.0557 -0.7579 1.4408 6.4148 0.0000 0.0000 2.4750 0.0000 0.0000 22.2278 -1.5135 1.1481 6.1590 0.0000 0.0000 2.5106 0.0000 0.0000 0.0000 0.0000 0.0000 85.4995 -1.5946 1.7251 4.0761 7.2455 8.5232 166.0210 18.3908 -179.2326 -59.5314 -12.2554 -2.4414 21.1462 0.0000 0.0000 9.6099 0.0000 0.0000 13.1096 0.6509 0.9904 157.9759 0.0000 0.0000 10.4590 0.0000 0.0000 3.2617 0.0306 3.6964 172.2646 0.0000 0.0000 2.1150 0.0000 0.0000 -5.6737 -0.6256 3.4064 173.9298 0.0000 0.0000 5.3816 0.0000 0.0000 -15.2770 -1.4406 1.8421 171.8790 0.0000 0.0000 5.9719 0.0000 0.0000 0.0000 0.0000 0.0000 0.0000 0.0000 0.0000 0.0000 0.0000 0.0000 0.0000 0.0000 0.0000 0.0000 0.0000 0.0000 0.0000 0.0000 0.0000
0.0000 95.0000 0.0000 0.0000 0.0000 0.0000 0.0000 0.0000 0.0000 0.0000 0.0000 0.0000 0.0000 0.0000 0.0000 0.0000 0.0000 0.0000 0.0000 0.0000 0.0000 0.0000 0.0000 0.0000 -76.6351 5.0625 6.4037 -14.1642 6.2166 -8.3157 -146.4422 62.8832 194.7036 65.0101 -16.0877 -37.4648 40.7903 0.0000 0.0000 4.4984 0.0000 0.0000 -8.3554 1.8486 -13.7507 55.0836 0.0000 0.0000 59.4481 0.0000 0.0000 6.0565 0.8256 -20.2831 69.0610 0.0000 0.0000 38.6573 0.0000 0.0000 15.7845 -0.9220 -25.0813 64.8195 0.0000 0.0000 26.7531 0.0000 0.0000 24.1674 -3.8399 -23.8953 56.1809 0.0000 0.0000 31.4574 0.0000 0.0000 0.0000 0.0000 0.0000 83.7000 -3.1279 3.4920 10.3313 14.0412 19.2694 160.8518 14.9839 -198.1232 -64.2824 -12.2533 -14.0394 22.5289 0.0000 0.0000 24.3494 0.0000 0.0000 17.1146 0.5086 -8.3729 165.2882 0.0000 0.0000 6.0656 0.0000 0.0000 5.1456 0.5113 -6.5703 171.3332 0.0000 0.0000 10.0295 0.0000 0.0000 -5.8841 0.5397 -9.7338 173.0429 0.0000 0.0000 8.4195 0.0000 0.0000 -17.9776 0.0067 -9.3520 168.1907 0.0000 0.0000 10.7930 0.0000 0.0000 0.0000 0.0000 0.0000 0.0000 0.0000 0.0000 0.0000 0.0000 0.0000 0.0000 0.0000 0.0000 0.0000 0.0000 0.0000 0.0000 0.0000 0.0000
0.0000 95.0000 0.0000 0.0000 0.0000 0.0000 0.0000 0.0000 0.0000 0.0000 0.0000 0.0000 0.0000 0.0000 0.0000 0.0000 0.0000 0.0000 0.0000 0.0000 0.0000 0.0000 0.0000 0.0000 -74.6954 2.6760 3.5062 -20.7387 9.5738 -17.0627 -147.8418 38.0450 187.1412 89.5810 -14.6923 -21.3608 50.2626 0.0000 0.0000 5.2554 0.0000 0.0000 -9.0451 0.9955 -5.8379 31.3012 0.0000 0.0000 71.7133 0.0000 0.0000 4.2800 0.1916 -9.8957 53.6338 0.0000 0.0000 55.1667 0.0000 0.0000 15.8077 -0.8959 -10.8696 71.4764 0.0000 0.0000 44.1137 0.0000 0.0000 25.1130 -2.6236 -10.0764 72.5783 0.0000 0.0000 51.5115 0.0000 0.0000 0.0000 0.0000 0.0000 81.7972 -4.7693 5.5051 16.1451 25.6922 39.4856 139.8654 32.2074 -224.3250 -73.3629 -14.9424 -6.7817 40.6389 0.0000 0.0000 19.3188 0.0000 0.0000 26.8731 1.1099 1.4987 160.1958 0.0000 0.0000 4.2797 0.0000 0.0000 9.6400 -1.5837 23.3886 151.4787 0.0000 0.0000 9.5710 0.0000 0.0000 -4.2505 -2.8459 25.2050 145.0215 0.0000 0.0000 12.3825 0.0000 0.0000 -9.9588 -6.1988 25.4651 136.1808 0.0000 0.0000 8.7823 0.0000 0.0000 0.0000 0.0000 0.0000 0.0000 0.0000 0.0000 0.0000 0.0000 0.0000 0.0000 0.0000 0.0000 0.0000 0.0000 0.0000 0.0000 0.0000 0.0000
0.0000 95.0000 0.0000 0.0000 0.0000 0.0000 0.0000 0.0000 0.0000 0.0000 0.0000 0.0000 0.0000 0.0000 0.0000 0.0000 0.0000 0.0000 0.0000 0.0000 0.0000 0.0000 0.0000 0.0000 -71.7703 -0.5029 -0.6950 -33.4878 11.3274 -32.5188 -85.9131 40.4370 204.2194 61.0839 -12.5818 2.2358 55.5167 0.0000 0.0000 28.4853 0.0000 0.0000 -33.0283 1.1148 -3.2082 2.7742 0.0000 0.0000 7.5994 0.0000 0.0000 -34.5513 -0.3962 -6.0457 73.5206 0.0000 0.0000 84.0455 0.0000 0.0000 -18.4505 -1.3651 -7.8612 127.3925 0.0000 0.0000 50.5036 0.0000 0.0000 -7.7617 -2.3524 -7.7474 124.6486 0.0000 0.0000 37.7625 0.0000 0.0000 0.0000 0.0000 0.0000 77.9934 -7.9702 9.8352 22.7018 41.6612 70.0353 274.9397 72.0600 -376.9541 -27.8073 -14.9968 20.2602 41.4693 0.0000 0.0000 31.4830 0.0000 0.0000 49.3596 -10.3816 47.1301 39.3382 0.0000 0.0000 12.2795 0.0000 0.0000 53.9337 -26.1594 53.8579 32.1462 0.0000 0.0000 24.3967 0.0000 0.0000 53.1517 -32.9548 51.7891 44.8489 0.0000 0.0000 99.4855 0.0000 0.0000 43.9824 -36.4569 49.9303 46.1280 0.0000 0.0000 101.9300 0.0000 0.0000 0.0000 0.0000 0.0000 0.0000 0.0000 0.0000 0.0000 0.0000 0.0000 0.0000 0.0000 0.0000 0.0000 0.0000 0.0000 0.0000 0.0000 0.0000
0.0000 95.0000 0.0000 0.0000 0.0000 0.0000 0.0000 0.0000 0.0000 0.0000 0.0000 0.0000 0.0000 0.0000 0.0000 0.0000 0.0000 0.0000 0.0000 0.0000 0.0000 0.0000 0.0000 0.0000 -69.1017 -3.2875 -4.7729 -44.3072 16.8935 -72.7359 -23.5444 57.9066 260.0995 47.9037 -8.3875 9.0314 51.1998 0.0000 0.0000 41.8098 0.0000 0.0000 -35.8862 1.3693 -1.6605 17.1982 0.0000 0.0000 3.9507 0.0000 0.0000 -41.4408 -0.4910 -6.0698 137.7756 0.0000 0.0000 23.1720 0.0000 0.0000 -19.2939 -1.5487 -8.3995 155.5612 0.0000 0.0000 20.9476 0.0000 0.0000 -2.1476 -2.9752 -9.6060 138.5997 0.0000 0.0000 22.6257 0.0000 0.0000 0.0000 0.0000 0.0000 73.8144 -11.3339 15.0536 26.0728 61.4913 96.8901 245.6899 21.7010 -439.3847 -55.0071 -13.1342 8.6946 20.2755 0.0000 0.0000 8.7544 0.0000 0.0000 -9.0489 11.8473 44.8955 80.3637 0.0000 0.0000 16.4114 0.0000 0.0000 -28.3897 21.4879 78.5230 59.1427 0.0000 0.0000 20.2597 0.0000 0.0000 -28.4184 14.7143 109.2406 46.2214 0.0000 0.0000 32.4645 0.0000 0.0000 -36.0098 0.7474 124.8012 32.8727 0.0000 0.0000 43.2703 0.0000 0.0000 0.0000 0.0000 0.0000 0.0000 0.0000 0.0000 0.0000 0.0000 0.0000 0.0000 0.0000 0.0000 0.0000 0.0000 0.0000 0.0000 0.0000 0.0000
0.0000 95.0000 0.0000 0.0000 0.0000 0.0000 0.0000 0.0000 0.0000 0.0000 0.0000 0.0000 0.0000 0.0000 0.0000 0.0000 0.0000 0.0000 0.0000 0.0000 0.0000 0.0000 0.0000 0.0000 -66.1638 -6.3860 -9.7892 -51.3183 51.9455 -142.5182 45.7570 2.5107 320.4586 42.7543 -6.5433 10.5383 61.0058 0.0000 0.0000 33.4275 0.0000 0.0000 -34.6190 1.4110 -1.0142 12.0384 0.0000 0.0000 3.0955 0.0000 0.0000 -42.5678 -0.3364 -5.6353 143.0321 0.0000 0.0000 32.9424 0.0000 0.0000 -30.4427 -0.4795 -5.3697 157.9633 0.0000 0.0000 24.3609 0.0000 0.0000 -6.9058 -0.7476 -3.4424 152.3733 0.0000 0.0000 16.2937 0.0000 0.0000 0.0000 0.0000 0.0000 68.8394 -13.7674 19.9842 42.9210 78.8903 129.9959 261.6990 23.6236 -457.4440 -57.2069 -11.7753 -2.5931 14.8891 0.0000 0.0000 6.0657 0.0000 0.0000 6.7952 1.8606 12.8585 104.4651 0.0000 0.0000 27.6863 0.0000 0.0000 -16.5594 3.9502 31.4361 116.6977 0.0000 0.0000 14.0942 0.0000 0.0000 -29.0598 2.8804 38.3541 112.6313 0.0000 0.0000 15.3639 0.0000 0.0000 -48.0689 3.2051 51.8213 88.9670 0.0000 0.0000 14.1804 0.0000 0.0000 0.0000 0.0000 0.0000 0.0000 0.0000 0.0000 0.0000 0.0000 0.0000 0.0000 0.0000 0.0000 0.0000 0.0000 0.0000 0.0000 0.0000 0.0000
0.0000 95.0000 0.0000 0.0000 0.0000 0.0000 0.0000 0.0000 0.0000 0.0000 0.0000 0.0000 0.0000 0.0000 0.0000 0.0000 0.0000 0.0000 0.0000 0.0000 0.0000 0.0000 0.0000 0.0000 -63.9096 -7.8230 -12.5110 -106.8723 72.4126 -222.1001 51.7570 -38.6929 314.9464 36.3137 -5.4218 8.2963 46.6792 0.0000 0.0000 21.9294 0.0000 0.0000 -38.0890 1.2849 -2.6381 5.4907 0.0000 0.0000 1.5247 0.0000 0.0000 -50.3002 -2.1623 -9.3755 119.6488 0.0000 0.0000 52.7658 0.0000 0.0000 -37.2353 -2.3686 -9.2783 134.5042 0.0000 0.0000 42.9694 0.0000 0.0000 -9.9478 -1.6225 -5.9553 145.4994 0.0000 0.0000 25.6968 0.0000 0.0000 0.0000 0.0000 0.0000 63.9645 -15.3698 24.3875 53.4724 85.1158 144.4196 268.5195 30.8824 -451.2114 -58.8720 -12.3654 -0.5465 17.6167 0.0000 0.0000 8.6712 0.0000 0.0000 12.9142 1.1667 8.8013 83.2955 0.0000 0.0000 24.3478 0.0000 0.0000 -4.2633 0.3454 14.0318 132.3022 0.0000 0.0000 17.8368 0.0000 0.0000 -14.8286 -1.0416 21.3725 130.1811 0.0000 0.0000 18.0503 0.0000 0.0000 -38.5767 -1.2992 36.8209 105.6033 0.0000 0.0000 17.0637 0.0000 0.0000 0.0000 0.0000 0.0000 0.0000 0.0000 0.0000 0.0000 0.0000 0.0000 0.0000 0.0000 0.0000 0.0000 0.0000 0.0000 0.0000 0.0000 0.0000
0.0000 95.0000 0.0000 0.0000 0.0000 0.0000 0.0000 0.0000 0.0000 0.0000 0.0000 0.0000 0.0000 0.0000 0.0000 0.0000 0.0000 0.0000 0.0000 0.0000 0.0000 0.0000 0.0000 0.0000 -61.5815 -9.6885 -16.1888 -147.8606 69.9539 -267.1815 63.5139 -47.8391 298.8501 27.2284 -3.8607 5.9227 47.8031 0.0000 0.0000 19.9708 0.0000 0.0000 -53.7130 -0.7296 -10.5610 3.7924 0.0000 0.0000 13.2374 0.0000 0.0000 -77.6579 -9.4715 -16.5253 36.3294 0.0000 0.0000 60.1507 0.0000 0.0000 -68.6745 -8.9483 -15.1799 34.6745 0.0000 0.0000 69.3285 0.0000 0.0000 -46.7747 -3.5007 -9.2611 12.0105 0.0000 0.0000 45.3934 0.0000 0.0000 0.0000 0.0000 0.0000 59.3453 -16.2296 28.1000 52.4056 86.3755 144.6236 273.6577 36.1009 -449.3490 -52.1968 -10.4934 -4.0406 17.4230 0.0000 0.0000 1.9873 0.0000 0.0000 -16.8506 14.9340 45.0222 97.8659 0.0000 0.0000 20.6624 0.0000 0.0000 -56.2303 34.4530 65.0267 63.5662 0.0000 0.0000 28.1325 0.0000 0.0000 -58.6087 38.1602 90.5567 52.0774 0.0000 0.0000 38.9403 0.0000 0.0000 -73.9896 34.6706 92.7506 44.3365 0.0000 0.0000 42.6105 0.0000 0.0000 0.0000 0.0000 0.0000 0.0000 0.0000 0.0000 0.0000 0.0000 0.0000 0.0000 0.0000 0.0000 0.0000 0.0000 0.0000 0.0000 0.0000 0.0000
0.0000 95.0000 0.0000 0.0000 0.0000 0.0000 0.0000 0.0000 0.0000 0.0000 0.0000 0.0000 0.0000 0.0000 0.0000 0.0000 0.0000 0.0000 0.0000 0.0000 0.0000 0.0000 0.0000 0.0000 -59.4347 -10.7962 -18.8002 -162.6371 65.9972 -283.0980 58.6154 -53.4772 308.0540 25.7093 -4.7477 3.1034 43.2733 0.0000 0.0000 15.3368 0.0000 0.0000 -52.0273 -1.7163 -14.3607 6.8365 0.0000 0.0000 8.2441 0.0000 0.0000 -70.7487 -11.5462 -20.9807 10.5137 0.0000 0.0000 12.1725 0.0000 0.0000 -58.2606 -8.4389 -16.2996 19.6072 0.0000 0.0000 15.7253 0.0000 0.0000 -44.9544 -3.2150 -8.9539 14.6247 0.0000 0.0000 13.7658 0.0000 0.0000 0.0000 0.0000 0.0000 56.0529 -16.8862 31.1630 31.7702 85.4292 123.1212 321.4115 13.0655 -371.6165 -42.6215 -11.0203 5.5134 9.8493 0.0000 0.0000 9.9847 0.0000 0.0000 30.1235 -6.6948 82.0136 2.9263 0.0000 0.0000 15.4209 0.0000 0.0000 30.6239 -29.0869 91.6852 85.5860 0.0000 0.0000 90.9169 0.0000 0.0000 26.3001 -38.2109 88.8907 110.0606 0.0000 0.0000 67.2531 0.0000 0.0000 17.7445 -45.7160 87.5515 112.1116 0.0000 0.0000 65.5142 0.0000 0.0000 0.0000 0.0000 0.0000 0.0000 0.0000 0.0000 0.0000 0.0000 0.0000 0.0000 0.0000 0.0000 0.0000 0.0000 0.0000 0.0000 0.0000 0.0000
0.0000 95.0000 0.0000 0.0000 0.0000 0.0000 0.0000 0.0000 0.0000 0.0000 0.0000 0.0000 0.0000 0.0000 0.0000 0.0000 0.0000 0.0000 0.0000 0.0000 0.0000 0.0000 0.0000 0.0000 -58.2200 -11.3024 -20.1537 -166.6252 66.5246 -285.6931 58.4299 -53.6473 306.2534 29.6882 -5.3471 3.9647 37.9834 0.0000 0.0000 25.7687 0.0000 0.0000 -58.0369 -2.6643 -15.5628 8.5207 0.0000 0.0000 6.4745 0.0000 0.0000 -73.5594 -12.1963 -21.0388 9.7604 0.0000 0.0000 8.7726 0.0000 0.0000 -64.4663 -9.6964 -16.7425 11.5332 0.0000 0.0000 9.9208 0.0000 0.0000 -51.8474 -5.2288 -11.0187 6.5519 0.0000 0.0000 10.3284 0.0000 0.0000 0.0000 0.0000 0.0000 54.0376 -17.1088 32.8699 23.8162 81.4210 113.5541 308.6989 25.7179 -392.1791 -45.2696 -9.8728 -0.4914 14.9475 0.0000 0.0000 4.2651 0.0000 0.0000 16.4140 4.8020 91.2514 42.8096 0.0000 0.0000 25.3562 0.0000 0.0000 1.9537 -2.3728 105.8379 44.8646 0.0000 0.0000 52.2460 0.0000 0.0000 -5.1978 -14.7931 110.9345 53.6222 0.0000 0.0000 79.3750 0.0000 0.0000 -18.5936 -22.2663 112.8462 57.4977 0.0000 0.0000 90.8200 0.0000 0.0000 0.0000 0.0000 0.0000 0.0000 0.0000 0.0000 0.0000 0.0000 0.0000 0.0000 0.0000 0.0000 0.0000 0.0000 0.0000 0.0000 0.0000 0.0000
0.0000 95.0000 0.0000 0.0000 0.0000 0.0000 0.0000 0.0000 0.0000 0.0000 0.0000 0.0000 0.0000 0.0000 0.0000 0.0000 0.0000 0.0000 0.0000 0.0000 0.0000 0.0000 0.0000 0.0000 -57.2366 -11.4484 -20.8199 -169.5749 68.5056 -286.9599 61.1973 -52.8288 297.8461 28.4125 -4.3453 5.5489 43.9582 0.0000 0.0000 24.1867 0.0000 0.0000 -53.6128 -0.8362 -10.9370 5.6077 0.0000 0.0000 3.3095 0.0000 0.0000 -73.9272 -10.1469 -18.2283 16.5766 0.0000 0.0000 15.9991 0.0000 0.0000 -65.8617 -8.8351 -15.4961 22.1365 0.0000 0.0000 26.4874 0.0000 0.0000 -52.0562 -4.7247 -10.4665 5.3055 0.0000 0.0000 16.0955 0.0000 0.0000 0.0000 0.0000 0.0000 53.6441 -17.1936 33.2930 26.3618 81.3348 116.3379 290.0212 35.3803 -425.3354 -46.7535 -9.2175 -4.3804 16.8047 0.0000 0.0000 2.3724 0.0000 0.0000 -18.9790 36.6689 89.1360 46.3145 0.0000 0.0000 34.8570 0.0000 0.0000 -31.0578 32.3098 97.1552 48.9581 0.0000 0.0000 56.6177 0.0000 0.0000 -36.5943 22.0776 102.4957 58.4952 0.0000 0.0000 68.8093 0.0000 0.0000 -47.2763 12.3848 104.3854 47.9118 0.0000 0.0000 77.2983 0.0000 0.0000 0.0000 0.0000 0.0000 0.0000 0.0000 0.0000 0.0000 0.0000 0.0000 0.0000 0.0000 0.0000 0.0000 0.0000 0.0000 0.0000 0.0000 0.0000
0.0000 95.0000 0.0000 0.0000 0.0000 0.0000 0.0000 0.0000 0.0000 0.0000 0.0000 0.0000 0.0000 0.0000 0.0000 0.0000 0.0000 0.0000 0.0000 0.0000 0.0000 0.0000 0.0000 0.0000 -57.5320 -11.4917 -20.7726 -168.3482 73.2234 -282.3723 57.9855 -46.1784 312.2458 29.7969 -5.5096 3.6383 37.7258 0.0000 0.0000 26.1334 0.0000 0.0000 -58.2787 -4.3989 -20.5068 6.1036 0.0000 0.0000 9.6984 0.0000 0.0000 -70.1205 -15.7019 -27.0043 10.0065 0.0000 0.0000 11.8472 0.0000 0.0000 -62.9445 -14.1403 -22.4163 11.5988 0.0000 0.0000 13.5910 0.0000 0.0000 -53.8385 -9.4456 -15.3128 3.7323 0.0000 0.0000 7.2852 0.0000 0.0000 0.0000 0.0000 0.0000 55.2999 -17.2972 32.3792 28.0171 82.3512 117.6362 338.3903 -16.6070 -338.5600 -51.6416 -11.5058 1.8324 22.5331 0.0000 0.0000 2.7574 0.0000 0.0000 71.5302 -10.2438 28.1757 68.3507 0.0000 0.0000 70.5169 0.0000 0.0000 66.9942 -16.1360 28.9505 100.7834 0.0000 0.0000 68.9134 0.0000 0.0000 60.0780 -18.6704 28.9998 120.3974 0.0000 0.0000 49.1666 0.0000 0.0000 49.4961 -21.1059 29.0354 133.8704 0.0000 0.0000 38.3844 0.0000 0.0000 0.0000 0.0000 0.0000 0.0000 0.0000 0.0000 0.0000 0.0000 0.0000 0.0000 0.0000 0.0000 0.0000 0.0000 0.0000 0.0000 0.0000 0.0000
0.0000 95.0000 0.0000 0.0000 0.0000 0.0000 0.0000 0.0000 0.0000 0.0000 0.0000 0.0000 0.0000 0.0000 0.0000 0.0000 0.0000 0.0000 0.0000 0.0000 0.0000 0.0000 0.0000 0.0000 -59.0850 -11.2025 -19.6350 -165.0416 73.9610 -278.6307 61.9702 -49.1769 309.6003 31.2409 -5.2199 5.2281 33.5604 0.0000 0.0000 27.5499 0.0000 0.0000 -38.5164 0.0535 -10.4902 5.0876 0.0000 0.0000 8.9755 0.0000 0.0000 -65.3720 -10.9666 -21.7894 42.4662 0.0000 0.0000 40.9404 0.0000 0.0000 -55.9179 -10.8919 -20.1055 41.1701 0.0000 0.0000 49.6222 0.0000 0.0000 -41.9080 -6.3344 -13.0113 10.8384 0.0000 0.0000 14.9500 0.0000 0.0000 0.0000 0.0000 0.0000 57.6605 -17.5948 31.4077 60.8158 86.9628 151.8724 317.4680 -6.9567 -373.2440 -40.5562 -9.8555 2.4927 4.3268 0.0000 0.0000 8.1101 0.0000 0.0000 46.7770 -17.1374 73.5320 32.5383 0.0000 0.0000 16.4839 0.0000 0.0000 38.4377 -29.8071 79.4923 51.8592 0.0000 0.0000 43.8909 0.0000 0.0000 33.4223 -37.0191 77.2815 63.4646 0.0000 0.0000 72.0025 0.0000 0.0000 23.9142 -43.7637 77.4471 65.4673 0.0000 0.0000 95.2550 0.0000 0.0000 0.0000 0.0000 0.0000 0.0000 0.0000 0.0000 0.0000 0.0000 0.0000 0.0000 0.0000 0.0000 0.0000 0.0000 0.0000 0.0000 0.0000 0.0000
0.0000 95.0000 0.0000 0.0000 0.0000 0.0000 0.0000 0.0000 0.0000 0.0000 0.0000 0.0000 0.0000 0.0000 0.0000 0.0000 0.0000 0.0000 0.0000 0.0000 0.0000 0.0000 0.0000 0.0000 -61.7477 -10.3615 -17.2467 -153.5345 72.2414 -269.3157 61.9361 -56.5749 313.0371 47.4918 -9.7900 2.6469 31.1309 0.0000 0.0000 15.4477 0.0000 0.0000 -17.8466 1.0080 -8.9531 3.0288 0.0000 0.0000 1.1574 0.0000 0.0000 -14.6459 -0.9109 -11.8512 157.2999 0.0000 0.0000 18.9219 0.0000 0.0000 -4.4024 -1.8679 -11.7663 156.8220 0.0000 0.0000 15.1842 0.0000 0.0000 10.6296 -3.0334 -10.7896 148.3048 0.0000 0.0000 14.7659 0.0000 0.0000 0.0000 0.0000 0.0000 61.1723 -18.1783 30.2897 186.1141 84.6137 277.7900 302.8773 25.0265 -443.1416 -49.2845 -9.5597 -5.4084 11.2741 0.0000 0.0000 6.6361 0.0000 0.0000 2.3265 1.8030 10.5671 29.3742 0.0000 0.0000 13.4373 0.0000 0.0000 -33.6073 13.3578 47.1609 102.5225 0.0000 0.0000 13.4716 0.0000 0.0000 -45.4188 13.6910 58.1756 95.2370 0.0000 0.0000 14.9560 0.0000 0.0000 -62.3316 9.5713 53.2835 87.2230 0.0000 0.0000 17.8826 0.0000 0.0000 0.0000 0.0000 0.0000 0.0000 0.0000 0.0000 0.0000 0.0000 0.0000 0.0000 0.0000 0.0000 0.0000 0.0000 0.0000 0.0000 0.0000 0.0000
0.0000 95.0000 0.0000 0.0000 0.0000 0.0000 0.0000 0.0000 0.0000 0.0000 0.0000 0.0000 0.0000 0.0000 0.0000 0.0000 0.0000 0.0000 0.0000 0.0000 0.0000 0.0000 0.0000 0.0000 -64.7959 -9.8299 -15.4348 -147.1049 68.9968 -264.8206 68.6051 -57.6231 309.0105 45.6998 -9.0033 4.2861 43.9954 0.0000 0.0000 34.3320 0.0000 0.0000 -20.6278 0.9131 -8.5562 3.2469 0.0000 0.0000 2.9147 0.0000 0.0000 -9.7047 -0.5211 -10.9050 175.3310 0.0000 0.0000 8.4940 0.0000 0.0000 3.7077 -1.4563 -11.5972 146.6060 0.0000 0.0000 22.1119 0.0000 0.0000 18.6823 -2.9001 -11.2733 126.6464 0.0000 0.0000 33.6097 0.0000 0.0000 0.0000 0.0000 0.0000 64.3537 -18.5695 29.1312 200.1323 78.5963 292.0998 307.0007 23.2777 -439.5460 -46.7868 -8.6222 -6.8545 10.6366 0.0000 0.0000 4.5798 0.0000 0.0000 7.1760 1.2576 7.9572 20.9006 0.0000 0.0000 5.3545 0.0000 0.0000 -10.7720 2.0547 26.3107 135.0287 0.0000 0.0000 12.1456 0.0000 0.0000 -23.9801 1.3124 37.0620 128.5299 0.0000 0.0000 14.5463 0.0000 0.0000 -41.0838 -0.9823 31.7728 120.3785 0.0000 0.0000 18.1452 0.0000 0.0000 0.0000 0.0000 0.0000 0.0000 0.0000 0.0000 0.0000 0.0000 0.0000 0.0000 0.0000 0.0000 0.0000 0.0000 0.0000 0.0000 0.0000 0.0000
0.0000 95.0000 0.0000 0.0000 0.0000 0.0000 0.0000 0.0000 0.0000 0.0000 0.0000 0.0000 0.0000 0.0000 0.0000 0.0000 0.0000 0.0000 0.0000 0.0000 0.0000 0.0000 0.0000 0.0000 -66.9934 -9.2153 -13.8862 -133.9209 67.6230 -251.8653 41.8719 20.9035 416.9410 52.0900 -13.1983 -10.6335 9.2763 0.0000 0.0000 6.9967 0.0000 0.0000 5.1256 7.4553 -33.1969 37.3281 0.0000 0.0000 9.4767 0.0000 0.0000 21.5229 6.3187 -37.1601 77.6383 0.0000 0.0000 21.0540 0.0000 0.0000 26.9746 1.7939 -33.6795 73.9487 0.0000 0.0000 20.8619 0.0000 0.0000 30.3976 -3.0788 -27.2272 28.5712 0.0000 0.0000 16.2536 0.0000 0.0000 0.0000 0.0000 0.0000 68.1304 -18.4855 27.0636 194.5792 73.5430 288.4058 303.9178 30.9893 -439.2294 -54.1218 -10.5569 -6.0790 12.9825 0.0000 0.0000 8.5602 0.0000 0.0000 3.2680 0.7830 4.1715 12.6504 0.0000 0.0000 2.8844 0.0000 0.0000 -20.9535 5.2908 32.8290 126.6694 0.0000 0.0000 15.2450 0.0000 0.0000 -31.5507 3.5429 37.9239 124.9247 0.0000 0.0000 16.8974 0.0000 0.0000 -43.9369 -0.6846 28.3810 120.1297 0.0000 0.0000 20.4600 0.0000 0.0000 0.0000 0.0000 0.0000 0.0000 0.0000 0.0000 0.0000 0.0000 0.0000 0.0000 0.0000 0.0000 0.0000 0.0000 0.0000 0.0000 0.0000 0.0000
0.0000 95.0000 0.0000 0.0000 0.0000 0.0000 0.0000 0.0000 0.0000 0.0000 0.0000 0.0000 0.0000 0.0000 0.0000 0.0000 0.0000 0.0000 0.0000 0.0000 0.0000 0.0000 0.0000 0.0000 -70.0004 -5.3921 -7.6948 -126.2139 52.6894 -262.7540 76.6254 -77.4769 300.9330 45.4273 -10.0229 0.0120 41.7298 0.0000 0.0000 48.3785 0.0000 0.0000 -40.4397 -0.3617 -12.3174 22.7380 0.0000 0.0000 6.9427 0.0000 0.0000 -14.0810 -1.5668 -17.4077 34.3652 0.0000 0.0000 44.5033 0.0000 0.0000 4.8762 -1.9390 -17.0937 97.6884 0.0000 0.0000 41.9608 0.0000 0.0000 22.5161 -3.1438 -14.7741 79.4866 0.0000 0.0000 43.3397 0.0000 0.0000 0.0000 0.0000 0.0000 70.7478 -17.7960 24.8711 188.4782 71.2104 284.4082 295.4465 31.7732 -443.0679 -56.2969 -11.3039 -4.5075 12.5010 0.0000 0.0000 4.5186 0.0000 0.0000 0.1984 1.7205 9.5216 5.9968 0.0000 0.0000 3.9406 0.0000 0.0000 -13.5495 2.5898 26.3185 136.4333 0.0000 0.0000 13.1286 0.0000 0.0000 -25.6917 1.5676 34.6609 133.3882 0.0000 0.0000 15.1753 0.0000 0.0000 -38.1552 -1.8262 25.6638 126.8410 0.0000 0.0000 18.9921 0.0000 0.0000 0.0000 0.0000 0.0000 0.0000 0.0000 0.0000 0.0000 0.0000 0.0000 0.0000 0.0000 0.0000 0.0000 0.0000 0.0000 0.0000 0.0000 0.0000
0.0000 95.0000 0.0000 0.0000 0.0000 0.0000 0.0000 0.0000 0.0000 0.0000 0.0000 0.0000 0.0000 0.0000 0.0000 0.0000 0.0000 0.0000 0.0000 0.0000 0.0000 0.0000 0.0000 0.0000 -70.8054 -5.3660 -7.5445 -91.9683 53.2478 -210.9139 -9.3074 -43.4689 342.2718 73.5595 -14.9086 -13.7332 49.1357 0.0000 0.0000 12.6542 0.0000 0.0000 -19.4348 0.9755 -11.1476 18.4521 0.0000 0.0000 1.2513 0.0000 0.0000 19.5202 1.7248 -14.7741 88.2623 0.0000 0.0000 59.9774 0.0000 0.0000 30.0844 0.5715 -18.0913 87.9012 0.0000 0.0000 47.0299 0.0000 0.0000 35.5342 -2.3027 -20.3974 87.5205 0.0000 0.0000 48.9874 0.0000 0.0000 0.0000 0.0000 0.0000 72.0198 -18.0102 24.6010 196.1363 68.6932 291.5122 312.2702 24.8127 -431.7484 -48.0898 -8.6567 -8.0969 10.4068 0.0000 0.0000 7.4925 0.0000 0.0000 9.6373 0.9004 4.8874 7.2940 0.0000 0.0000 3.2403 0.0000 0.0000 -9.9378 2.1007 28.5873 132.5471 0.0000 0.0000 12.1405 0.0000 0.0000 -21.1737 0.2243 30.5266 134.1503 0.0000 0.0000 13.7758 0.0000 0.0000 -31.7508 -2.6989 19.7543 123.3413 0.0000 0.0000 21.2995 0.0000 0.0000 0.0000 0.0000 0.0000 0.0000 0.0000 0.0000 0.0000 0.0000 0.0000 0.0000 0.0000 0.0000 0.0000 0.0000 0.0000 0.0000 0.0000 0.0000
0.0000 95.0000 0.0000 0.0000 0.0000 0.0000 0.0000 0.0000 0.0000 0.0000 0.0000 0.0000 0.0000 0.0000 0.0000 0.0000 0.0000 0.0000 0.0000 0.0000 0.0000 0.0000 0.0000 0.0000 -71.5400 -4.2409 -5.8842 -68.6993 39.3648 -166.8323 -19.7697 -7.0016 350.1759 70.2894 -14.7613 -14.7929 45.0106 0.0000 0.0000 9.3461 0.0000 0.0000 -21.0886 0.8820 -12.3015 18.9979 0.0000 0.0000 1.1887 0.0000 0.0000 8.7648 0.9537 -17.1673 86.0644 0.0000 0.0000 36.9755 0.0000 0.0000 20.0585 -0.3881 -20.3375 92.4138 0.0000 0.0000 34.0615 0.0000 0.0000 25.9072 -3.3871 -20.9865 89.5744 0.0000 0.0000 33.2412 0.0000 0.0000 0.0000 0.0000 0.0000 73.1290 -17.8582 23.9204 200.1418 67.9275 295.0247 314.1374 20.1499 -430.3757 -45.7345 -7.8890 -8.6841 10.7221 0.0000 0.0000 4.6531 0.0000 0.0000 11.7667 0.8597 4.3212 4.8592 0.0000 0.0000 2.5642 0.0000 0.0000 -5.2945 0.9010 24.0738 133.7407 0.0000 0.0000 12.1167 0.0000 0.0000 -19.2684 -0.0913 33.6254 128.1939 0.0000 0.0000 13.9869 0.0000 0.0000 -32.5309 -2.6851 24.7319 121.9306 0.0000 0.0000 18.4532 0.0000 0.0000 0.0000 0.0000 0.0000 0.0000 0.0000 0.0000 0.0000 0.0000 0.0000 0.0000 0.0000 0.0000 0.0000 0.0000 0.0000 0.0000 0.0000 0.0000
0.0000 95.0000 0.0000 0.0000 0.0000 0.0000 0.0000 0.0000 0.0000 0.0000 0.0000 0.0000 0.0000 0.0000 0.0000 0.0000 0.0000 0.0000 0.0000 0.0000 0.0000 0.0000 0.0000 0.0000 -71.3237 -3.6573 -5.0952 -58.8222 23.9568 -126.2805 -32.3727 30.9637 347.0740 66.3148 -14.3554 -10.7867 38.4533 0.0000 0.0000 10.9147 0.0000 0.0000 -11.5451 1.1663 -8.2244 32.5662 0.0000 0.0000 9.5129 0.0000 0.0000 14.8458 1.2811 -14.5816 87.2928 0.0000 0.0000 26.4192 0.0000 0.0000 26.6740 0.2819 -18.7894 94.5514 0.0000 0.0000 27.7292 0.0000 0.0000 28.1323 -2.9639 -17.7109 92.6957 0.0000 0.0000 29.0789 0.0000 0.0000 0.0000 0.0000 0.0000 73.4638 -17.7488 23.6352 201.0847 69.2869 295.1457 301.7863 27.9327 -435.1148 -53.6916 -10.4220 -6.2703 9.4859 0.0000 0.0000 6.2270 0.0000 0.0000 2.5248 1.1626 6.5992 7.0945 0.0000 0.0000 4.2225 0.0000 0.0000 -25.5270 7.6786 37.7760 119.9545 0.0000 0.0000 12.4435 0.0000 0.0000 -34.2115 4.9700 41.6885 121.0329 0.0000 0.0000 14.3485 0.0000 0.0000 -43.9178 -0.8205 26.8943 122.3037 0.0000 0.0000 18.6789 0.0000 0.0000 0.0000 0.0000 0.0000 0.0000 0.0000 0.0000 0.0000 0.0000 0.0000 0.0000 0.0000 0.0000 0.0000 0.0000 0.0000 0.0000 0.0000 0.0000
0.0000 95.0000 0.0000 0.0000 0.0000 0.0000 0.0000 0.0000 0.0000 0.0000 0.0000 0.0000 0.0000 0.0000 0.0000 0.0000 0.0000 0.0000 0.0000 0.0000 0.0000 0.0000 0.0000 0.0000 -71.2050 -3.2086 -4.4802 -57.3151 15.6807 -102.6714 -33.7301 53.5549 348.7299 69.1479 -14.7123 -14.8238 35.3575 0.0000 0.0000 6.6787 0.0000 0.0000 -6.7963 1.6296 -10.9521 38.3579 0.0000 0.0000 7.6764 0.0000 0.0000 18.2113 1.8596 -16.3363 96.4781 0.0000 0.0000 30.1200 0.0000 0.0000 25.0159 0.1623 -19.5757 101.3465 0.0000 0.0000 26.3817 0.0000 0.0000 25.7273 -3.1422 -17.3600 97.7655 0.0000 0.0000 29.4167 0.0000 0.0000 0.0000 0.0000 0.0000 73.8235 -17.2224 22.7968 200.4564 71.1127 294.3106 296.0871 28.0105 -438.1181 -53.0832 -10.1459 -6.9888 11.0728 0.0000 0.0000 1.4108 0.0000 0.0000 -0.5617 1.4456 7.8842 1.0005 0.0000 0.0000 3.3821 0.0000 0.0000 -18.2036 4.3817 31.6327 129.2571 0.0000 0.0000 10.0497 0.0000 0.0000 -28.0407 2.4059 36.7863 129.5735 0.0000 0.0000 11.8837 0.0000 0.0000 -41.1195 -1.2458 27.5514 126.3487 0.0000 0.0000 15.5613 0.0000 0.0000 0.0000 0.0000 0.0000 0.0000 0.0000 0.0000 0.0000 0.0000 0.0000 0.0000 0.0000 0.0000 0.0000 0.0000 0.0000 0.0000 0.0000 0.0000
0.0000 95.0000 0.0000 0.0000 0.0000 0.0000 0.0000 0.0000 0.0000 0.0000 0.0000 0.0000 0.0000 0.0000 0.0000 0.0000 0.0000 0.0000 0.0000 0.0000 0.0000 0.0000 0.0000 0.0000 -70.9091 -2.7934 -3.9221 -57.3196 11.8961 -90.2885 -27.5389 65.0414 351.2296 68.7238 -14.7074 -15.1923 35.3462 0.0000 0.0000 8.7198 0.0000 0.0000 -7.9625 1.6475 -11.6652 39.9922 0.0000 0.0000 11.1063 0.0000 0.0000 14.8122 1.7898 -18.4762 91.0332 0.0000 0.0000 27.5981 0.0000 0.0000 20.5072 -0.3069 -20.9838 96.1975 0.0000 0.0000 23.4274 0.0000 0.0000 19.4639 -3.6262 -17.1206 92.6269 0.0000 0.0000 28.3004 0.0000 0.0000 0.0000 0.0000 0.0000 74.3607 -17.0819 22.3991 201.1144 70.0786 295.3754 309.0256 23.1945 -430.1396 -48.4638 -8.3744 -9.7391 10.3793 0.0000 0.0000 5.7062 0.0000 0.0000 6.8568 0.8803 4.7506 6.0688 0.0000 0.0000 3.2722 0.0000 0.0000 -19.0300 5.3960 36.1782 123.0171 0.0000 0.0000 11.6427 0.0000 0.0000 -32.0397 5.2695 48.0549 113.0730 0.0000 0.0000 12.9351 0.0000 0.0000 -43.3503 0.1570 39.4125 106.7525 0.0000 0.0000 14.6856 0.0000 0.0000 0.0000 0.0000 0.0000 0.0000 0.0000 0.0000 0.0000 0.0000 0.0000 0.0000 0.0000 0.0000 0.0000 0.0000 0.0000 0.0000 0.0000 0.0000
0.0000 95.0000 0.0000 0.0000 0.0000 0.0000 0.0000 0.0000 0.0000 0.0000 0.0000 0.0000 0.0000 0.0000 0.0000 0.0000 0.0000 0.0000 0.0000 0.0000 0.0000 0.0000 0.0000 0.0000 -70.5435 -2.1693 -3.0667 -57.8125 9.8717 -83.5305 -19.9293 70.6765 356.5567 67.3742 -14.6532 -15.2015 33.2139 0.0000 0.0000 6.7852 0.0000 0.0000 -8.4685 1.7328 -12.7459 40.8846 0.0000 0.0000 12.0969 0.0000 0.0000 13.0955 1.7724 -20.1226 90.8460 0.0000 0.0000 26.8482 0.0000 0.0000 17.9946 -0.6064 -22.3284 95.9419 0.0000 0.0000 23.1305 0.0000 0.0000 15.9741 -3.9073 -17.1137 91.1298 0.0000 0.0000 28.3818 0.0000 0.0000 0.0000 0.0000 0.0000 74.1947 -17.4689 22.9682 206.8441 71.2369 299.1008 307.8833 20.7876 -429.9937 -47.9137 -8.1618 -9.9938 10.3388 0.0000 0.0000 4.2610 0.0000 0.0000 8.2407 0.8374 4.3211 4.5090 0.0000 0.0000 3.0037 0.0000 0.0000 -15.4673 3.9205 33.0626 125.7617 0.0000 0.0000 10.8630 0.0000 0.0000 -27.9416 2.9002 41.3706 119.9324 0.0000 0.0000 12.5416 0.0000 0.0000 -36.2374 -2.0257 30.5948 116.2146 0.0000 0.0000 15.0385 0.0000 0.0000 0.0000 0.0000 0.0000 0.0000 0.0000 0.0000 0.0000 0.0000 0.0000 0.0000 0.0000 0.0000 0.0000 0.0000 0.0000 0.0000 0.0000 0.0000
0.0000 95.0000 0.0000 0.0000 0.0000 0.0000 0.0000 0.0000 0.0000 0.0000 0.0000 0.0000 0.0000 0.0000 0.0000 0.0000 0.0000 0.0000 0.0000 0.0000 0.0000 0.0000 0.0000 0.0000 -70.6070 -1.4484 -2.0453 -58.1100 9.2685 -79.0095 -13.5421 78.6363 354.1903 67.4118 -14.7236 -16.6309 36.7118 0.0000 0.0000 5.7092 0.0000 0.0000 -11.6805 1.4381 -11.7630 41.9223 0.0000 0.0000 13.9318 0.0000 0.0000 11.9075 1.4952 -19.0358 88.5416 0.0000 0.0000 25.6005 0.0000 0.0000 17.0932 -0.7343 -22.2032 93.6259 0.0000 0.0000 24.9977 0.0000 0.0000 17.2718 -4.0991 -19.1180 92.7646 0.0000 0.0000 28.9442 0.0000 0.0000 0.0000 0.0000 0.0000 74.0884 -17.5882 23.1668 207.0293 72.2569 298.6493 298.5924 25.5713 -436.9259 -52.8808 -9.8361 -8.3836 10.0073 0.0000 0.0000 6.0547 0.0000 0.0000 -0.7072 1.1454 6.2659 0.4268 0.0000 0.0000 2.8430 0.0000 0.0000 -23.2743 5.9010 32.8731 125.4194 0.0000 0.0000 9.6564 0.0000 0.0000 -33.8556 5.0756 42.9659 119.8297 0.0000 0.0000 11.9016 0.0000 0.0000 -40.3245 -1.3481 28.1649 122.1043 0.0000 0.0000 13.4747 0.0000 0.0000 0.0000 0.0000 0.0000 0.0000 0.0000 0.0000 0.0000 0.0000 0.0000 0.0000 0.0000 0.0000 0.0000 0.0000 0.0000 0.0000 0.0000 0.0000
0.0000 95.0000 0.0000 0.0000 0.0000 0.0000 0.0000 0.0000 0.0000 0.0000 0.0000 0.0000 0.0000 0.0000 0.0000 0.0000 0.0000 0.0000 0.0000 0.0000 0.0000 0.0000 0.0000 0.0000 -70.5097 -1.5176 -2.1469 -56.6880 10.1665 -78.0602 -19.0521 75.6684 349.3865 67.0533 -14.7116 -16.5940 33.9015 0.0000 0.0000 6.8757 0.0000 0.0000 -9.1242 1.7205 -13.0670 42.7118 0.0000 0.0000 13.4586 0.0000 0.0000 15.5720 2.0584 -19.7418 83.6286 0.0000 0.0000 25.8672 0.0000 0.0000 20.5262 -0.2251 -22.9486 90.5273 0.0000 0.0000 24.6941 0.0000 0.0000 20.7572 -3.8472 -19.8954 88.4650 0.0000 0.0000 27.6686 0.0000 0.0000 0.0000 0.0000 0.0000 74.4889 -17.5236 22.9201 206.8225 72.2909 298.3764 298.9569 24.6091 -435.5943 -51.9707 -9.5130 -8.8332 9.8683 0.0000 0.0000 5.0452 0.0000 0.0000 2.8395 1.0189 5.7057 3.3929 0.0000 0.0000 2.5933 0.0000 0.0000 -23.0766 5.9522 33.3469 124.1289 0.0000 0.0000 10.8302 0.0000 0.0000 -33.7913 5.0133 42.7323 118.5934 0.0000 0.0000 12.0881 0.0000 0.0000 -38.1805 -1.7387 27.9114 119.9957 0.0000 0.0000 13.7807 0.0000 0.0000 0.0000 0.0000 0.0000 0.0000 0.0000 0.0000 0.0000 0.0000 0.0000 0.0000 0.0000 0.0000 0.0000 0.0000 0.0000 0.0000 0.0000 0.0000
0.0000 95.0000 0.0000 0.0000 0.0000 0.0000 0.0000 0.0000 0.0000 0.0000 0.0000 0.0000 0.0000 0.0000 0.0000 0.0000 0.0000 0.0000 0.0000 0.0000 0.0000 0.0000 0.0000 0.0000 -70.6147 -1.2966 -1.8307 -56.9362 9.8277 -76.2103 -24.6630 81.8273 338.7132 68.6243 -14.7673 -16.8767 39.8253 0.0000 0.0000 5.7064 0.0000 0.0000 -14.5409 1.2885 -12.1249 44.6534 0.0000 0.0000 16.3371 0.0000 0.0000 9.0623 1.0580 -18.0625 88.3730 0.0000 0.0000 28.8015 0.0000 0.0000 15.1661 -0.9967 -21.3257 92.4834 0.0000 0.0000 26.8828 0.0000 0.0000 16.4452 -4.1514 -18.9288 90.9497 0.0000 0.0000 30.0544 0.0000 0.0000 0.0000 0.0000 0.0000 74.9293 -17.5078 22.7226 207.4255 72.0578 298.8243 303.2326 22.0639 -433.3151 -48.1239 -8.2133 -10.0240 10.8949 0.0000 0.0000 3.9629 0.0000 0.0000 7.5874 0.8581 4.5393 4.8352 0.0000 0.0000 2.1716 0.0000 0.0000 -14.5247 3.3653 30.7341 128.9090 0.0000 0.0000 10.8294 0.0000 0.0000 -25.9063 1.9469 38.1501 125.2289 0.0000 0.0000 11.3480 0.0000 0.0000 -25.9218 -4.0234 29.7932 117.0404 0.0000 0.0000 10.9747 0.0000 0.0000 0.0000 0.0000 0.0000 0.0000 0.0000 0.0000 0.0000 0.0000 0.0000 0.0000 0.0000 0.0000 0.0000 0.0000 0.0000 0.0000 0.0000 0.0000
0.0000 95.0000 0.0000 0.0000 0.0000 0.0000 0.0000 0.0000 0.0000 0.0000 0.0000 0.0000 0.0000 0.0000 0.0000 0.0000 0.0000 0.0000 0.0000 0.0000 0.0000 0.0000 0.0000 0.0000 -71.0283 -1.0617 -1.4877 -57.2620 9.9247 -75.5090 -24.6866 83.9648 337.6160 67.4498 -14.7435 -17.0229 39.1630 0.0000 0.0000 5.3009 0.0000 0.0000 -16.1354 1.2004 -12.4037 43.2599 0.0000 0.0000 14.5976 0.0000 0.0000 5.7595 0.6314 -17.2732 90.0844 0.0000 0.0000 28.3385 0.0000 0.0000 11.5645 -1.4429 -20.6063 93.5752 0.0000 0.0000 26.9451 0.0000 0.0000 13.7501 -4.3662 -18.6597 90.9675 0.0000 0.0000 31.6484 0.0000 0.0000 0.0000 0.0000 0.0000 75.1666 -17.4230 22.5196 206.6077 71.9723 298.1909 301.0171 23.2015 -434.7500 -50.3401 -9.0576 -8.9524 10.9879 0.0000 0.0000 5.8917 0.0000 0.0000 3.6980 1.0299 5.8142 2.0723 0.0000 0.0000 2.5197 0.0000 0.0000 -22.7750 6.0853 34.3397 122.4061 0.0000 0.0000 10.6477 0.0000 0.0000 -35.4613 6.5573 47.8202 112.0312 0.0000 0.0000 11.2389 0.0000 0.0000 -40.3772 -0.7398 38.4474 108.7802 0.0000 0.0000 11.6680 0.0000 0.0000 0.0000 0.0000 0.0000 0.0000 0.0000 0.0000 0.0000 0.0000 0.0000 0.0000 0.0000 0.0000 0.0000 0.0000 0.0000 0.0000 0.0000 0.0000
0.0000 95.0000 0.0000 0.0000 0.0000 0.0000 0.0000 0.0000 0.0000 0.0000 0.0000 0.0000 0.0000 0.0000 0.0000 0.0000 0.0000 0.0000 0.0000 0.0000 0.0000 0.0000 0.0000 0.0000 -71.6080 -0.8306 -1.1515 -57.2024 10.0522 -72.7919 -18.3590 82.2162 349.1395 68.0859 -14.7331 -16.4034 36.8768 0.0000 0.0000 9.7466 0.0000 0.0000 -11.7018 1.4045 -11.3478 43.2102 0.0000 0.0000 16.3516 0.0000 0.0000 12.2379 1.5579 -19.2280 86.5376 0.0000 0.0000 27.4535 0.0000 0.0000 17.7614 -0.6498 -21.6541 94.3656 0.0000 0.0000 23.8928 0.0000 0.0000 14.7972 -3.8596 -16.2708 94.6921 0.0000 0.0000 27.1574 0.0000 0.0000 0.0000 0.0000 0.0000 75.6704 -17.3430 22.2194 205.0613 71.8094 296.8490 300.1147 24.5884 -435.7703 -50.8631 -8.9872 -9.9576 11.0068 0.0000 0.0000 3.2158 0.0000 0.0000 0.7419 1.3307 7.4179 3.5825 0.0000 0.0000 3.1023 0.0000 0.0000 -35.1864 12.5510 43.0256 108.0378 0.0000 0.0000 10.4090 0.0000 0.0000 -48.2400 16.9488 63.1932 90.6141 0.0000 0.0000 12.4331 0.0000 0.0000 -56.9365 7.9538 56.3753 85.9013 0.0000 0.0000 11.4036 0.0000 0.0000 0.0000 0.0000 0.0000 0.0000 0.0000 0.0000 0.0000 0.0000 0.0000 0.0000 0.0000 0.0000 0.0000 0.0000 0.0000 0.0000 0.0000 0.0000
0.0000 95.0000 0.0000 0.0000 0.0000 0.0000 0.0000 0.0000 0.0000 0.0000 0.0000 0.0000 0.0000 0.0000 0.0000 0.0000 0.0000 0.0000 0.0000 0.0000 0.0000 0.0000 0.0000 0.0000 -71.5839 -0.8257 -1.1452 -56.2449 10.9025 -73.4436 -24.6909 80.1952 347.9267 73.0238 -14.8842 -18.8282 35.7495 0.0000 0.0000 7.0887 0.0000 0.0000 -4.7852 2.0613 -13.2970 41.1294 0.0000 0.0000 14.7149 0.0000 0.0000 20.9615 3.0952 -21.3900 84.7903 0.0000 0.0000 28.5764 0.0000 0.0000 24.3735 0.4868 -24.9185 90.9202 0.0000 0.0000 26.4561 0.0000 0.0000 20.6701 -3.8145 -19.5408 87.8575 0.0000 0.0000 28.5442 0.0000 0.0000 0.0000 0.0000 0.0000 75.6597 -17.3681 22.2554 205.4041 72.5091 296.7595 303.0261 21.7655 -433.0099 -49.7777 -9.0030 -8.5158 11.1710 0.0000 0.0000 1.5706 0.0000 0.0000 1.3219 1.8291 10.4280 8.2734 0.0000 0.0000 3.7865 0.0000 0.0000 -35.6633 13.5521 45.3180 104.9268 0.0000 0.0000 14.0416 0.0000 0.0000 -46.7637 15.3297 60.9652 93.0260 0.0000 0.0000 16.5125 0.0000 0.0000 -60.4958 12.2351 65.3176 78.2362 0.0000 0.0000 17.7675 0.0000 0.0000 0.0000 0.0000 0.0000 0.0000 0.0000 0.0000 0.0000 0.0000 0.0000 0.0000 0.0000 0.0000 0.0000 0.0000 0.0000 0.0000 0.0000 0.0000
0.0000 95.0000 0.0000 0.0000 0.0000 0.0000 0.0000 0.0000 0.0000 0.0000 0.0000 0.0000 0.0000 0.0000 0.0000 0.0000 0.0000 0.0000 0.0000 0.0000 0.0000 0.0000 0.0000 0.0000 -71.2319 -0.6813 -0.9510 -55.1141 11.2089 -71.6521 -25.7032 80.7977 350.1805 71.7097 -14.8862 -20.0836 34.4656 0.0000 0.0000 3.6347 0.0000 0.0000 -4.2322 2.0160 -12.7003 40.3886 0.0000 0.0000 17.6854 0.0000 0.0000 17.7253 2.5272 -20.8753 84.5239 0.0000 0.0000 28.1722 0.0000 0.0000 21.4574 -0.1056 -22.6032 94.1109 0.0000 0.0000 26.8152 0.0000 0.0000 18.6181 -3.5293 -15.9050 92.5159 0.0000 0.0000 31.8612 0.0000 0.0000 0.0000 0.0000 0.0000 75.7854 -17.6230 22.5291 208.7292 74.3064 298.3159 302.3329 18.7343 -427.4978 -48.3818 -8.9103 -7.3260 15.1327 0.0000 0.0000 2.6081 0.0000 0.0000 15.0828 1.1524 9.9918 59.0528 0.0000 0.0000 49.6086 0.0000 0.0000 -15.6981 6.7680 51.2044 95.4759 0.0000 0.0000 13.0044 0.0000 0.0000 -30.6369 6.8225 61.6099 88.5587 0.0000 0.0000 15.2021 0.0000 0.0000 -44.7633 4.6997 75.3225 66.7508 0.0000 0.0000 17.2106 0.0000 0.0000 0.0000 0.0000 0.0000 0.0000 0.0000 0.0000 0.0000 0.0000 0.0000 0.0000 0.0000 0.0000 0.0000 0.0000 0.0000 0.0000 0.0000 0.0000
0.0000 95.0000 0.0000 0.0000 0.0000 0.0000 0.0000 0.0000 0.0000 0.0000 0.0000 0.0000 0.0000 0.0000 0.0000 0.0000 0.0000 0.0000 0.0000 0.0000 0.0000 0.0000 0.0000 0.0000 -71.4478 -1.2244 -1.7024 -52.0570 13.5081 -72.3861 -27.9358 76.2777 350.2031 70.8896 -14.9526 -23.5840 37.1072 0.0000 0.0000 1.3510 0.0000 0.0000 -4.5796 2.0622 -13.1961 41.9585 0.0000 0.0000 19.2650 0.0000 0.0000 17.1179 2.5391 -21.5251 83.5842 0.0000 0.0000 30.2589 0.0000 0.0000 20.1460 -0.2918 -22.6505 93.9343 0.0000 0.0000 27.1844 0.0000 0.0000 19.7682 -3.5427 -16.6506 92.7278 0.0000 0.0000 31.0721 0.0000 0.0000 0.0000 0.0000 0.0000 76.3929 -17.3071 21.8946 212.9392 76.8232 300.9541 303.5556 20.2850 -420.3195 -49.0899 -8.3461 -10.6259 13.8901 0.0000 0.0000 6.0179 0.0000 0.0000 15.5065 0.8437 3.4287 89.7360 0.0000 0.0000 49.3125 0.0000 0.0000 8.2246 -0.5634 12.5964 132.1772 0.0000 0.0000 9.4357 0.0000 0.0000 -2.9030 -3.8121 31.4279 121.9131 0.0000 0.0000 8.9951 0.0000 0.0000 -15.4622 -8.6593 44.7792 98.8111 0.0000 0.0000 14.3376 0.0000 0.0000 0.0000 0.0000 0.0000 0.0000 0.0000 0.0000 0.0000 0.0000 0.0000 0.0000 0.0000 0.0000 0.0000 0.0000 0.0000 0.0000 0.0000 0.0000
0.0000 95.0000 0.0000 0.0000 0.0000 0.0000 0.0000 0.0000 0.0000 0.0000 0.0000 0.0000 0.0000 0.0000 0.0000 0.0000 0.0000 0.0000 0.0000 0.0000 0.0000 0.0000 0.0000 0.0000 -71.1528 -2.0151 -2.8169 -46.8427 15.6341 -68.4881 -33.9010 70.3401 351.8699 64.9470 -15.1642 -24.0304 33.0269 0.0000 0.0000 4.0096 0.0000 0.0000 -0.1136 2.1758 -12.0209 59.9888 0.0000 0.0000 28.0382 0.0000 0.0000 18.5416 2.4308 -19.5825 87.9131 0.0000 0.0000 29.5467 0.0000 0.0000 21.6763 -0.1966 -20.1845 90.8907 0.0000 0.0000 27.7053 0.0000 0.0000 26.1718 -3.0637 -16.7500 83.3378 0.0000 0.0000 32.2531 0.0000 0.0000 0.0000 0.0000 0.0000 77.5629 -16.1364 20.0109 238.7834 84.3289 322.5363 328.5767 25.6659 -385.1607 -70.1791 -14.6911 12.1644 19.6606 0.0000 0.0000 38.2840 0.0000 0.0000 32.4682 -6.6862 70.0221 16.4798 0.0000 0.0000 36.4898 0.0000 0.0000 24.6647 -19.7505 81.8294 27.8713 0.0000 0.0000 19.9187 0.0000 0.0000 12.2622 -22.9149 81.9390 41.9448 0.0000 0.0000 26.7052 0.0000 0.0000 4.4210 -28.9339 76.6208 41.0116 0.0000 0.0000 36.3388 0.0000 0.0000 0.0000 0.0000 0.0000 0.0000 0.0000 0.0000 0.0000 0.0000 0.0000 0.0000 0.0000 0.0000 0.0000 0.0000 0.0000 0.0000 0.0000 0.0000
0.0000 95.0000 0.0000 0.0000 0.0000 0.0000 0.0000 0.0000 0.0000 0.0000 0.0000 0.0000 0.0000 0.0000 0.0000 0.0000 0.0000 0.0000 0.0000 0.0000 0.0000 0.0000 0.0000 0.0000 -71.4964 -2.0300 -2.8198 -42.7327 15.6005 -59.2651 39.4504 -26.8921 387.4592 105.2576 -1.7291 -63.7663 15.0279 0.0000 0.0000 14.5881 0.0000 0.0000 31.0846 55.3046 -98.9406 7.5411 0.0000 0.0000 9.1545 0.0000 0.0000 33.2106 47.5176 -116.5398 6.5995 0.0000 0.0000 8.5081 0.0000 0.0000 34.6840 31.9110 -127.6612 14.1797 0.0000 0.0000 2.3648 0.0000 0.0000 35.1140 0.0948 -142.2282 14.0894 0.0000 0.0000 20.7082 0.0000 0.0000 0.0000 0.0000 0.0000 77.4840 -14.7160 18.2857 352.1561 79.8075 428.4988 361.6653 28.6285 -362.3458 -69.4714 -15.4470 38.1420 45.8676 0.0000 0.0000 40.5793 0.0000 0.0000 47.2184 -10.2406 49.7981 36.4577 0.0000 0.0000 118.8082 0.0000 0.0000 37.7332 -16.3684 50.4210 45.4847 0.0000 0.0000 113.8937 0.0000 0.0000 25.9239 -18.8676 51.3187 69.4292 0.0000 0.0000 71.1567 0.0000 0.0000 15.2931 -20.8179 47.0933 76.1367 0.0000 0.0000 72.7601 0.0000 0.0000 0.0000 0.0000 0.0000 0.0000 0.0000 0.0000 0.0000 0.0000 0.0000 0.0000 0.0000 0.0000 0.0000 0.0000 0.0000 0.0000 0.0000 0.0000
0.0000 95.0000 0.0000 0.0000 0.0000 0.0000 0.0000 0.0000 0.0000 0.0000 0.0000 0.0000 0.0000 0.0000 0.0000 0.0000 0.0000 0.0000 0.0000 0.0000 0.0000 0.0000 0.0000 0.0000 -72.2172 -0.1482 -0.2032 -39.1753 14.1186 -45.5360 3.1852 53.8400 383.1883 38.4787 -11.9366 -10.2860 13.5804 0.0000 0.0000 5.0457 0.0000 0.0000 -10.8203 1.9041 -16.6020 92.9338 0.0000 0.0000 32.7015 0.0000 0.0000 0.3337 0.0482 -21.2016 100.2752 0.0000 0.0000 26.0115 0.0000 0.0000 7.5608 -2.1101 -22.7970 100.4748 0.0000 0.0000 25.3689 0.0000 0.0000 20.4838 -4.7413 -27.0652 88.0084 0.0000 0.0000 27.0989 0.0000 0.0000 0.0000 0.0000 0.0000 77.9504 -12.4508 15.3573 369.7111 60.1462 432.0224 400.6799 38.1038 -347.1364 -47.1819 -16.3943 26.7822 29.7883 0.0000 0.0000 20.1845 0.0000 0.0000 29.2685 -0.5967 24.7179 51.9958 0.0000 0.0000 123.9454 0.0000 0.0000 17.1534 -3.3923 26.9882 119.9862 0.0000 0.0000 51.8736 0.0000 0.0000 7.6598 -5.7509 29.2725 132.2320 0.0000 0.0000 32.8441 0.0000 0.0000 -4.2933 -7.6410 27.4196 134.4122 0.0000 0.0000 32.2496 0.0000 0.0000 0.0000 0.0000 0.0000 0.0000 0.0000 0.0000 0.0000 0.0000 0.0000 0.0000 0.0000 0.0000 0.0000 0.0000 0.0000 0.0000 0.0000 0.0000
0.0000 95.0000 0.0000 0.0000 0.0000 0.0000 0.0000 0.0000 0.0000 0.0000 0.0000 0.0000 0.0000 0.0000 0.0000 0.0000 0.0000 0.0000 0.0000 0.0000 0.0000 0.0000 0.0000 0.0000 -72.6983 1.7539 2.3831 -34.5847 12.4463 -32.7957 8.2063 56.4954 381.2466 34.5104 -9.0782 -3.1624 7.2500 0.0000 0.0000 3.4866 0.0000 0.0000 -11.1552 1.5998 -13.3436 94.4654 0.0000 0.0000 36.9074 0.0000 0.0000 -1.0065 -0.1034 -16.5011 104.9098 0.0000 0.0000 29.8025 0.0000 0.0000 6.0271 -1.9211 -18.1338 103.8717 0.0000 0.0000 29.0309 0.0000 0.0000 16.5760 -4.3699 -20.4233 91.7558 0.0000 0.0000 35.3870 0.0000 0.0000 0.0000 0.0000 0.0000 79.0919 -8.9978 10.8869 376.2414 39.7740 419.1634 410.2182 64.8511 -337.1494 -50.7287 -14.8285 19.6876 27.5571 0.0000 0.0000 10.2021 0.0000 0.0000 19.4021 1.0424 17.5058 115.4240 0.0000 0.0000 57.1322 0.0000 0.0000 4.1989 -0.5930 20.8424 126.1345 0.0000 0.0000 43.3070 0.0000 0.0000 -6.8346 -2.3099 23.9478 124.9884 0.0000 0.0000 39.3035 0.0000 0.0000 -20.2024 -4.3662 23.6489 120.8144 0.0000 0.0000 43.4575 0.0000 0.0000 0.0000 0.0000 0.0000 0.0000 0.0000 0.0000 0.0000 0.0000 0.0000 0.0000 0.0000 0.0000 0.0000 0.0000 0.0000 0.0000 0.0000 0.0000
0.0000 95.0000 0.0000 0.0000 0.0000 0.0000 0.0000 0.0000 0.0000 0.0000 0.0000 0.0000 0.0000 0.0000 0.0000 0.0000 0.0000 0.0000 0.0000 0.0000 0.0000 0.0000 0.0000 0.0000 -73.5859 4.1635 5.5650 -27.0093 11.1761 -21.8829 9.5246 63.5942 382.5463 37.5882 -8.1498 1.2164 5.0676 0.0000 0.0000 7.0869 0.0000 0.0000 -8.2240 2.2300 -17.1575 100.8295 0.0000 0.0000 39.0406 0.0000 0.0000 0.2801 0.0333 -18.3174 98.0252 0.0000 0.0000 32.5307 0.0000 0.0000 7.6089 -1.8081 -18.8312 87.5494 0.0000 0.0000 37.4335 0.0000 0.0000 16.1087 -3.5411 -14.8670 74.4199 0.0000 0.0000 51.4724 0.0000 0.0000 0.0000 0.0000 0.0000 80.4394 -6.1552 7.2759 376.6258 24.6218 399.4341 506.2019 71.6106 -240.9786 -51.7231 -11.6258 2.3952 13.4441 0.0000 0.0000 2.1090 0.0000 0.0000 -9.0770 2.5921 11.3726 133.1360 0.0000 0.0000 29.6056 0.0000 0.0000 -25.9196 2.4697 15.4742 121.7259 0.0000 0.0000 38.5453 0.0000 0.0000 -33.8210 0.4730 14.9866 119.3231 0.0000 0.0000 37.6345 0.0000 0.0000 -44.6828 -1.8587 14.5456 113.2420 0.0000 0.0000 40.3782 0.0000 0.0000 0.0000 0.0000 0.0000 0.0000 0.0000 0.0000 0.0000 0.0000 0.0000 0.0000 0.0000 0.0000 0.0000 0.0000 0.0000 0.0000 0.0000 0.0000
0.0000 95.0000 0.0000 0.0000 0.0000 0.0000 0.0000 0.0000 0.0000 0.0000 0.0000 0.0000 0.0000 0.0000 0.0000 0.0000 0.0000 0.0000 0.0000 0.0000 0.0000 0.0000 0.0000 0.0000 -74.3268 6.0843 8.0209 -20.3997 8.8189 -13.4376 18.7604 80.8745 386.0080 40.0527 -7.8979 3.6758 2.6522 0.0000 0.0000 15.5036 0.0000 0.0000 -3.9779 2.1070 -13.2034 76.7271 0.0000 0.0000 50.6383 0.0000 0.0000 4.5275 0.4281 -15.5688 72.8894 0.0000 0.0000 31.2501 0.0000 0.0000 12.1719 -1.2333 -16.6464 63.6348 0.0000 0.0000 38.1639 0.0000 0.0000 19.7020 -3.0730 -12.8814 50.0554 0.0000 0.0000 44.9581 0.0000 0.0000 0.0000 0.0000 0.0000 81.6875 -4.2071 4.8657 374.0942 15.9453 384.5787 537.8440 52.0537 -201.1978 -52.6606 -11.0484 -1.5783 11.3646 0.0000 0.0000 2.3720 0.0000 0.0000 -6.9096 0.9101 5.0192 116.3739 0.0000 0.0000 56.9891 0.0000 0.0000 -21.9126 0.5757 7.7449 100.2086 0.0000 0.0000 78.5863 0.0000 0.0000 -30.0121 -0.8083 6.9790 94.0552 0.0000 0.0000 75.9949 0.0000 0.0000 -39.5767 -2.5709 5.8551 82.1609 0.0000 0.0000 85.4115 0.0000 0.0000 0.0000 0.0000 0.0000 0.0000 0.0000 0.0000 0.0000 0.0000 0.0000 0.0000 0.0000 0.0000 0.0000 0.0000 0.0000 0.0000 0.0000 0.0000
0.0000 95.0000 0.0000 0.0000 0.0000 0.0000 0.0000 0.0000 0.0000 0.0000 0.0000 0.0000 0.0000 0.0000 0.0000 0.0000 0.0000 0.0000 0.0000 0.0000 0.0000 0.0000 0.0000 0.0000 -75.1804 6.9134 8.9730 -15.2952 6.4454 -8.1549 -1.4245 86.5991 361.0317 40.0527 -7.8979 3.6758 2.6522 0.0000 0.0000 15.5036 0.0000 0.0000 -3.9779 2.1070 -13.2034 76.7271 0.0000 0.0000 50.6383 0.0000 0.0000 4.5275 0.4281 -15.5688 72.8894 0.0000 0.0000 31.2501 0.0000 0.0000 12.1719 -1.2333 -16.6464 63.6348 0.0000 0.0000 38.1639 0.0000 0.0000 19.7020 -3.0730 -12.8814 50.0554 0.0000 0.0000 44.9581 0.0000 0.0000 0.0000 0.0000 0.0000 83.2655 -2.6976 3.0348 370.9772 9.7665 373.9045 543.0797 21.0394 -193.9418 -51.8218 -9.1864 -10.2786 7.6878 0.0000 0.0000 5.4064 0.0000 0.0000 6.2966 -0.2871 -4.5391 3.8191 0.0000 0.0000 2.5244 0.0000 0.0000 -4.0104 -0.2480 -2.3015 2.9957 0.0000 0.0000 0.7850 0.0000 0.0000 -11.6178 -0.5162 -3.4262 3.6121 0.0000 0.0000 0.4128 0.0000 0.0000 -19.2298 -0.8890 -4.0501 5.0276 0.0000 0.0000 1.3795 0.0000 0.0000 0.0000 0.0000 0.0000 0.0000 0.0000 0.0000 0.0000 0.0000 0.0000 0.0000 0.0000 0.0000 0.0000 0.0000 0.0000 0.0000 0.0000 0.0000
0.0000 95.0000 0.0000 0.0000 0.0000 0.0000 0.0000 0.0000 0.0000 0.0000 0.0000 0.0000 0.0000 0.0000 0.0000 0.0000 0.0000 0.0000 0.0000 0.0000 0.0000 0.0000 0.0000 0.0000 -75.4559 7.5329 9.7272 -12.7005 4.5265 -4.7738 -92.1098 88.0699 267.0130 40.0527 -7.8979 3.6758 2.6522 0.0000 0.0000 15.5036 0.0000 0.0000 -3.9779 2.1070 -13.2034 76.7271 0.0000 0.0000 50.6383 0.0000 0.0000 4.5275 0.4281 -15.5688 72.8894 0.0000 0.0000 31.2501 0.0000 0.0000 12.1719 -1.2333 -16.6464 63.6348 0.0000 0.0000 38.1639 0.0000 0.0000 19.7020 -3.0730 -12.8814 50.0554 0.0000 0.0000 44.9581 0.0000 0.0000 0.0000 0.0000 0.0000 84.2273 -1.7434 1.9284 368.1595 7.0138 369.2321 542.7654 16.0981 -189.1880 -51.8218 -9.1864 -10.2786 7.6878 0.0000 0.0000 5.4064 0.0000 0.0000 6.2966 -0.2871 -4.5391 3.8191 0.0000 0.0000 2.5244 0.0000 0.0000 -4.0104 -0.2480 -2.3015 2.9957 0.0000 0.0000 0.7850 0.0000 0.0000 -11.6178 -0.5162 -3.4262 3.6121 0.0000 0.0000 0.4128 0.0000 0.0000 -19.2298 -0.8890 -4.0501 5.0276 0.0000 0.0000 1.3795 0.0000 0.0000 0.0000 0.0000 0.0000 0.0000 0.0000 0.0000 0.0000 0.0000 0.0000 0.0000 0.0000 0.0000 0.0000 0.0000 0.0000 0.0000 0.0000 0.0000
0.0000 95.0000 0.0000 0.0000 0.0000 0.0000 0.0000 0.0000 0.0000 0.0000 0.0000 0.0000 0.0000 0.0000 0.0000 0.0000 0.0000 0.0000 0.0000 0.0000 0.0000 0.0000 0.0000 0.0000 -75.6043 8.0884 10.4153 -10.9069 1.3147 0.2783 -144.2223 84.0520 210.1203 40.0527 -7.8979 3.6758 2.6522 0.0000 0.0000 15.5036 0.0000 0.0000 -3.9779 2.1070 -13.2034 76.7271 0.0000 0.0000 50.6383 0.0000 0.0000 4.5275 0.4281 -15.5688 72.8894 0.0000 0.0000 31.2501 0.0000 0.0000 12.1719 -1.2333 -16.6464 63.6348 0.0000 0.0000 38.1639 0.0000 0.0000 19.7020 -3.0730 -12.8814 50.0554 0.0000 0.0000 44.9581 0.0000 0.0000 0.0000 0.0000 0.0000 85.2294 -0.6926 0.7528 365.3497 5.4828 366.6151 541.5793 12.7746 -186.1695 -51.8218 -9.1864 -10.2786 7.6878 0.0000 0.0000 5.4064 0.0000 0.0000 6.2966 -0.2871 -4.5391 3.8191 0.0000 0.0000 2.5244 0.0000 0.0000 -4.0104 -0.2480 -2.3015 2.9957 0.0000 0.0000 0.7850 0.0000 0.0000 -11.6178 -0.5162 -3.4262 3.6121 0.0000 0.0000 0.4128 0.0000 0.0000 -19.2298 -0.8890 -4.0501 5.0276 0.0000 0.0000 1.3795 0.0000 0.0000 0.0000 0.0000 0.0000 0.0000 0.0000 0.0000 0.0000 0.0000 0.0000 0.0000 0.0000 0.0000 0.0000 0.0000 0.0000 0.0000 0.0000 0.0000
0.0000 95.0000 0.0000 0.0000 0.0000 0.0000 0.0000 0.0000 0.0000 0.0000 0.0000 0.0000 0.0000 0.0000 0.0000 0.0000 0.0000 0.0000 0.0000 0.0000 0.0000 0.0000 0.0000 0.0000 -76.1022 8.3601 10.6689 -9.1786 -0.0720 2.0584 -143.5617 81.8278 208.9796 40.0527 -7.8979 3.6758 2.6522 0.0000 0.0000 15.5036 0.0000 0.0000 -3.9779 2.1070 -13.2034 76.7271 0.0000 0.0000 50.6383 0.0000 0.0000 4.5275 0.4281 -15.5688 72.8894 0.0000 0.0000 31.2501 0.0000 0.0000 12.1719 -1.2333 -16.6464 63.6348 0.0000 0.0000 38.1639 0.0000 0.0000 19.7020 -3.0730 -12.8814 50.0554 0.0000 0.0000 44.9581 0.0000 0.0000 0.0000 0.0000 0.0000 86.0156 -0.1570 0.1683 362.8717 5.8702 366.6243 539.8666 12.3178 -186.0640 -51.8218 -9.1864 -10.2786 7.6878 0.0000 0.0000 5.4064 0.0000 0.0000 6.2966 -0.2871 -4.5391 3.8191 0.0000 0.0000 2.5244 0.0000 0.0000 -4.0104 -0.2480 -2.3015 2.9957 0.0000 0.0000 0.7850 0.0000 0.0000 -11.6178 -0.5162 -3.4262 3.6121 0.0000 0.0000 0.4128 0.0000 0.0000 -19.2298 -0.8890 -4.0501 5.0276 0.0000 0.0000 1.3795 0.0000 0.0000 0.0000 0.0000 0.0000 0.0000 0.0000 0.0000 0.0000 0.0000 0.0000 0.0000 0.0000 0.0000 0.0000 0.0000 0.0000 0.0000 0.0000 0.0000
0.0000 95.0000 0.0000 0.0000 0.0000 0.0000 0.0000 0.0000 0.0000 0.0000 0.0000 0.0000 0.0000 0.0000 0.0000 0.0000 0.0000 0.0000 0.0000 0.0000 0.0000 0.0000 0.0000 0.0000 -76.8982 8.5949 10.8131 -7.5690 -0.2736 1.9791 -139.9316 81.1825 212.4245 40.0527 -7.8979 3.6758 2.6522 0.0000 0.0000 15.5036 0.0000 0.0000 -3.9779 2.1070 -13.2034 76.7271 0.0000 0.0000 50.6383 0.0000 0.0000 4.5275 0.4281 -15.5688 72.8894 0.0000 0.0000 31.2501 0.0000 0.0000 12.1719 -1.2333 -16.6464 63.6348 0.0000 0.0000 38.1639 0.0000 0.0000 19.7020 -3.0730 -12.8814 50.0554 0.0000 0.0000 44.9581 0.0000 0.0000 0.0000 0.0000 0.0000 87.2557 0.0358 -0.0375 359.6482 5.8926 366.1439 537.9187 11.7955 -185.9205 -51.8218 -9.1864 -10.2786 7.6878 0.0000 0.0000 5.4064 0.0000 0.0000 6.2966 -0.2871 -4.5391 3.8191 0.0000 0.0000 2.5244 0.0000 0.0000 -4.0104 -0.2480 -2.3015 2.9957 0.0000 0.0000 0.7850 0.0000 0.0000 -11.6178 -0.5162 -3.4262 3.6121 0.0000 0.0000 0.4128 0.0000 0.0000 -19.2298 -0.8890 -4.0501 5.0276 0.0000 0.0000 1.3795 0.0000 0.0000 0.0000 0.0000 0.0000 0.0000 0.0000 0.0000 0.0000 0.0000 0.0000 0.0000 0.0000 0.0000 0.0000 0.0000 0.0000 0.0000 0.0000 0.0000
0.0000 95.0000 0.0000 0.0000 0.0000 0.0000 0.0000 0.0000 0.0000 0.0000 0.0000 0.0000 0.0000 0.0000 0.0000 0.0000 0.0000 0.0000 0.0000 0.0000 0.0000 0.0000 0.0000 0.0000 -76.8503 9.1794 11.5565 -7.0958 -1.8844 4.2234 -144.7896 78.7357 204.9613 40.0527 -7.8979 3.6758 2.6522 0.0000 0.0000 15.5036 0.0000 0.0000 -3.9779 2.1070 -13.2034 76.7271 0.0000 0.0000 50.6383 0.0000 0.0000 4.5275 0.4281 -15.5688 72.8894 0.0000 0.0000 31.2501 0.0000 0.0000 12.1719 -1.2333 -16.6464 63.6348 0.0000 0.0000 38.1639 0.0000 0.0000 19.7020 -3.0730 -12.8814 50.0554 0.0000 0.0000 44.9581 0.0000 0.0000 0.0000 0.0000 0.0000 87.5481 0.5738 -0.5989 358.3488 6.0622 366.1674 536.9342 11.3098 -185.5989 -51.8218 -9.1864 -10.2786 7.6878 0.0000 0.0000 5.4064 0.0000 0.0000 6.2966 -0.2871 -4.5391 3.8191 0.0000 0.0000 2.5244 0.0000 0.0000 -4.0104 -0.2480 -2.3015 2.9957 0.0000 0.0000 0.7850 0.0000 0.0000 -11.6178 -0.5162 -3.4262 3.6121 0.0000 0.0000 0.4128 0.0000 0.0000 -19.2298 -0.8890 -4.0501 5.0276 0.0000 0.0000 1.3795 0.0000 0.0000 0.0000 0.0000 0.0000 0.0000 0.0000 0.0000 0.0000 0.0000 0.0000 0.0000 0.0000 0.0000 0.0000 0.0000 0.0000 0.0000 0.0000 0.0000
0.0000 95.0000 0.0000 0.0000 0.0000 0.0000 0.0000 0.0000 0.0000 0.0000 0.0000 0.0000 0.0000 0.0000 0.0000 0.0000 0.0000 0.0000 0.0000 0.0000 0.0000 0.0000 0.0000 0.0000 -76.9018 9.6011 12.0750 -7.2022 -2.0201 4.5059 -147.1612 78.2606 201.8945 40.0527 -7.8979 3.6758 2.6522 0.0000 0.0000 15.5036 0.0000 0.0000 -3.9779 2.1070 -13.2034 76.7271 0.0000 0.0000 50.6383 0.0000 0.0000 4.5275 0.4281 -15.5688 72.8894 0.0000 0.0000 31.2501 0.0000 0.0000 12.1719 -1.2333 -16.6464 63.6348 0.0000 0.0000 38.1639 0.0000 0.0000 19.7020 -3.0730 -12.8814 50.0554 0.0000 0.0000 44.9581 0.0000 0.0000 0.0000 0.0000 0.0000 87.7315 0.4482 -0.4663 357.4734 6.3702 366.3643 536.1647 11.6364 -186.1140 -51.8218 -9.1864 -10.2786 7.6878 0.0000 0.0000 5.4064 0.0000 0.0000 6.2966 -0.2871 -4.5391 3.8191 0.0000 0.0000 2.5244 0.0000 0.0000 -4.0104 -0.2480 -2.3015 2.9957 0.0000 0.0000 0.7850 0.0000 0.0000 -11.6178 -0.5162 -3.4262 3.6121 0.0000 0.0000 0.4128 0.0000 0.0000 -19.2298 -0.8890 -4.0501 5.0276 0.0000 0.0000 1.3795 0.0000 0.0000 0.0000 0.0000 0.0000 0.0000 0.0000 0.0000 0.0000 0.0000 0.0000 0.0000 0.0000 0.0000 0.0000 0.0000 0.0000 0.0000 0.0000 0.0000
0.0000 95.0000 0.0000 0.0000 0.0000 0.0000 0.0000 0.0000 0.0000 0.0000 0.0000 0.0000 0.0000 0.0000 0.0000 0.0000 0.0000 0.0000 0.0000 0.0000 0.0000 0.0000 0.0000 0.0000 -77.3501 9.5648 11.9339 -6.6010 -1.5214 3.5988 -144.8957 78.9018 204.9897 40.0527 -7.8979 3.6758 2.6522 0.0000 0.0000 15.5036 0.0000 0.0000 -3.9779 2.1070 -13.2034 76.7271 0.0000 0.0000 50.6383 0.0000 0.0000 4.5275 0.4281 -15.5688 72.8894 0.0000 0.0000 31.2501 0.0000 0.0000 12.1719 -1.2333 -16.6464 63.6348 0.0000 0.0000 38.1639 0.0000 0.0000 19.7020 -3.0730 -12.8814 50.0554 0.0000 0.0000 44.9581 0.0000 0.0000 0.0000 0.0000 0.0000 87.9740 0.7486 -0.7755 356.7803 6.5687 366.4801 535.7088 11.4721 -186.0283 -51.8218 -9.1864 -10.2786 7.6878 0.0000 0.0000 5.4064 0.0000 0.0000 6.2966 -0.2871 -4.5391 3.8191 0.0000 0.0000 2.5244 0.0000 0.0000 -4.0104 -0.2480 -2.3015 2.9957 0.0000 0.0000 0.7850 0.0000 0.0000 -11.6178 -0.5162 -3.4262 3.6121 0.0000 0.0000 0.4128 0.0000 0.0000 -19.2298 -0.8890 -4.0501 5.0276 0.0000 0.0000 1.3795 0.0000 0.0000 0.0000 0.0000 0.0000 0.0000 0.0000 0.0000 0.0000 0.0000 0.0000 0.0000 0.0000 0.0000 0.0000 0.0000 0.0000 0.0000 0.0000 0.0000
0.0000 95.0000 0.0000 0.0000 0.0000 0.0000 0.0000 0.0000 0.0000 0.0000 0.0000 0.0000 0.0000 0.0000 0.0000 0.0000 0.0000 0.0000 0.0000 0.0000 0.0000 0.0000 0.0000 0.0000 -77.3247 9.2617 11.5619 -6.4883 -1.7411 3.8264 -143.7113 78.8838 206.2949 40.0527 -7.8979 3.6758 2.6522 0.0000 0.0000 15.5036 0.0000 0.0000 -3.9779 2.1070 -13.2034 76.7271 0.0000 0.0000 50.6383 0.0000 0.0000 4.5275 0.4281 -15.5688 72.8894 0.0000 0.0000 31.2501 0.0000 0.0000 12.1719 -1.2333 -16.6464 63.6348 0.0000 0.0000 38.1639 0.0000 0.0000 19.7020 -3.0730 -12.8814 50.0554 0.0000 0.0000 44.9581 0.0000 0.0000 0.0000 0.0000 0.0000 88.3740 0.4246 -0.4368 356.1381 6.4154 366.2011 535.4713 11.5703 -186.1874 -51.8218 -9.1864 -10.2786 7.6878 0.0000 0.0000 5.4064 0.0000 0.0000 6.2966 -0.2871 -4.5391 3.8191 0.0000 0.0000 2.5244 0.0000 0.0000 -4.0104 -0.2480 -2.3015 2.9957 0.0000 0.0000 0.7850 0.0000 0.0000 -11.6178 -0.5162 -3.4262 3.6121 0.0000 0.0000 0.4128 0.0000 0.0000 -19.2298 -0.8890 -4.0501 5.0276 0.0000 0.0000 1.3795 0.0000 0.0000 0.0000 0.0000 0.0000 0.0000 0.0000 0.0000 0.0000 0.0000 0.0000 0.0000 0.0000 0.0000 0.0000 0.0000 0.0000 0.0000 0.0000 0.0000
0.0000 95.0000 0.0000 0.0000 0.0000 0.0000 0.0000 0.0000 0.0000 0.0000 0.0000 0.0000 0.0000 0.0000 0.0000 0.0000 0.0000 0.0000 0.0000 0.0000 0.0000 0.0000 0.0000 0.0000 -77.2788 9.3556 11.6883 -6.6667 -1.7172 3.8610 -144.6516 78.8651 205.2293 40.0527 -7.8979 3.6758 2.6522 0.0000 0.0000 15.5036 0.0000 0.0000 -3.9779 2.1070 -13.2034 76.7271 0.0000 0.0000 50.6383 0.0000 0.0000 4.5275 0.4281 -15.5688 72.8894 0.0000 0.0000 31.2501 0.0000 0.0000 12.1719 -1.2333 -16.6464 63.6348 0.0000 0.0000 38.1639 0.0000 0.0000 19.7020 -3.0730 -12.8814 50.0554 0.0000 0.0000 44.9581 0.0000 0.0000 0.0000 0.0000 0.0000 88.3227 0.1739 -0.1791 356.5450 6.6670 366.4753 535.7439 12.0751 -186.6887 -51.8218 -9.1864 -10.2786 7.6878 0.0000 0.0000 5.4064 0.0000 0.0000 6.2966 -0.2871 -4.5391 3.8191 0.0000 0.0000 2.5244 0.0000 0.0000 -4.0104 -0.2480 -2.3015 2.9957 0.0000 0.0000 0.7850 0.0000 0.0000 -11.6178 -0.5162 -3.4262 3.6121 0.0000 0.0000 0.4128 0.0000 0.0000 -19.2298 -0.8890 -4.0501 5.0276 0.0000 0.0000 1.3795 0.0000 0.0000 0.0000 0.0000 0.0000 0.0000 0.0000 0.0000 0.0000 0.0000 0.0000 0.0000 0.0000 0.0000 0.0000 0.0000 0.0000 0.0000 0.0000 0.0000
0.0000 95.0000 0.0000 0.0000 0.0000 0.0000 0.0000 0.0000 0.0000 0.0000 0.0000 0.0000 0.0000 0.0000 0.0000 0.0000 0.0000 0.0000 0.0000 0.0000 0.0000 0.0000 0.0000 0.0000 -77.2480 9.9119 12.3883 -6.3892 -2.3063 4.6640 -146.2964 77.5979 202.2560 40.0527 -7.8979 3.6758 2.6522 0.0000 0.0000 15.5036 0.0000 0.0000 -3.9779 2.1070 -13.2034 76.7271 0.0000 0.0000 50.6383 0.0000 0.0000 4.5275 0.4281 -15.5688 72.8894 0.0000 0.0000 31.2501 0.0000 0.0000 12.1719 -1.2333 -16.6464 63.6348 0.0000 0.0000 38.1639 0.0000 0.0000 19.7020 -3.0730 -12.8814 50.0554 0.0000 0.0000 44.9581 0.0000 0.0000 0.0000 0.0000 0.0000 88.3892 0.3221 -0.3313 356.8269 6.3269 366.1767 536.1862 11.6527 -186.1274 -51.8218 -9.1864 -10.2786 7.6878 0.0000 0.0000 5.4064 0.0000 0.0000 6.2966 -0.2871 -4.5391 3.8191 0.0000 0.0000 2.5244 0.0000 0.0000 -4.0104 -0.2480 -2.3015 2.9957 0.0000 0.0000 0.7850 0.0000 0.0000 -11.6178 -0.5162 -3.4262 3.6121 0.0000 0.0000 0.4128 0.0000 0.0000 -19.2298 -0.8890 -4.0501 5.0276 0.0000 0.0000 1.3795 0.0000 0.0000 0.0000 0.0000 0.0000 0.0000 0.0000 0.0000 0.0000 0.0000 0.0000 0.0000 0.0000 0.0000 0.0000 0.0000 0.0000 0.0000 0.0000 0.0000
