HIERARCHY
ROOT Hips
{
  OFFSET 0.000000 95.000000 0.000000
  CHANNELS 6 Xposition Yposition Zposition Zrotation Xrotation Yrotation
  JOINT Spine
  {
    OFFSET 0.000000 10.000000 0.000000
    CHANNELS 3 Zrotation Xrotation Yrotation
    JOINT Spine1
    {
      OFFSET 0.000000 12.000000 0.000000
      CHANNELS 3 Zrotation Xrotation Yrotation
      JOINT Spine2
      {
        OFFSET 0.000000 12.000000 0.000000
        CHANNELS 3 Zrotation Xrotation Yrotation
        JOINT Neck
        {
          OFFSET 0.000000 10.000000 0.000000
          CHANNELS 3 Zrotation Xrotation Yrotation
          JOINT Head
          {
            OFFSET 0.000000 8.000000 0.000000
            CHANNELS 3 Zrotation Xrotation Yrotation
            End Site
            {
              OFFSET 0.000000 10.000000 0.000000
            }
          }
        }
        JOINT LeftShoulder
        {
          OFFSET 6.000000 8.000000 0.000000
          CHANNELS 3 Zrotation Xrotation Yrotation
          JOINT LeftArm
          {
            OFFSET 12.000000 0.000000 0.000000
            CHANNELS 3 Zrotation Xrotation Yrotation
            JOINT LeftForeArm
            {
              OFFSET 24.000000 0.000000 0.000000
              CHANNELS 3 Zrotation Xrotation Yrotation
              JOINT LeftHand
              {
                OFFSET 22.000000 0.000000 0.000000
                CHANNELS 3 Zrotation Xrotation Yrotation
                JOINT LeftHandThumb1
                {
                  OFFSET 1.800000 -1.400000 0.500000
                  CHANNELS 3 Zrotation Xrotation Yrotation
                  JOINT LeftHandThumb2
                  {
                    OFFSET 2.400000 0.000000 0.000000
                    CHANNELS 3 Zrotation Xrotation Yrotation
                    JOINT LeftHandThumb3
                    {
                      OFFSET 1.900000 0.000000 0.000000
                      CHANNELS 3 Zrotation Xrotation Yrotation
                      End Site
                      {
                        OFFSET 1.600000 0.000000 0.000000
                      }
                    }
                  }
                }
                JOINT LeftHandIndex1
                {
                  OFFSET 6.600000 1.200000 0.300000
                  CHANNELS 3 Zrotation Xrotation Yrotation
                  JOINT LeftHandIndex2
                  {
                    OFFSET 2.000000 0.000000 0.000000
                    CHANNELS 3 Zrotation Xrotation Yrotation
                    JOINT LeftHandIndex3
                    {
                      OFFSET 1.200000 0.000000 0.000000
                      CHANNELS 3 Zrotation Xrotation Yrotation
                      End Site
                      {
                        OFFSET 1.000000 0.000000 0.000000
                      }
                    }
                  }
                }
                JOINT LeftHandMiddle1
                {
                  OFFSET 7.200000 0.000000 0.300000
                  CHANNELS 3 Zrotation Xrotation Yrotation
                  JOINT LeftHandMiddle2
                  {
                    OFFSET 3.000000 0.000000 0.000000
                    CHANNELS 3 Zrotation Xrotation Yrotation
                    JOINT LeftHandMiddle3
                    {
                      OFFSET 2.000000 0.000000 0.000000
                      CHANNELS 3 Zrotation Xrotation Yrotation
                      End Site
                      {
                        OFFSET 1.600000 0.000000 0.000000
                      }
                    }
                  }
                }
                JOINT LeftHandRing1
                {
                  OFFSET 7.100000 -1.000000 0.400000
                  CHANNELS 3 Zrotation Xrotation Yrotation
                  JOINT LeftHandRing2
                  {
                    OFFSET 2.600000 0.000000 0.000000
                    CHANNELS 3 Zrotation Xrotation Yrotation
                    JOINT LeftHandRing3
                    {
                      OFFSET 1.600000 0.000000 0.000000
                      CHANNELS 3 Zrotation Xrotation Yrotation
                      End Site
                      {
                        OFFSET 1.300000 0.000000 0.000000
                      }
                    }
                  }
                }
                JOINT LeftHandPinky1
                {
                  OFFSET 6.500000 -2.000000 0.500000
                  CHANNELS 3 Zrotation Xrotation Yrotation
                  JOINT LeftHandPinky2
                  {
                    OFFSET 1.900000 0.000000 0.000000
                    CHANNELS 3 Zrotation Xrotation Yrotation
                    JOINT LeftHandPinky3
                    {
                      OFFSET 1.400000 0.000000 0.000000
                      CHANNELS 3 Zrotation Xrotation Yrotation
                      End Site
                      {
                        OFFSET 1.300000 0.000000 0.000000
                      }
                    }
                  }
                }
              }
            }
          }
        }
        JOINT RightShoulder
        {
          OFFSET -6.000000 8.000000 0.000000
          CHANNELS 3 Zrotation Xrotation Yrotation
          JOINT RightArm
          {
            OFFSET -12.000000 0.000000 0.000000
            CHANNELS 3 Zrotation Xrotation Yrotation
            JOINT RightForeArm
            {
              OFFSET -24.000000 0.000000 0.000000
              CHANNELS 3 Zrotation Xrotation Yrotation
              JOINT RightHand
              {
                OFFSET -22.000000 0.000000 0.000000
                CHANNELS 3 Zrotation Xrotation Yrotation
                JOINT RightHandThumb1
                {
                  OFFSET -1.800000 -1.400000 0.500000
                  CHANNELS 3 Zrotation Xrotation Yrotation
                  JOINT RightHandThumb2
                  {
                    OFFSET -2.400000 0.000000 0.000000
                    CHANNELS 3 Zrotation Xrotation Yrotation
                    JOINT RightHandThumb3
                    {
                      OFFSET -1.900000 0.000000 0.000000
                      CHANNELS 3 Zrotation Xrotation Yrotation
                      End Site
                      {
                        OFFSET -1.600000 0.000000 0.000000
                      }
                    }
                  }
                }
                JOINT RightHandIndex1
                {
                  OFFSET -6.600000 1.200000 0.300000
                  CHANNELS 3 Zrotation Xrotation Yrotation
                  JOINT RightHandIndex2
                  {
                    OFFSET -2.000000 0.000000 0.000000
                    CHANNELS 3 Zrotation Xrotation Yrotation
                    JOINT RightHandIndex3
                    {
                      OFFSET -1.200000 0.000000 0.000000
                      CHANNELS 3 Zrotation Xrotation Yrotation
                      End Site
                      {
                        OFFSET -1.000000 0.000000 0.000000
                      }
                    }
                  }
                }
                JOINT RightHandMiddle1
                {
                  OFFSET -7.200000 0.000000 0.300000
                  CHANNELS 3 Zrotation Xrotation Yrotation
                  JOINT RightHandMiddle2
                  {
                    OFFSET -3.000000 0.000000 0.000000
                    CHANNELS 3 Zrotation Xrotation Yrotation
                    JOINT RightHandMiddle3
                    {
                      OFFSET -2.000000 0.000000 0.000000
                      CHANNELS 3 Zrotation Xrotation Yrotation
                      End Site
                      {
                        OFFSET -1.600000 0.000000 0.000000
                      }
                    }
                  }
                }
                JOINT RightHandRing1
                {
                  OFFSET -7.100000 -1.000000 0.400000
                  CHANNELS 3 Zrotation Xrotation Yrotation
                  JOINT RightHandRing2
                  {
                    OFFSET -2.600000 0.000000 0.000000
                    CHANNELS 3 Zrotation Xrotation Yrotation
                    JOINT RightHandRing3
                    {
                      OFFSET -1.600000 0.000000 0.000000
                      CHANNELS 3 Zrotation Xrotation Yrotation
                      End Site
                      {
                        OFFSET -1.300000 0.000000 0.000000
                      }
                    }
                  }
                }
                JOINT RightHandPinky1
                {
                  OFFSET -6.500000 -2.000000 0.500000
                  CHANNELS 3 Zrotation Xrotation Yrotation
                  JOINT RightHandPinky2
                  {
                    OFFSET -1.900000 0.000000 0.000000
                    CHANNELS 3 Zrotation Xrotation Yrotation
                    JOINT RightHandPinky3
                    {
                      OFFSET -1.400000 0.000000 0.000000
                      CHANNELS 3 Zrotation Xrotation Yrotation
                      End Site
                      {
                        OFFSET -1.300000 0.000000 0.000000
                      }
                    }
                  }
                }
              }
            }
          }
        }
      }
    }
  }
  JOINT LeftUpLeg
  {
    OFFSET 10.000000 -5.000000 0.000000
    CHANNELS 3 Zrotation Xrotation Yrotation
    JOINT LeftLeg
    {
      OFFSET 0.000000 -42.000000 0.000000
      CHANNELS 3 Zrotation Xrotation Yrotation
      JOINT LeftFoot
      {
        OFFSET 0.000000 -42.000000 4.000000
        CHANNELS 3 Zrotation Xrotation Yrotation
        End Site
        {
          OFFSET 0.000000 0.000000 12.000000
        }
      }
    }
  }
  JOINT RightUpLeg
  {
    OFFSET -10.000000 -5.000000 0.000000
    CHANNELS 3 Zrotation Xrotation Yrotation
    JOINT RightLeg
    {
      OFFSET 0.000000 -42.000000 0.000000
      CHANNELS 3 Zrotation Xrotation Yrotation
      JOINT RightFoot
      {
        OFFSET 0.000000 -42.000000 4.000000
        CHANNELS 3 Zrotation Xrotation Yrotation
        End Site
        {
          OFFSET 0.000000 0.000000 12.000000
        }
      }
    }
  }
}
MOTION
Frames: 60
Frame Time: 0.033333
0.0000 95.0000 0.0000 0.0000 0.0000 0.0000 0.0000 0.0000 0.0000 0.0000 0.0000 0.0000 0.0000 0.0000 0.0000 0.0000 0.0000 0.0000 0.0000 0.0000 0.0000 0.0000 0.0000 0.0000 -79.4270 10.7213 12.8909 -8.3892 5.6171 -5.6786 -170.1419 19.1978 172.7088 51.3785 -10.3460 3.8875 12.1749 0.0000 0.0000 1.8904 0.0000 0.0000 -2.9754 0.3501 -1.3901 11.4096 0.0000 0.0000 6.6156 0.0000 0.0000 8.3736 -0.1111 -3.2548 16.1127 0.0000 0.0000 8.3935 0.0000 0.0000 14.2599 -0.8326 -2.5882 19.8847 0.0000 0.0000 10.5777 0.0000 0.0000 19.6151 -1.5412 -0.7439 18.0362 0.0000 0.0000 19.6245 0.0000 0.0000 0.0000 0.0000 0.0000 87.0949 -0.8276 0.8707 2.9534 10.6451 11.8129 169.5791 37.5685 165.8161 -51.5536 -10.1281 -5.1885 6.1070 0.0000 0.0000 8.1453 0.0000 0.0000 7.5429 0.2026 -1.1944 1.1417 0.0000 0.0000 2.3142 0.0000 0.0000 -4.3493 -0.1244 1.4958 4.5606 0.0000 0.0000 1.2242 0.0000 0.0000 -15.3508 -0.8640 1.8436 4.6022 0.0000 0.0000 5.3993 0.0000 0.0000 -28.8460 -2.2971 4.3305 5.9537 0.0000 0.0000 5.1084 0.0000 0.0000 0.0000 0.0000 0.0000 0.0000 0.0000 0.0000 0.0000 0.0000 0.0000 0.0000 0.0000 0.0000 0.0000 0.0000 0.0000 0.0000 0.0000 0.0000
0.0000 95.0000 0.0000 0.0000 0.0000 0.0000 0.0000 0.0000 0.0000 0.0000 0.0000 0.0000 0.0000 0.0000 0.0000 0.0000 0.0000 0.0000 0.0000 0.0000 0.0000 0.0000 0.0000 0.0000 -80.2490 10.1730 12.0574 -7.7131 6.0101 -6.3328 -170.0868 18.3333 173.5756 50.7985 -10.2223 3.8791 11.9007 0.0000 0.0000 2.2833 0.0000 0.0000 -3.4228 0.3466 -1.2705 11.8236 0.0000 0.0000 6.5403 0.0000 0.0000 8.3679 -0.1410 -2.8445 15.0563 0.0000 0.0000 8.3263 0.0000 0.0000 14.8029 -0.8481 -2.3706 18.2887 0.0000 0.0000 10.0641 0.0000 0.0000 20.3211 -1.5688 -0.5940 17.0051 0.0000 0.0000 17.3364 0.0000 0.0000 0.0000 0.0000 0.0000 87.0529 -0.3936 0.4144 4.0253 11.3697 12.8534 177.1439 26.6893 173.0679 -57.1712 -11.2455 -6.2283 4.3944 0.0000 0.0000 6.5634 0.0000 0.0000 8.3857 0.0812 -2.7611 2.9273 0.0000 0.0000 3.0039 0.0000 0.0000 -1.8494 -0.0566 1.2682 10.6364 0.0000 0.0000 5.9706 0.0000 0.0000 -10.0318 -0.5915 0.6098 14.5678 0.0000 0.0000 7.3348 0.0000 0.0000 -23.1748 -1.9009 2.1071 14.5043 0.0000 0.0000 9.8020 0.0000 0.0000 0.0000 0.0000 0.0000 0.0000 0.0000 0.0000 0.0000 0.0000 0.0000 0.0000 0.0000 0.0000 0.0000 0.0000 0.0000 0.0000 0.0000 0.0000
0.0000 95.0000 0.0000 0.0000 0.0000 0.0000 0.0000 0.0000 0.0000 0.0000 0.0000 0.0000 0.0000 0.0000 0.0000 0.0000 0.0000 0.0000 0.0000 0.0000 0.0000 0.0000 0.0000 0.0000 -80.8690 9.7339 11.4131 -7.1850 6.3297 -6.8276 -170.1130 19.2816 174.5399 50.7985 -10.2223 3.8791 11.9007 0.0000 0.0000 2.2833 0.0000 0.0000 -3.4228 0.3466 -1.2705 11.8236 0.0000 0.0000 6.5403 0.0000 0.0000 8.3679 -0.1410 -2.8445 15.0563 0.0000 0.0000 8.3263 0.0000 0.0000 14.8029 -0.8481 -2.3706 18.2887 0.0000 0.0000 10.0641 0.0000 0.0000 20.3211 -1.5688 -0.5940 17.0051 0.0000 0.0000 17.3364 0.0000 0.0000 0.0000 0.0000 0.0000 87.0161 -0.0592 0.0623 4.8707 11.9252 13.6716 177.8187 27.0368 172.9593 -57.1712 -11.2455 -6.2283 4.3944 0.0000 0.0000 6.5634 0.0000 0.0000 8.3857 0.0812 -2.7611 2.9273 0.0000 0.0000 3.0039 0.0000 0.0000 -1.8494 -0.0566 1.2682 10.6364 0.0000 0.0000 5.9706 0.0000 0.0000 -10.0318 -0.5915 0.6098 14.5678 0.0000 0.0000 7.3348 0.0000 0.0000 -23.1748 -1.9009 2.1071 14.5043 0.0000 0.0000 9.8020 0.0000 0.0000 0.0000 0.0000 0.0000 0.0000 0.0000 0.0000 0.0000 0.0000 0.0000 0.0000 0.0000 0.0000 0.0000 0.0000 0.0000 0.0000 0.0000 0.0000
0.0000 95.0000 0.0000 0.0000 0.0000 0.0000 0.0000 0.0000 0.0000 0.0000 0.0000 0.0000 0.0000 0.0000 0.0000 0.0000 0.0000 0.0000 0.0000 0.0000 0.0000 0.0000 0.0000 0.0000 -81.3767 9.3207 10.8323 -6.6656 6.7049 -7.3731 -170.1951 16.4454 174.7730 49.7424 -9.5666 5.8713 10.0378 0.0000 0.0000 3.4673 0.0000 0.0000 -4.0128 0.3684 -1.2842 11.6163 0.0000 0.0000 4.9589 0.0000 0.0000 7.9893 -0.1307 -2.9002 14.1551 0.0000 0.0000 5.9559 0.0000 0.0000 15.0166 -0.8570 -2.5556 17.7724 0.0000 0.0000 10.3225 0.0000 0.0000 20.6939 -1.6495 -1.0717 19.4750 0.0000 0.0000 22.9504 0.0000 0.0000 0.0000 0.0000 0.0000 86.6487 0.2442 -0.2589 6.9526 13.1387 15.6883 184.4244 -0.5290 169.9692 -45.5406 -7.3343 -10.6068 21.6235 0.0000 0.0000 35.1743 0.0000 0.0000 16.6953 0.7938 1.4576 3.4000 0.0000 0.0000 2.4515 0.0000 0.0000 50.2548 2.1814 0.1228 128.1387 0.0000 0.0000 16.2604 0.0000 0.0000 29.4073 1.6620 0.2312 145.9366 0.0000 0.0000 14.5012 0.0000 0.0000 11.3454 -1.9510 6.8125 144.6983 0.0000 0.0000 13.7928 0.0000 0.0000 0.0000 0.0000 0.0000 0.0000 0.0000 0.0000 0.0000 0.0000 0.0000 0.0000 0.0000 0.0000 0.0000 0.0000 0.0000 0.0000 0.0000 0.0000
0.0000 95.0000 0.0000 0.0000 0.0000 0.0000 0.0000 0.0000 0.0000 0.0000 0.0000 0.0000 0.0000 0.0000 0.0000 0.0000 0.0000 0.0000 0.0000 0.0000 0.0000 0.0000 0.0000 0.0000 -80.5053 10.6694 12.5878 -7.4566 7.6816 -8.5034 -169.4610 13.9357 174.3980 50.0074 -9.5602 6.1956 11.6760 0.0000 0.0000 3.2831 0.0000 0.0000 -5.3320 0.3776 -1.0231 11.0673 0.0000 0.0000 3.8392 0.0000 0.0000 6.7633 -0.1182 -2.7717 14.0256 0.0000 0.0000 5.2122 0.0000 0.0000 14.5886 -0.8440 -2.6437 17.3018 0.0000 0.0000 10.1007 0.0000 0.0000 20.7342 -1.6388 -0.9586 18.6287 0.0000 0.0000 20.4604 0.0000 0.0000 0.0000 0.0000 0.0000 86.1514 0.4461 -0.4771 13.3229 15.5574 20.8858 188.5880 -1.0110 167.4389 -48.9049 -8.1720 -11.1557 24.4046 0.0000 0.0000 46.0213 0.0000 0.0000 18.6244 0.8689 2.3274 4.3264 0.0000 0.0000 2.6925 0.0000 0.0000 63.9312 5.0145 -3.2556 112.2316 0.0000 0.0000 12.7570 0.0000 0.0000 18.4633 3.7361 -8.5113 168.4987 0.0000 0.0000 10.3713 0.0000 0.0000 -4.3604 -1.0268 2.6145 147.7353 0.0000 0.0000 14.6667 0.0000 0.0000 0.0000 0.0000 0.0000 0.0000 0.0000 0.0000 0.0000 0.0000 0.0000 0.0000 0.0000 0.0000 0.0000 0.0000 0.0000 0.0000 0.0000 0.0000
0.0000 95.0000 0.0000 0.0000 0.0000 0.0000 0.0000 0.0000 0.0000 0.0000 0.0000 0.0000 0.0000 0.0000 0.0000 0.0000 0.0000 0.0000 0.0000 0.0000 0.0000 0.0000 0.0000 0.0000 -79.7509 11.1569 13.3370 -7.8719 8.2529 -9.2751 -168.7275 10.6704 174.4996 49.5813 -9.5577 5.7361 12.0771 0.0000 0.0000 2.6297 0.0000 0.0000 -6.6531 0.3766 -0.6298 12.1650 0.0000 0.0000 5.1381 0.0000 0.0000 5.4549 -0.1303 -2.0368 15.5834 0.0000 0.0000 5.4596 0.0000 0.0000 12.9830 -0.7779 -2.0907 19.3512 0.0000 0.0000 10.2846 0.0000 0.0000 18.5019 -1.5232 -1.1400 21.4228 0.0000 0.0000 25.1870 0.0000 0.0000 0.0000 0.0000 0.0000 85.3611 -6.7069 7.2717 21.3286 33.2721 51.3788 171.9802 21.3280 140.4431 -55.2194 -9.8510 -11.8933 29.7063 0.0000 0.0000 66.9351 0.0000 0.0000 23.3890 0.9370 4.1417 6.0720 0.0000 0.0000 4.1428 0.0000 0.0000 87.8693 18.2062 -14.1121 78.5780 0.0000 0.0000 9.4396 0.0000 0.0000 -2.4542 3.1698 -26.9228 126.6893 0.0000 0.0000 34.6992 0.0000 0.0000 -25.6717 -1.5074 -5.0108 110.5870 0.0000 0.0000 34.2032 0.0000 0.0000 0.0000 0.0000 0.0000 0.0000 0.0000 0.0000 0.0000 0.0000 0.0000 0.0000 0.0000 0.0000 0.0000 0.0000 0.0000 0.0000 0.0000 0.0000
0.0000 95.0000 0.0000 0.0000 0.0000 0.0000 0.0000 0.0000 0.0000 0.0000 0.0000 0.0000 0.0000 0.0000 0.0000 0.0000 0.0000 0.0000 0.0000 0.0000 0.0000 0.0000 0.0000 0.0000 -79.1747 11.5062 13.8933 -8.1909 8.6553 -9.8348 -168.4951 10.7112 174.5765 49.5813 -9.5577 5.7361 12.0771 0.0000 0.0000 2.6297 0.0000 0.0000 -6.6531 0.3766 -0.6298 12.1650 0.0000 0.0000 5.1381 0.0000 0.0000 5.4549 -0.1303 -2.0368 15.5834 0.0000 0.0000 5.4596 0.0000 0.0000 12.9830 -0.7779 -2.0907 19.3512 0.0000 0.0000 10.2846 0.0000 0.0000 18.5019 -1.5232 -1.1400 21.4228 0.0000 0.0000 25.1870 0.0000 0.0000 0.0000 0.0000 0.0000 83.4869 -11.8709 13.2911 24.9370 48.5966 73.5533 141.2690 27.8147 112.1786 -55.2194 -9.8510 -11.8933 29.7063 0.0000 0.0000 66.9351 0.0000 0.0000 23.3890 0.9370 4.1417 6.0720 0.0000 0.0000 4.1428 0.0000 0.0000 87.8693 18.2062 -14.1121 78.5780 0.0000 0.0000 9.4396 0.0000 0.0000 -2.4542 3.1698 -26.9228 126.6893 0.0000 0.0000 34.6992 0.0000 0.0000 -25.6717 -1.5074 -5.0108 110.5870 0.0000 0.0000 34.2032 0.0000 0.0000 0.0000 0.0000 0.0000 0.0000 0.0000 0.0000 0.0000 0.0000 0.0000 0.0000 0.0000 0.0000 0.0000 0.0000 0.0000 0.0000 0.0000 0.0000
0.0000 95.0000 0.0000 0.0000 0.0000 0.0000 0.0000 0.0000 0.0000 0.0000 0.0000 0.0000 0.0000 0.0000 0.0000 0.0000 0.0000 0.0000 0.0000 0.0000 0.0000 0.0000 0.0000 0.0000 -78.3733 11.9713 14.6584 -8.3043 9.1182 -10.5214 -168.3099 10.7240 174.3571 50.3757 -9.7297 5.8066 12.3327 0.0000 0.0000 1.1474 0.0000 0.0000 -6.3009 0.3759 -0.7340 11.4355 0.0000 0.0000 5.2007 0.0000 0.0000 6.0554 -0.1178 -2.5447 15.3216 0.0000 0.0000 6.6853 0.0000 0.0000 14.3324 -0.8361 -2.6657 19.0006 0.0000 0.0000 12.0939 0.0000 0.0000 19.8979 -1.6202 -1.2312 22.5796 0.0000 0.0000 27.0261 0.0000 0.0000 0.0000 0.0000 0.0000 81.7329 -16.3485 18.8528 22.9327 71.4992 89.6394 117.9902 33.9533 106.0689 -72.2610 -14.7050 -4.6744 41.6617 0.0000 0.0000 94.9072 0.0000 0.0000 44.8968 0.9199 5.0162 6.9281 0.0000 0.0000 14.4450 0.0000 0.0000 65.7424 43.6694 -58.8285 38.3896 0.0000 0.0000 6.8860 0.0000 0.0000 -29.7035 -6.0959 -35.1210 58.4251 0.0000 0.0000 65.9222 0.0000 0.0000 -50.4308 -3.8962 -1.8792 54.4074 0.0000 0.0000 53.5671 0.0000 0.0000 0.0000 0.0000 0.0000 0.0000 0.0000 0.0000 0.0000 0.0000 0.0000 0.0000 0.0000 0.0000 0.0000 0.0000 0.0000 0.0000 0.0000 0.0000
0.0000 95.0000 0.0000 0.0000 0.0000 0.0000 0.0000 0.0000 0.0000 0.0000 0.0000 0.0000 0.0000 0.0000 0.0000 0.0000 0.0000 0.0000 0.0000 0.0000 0.0000 0.0000 0.0000 0.0000 -78.4258 11.0459 13.5164 -8.1885 8.7031 -10.1364 -167.8248 6.1660 173.7917 49.5995 -9.4190 6.3960 11.9673 0.0000 0.0000 0.3346 0.0000 0.0000 -7.6515 0.4009 -0.5003 11.8654 0.0000 0.0000 5.1605 0.0000 0.0000 4.7573 -0.1223 -1.8284 15.6356 0.0000 0.0000 6.0132 0.0000 0.0000 12.2285 -0.7365 -1.6801 18.7727 0.0000 0.0000 10.9558 0.0000 0.0000 17.9083 -1.4431 -0.8331 20.4981 0.0000 0.0000 24.6816 0.0000 0.0000 0.0000 0.0000 0.0000 81.9870 -18.5380 21.2708 159.6789 76.6241 246.0159 -39.9177 34.1258 -48.4929 -67.5987 -16.9694 62.8668 50.8892 0.0000 0.0000 70.8838 0.0000 0.0000 25.8557 2.1744 -21.7530 11.9930 0.0000 0.0000 9.1337 0.0000 0.0000 0.4168 0.0754 -15.7247 16.3210 0.0000 0.0000 6.4141 0.0000 0.0000 -24.6758 4.0046 64.9982 68.6830 0.0000 0.0000 25.8007 0.0000 0.0000 -33.2965 -3.2177 99.4234 48.0428 0.0000 0.0000 35.3508 0.0000 0.0000 0.0000 0.0000 0.0000 0.0000 0.0000 0.0000 0.0000 0.0000 0.0000 0.0000 0.0000 0.0000 0.0000 0.0000 0.0000 0.0000 0.0000 0.0000
0.0000 95.0000 0.0000 0.0000 0.0000 0.0000 0.0000 0.0000 0.0000 0.0000 0.0000 0.0000 0.0000 0.0000 0.0000 0.0000 0.0000 0.0000 0.0000 0.0000 0.0000 0.0000 0.0000 0.0000 -78.2700 11.0303 13.5346 -8.1746 8.2896 -9.5731 -168.1221 3.4188 172.9748 50.9638 -9.7441 6.4141 13.7573 0.0000 0.0000 1.5133 0.0000 0.0000 -7.4351 0.3455 -0.0958 9.7969 0.0000 0.0000 4.1720 0.0000 0.0000 5.0449 -0.1417 -1.5557 12.7265 0.0000 0.0000 5.6241 0.0000 0.0000 13.1615 -0.7717 -1.5720 15.8688 0.0000 0.0000 10.9444 0.0000 0.0000 18.7476 -1.4586 -0.5482 19.6011 0.0000 0.0000 22.7960 0.0000 0.0000 0.0000 0.0000 0.0000 83.0616 -21.2928 23.9661 178.2381 52.8304 276.4886 -29.9970 2.5510 -37.8562 -50.1152 -15.5715 23.4789 23.8223 0.0000 0.0000 30.5665 0.0000 0.0000 16.9721 0.4433 -9.8971 5.7337 0.0000 0.0000 3.6572 0.0000 0.0000 4.4527 0.0097 4.5225 6.5576 0.0000 0.0000 8.5464 0.0000 0.0000 -13.1867 -2.7673 74.0839 79.1148 0.0000 0.0000 22.4440 0.0000 0.0000 -28.4708 -8.5186 103.0873 57.0838 0.0000 0.0000 29.9012 0.0000 0.0000 0.0000 0.0000 0.0000 0.0000 0.0000 0.0000 0.0000 0.0000 0.0000 0.0000 0.0000 0.0000 0.0000 0.0000 0.0000 0.0000 0.0000 0.0000
0.0000 95.0000 0.0000 0.0000 0.0000 0.0000 0.0000 0.0000 0.0000 0.0000 0.0000 0.0000 0.0000 0.0000 0.0000 0.0000 0.0000 0.0000 0.0000 0.0000 0.0000 0.0000 0.0000 0.0000 -78.1671 10.9949 13.5159 -8.1392 7.8958 -9.0342 -168.0005 2.9961 172.5286 50.9638 -9.7441 6.4141 13.7573 0.0000 0.0000 1.5133 0.0000 0.0000 -7.4351 0.3455 -0.0958 9.7969 0.0000 0.0000 4.1720 0.0000 0.0000 5.0449 -0.1417 -1.5557 12.7265 0.0000 0.0000 5.6241 0.0000 0.0000 13.1615 -0.7717 -1.5720 15.8688 0.0000 0.0000 10.9444 0.0000 0.0000 18.7476 -1.4586 -0.5482 19.6011 0.0000 0.0000 22.7960 0.0000 0.0000 0.0000 0.0000 0.0000 83.5240 -23.5786 26.3131 181.7277 42.0444 282.8231 -21.3359 -2.4616 -33.0509 -50.1152 -15.5715 23.4789 23.8223 0.0000 0.0000 30.5665 0.0000 0.0000 16.9721 0.4433 -9.8971 5.7337 0.0000 0.0000 3.6572 0.0000 0.0000 4.4527 0.0097 4.5225 6.5576 0.0000 0.0000 8.5464 0.0000 0.0000 -13.1867 -2.7673 74.0839 79.1148 0.0000 0.0000 22.4440 0.0000 0.0000 -28.4708 -8.5186 103.0873 57.0838 0.0000 0.0000 29.9012 0.0000 0.0000 0.0000 0.0000 0.0000 0.0000 0.0000 0.0000 0.0000 0.0000 0.0000 0.0000 0.0000 0.0000 0.0000 0.0000 0.0000 0.0000 0.0000 0.0000
0.0000 95.0000 0.0000 0.0000 0.0000 0.0000 0.0000 0.0000 0.0000 0.0000 0.0000 0.0000 0.0000 0.0000 0.0000 0.0000 0.0000 0.0000 0.0000 0.0000 0.0000 0.0000 0.0000 0.0000 -77.8374 9.6332 11.9157 -8.9550 7.4800 -8.7415 -167.4256 0.2082 172.8671 48.9860 -9.3045 6.2434 14.2178 0.0000 0.0000 2.2509 0.0000 0.0000 -9.0973 0.4796 -0.7068 7.6082 0.0000 0.0000 2.5908 0.0000 0.0000 3.4201 -0.0971 -1.5212 9.5990 0.0000 0.0000 3.4412 0.0000 0.0000 10.8399 -0.6575 -1.1781 13.3412 0.0000 0.0000 10.2749 0.0000 0.0000 15.0001 -1.1045 0.0637 19.9441 0.0000 0.0000 26.9864 0.0000 0.0000 0.0000 0.0000 0.0000 82.6400 -26.7418 30.2591 184.8948 33.2306 285.7894 -20.1142 -23.0249 -27.6273 -39.4977 -11.7040 9.1956 13.1336 0.0000 0.0000 16.7934 0.0000 0.0000 14.1788 0.2305 -7.1750 3.4161 0.0000 0.0000 2.8683 0.0000 0.0000 6.4414 -0.2468 9.1554 5.3556 0.0000 0.0000 12.0392 0.0000 0.0000 -0.1965 -10.7626 70.2412 85.5821 0.0000 0.0000 21.8997 0.0000 0.0000 -15.4202 -20.2247 95.7518 64.8173 0.0000 0.0000 27.7644 0.0000 0.0000 0.0000 0.0000 0.0000 0.0000 0.0000 0.0000 0.0000 0.0000 0.0000 0.0000 0.0000 0.0000 0.0000 0.0000 0.0000 0.0000 0.0000 0.0000
0.0000 95.0000 0.0000 0.0000 0.0000 0.0000 0.0000 0.0000 0.0000 0.0000 0.0000 0.0000 0.0000 0.0000 0.0000 0.0000 0.0000 0.0000 0.0000 0.0000 0.0000 0.0000 0.0000 0.0000 -77.9162 8.5614 10.5778 -9.5118 7.2862 -8.6837 -170.8079 1.5825 173.9033 49.8078 -9.4530 6.4720 13.2416 0.0000 0.0000 2.5408 0.0000 0.0000 -7.2297 0.3702 -0.3834 4.6792 0.0000 0.0000 0.7463 0.0000 0.0000 5.7432 -0.1739 -1.3064 7.0752 0.0000 0.0000 1.3875 0.0000 0.0000 13.3690 -0.7649 -0.9004 13.2823 0.0000 0.0000 8.1595 0.0000 0.0000 18.5417 -1.2820 0.6433 20.0932 0.0000 0.0000 24.3567 0.0000 0.0000 0.0000 0.0000 0.0000 81.6312 -29.2906 33.6697 188.1651 27.8090 287.0686 -22.9437 -41.5182 -19.9391 -34.3423 -8.8388 2.5684 10.2856 0.0000 0.0000 10.2414 0.0000 0.0000 12.9250 0.1673 -6.1163 2.3546 0.0000 0.0000 2.6701 0.0000 0.0000 9.5537 -0.4644 10.3247 8.3923 0.0000 0.0000 16.0478 0.0000 0.0000 14.6099 -17.1089 61.4712 89.7703 0.0000 0.0000 21.6206 0.0000 0.0000 2.5762 -30.3178 82.3947 70.3977 0.0000 0.0000 26.5374 0.0000 0.0000 0.0000 0.0000 0.0000 0.0000 0.0000 0.0000 0.0000 0.0000 0.0000 0.0000 0.0000 0.0000 0.0000 0.0000 0.0000 0.0000 0.0000 0.0000
0.0000 95.0000 0.0000 0.0000 0.0000 0.0000 0.0000 0.0000 0.0000 0.0000 0.0000 0.0000 0.0000 0.0000 0.0000 0.0000 0.0000 0.0000 0.0000 0.0000 0.0000 0.0000 0.0000 0.0000 -77.6262 8.1943 10.1775 -9.7311 7.2358 -8.7407 -171.1925 -2.2831 173.8928 47.3875 -8.8013 6.7311 10.4867 0.0000 0.0000 2.4325 0.0000 0.0000 -8.6147 0.4128 -0.2455 4.1777 0.0000 0.0000 0.4522 0.0000 0.0000 3.9627 -0.1247 -1.1683 5.3043 0.0000 0.0000 1.9579 0.0000 0.0000 12.0866 -0.6993 -0.7579 9.7765 0.0000 0.0000 7.4444 0.0000 0.0000 16.4776 -1.1300 0.5919 17.5806 0.0000 0.0000 20.2472 0.0000 0.0000 0.0000 0.0000 0.0000 79.7858 -31.4685 37.2510 190.6991 24.3991 286.9383 -23.1587 -50.0971 -14.8610 -33.0475 -7.7693 0.2889 11.8341 0.0000 0.0000 6.3767 0.0000 0.0000 16.4224 0.5392 -5.3109 3.3314 0.0000 0.0000 7.4341 0.0000 0.0000 24.2976 -11.4830 54.8427 94.3316 0.0000 0.0000 22.4663 0.0000 0.0000 15.5907 -17.2184 60.2428 98.2478 0.0000 0.0000 25.0361 0.0000 0.0000 -1.2640 -19.8937 63.4665 97.3542 0.0000 0.0000 23.3323 0.0000 0.0000 0.0000 0.0000 0.0000 0.0000 0.0000 0.0000 0.0000 0.0000 0.0000 0.0000 0.0000 0.0000 0.0000 0.0000 0.0000 0.0000 0.0000 0.0000
0.0000 95.0000 0.0000 0.0000 0.0000 0.0000 0.0000 0.0000 0.0000 0.0000 0.0000 0.0000 0.0000 0.0000 0.0000 0.0000 0.0000 0.0000 0.0000 0.0000 0.0000 0.0000 0.0000 0.0000 -77.4026 7.9323 9.8919 -9.8994 7.2132 -8.8063 -171.1181 -1.9830 174.1958 47.3875 -8.8013 6.7311 10.4867 0.0000 0.0000 2.4325 0.0000 0.0000 -8.6147 0.4128 -0.2455 4.1777 0.0000 0.0000 0.4522 0.0000 0.0000 3.9627 -0.1247 -1.1683 5.3043 0.0000 0.0000 1.9579 0.0000 0.0000 12.0866 -0.6993 -0.7579 9.7765 0.0000 0.0000 7.4444 0.0000 0.0000 16.4776 -1.1300 0.5919 17.5806 0.0000 0.0000 20.2472 0.0000 0.0000 0.0000 0.0000 0.0000 78.4097 -32.8161 39.6983 192.3571 22.6059 286.5367 -21.9798 -51.1610 -14.9967 -33.0475 -7.7693 0.2889 11.8341 0.0000 0.0000 6.3767 0.0000 0.0000 16.4224 0.5392 -5.3109 3.3314 0.0000 0.0000 7.4341 0.0000 0.0000 24.2976 -11.4830 54.8427 94.3316 0.0000 0.0000 22.4663 0.0000 0.0000 15.5907 -17.2184 60.2428 98.2478 0.0000 0.0000 25.0361 0.0000 0.0000 -1.2640 -19.8937 63.4665 97.3542 0.0000 0.0000 23.3323 0.0000 0.0000 0.0000 0.0000 0.0000 0.0000 0.0000 0.0000 0.0000 0.0000 0.0000 0.0000 0.0000 0.0000 0.0000 0.0000 0.0000 0.0000 0.0000 0.0000
0.0000 95.0000 0.0000 0.0000 0.0000 0.0000 0.0000 0.0000 0.0000 0.0000 0.0000 0.0000 0.0000 0.0000 0.0000 0.0000 0.0000 0.0000 0.0000 0.0000 0.0000 0.0000 0.0000 0.0000 -76.6874 8.1340 10.2729 -10.9270 7.1714 -8.7706 -172.5739 -7.4350 172.8187 47.0774 -8.4256 7.9615 8.9057 0.0000 0.0000 2.3749 0.0000 0.0000 -9.0524 0.3539 0.5198 2.3907 0.0000 0.0000 2.2027 0.0000 0.0000 3.1395 -0.1241 -0.2465 4.5413 0.0000 0.0000 1.3185 0.0000 0.0000 11.5685 -0.6396 0.1325 10.3391 0.0000 0.0000 8.4779 0.0000 0.0000 16.1077 -1.1424 0.3333 18.4563 0.0000 0.0000 21.4664 0.0000 0.0000 0.0000 0.0000 0.0000 78.5947 -33.0670 39.8727 192.1924 21.8106 286.4123 -20.0876 -49.8798 -17.9686 -32.4383 -7.7440 0.5367 11.0699 0.0000 0.0000 6.9672 0.0000 0.0000 17.3870 0.6236 -5.4191 1.9916 0.0000 0.0000 5.3293 0.0000 0.0000 25.2651 -11.6547 53.7379 94.7764 0.0000 0.0000 21.4538 0.0000 0.0000 18.0515 -18.2984 59.5890 99.7007 0.0000 0.0000 21.5451 0.0000 0.0000 1.3946 -21.8920 64.8173 97.4694 0.0000 0.0000 21.3904 0.0000 0.0000 0.0000 0.0000 0.0000 0.0000 0.0000 0.0000 0.0000 0.0000 0.0000 0.0000 0.0000 0.0000 0.0000 0.0000 0.0000 0.0000 0.0000 0.0000
0.0000 95.0000 0.0000 0.0000 0.0000 0.0000 0.0000 0.0000 0.0000 0.0000 0.0000 0.0000 0.0000 0.0000 0.0000 0.0000 0.0000 0.0000 0.0000 0.0000 0.0000 0.0000 0.0000 0.0000 -76.7491 7.7664 9.7987 -11.8802 7.3108 -9.0755 -173.6619 -8.9801 174.4865 46.3242 -8.0442 8.6971 9.2192 0.0000 0.0000 3.1852 0.0000 0.0000 -10.0239 0.3667 0.8969 1.2825 0.0000 0.0000 1.7536 0.0000 0.0000 2.3968 -0.1013 0.0699 2.6869 0.0000 0.0000 2.0998 0.0000 0.0000 11.3373 -0.6055 0.6497 7.5495 0.0000 0.0000 8.0470 0.0000 0.0000 15.3243 -0.9702 1.0172 16.0100 0.0000 0.0000 17.8486 0.0000 0.0000 0.0000 0.0000 0.0000 79.1366 -32.7015 39.0936 191.2905 22.3929 286.2186 -17.8122 -43.0511 -22.0457 -31.9171 -7.8027 0.9525 10.4837 0.0000 0.0000 6.9731 0.0000 0.0000 15.7501 0.4792 -5.2876 3.7017 0.0000 0.0000 5.8656 0.0000 0.0000 6.8392 0.3639 -1.3118 3.8363 0.0000 0.0000 7.3130 0.0000 0.0000 14.0051 -14.8342 55.4934 94.7754 0.0000 0.0000 19.9426 0.0000 0.0000 0.5456 -23.1666 69.2947 85.5863 0.0000 0.0000 21.3182 0.0000 0.0000 0.0000 0.0000 0.0000 0.0000 0.0000 0.0000 0.0000 0.0000 0.0000 0.0000 0.0000 0.0000 0.0000 0.0000 0.0000 0.0000 0.0000 0.0000
0.0000 95.0000 0.0000 0.0000 0.0000 0.0000 0.0000 0.0000 0.0000 0.0000 0.0000 0.0000 0.0000 0.0000 0.0000 0.0000 0.0000 0.0000 0.0000 0.0000 0.0000 0.0000 0.0000 0.0000 -76.9472 7.6483 9.6161 -11.7135 7.3472 -9.1414 -173.9437 -10.2752 174.4893 45.8984 -7.8796 8.8928 8.6693 0.0000 0.0000 2.1021 0.0000 0.0000 -10.5600 0.3964 0.8776 1.6525 0.0000 0.0000 1.6238 0.0000 0.0000 2.0711 -0.0891 0.1536 3.7715 0.0000 0.0000 1.8848 0.0000 0.0000 11.2655 -0.5995 0.6893 9.7598 0.0000 0.0000 8.1344 0.0000 0.0000 17.2315 -1.1575 0.7984 17.9382 0.0000 0.0000 18.0943 0.0000 0.0000 0.0000 0.0000 0.0000 79.1907 -32.5642 38.8987 191.5394 24.2568 285.6473 -12.0457 -32.8885 -27.3510 -34.3420 -8.4018 1.3472 12.7767 0.0000 0.0000 10.5493 0.0000 0.0000 15.4544 0.5226 -3.7273 2.7938 0.0000 0.0000 6.3775 0.0000 0.0000 15.2333 -8.4838 62.8021 90.8803 0.0000 0.0000 17.8279 0.0000 0.0000 4.5833 -15.2077 75.8231 89.7790 0.0000 0.0000 20.4075 0.0000 0.0000 -9.7890 -20.1910 80.4226 83.2884 0.0000 0.0000 18.9689 0.0000 0.0000 0.0000 0.0000 0.0000 0.0000 0.0000 0.0000 0.0000 0.0000 0.0000 0.0000 0.0000 0.0000 0.0000 0.0000 0.0000 0.0000 0.0000 0.0000
0.0000 95.0000 0.0000 0.0000 0.0000 0.0000 0.0000 0.0000 0.0000 0.0000 0.0000 0.0000 0.0000 0.0000 0.0000 0.0000 0.0000 0.0000 0.0000 0.0000 0.0000 0.0000 0.0000 0.0000 -77.0970 7.5572 9.4764 -11.5930 7.3715 -9.1851 -173.9633 -10.1257 174.6467 45.8984 -7.8796 8.8928 8.6693 0.0000 0.0000 2.1021 0.0000 0.0000 -10.5600 0.3964 0.8776 1.6525 0.0000 0.0000 1.6238 0.0000 0.0000 2.0711 -0.0891 0.1536 3.7715 0.0000 0.0000 1.8848 0.0000 0.0000 11.2655 -0.5995 0.6893 9.7598 0.0000 0.0000 8.1344 0.0000 0.0000 17.2315 -1.1575 0.7984 17.9382 0.0000 0.0000 18.0943 0.0000 0.0000 0.0000 0.0000 0.0000 79.2344 -32.4695 38.7603 191.7024 25.4042 285.3240 -13.0363 -32.1986 -27.3927 -34.3420 -8.4018 1.3472 12.7767 0.0000 0.0000 10.5493 0.0000 0.0000 15.4544 0.5226 -3.7273 2.7938 0.0000 0.0000 6.3775 0.0000 0.0000 15.2333 -8.4838 62.8021 90.8803 0.0000 0.0000 17.8279 0.0000 0.0000 4.5833 -15.2077 75.8231 89.7790 0.0000 0.0000 20.4075 0.0000 0.0000 -9.7890 -20.1910 80.4226 83.2884 0.0000 0.0000 18.9689 0.0000 0.0000 0.0000 0.0000 0.0000 0.0000 0.0000 0.0000 0.0000 0.0000 0.0000 0.0000 0.0000 0.0000 0.0000 0.0000 0.0000 0.0000 0.0000 0.0000
0.0000 95.0000 0.0000 0.0000 0.0000 0.0000 0.0000 0.0000 0.0000 0.0000 0.0000 0.0000 0.0000 0.0000 0.0000 0.0000 0.0000 0.0000 0.0000 0.0000 0.0000 0.0000 0.0000 0.0000 -76.7612 7.6227 9.6157 -12.4541 7.4291 -9.3051 -173.3794 -5.3891 174.6201 46.7344 -8.3038 8.0932 10.5829 0.0000 0.0000 2.5362 0.0000 0.0000 -10.8466 0.4531 0.3873 1.5277 0.0000 0.0000 2.5133 0.0000 0.0000 1.9793 -0.0700 -0.7187 3.4491 0.0000 0.0000 1.1006 0.0000 0.0000 11.2548 -0.6385 -0.2690 10.6430 0.0000 0.0000 7.0423 0.0000 0.0000 16.8320 -1.1995 0.3147 19.1117 0.0000 0.0000 22.4974 0.0000 0.0000 0.0000 0.0000 0.0000 79.6782 -32.0770 38.0235 190.7673 25.8307 285.1764 -21.8150 -43.6368 -19.2921 -34.9357 -7.3822 -1.8304 13.4082 0.0000 0.0000 7.9925 0.0000 0.0000 16.9313 0.5522 -6.3449 3.5288 0.0000 0.0000 6.7374 0.0000 0.0000 23.0284 -10.6605 53.9876 94.8830 0.0000 0.0000 20.3728 0.0000 0.0000 13.7933 -17.0468 62.6286 96.3554 0.0000 0.0000 22.5677 0.0000 0.0000 1.7908 -29.1117 81.1152 78.6061 0.0000 0.0000 22.5657 0.0000 0.0000 0.0000 0.0000 0.0000 0.0000 0.0000 0.0000 0.0000 0.0000 0.0000 0.0000 0.0000 0.0000 0.0000 0.0000 0.0000 0.0000 0.0000 0.0000
0.0000 95.0000 0.0000 0.0000 0.0000 0.0000 0.0000 0.0000 0.0000 0.0000 0.0000 0.0000 0.0000 0.0000 0.0000 0.0000 0.0000 0.0000 0.0000 0.0000 0.0000 0.0000 0.0000 0.0000 -76.6578 7.6710 9.6944 -12.9861 7.7341 -9.7971 -174.6808 -1.1597 176.6353 48.1151 -8.6662 8.0846 10.8840 0.0000 0.0000 1.1145 0.0000 0.0000 -9.1490 0.3359 0.7474 3.7237 0.0000 0.0000 1.1315 0.0000 0.0000 4.0608 -0.1549 -0.4061 5.6517 0.0000 0.0000 1.0443 0.0000 0.0000 12.6885 -0.7122 -0.1909 10.9866 0.0000 0.0000 7.4644 0.0000 0.0000 18.8550 -1.3713 0.1579 18.5660 0.0000 0.0000 20.8697 0.0000 0.0000 0.0000 0.0000 0.0000 79.9394 -31.7362 37.4663 189.6458 26.3403 284.7608 -26.4915 -46.7659 -16.0064 -32.6018 -7.2721 -0.7919 11.6525 0.0000 0.0000 6.5967 0.0000 0.0000 15.1091 0.3342 -7.0951 1.5609 0.0000 0.0000 4.4800 0.0000 0.0000 7.8793 -0.4835 11.7838 9.8957 0.0000 0.0000 17.5785 0.0000 0.0000 13.5093 -13.9539 53.4246 103.2353 0.0000 0.0000 20.1337 0.0000 0.0000 0.3215 -22.1672 67.1082 93.5592 0.0000 0.0000 19.9401 0.0000 0.0000 0.0000 0.0000 0.0000 0.0000 0.0000 0.0000 0.0000 0.0000 0.0000 0.0000 0.0000 0.0000 0.0000 0.0000 0.0000 0.0000 0.0000 0.0000
0.0000 95.0000 0.0000 0.0000 0.0000 0.0000 0.0000 0.0000 0.0000 0.0000 0.0000 0.0000 0.0000 0.0000 0.0000 0.0000 0.0000 0.0000 0.0000 0.0000 0.0000 0.0000 0.0000 0.0000 -76.8850 7.5968 9.5620 -12.5259 7.9899 -10.1925 -173.8204 -2.0778 175.6704 47.2636 -8.5207 7.7684 9.2613 0.0000 0.0000 1.6051 0.0000 0.0000 -8.6755 0.3398 0.4778 4.2576 0.0000 0.0000 2.0588 0.0000 0.0000 3.8476 -0.1568 -0.1059 7.3199 0.0000 0.0000 2.2041 0.0000 0.0000 13.1824 -0.7342 -0.0083 14.7306 0.0000 0.0000 9.6527 0.0000 0.0000 19.0343 -1.4321 -0.2034 20.7071 0.0000 0.0000 20.6678 0.0000 0.0000 0.0000 0.0000 0.0000 80.3987 -31.1298 36.4866 188.7098 27.4098 284.5880 -26.4334 -47.9754 -15.1417 -33.5542 -6.9047 -2.3114 11.1923 0.0000 0.0000 7.8261 0.0000 0.0000 14.7162 0.3052 -6.8447 1.6961 0.0000 0.0000 5.4757 0.0000 0.0000 20.9086 -6.0287 36.6284 108.7035 0.0000 0.0000 23.1411 0.0000 0.0000 15.4094 -13.6986 49.9444 106.0319 0.0000 0.0000 21.8953 0.0000 0.0000 4.3556 -23.1671 63.8302 92.2839 0.0000 0.0000 21.2069 0.0000 0.0000 0.0000 0.0000 0.0000 0.0000 0.0000 0.0000 0.0000 0.0000 0.0000 0.0000 0.0000 0.0000 0.0000 0.0000 0.0000 0.0000 0.0000 0.0000
0.0000 95.0000 0.0000 0.0000 0.0000 0.0000 0.0000 0.0000 0.0000 0.0000 0.0000 0.0000 0.0000 0.0000 0.0000 0.0000 0.0000 0.0000 0.0000 0.0000 0.0000 0.0000 0.0000 0.0000 -77.0675 7.5415 9.4617 -12.1523 8.1847 -10.4826 -173.5994 -1.7360 175.9895 47.2636 -8.5207 7.7684 9.2613 0.0000 0.0000 1.6051 0.0000 0.0000 -8.6755 0.3398 0.4778 4.2576 0.0000 0.0000 2.0588 0.0000 0.0000 3.8476 -0.1568 -0.1059 7.3199 0.0000 0.0000 2.2041 0.0000 0.0000 13.1824 -0.7342 -0.0083 14.7306 0.0000 0.0000 9.6527 0.0000 0.0000 19.0343 -1.4321 -0.2034 20.7071 0.0000 0.0000 20.6678 0.0000 0.0000 0.0000 0.0000 0.0000 80.7424 -30.6798 35.7646 187.9849 28.1057 284.4698 -26.6760 -47.5238 -15.3841 -33.5542 -6.9047 -2.3114 11.1923 0.0000 0.0000 7.8261 0.0000 0.0000 14.7162 0.3052 -6.8447 1.6961 0.0000 0.0000 5.4757 0.0000 0.0000 20.9086 -6.0287 36.6284 108.7035 0.0000 0.0000 23.1411 0.0000 0.0000 15.4094 -13.6986 49.9444 106.0319 0.0000 0.0000 21.8953 0.0000 0.0000 4.3556 -23.1671 63.8302 92.2839 0.0000 0.0000 21.2069 0.0000 0.0000 0.0000 0.0000 0.0000 0.0000 0.0000 0.0000 0.0000 0.0000 0.0000 0.0000 0.0000 0.0000 0.0000 0.0000 0.0000 0.0000 0.0000 0.0000
0.0000 95.0000 0.0000 0.0000 0.0000 0.0000 0.0000 0.0000 0.0000 0.0000 0.0000 0.0000 0.0000 0.0000 0.0000 0.0000 0.0000 0.0000 0.0000 0.0000 0.0000 0.0000 0.0000 0.0000 -77.4998 7.7483 9.6461 -11.5066 8.2620 -10.4450 -172.5039 0.0402 176.2788 50.4990 -9.4856 7.1164 13.9274 0.0000 0.0000 1.9133 0.0000 0.0000 -8.9555 0.4124 -0.1003 3.6442 0.0000 0.0000 1.2586 0.0000 0.0000 3.9044 -0.1193 -1.2732 7.8821 0.0000 0.0000 1.1062 0.0000 0.0000 13.6803 -0.7795 -0.8911 15.9589 0.0000 0.0000 7.9903 0.0000 0.0000 19.2895 -1.4164 0.0544 21.6091 0.0000 0.0000 27.4457 0.0000 0.0000 0.0000 0.0000 0.0000 81.2100 -29.8706 34.5676 186.4201 29.1908 284.1416 -26.5119 -45.4886 -16.9820 -37.8199 -8.1049 -1.4988 8.6685 0.0000 0.0000 10.2483 0.0000 0.0000 14.4269 0.3332 -5.7720 2.4787 0.0000 0.0000 4.7529 0.0000 0.0000 17.8136 -5.2762 37.5394 97.7958 0.0000 0.0000 22.6726 0.0000 0.0000 16.4177 -17.3504 59.3649 97.7257 0.0000 0.0000 27.2857 0.0000 0.0000 2.9014 -25.9222 72.2895 86.1898 0.0000 0.0000 31.0696 0.0000 0.0000 0.0000 0.0000 0.0000 0.0000 0.0000 0.0000 0.0000 0.0000 0.0000 0.0000 0.0000 0.0000 0.0000 0.0000 0.0000 0.0000 0.0000 0.0000
0.0000 95.0000 0.0000 0.0000 0.0000 0.0000 0.0000 0.0000 0.0000 0.0000 0.0000 0.0000 0.0000 0.0000 0.0000 0.0000 0.0000 0.0000 0.0000 0.0000 0.0000 0.0000 0.0000 0.0000 -77.4857 8.5844 10.6876 -10.9986 8.6564 -10.7987 -171.4748 -0.4459 174.9187 48.4938 -8.9510 7.2718 11.6589 0.0000 0.0000 2.3825 0.0000 0.0000 -9.5324 0.4411 -0.1371 4.5138 0.0000 0.0000 2.1054 0.0000 0.0000 3.4238 -0.1106 -1.0722 10.0836 0.0000 0.0000 4.0870 0.0000 0.0000 12.2652 -0.7231 -1.2214 18.1639 0.0000 0.0000 13.8807 0.0000 0.0000 18.4804 -1.5134 -1.0782 21.2086 0.0000 0.0000 24.7415 0.0000 0.0000 0.0000 0.0000 0.0000 81.2725 -29.3096 33.8930 185.8292 32.1249 282.9771 -32.2655 -45.4847 -11.7927 -37.7085 -7.2596 -3.9865 9.2223 0.0000 0.0000 6.6857 0.0000 0.0000 12.7664 0.0896 -7.0177 4.7939 0.0000 0.0000 3.7042 0.0000 0.0000 4.0258 0.2465 -2.2341 3.2255 0.0000 0.0000 5.4331 0.0000 0.0000 14.6340 -10.1967 39.4897 109.7329 0.0000 0.0000 18.4221 0.0000 0.0000 12.3678 -28.0656 64.4102 83.7949 0.0000 0.0000 23.1221 0.0000 0.0000 0.0000 0.0000 0.0000 0.0000 0.0000 0.0000 0.0000 0.0000 0.0000 0.0000 0.0000 0.0000 0.0000 0.0000 0.0000 0.0000 0.0000 0.0000
0.0000 95.0000 0.0000 0.0000 0.0000 0.0000 0.0000 0.0000 0.0000 0.0000 0.0000 0.0000 0.0000 0.0000 0.0000 0.0000 0.0000 0.0000 0.0000 0.0000 0.0000 0.0000 0.0000 0.0000 -77.3056 8.4420 10.5444 -11.3885 9.0273 -11.4577 -171.7040 0.4551 175.2962 49.7280 -9.3112 7.0381 13.4655 0.0000 0.0000 1.8550 0.0000 0.0000 -9.1815 0.4362 -0.2401 4.2127 0.0000 0.0000 1.9150 0.0000 0.0000 4.0604 -0.1256 -1.2285 9.6875 0.0000 0.0000 3.0744 0.0000 0.0000 13.0024 -0.7631 -1.4948 17.3662 0.0000 0.0000 13.2592 0.0000 0.0000 19.0959 -1.5863 -1.3422 21.8326 0.0000 0.0000 26.3986 0.0000 0.0000 0.0000 0.0000 0.0000 80.7129 -28.4951 33.2741 184.1249 34.1081 282.0685 -34.2719 -43.9681 -11.1560 -35.8143 -7.1088 -3.1512 9.6491 0.0000 0.0000 9.0126 0.0000 0.0000 14.8884 0.2881 -7.5452 2.5589 0.0000 0.0000 5.2352 0.0000 0.0000 6.5598 -0.3786 11.3715 21.5931 0.0000 0.0000 10.1294 0.0000 0.0000 15.3631 -13.1405 48.2549 103.4919 0.0000 0.0000 18.5525 0.0000 0.0000 8.6049 -29.8932 72.6730 77.3314 0.0000 0.0000 21.9871 0.0000 0.0000 0.0000 0.0000 0.0000 0.0000 0.0000 0.0000 0.0000 0.0000 0.0000 0.0000 0.0000 0.0000 0.0000 0.0000 0.0000 0.0000 0.0000 0.0000
0.0000 95.0000 0.0000 0.0000 0.0000 0.0000 0.0000 0.0000 0.0000 0.0000 0.0000 0.0000 0.0000 0.0000 0.0000 0.0000 0.0000 0.0000 0.0000 0.0000 0.0000 0.0000 0.0000 0.0000 -77.1577 8.3587 10.4681 -11.7282 9.4691 -12.2177 -171.8150 1.1313 175.9956 49.7280 -9.3112 7.0381 13.4655 0.0000 0.0000 1.8550 0.0000 0.0000 -9.1815 0.4362 -0.2401 4.2127 0.0000 0.0000 1.9150 0.0000 0.0000 4.0604 -0.1256 -1.2285 9.6875 0.0000 0.0000 3.0744 0.0000 0.0000 13.0024 -0.7631 -1.4948 17.3662 0.0000 0.0000 13.2592 0.0000 0.0000 19.0959 -1.5863 -1.3422 21.8326 0.0000 0.0000 26.3986 0.0000 0.0000 0.0000 0.0000 0.0000 80.2963 -27.8938 32.8104 182.8110 35.5288 281.3623 -33.9279 -43.2285 -12.4617 -35.8143 -7.1088 -3.1512 9.6491 0.0000 0.0000 9.0126 0.0000 0.0000 14.8884 0.2881 -7.5452 2.5589 0.0000 0.0000 5.2352 0.0000 0.0000 6.5598 -0.3786 11.3715 21.5931 0.0000 0.0000 10.1294 0.0000 0.0000 15.3631 -13.1405 48.2549 103.4919 0.0000 0.0000 18.5525 0.0000 0.0000 8.6049 -29.8932 72.6730 77.3314 0.0000 0.0000 21.9871 0.0000 0.0000 0.0000 0.0000 0.0000 0.0000 0.0000 0.0000 0.0000 0.0000 0.0000 0.0000 0.0000 0.0000 0.0000 0.0000 0.0000 0.0000 0.0000 0.0000
0.0000 95.0000 0.0000 0.0000 0.0000 0.0000 0.0000 0.0000 0.0000 0.0000 0.0000 0.0000 0.0000 0.0000 0.0000 0.0000 0.0000 0.0000 0.0000 0.0000 0.0000 0.0000 0.0000 0.0000 -76.6518 8.7516 11.0583 -11.8952 9.6211 -12.4472 -171.3518 2.3241 176.2104 49.5524 -9.3498 6.6616 13.5546 0.0000 0.0000 1.4783 0.0000 0.0000 -9.5181 0.4571 -0.3085 5.1158 0.0000 0.0000 2.8029 0.0000 0.0000 3.4378 -0.1080 -1.1751 11.6819 0.0000 0.0000 5.5131 0.0000 0.0000 12.5320 -0.7450 -1.5529 20.2378 0.0000 0.0000 15.5348 0.0000 0.0000 19.1646 -1.6611 -1.8831 23.7149 0.0000 0.0000 26.7008 0.0000 0.0000 0.0000 0.0000 0.0000 79.7544 -26.7564 31.7805 180.0869 38.0088 279.8672 -31.6865 -41.7328 -14.7491 -37.3667 -8.0589 -1.3534 11.2658 0.0000 0.0000 12.2603 0.0000 0.0000 15.0243 0.5057 -3.3973 2.1438 0.0000 0.0000 5.4023 0.0000 0.0000 23.1017 -10.1825 51.8795 99.7328 0.0000 0.0000 23.6213 0.0000 0.0000 19.4344 -21.0347 64.6381 91.0375 0.0000 0.0000 29.7870 0.0000 0.0000 3.1662 -23.1899 65.5054 87.2334 0.0000 0.0000 27.4507 0.0000 0.0000 0.0000 0.0000 0.0000 0.0000 0.0000 0.0000 0.0000 0.0000 0.0000 0.0000 0.0000 0.0000 0.0000 0.0000 0.0000 0.0000 0.0000 0.0000
0.0000 95.0000 0.0000 0.0000 0.0000 0.0000 0.0000 0.0000 0.0000 0.0000 0.0000 0.0000 0.0000 0.0000 0.0000 0.0000 0.0000 0.0000 0.0000 0.0000 0.0000 0.0000 0.0000 0.0000 -75.9762 8.8720 11.3460 -12.8189 9.6258 -12.5885 -171.9274 3.2071 175.6706 50.9769 -9.7432 6.4344 15.3138 0.0000 0.0000 0.8055 0.0000 0.0000 -9.4519 0.4778 -0.5493 5.6379 0.0000 0.0000 2.0543 0.0000 0.0000 3.5246 -0.1053 -1.3506 11.6269 0.0000 0.0000 4.2496 0.0000 0.0000 11.5106 -0.7131 -1.8261 20.0443 0.0000 0.0000 15.3926 0.0000 0.0000 18.2760 -1.6479 -2.1387 23.7552 0.0000 0.0000 29.5551 0.0000 0.0000 0.0000 0.0000 0.0000 79.4341 -26.0257 31.0929 177.9434 39.9578 278.3164 -31.0608 -38.7435 -16.1519 -35.9296 -8.2931 0.1887 10.6075 0.0000 0.0000 14.6429 0.0000 0.0000 15.6348 0.5421 -3.5983 1.3810 0.0000 0.0000 6.2158 0.0000 0.0000 24.0250 -11.1599 54.0951 99.1534 0.0000 0.0000 24.8985 0.0000 0.0000 20.7181 -22.8386 67.1028 87.9892 0.0000 0.0000 28.5221 0.0000 0.0000 2.0633 -22.4815 65.3339 88.7634 0.0000 0.0000 24.9291 0.0000 0.0000 0.0000 0.0000 0.0000 0.0000 0.0000 0.0000 0.0000 0.0000 0.0000 0.0000 0.0000 0.0000 0.0000 0.0000 0.0000 0.0000 0.0000 0.0000
0.0000 95.0000 0.0000 0.0000 0.0000 0.0000 0.0000 0.0000 0.0000 0.0000 0.0000 0.0000 0.0000 0.0000 0.0000 0.0000 0.0000 0.0000 0.0000 0.0000 0.0000 0.0000 0.0000 0.0000 -76.1468 8.5796 10.9396 -12.6818 9.9395 -13.1674 -171.9024 5.3876 176.2992 49.4414 -9.4974 5.8616 14.0156 0.0000 0.0000 3.0252 0.0000 0.0000 -8.7427 0.5062 -1.0939 6.3088 0.0000 0.0000 2.4918 0.0000 0.0000 3.9564 -0.0931 -2.0756 14.2139 0.0000 0.0000 5.8425 0.0000 0.0000 12.5718 -0.7779 -2.6016 23.7769 0.0000 0.0000 17.1844 0.0000 0.0000 19.4132 -1.7809 -2.7094 26.0377 0.0000 0.0000 31.5464 0.0000 0.0000 0.0000 0.0000 0.0000 79.6554 -25.6103 30.4894 176.8235 41.1774 277.2988 -32.7522 -38.3882 -14.4608 -35.8063 -8.2549 0.1470 9.7217 0.0000 0.0000 13.8334 0.0000 0.0000 15.6487 0.5265 -3.9827 2.3024 0.0000 0.0000 6.8998 0.0000 0.0000 24.6852 -10.0436 48.5310 102.4366 0.0000 0.0000 23.4870 0.0000 0.0000 23.0194 -22.6705 63.5010 88.8996 0.0000 0.0000 25.1085 0.0000 0.0000 4.9545 -23.8686 64.6700 89.0854 0.0000 0.0000 23.3267 0.0000 0.0000 0.0000 0.0000 0.0000 0.0000 0.0000 0.0000 0.0000 0.0000 0.0000 0.0000 0.0000 0.0000 0.0000 0.0000 0.0000 0.0000 0.0000 0.0000
0.0000 95.0000 0.0000 0.0000 0.0000 0.0000 0.0000 0.0000 0.0000 0.0000 0.0000 0.0000 0.0000 0.0000 0.0000 0.0000 0.0000 0.0000 0.0000 0.0000 0.0000 0.0000 0.0000 0.0000 -76.2778 8.3430 10.6137 -12.5684 10.1737 -13.5981 -171.8346 6.0100 176.9366 49.4414 -9.4974 5.8616 14.0156 0.0000 0.0000 3.0252 0.0000 0.0000 -8.7427 0.5062 -1.0939 6.3088 0.0000 0.0000 2.4918 0.0000 0.0000 3.9564 -0.0931 -2.0756 14.2139 0.0000 0.0000 5.8425 0.0000 0.0000 12.5718 -0.7779 -2.6016 23.7769 0.0000 0.0000 17.1844 0.0000 0.0000 19.4132 -1.7809 -2.7094 26.0377 0.0000 0.0000 31.5464 0.0000 0.0000 0.0000 0.0000 0.0000 79.8119 -25.3182 30.0667 176.0339 41.9740 276.5985 -33.1807 -37.6834 -14.7288 -35.8063 -8.2549 0.1470 9.7217 0.0000 0.0000 13.8334 0.0000 0.0000 15.6487 0.5265 -3.9827 2.3024 0.0000 0.0000 6.8998 0.0000 0.0000 24.6852 -10.0436 48.5310 102.4366 0.0000 0.0000 23.4870 0.0000 0.0000 23.0194 -22.6705 63.5010 88.8996 0.0000 0.0000 25.1085 0.0000 0.0000 4.9545 -23.8686 64.6700 89.0854 0.0000 0.0000 23.3267 0.0000 0.0000 0.0000 0.0000 0.0000 0.0000 0.0000 0.0000 0.0000 0.0000 0.0000 0.0000 0.0000 0.0000 0.0000 0.0000 0.0000 0.0000 0.0000 0.0000
0.0000 95.0000 0.0000 0.0000 0.0000 0.0000 0.0000 0.0000 0.0000 0.0000 0.0000 0.0000 0.0000 0.0000 0.0000 0.0000 0.0000 0.0000 0.0000 0.0000 0.0000 0.0000 0.0000 0.0000 -76.1432 8.2897 10.5714 -12.4957 10.1920 -13.6761 -170.7176 4.9326 176.5211 49.9595 -9.8054 4.9897 15.1669 0.0000 0.0000 1.9734 0.0000 0.0000 -9.8395 0.6116 -1.8099 7.5181 0.0000 0.0000 3.8255 0.0000 0.0000 3.2559 -0.0575 -2.7491 14.9650 0.0000 0.0000 7.0756 0.0000 0.0000 11.7245 -0.7707 -3.1484 26.6904 0.0000 0.0000 22.9885 0.0000 0.0000 18.5373 -1.8558 -3.5634 27.1842 0.0000 0.0000 32.7637 0.0000 0.0000 0.0000 0.0000 0.0000 79.3868 -25.3068 30.2706 175.6559 42.6600 275.9858 -32.9730 -33.8888 -15.6599 -36.3162 -8.5036 0.5889 10.1417 0.0000 0.0000 15.9979 0.0000 0.0000 15.4614 0.4505 -5.3447 2.4581 0.0000 0.0000 5.9163 0.0000 0.0000 22.6960 -10.9734 55.9253 95.8794 0.0000 0.0000 24.9969 0.0000 0.0000 18.5975 -21.3963 66.7921 87.4885 0.0000 0.0000 28.8243 0.0000 0.0000 1.9371 -23.7742 68.6819 84.0173 0.0000 0.0000 27.6300 0.0000 0.0000 0.0000 0.0000 0.0000 0.0000 0.0000 0.0000 0.0000 0.0000 0.0000 0.0000 0.0000 0.0000 0.0000 0.0000 0.0000 0.0000 0.0000 0.0000
0.0000 95.0000 0.0000 0.0000 0.0000 0.0000 0.0000 0.0000 0.0000 0.0000 0.0000 0.0000 0.0000 0.0000 0.0000 0.0000 0.0000 0.0000 0.0000 0.0000 0.0000 0.0000 0.0000 0.0000 -76.2429 8.6824 11.0513 -11.9683 10.2565 -13.5913 -170.1394 4.3998 176.8359 49.8794 -9.5614 6.0471 15.1757 0.0000 0.0000 3.5771 0.0000 0.0000 -9.6144 0.5190 -0.9113 7.8168 0.0000 0.0000 3.9771 0.0000 0.0000 3.4713 -0.0830 -2.0341 15.3741 0.0000 0.0000 8.7007 0.0000 0.0000 10.9623 -0.7139 -2.3361 25.9646 0.0000 0.0000 23.2571 0.0000 0.0000 16.9575 -1.6108 -2.3532 24.3653 0.0000 0.0000 29.1065 0.0000 0.0000 0.0000 0.0000 0.0000 79.3568 -25.1372 30.0858 175.4725 44.9660 274.6151 -37.8113 -37.4905 -9.5035 -33.0679 -6.6277 -2.7578 11.7728 0.0000 0.0000 20.6011 0.0000 0.0000 15.9261 0.5283 -4.4770 3.7965 0.0000 0.0000 2.9244 0.0000 0.0000 32.7342 -10.4945 39.5012 81.4599 0.0000 0.0000 18.3597 0.0000 0.0000 35.7428 -29.0978 61.3075 72.8349 0.0000 0.0000 23.1104 0.0000 0.0000 23.2067 -39.8409 72.4344 63.2637 0.0000 0.0000 29.5069 0.0000 0.0000 0.0000 0.0000 0.0000 0.0000 0.0000 0.0000 0.0000 0.0000 0.0000 0.0000 0.0000 0.0000 0.0000 0.0000 0.0000 0.0000 0.0000 0.0000
0.0000 95.0000 0.0000 0.0000 0.0000 0.0000 0.0000 0.0000 0.0000 0.0000 0.0000 0.0000 0.0000 0.0000 0.0000 0.0000 0.0000 0.0000 0.0000 0.0000 0.0000 0.0000 0.0000 0.0000 -75.9367 9.1167 11.6664 -12.8936 10.5026 -13.9592 -171.3354 4.5264 175.7718 49.2752 -9.5397 5.4900 14.3237 0.0000 0.0000 4.4997 0.0000 0.0000 -9.5853 0.5747 -1.5009 8.3081 0.0000 0.0000 3.9021 0.0000 0.0000 3.4790 -0.0610 -2.7631 17.4222 0.0000 0.0000 9.6894 0.0000 0.0000 12.2185 -0.7786 -2.9711 27.4780 0.0000 0.0000 21.8461 0.0000 0.0000 18.5839 -1.7149 -2.5125 26.5158 0.0000 0.0000 29.1399 0.0000 0.0000 0.0000 0.0000 0.0000 79.1501 -24.4696 29.4007 172.8163 48.1345 271.4602 -45.5061 -34.9341 -8.4335 -33.7886 -7.1247 -1.8574 12.2071 0.0000 0.0000 0.9309 0.0000 0.0000 24.0447 0.7567 10.2523 51.4375 0.0000 0.0000 13.4463 0.0000 0.0000 29.9569 -9.4174 38.9953 92.7885 0.0000 0.0000 21.0721 0.0000 0.0000 23.6692 -14.7532 43.6632 92.8439 0.0000 0.0000 22.7059 0.0000 0.0000 11.5500 -21.2679 51.3743 87.8086 0.0000 0.0000 27.2476 0.0000 0.0000 0.0000 0.0000 0.0000 0.0000 0.0000 0.0000 0.0000 0.0000 0.0000 0.0000 0.0000 0.0000 0.0000 0.0000 0.0000 0.0000 0.0000 0.0000
0.0000 95.0000 0.0000 0.0000 0.0000 0.0000 0.0000 0.0000 0.0000 0.0000 0.0000 0.0000 0.0000 0.0000 0.0000 0.0000 0.0000 0.0000 0.0000 0.0000 0.0000 0.0000 0.0000 0.0000 -75.6965 9.4467 12.1395 -13.5920 10.6736 -14.2088 -171.8075 4.2922 175.5483 49.2752 -9.5397 5.4900 14.3237 0.0000 0.0000 4.4997 0.0000 0.0000 -9.5853 0.5747 -1.5009 8.3081 0.0000 0.0000 3.9021 0.0000 0.0000 3.4790 -0.0610 -2.7631 17.4222 0.0000 0.0000 9.6894 0.0000 0.0000 12.2185 -0.7786 -2.9711 27.4780 0.0000 0.0000 21.8461 0.0000 0.0000 18.5839 -1.7149 -2.5125 26.5158 0.0000 0.0000 29.1399 0.0000 0.0000 0.0000 0.0000 0.0000 79.0368 -23.9624 28.8549 170.5990 50.3216 268.9277 -46.3775 -32.9420 -9.4062 -33.7886 -7.1247 -1.8574 12.2071 0.0000 0.0000 0.9309 0.0000 0.0000 24.0447 0.7567 10.2523 51.4375 0.0000 0.0000 13.4463 0.0000 0.0000 29.9569 -9.4174 38.9953 92.7885 0.0000 0.0000 21.0721 0.0000 0.0000 23.6692 -14.7532 43.6632 92.8439 0.0000 0.0000 22.7059 0.0000 0.0000 11.5500 -21.2679 51.3743 87.8086 0.0000 0.0000 27.2476 0.0000 0.0000 0.0000 0.0000 0.0000 0.0000 0.0000 0.0000 0.0000 0.0000 0.0000 0.0000 0.0000 0.0000 0.0000 0.0000 0.0000 0.0000 0.0000 0.0000
0.0000 95.0000 0.0000 0.0000 0.0000 0.0000 0.0000 0.0000 0.0000 0.0000 0.0000 0.0000 0.0000 0.0000 0.0000 0.0000 0.0000 0.0000 0.0000 0.0000 0.0000 0.0000 0.0000 0.0000 -75.6867 9.8024 12.5973 -13.4506 10.6273 -13.9857 -171.8199 5.5071 175.2825 50.0883 -9.5109 6.5189 12.2484 0.0000 0.0000 9.0655 0.0000 0.0000 -8.8042 0.5659 -1.6524 7.7414 0.0000 0.0000 2.1117 0.0000 0.0000 3.9275 -0.0671 -2.8165 14.2608 0.0000 0.0000 8.6712 0.0000 0.0000 12.1306 -0.7638 -2.6095 19.8113 0.0000 0.0000 16.1695 0.0000 0.0000 16.9175 -1.4143 -1.0644 21.4232 0.0000 0.0000 23.8860 0.0000 0.0000 0.0000 0.0000 0.0000 78.9483 -23.2411 28.0397 165.8698 56.1038 261.7966 -44.8540 -14.5622 -16.9789 -35.7370 -9.9824 5.2275 18.1603 0.0000 0.0000 6.4366 0.0000 0.0000 27.1279 -0.1264 23.0641 60.9212 0.0000 0.0000 18.6865 0.0000 0.0000 23.0879 -12.3276 60.5064 74.3439 0.0000 0.0000 18.1709 0.0000 0.0000 14.9948 -16.9454 60.3778 75.1522 0.0000 0.0000 25.6301 0.0000 0.0000 -0.4453 -21.6903 67.0485 72.0183 0.0000 0.0000 31.0770 0.0000 0.0000 0.0000 0.0000 0.0000 0.0000 0.0000 0.0000 0.0000 0.0000 0.0000 0.0000 0.0000 0.0000 0.0000 0.0000 0.0000 0.0000 0.0000 0.0000
0.0000 95.0000 0.0000 0.0000 0.0000 0.0000 0.0000 0.0000 0.0000 0.0000 0.0000 0.0000 0.0000 0.0000 0.0000 0.0000 0.0000 0.0000 0.0000 0.0000 0.0000 0.0000 0.0000 0.0000 -75.7854 10.0333 12.8703 -13.0140 10.6428 -13.8860 -170.9617 3.4127 175.0502 51.5700 -9.9507 6.1063 13.8109 0.0000 0.0000 12.9668 0.0000 0.0000 -7.1665 0.3954 -0.6191 5.7648 0.0000 0.0000 0.4277 0.0000 0.0000 5.6031 -0.1478 -1.7513 7.6675 0.0000 0.0000 3.1450 0.0000 0.0000 12.7497 -0.7345 -0.8622 12.7583 0.0000 0.0000 8.7222 0.0000 0.0000 13.6637 -0.6107 2.2553 16.2788 0.0000 0.0000 14.9297 0.0000 0.0000 0.0000 0.0000 0.0000 78.8438 -22.3451 27.0199 154.6401 64.1432 246.3954 -45.6105 10.5115 -13.9653 -37.6213 -15.3452 21.4723 41.9216 0.0000 0.0000 20.3388 0.0000 0.0000 32.9823 -4.7681 54.0757 39.9883 0.0000 0.0000 15.4862 0.0000 0.0000 16.5356 -11.5582 74.4859 49.4884 0.0000 0.0000 15.4436 0.0000 0.0000 9.5792 -16.6505 69.2179 50.7256 0.0000 0.0000 33.0747 0.0000 0.0000 -6.9954 -19.1533 71.1850 52.2237 0.0000 0.0000 39.1241 0.0000 0.0000 0.0000 0.0000 0.0000 0.0000 0.0000 0.0000 0.0000 0.0000 0.0000 0.0000 0.0000 0.0000 0.0000 0.0000 0.0000 0.0000 0.0000 0.0000
0.0000 95.0000 0.0000 0.0000 0.0000 0.0000 0.0000 0.0000 0.0000 0.0000 0.0000 0.0000 0.0000 0.0000 0.0000 0.0000 0.0000 0.0000 0.0000 0.0000 0.0000 0.0000 0.0000 0.0000 -75.9640 10.4854 13.4055 -12.8937 10.6445 -13.6693 -169.7667 0.6625 174.4599 51.2070 -9.7207 6.8201 13.4820 0.0000 0.0000 13.8008 0.0000 0.0000 -7.3538 0.2820 0.4205 5.8047 0.0000 0.0000 1.5079 0.0000 0.0000 5.4479 -0.1976 -0.6196 6.8415 0.0000 0.0000 2.3886 0.0000 0.0000 11.9896 -0.6692 -0.0335 10.7832 0.0000 0.0000 7.0475 0.0000 0.0000 14.3790 -0.6257 2.5497 16.6042 0.0000 0.0000 14.9731 0.0000 0.0000 0.0000 0.0000 0.0000 79.3821 -20.5209 24.6078 113.5409 73.4576 196.6185 17.6996 19.5412 50.8189 -30.6134 -9.0475 4.7357 35.4887 0.0000 0.0000 10.0121 0.0000 0.0000 41.4533 -1.2460 16.7235 10.5181 0.0000 0.0000 10.6150 0.0000 0.0000 23.5037 -2.6229 17.3318 29.1354 0.0000 0.0000 12.9118 0.0000 0.0000 15.5670 -2.9544 13.6291 26.9866 0.0000 0.0000 76.2564 0.0000 0.0000 -1.4019 -4.4126 14.7004 33.0969 0.0000 0.0000 64.5933 0.0000 0.0000 0.0000 0.0000 0.0000 0.0000 0.0000 0.0000 0.0000 0.0000 0.0000 0.0000 0.0000 0.0000 0.0000 0.0000 0.0000 0.0000 0.0000 0.0000
0.0000 95.0000 0.0000 0.0000 0.0000 0.0000 0.0000 0.0000 0.0000 0.0000 0.0000 0.0000 0.0000 0.0000 0.0000 0.0000 0.0000 0.0000 0.0000 0.0000 0.0000 0.0000 0.0000 0.0000 -76.0953 10.8273 13.8087 -12.7974 10.6380 -13.4961 -169.8608 0.1850 173.9843 51.2070 -9.7207 6.8201 13.4820 0.0000 0.0000 13.8008 0.0000 0.0000 -7.3538 0.2820 0.4205 5.8047 0.0000 0.0000 1.5079 0.0000 0.0000 5.4479 -0.1976 -0.6196 6.8415 0.0000 0.0000 2.3886 0.0000 0.0000 11.9896 -0.6692 -0.0335 10.7832 0.0000 0.0000 7.0475 0.0000 0.0000 14.3790 -0.6257 2.5497 16.6042 0.0000 0.0000 14.9731 0.0000 0.0000 0.0000 0.0000 0.0000 79.7626 -19.1250 22.7977 76.5904 71.4954 153.1987 24.7757 32.5829 52.4059 -30.6134 -9.0475 4.7357 35.4887 0.0000 0.0000 10.0121 0.0000 0.0000 41.4533 -1.2460 16.7235 10.5181 0.0000 0.0000 10.6150 0.0000 0.0000 23.5037 -2.6229 17.3318 29.1354 0.0000 0.0000 12.9118 0.0000 0.0000 15.5670 -2.9544 13.6291 26.9866 0.0000 0.0000 76.2564 0.0000 0.0000 -1.4019 -4.4126 14.7004 33.0969 0.0000 0.0000 64.5933 0.0000 0.0000 0.0000 0.0000 0.0000 0.0000 0.0000 0.0000 0.0000 0.0000 0.0000 0.0000 0.0000 0.0000 0.0000 0.0000 0.0000 0.0000 0.0000 0.0000
0.0000 95.0000 0.0000 0.0000 0.0000 0.0000 0.0000 0.0000 0.0000 0.0000 0.0000 0.0000 0.0000 0.0000 0.0000 0.0000 0.0000 0.0000 0.0000 0.0000 0.0000 0.0000 0.0000 0.0000 -76.7122 10.9413 13.8012 -12.5602 10.6144 -13.2704 -169.3290 5.9066 175.1464 50.8723 -9.8220 5.9258 13.3091 0.0000 0.0000 14.7787 0.0000 0.0000 -6.6011 0.3040 -0.0545 5.2545 0.0000 0.0000 0.9466 0.0000 0.0000 6.1393 -0.1843 -1.3355 5.6220 0.0000 0.0000 0.5391 0.0000 0.0000 13.3747 -0.7693 -1.0796 9.1502 0.0000 0.0000 4.0357 0.0000 0.0000 17.9082 -1.1561 1.1828 13.4657 0.0000 0.0000 10.1962 0.0000 0.0000 0.0000 0.0000 0.0000 82.3297 -15.5135 17.7098 49.2571 56.9303 111.9446 86.5284 28.9292 69.6154 -42.1100 -7.2157 -7.6232 22.4291 0.0000 0.0000 11.2408 0.0000 0.0000 18.7474 0.8092 -1.6035 4.2575 0.0000 0.0000 7.3999 0.0000 0.0000 -0.1010 -0.0059 -1.8659 17.1952 0.0000 0.0000 10.5835 0.0000 0.0000 -5.3291 0.0821 -4.0588 26.2333 0.0000 0.0000 131.0087 0.0000 0.0000 -22.7037 -1.3218 -3.4518 31.8936 0.0000 0.0000 106.4568 0.0000 0.0000 0.0000 0.0000 0.0000 0.0000 0.0000 0.0000 0.0000 0.0000 0.0000 0.0000 0.0000 0.0000 0.0000 0.0000 0.0000 0.0000 0.0000 0.0000
0.0000 95.0000 0.0000 0.0000 0.0000 0.0000 0.0000 0.0000 0.0000 0.0000 0.0000 0.0000 0.0000 0.0000 0.0000 0.0000 0.0000 0.0000 0.0000 0.0000 0.0000 0.0000 0.0000 0.0000 -77.2923 10.4300 13.0237 -12.5850 10.3451 -12.8874 -170.5648 9.0707 176.0416 51.1326 -9.8853 5.9165 12.8565 0.0000 0.0000 15.9750 0.0000 0.0000 -5.7743 0.3635 -0.7938 6.5245 0.0000 0.0000 1.4834 0.0000 0.0000 7.1016 -0.1815 -1.8482 6.9314 0.0000 0.0000 1.1290 0.0000 0.0000 14.4116 -0.8279 -1.8875 11.5707 0.0000 0.0000 3.0954 0.0000 0.0000 21.2036 -1.6769 -1.0360 15.7885 0.0000 0.0000 10.8734 0.0000 0.0000 0.0000 0.0000 0.0000 84.8334 -10.8997 11.9226 39.6146 38.3419 79.7578 128.7780 47.3304 91.4999 -41.4802 -6.5889 -9.1537 17.5419 0.0000 0.0000 10.7162 0.0000 0.0000 14.9878 0.5234 -2.9797 4.0151 0.0000 0.0000 5.4690 0.0000 0.0000 -1.8834 -0.1148 -2.2036 10.8213 0.0000 0.0000 8.4594 0.0000 0.0000 -4.5288 0.1525 -4.0288 92.0674 0.0000 0.0000 76.2580 0.0000 0.0000 -20.9743 -1.1183 -3.6895 74.6906 0.0000 0.0000 80.6007 0.0000 0.0000 0.0000 0.0000 0.0000 0.0000 0.0000 0.0000 0.0000 0.0000 0.0000 0.0000 0.0000 0.0000 0.0000 0.0000 0.0000 0.0000 0.0000 0.0000
0.0000 95.0000 0.0000 0.0000 0.0000 0.0000 0.0000 0.0000 0.0000 0.0000 0.0000 0.0000 0.0000 0.0000 0.0000 0.0000 0.0000 0.0000 0.0000 0.0000 0.0000 0.0000 0.0000 0.0000 -78.1795 10.0534 12.3589 -11.6510 9.3793 -11.3164 -169.5815 12.9798 176.1569 50.1070 -9.6651 5.8129 12.9470 0.0000 0.0000 13.2858 0.0000 0.0000 -7.1486 0.4459 -1.0542 5.9266 0.0000 0.0000 1.5315 0.0000 0.0000 5.1943 -0.0982 -2.6067 7.8647 0.0000 0.0000 1.3606 0.0000 0.0000 12.8841 -0.7841 -2.4555 12.1818 0.0000 0.0000 2.3819 0.0000 0.0000 20.4677 -1.6536 -1.2234 16.9842 0.0000 0.0000 12.7212 0.0000 0.0000 0.0000 0.0000 0.0000 86.1090 -7.5893 8.1213 30.6806 23.6331 46.5864 176.3654 44.9837 138.9293 -40.3293 -6.1052 -9.6622 15.3373 0.0000 0.0000 10.2252 0.0000 0.0000 14.2316 0.4706 -2.9741 4.8153 0.0000 0.0000 4.2647 0.0000 0.0000 -0.5480 -0.0297 -1.4225 7.4582 0.0000 0.0000 6.5393 0.0000 0.0000 -1.4476 0.3546 -3.4009 161.5290 0.0000 0.0000 13.1713 0.0000 0.0000 -16.6169 -0.7276 -3.2685 132.5821 0.0000 0.0000 31.0810 0.0000 0.0000 0.0000 0.0000 0.0000 0.0000 0.0000 0.0000 0.0000 0.0000 0.0000 0.0000 0.0000 0.0000 0.0000 0.0000 0.0000 0.0000 0.0000 0.0000
0.0000 95.0000 0.0000 0.0000 0.0000 0.0000 0.0000 0.0000 0.0000 0.0000 0.0000 0.0000 0.0000 0.0000 0.0000 0.0000 0.0000 0.0000 0.0000 0.0000 0.0000 0.0000 0.0000 0.0000 -78.8809 9.7585 11.8495 -10.9122 8.6362 -10.1631 -169.5984 12.4269 175.6022 50.1070 -9.6651 5.8129 12.9470 0.0000 0.0000 13.2858 0.0000 0.0000 -7.1486 0.4459 -1.0542 5.9266 0.0000 0.0000 1.5315 0.0000 0.0000 5.1943 -0.0982 -2.6067 7.8647 0.0000 0.0000 1.3606 0.0000 0.0000 12.8841 -0.7841 -2.4555 12.1818 0.0000 0.0000 2.3819 0.0000 0.0000 20.4677 -1.6536 -1.2234 16.9842 0.0000 0.0000 12.7212 0.0000 0.0000 0.0000 0.0000 0.0000 86.6955 -5.3355 5.6520 24.8729 17.7323 31.4828 185.7196 32.1239 156.0864 -40.3293 -6.1052 -9.6622 15.3373 0.0000 0.0000 10.2252 0.0000 0.0000 14.2316 0.4706 -2.9741 4.8153 0.0000 0.0000 4.2647 0.0000 0.0000 -0.5480 -0.0297 -1.4225 7.4582 0.0000 0.0000 6.5393 0.0000 0.0000 -1.4476 0.3546 -3.4009 161.5290 0.0000 0.0000 13.1713 0.0000 0.0000 -16.6169 -0.7276 -3.2685 132.5821 0.0000 0.0000 31.0810 0.0000 0.0000 0.0000 0.0000 0.0000 0.0000 0.0000 0.0000 0.0000 0.0000 0.0000 0.0000 0.0000 0.0000 0.0000 0.0000 0.0000 0.0000 0.0000 0.0000
0.0000 95.0000 0.0000 0.0000 0.0000 0.0000 0.0000 0.0000 0.0000 0.0000 0.0000 0.0000 0.0000 0.0000 0.0000 0.0000 0.0000 0.0000 0.0000 0.0000 0.0000 0.0000 0.0000 0.0000 -79.4842 9.4997 11.4137 -10.2878 8.1771 -9.4736 -169.6257 8.5186 174.8536 49.8916 -9.3457 7.0663 10.9478 0.0000 0.0000 13.5682 0.0000 0.0000 -6.6069 0.2962 0.0106 4.3117 0.0000 0.0000 1.1635 0.0000 0.0000 6.2853 -0.1890 -1.3305 5.6620 0.0000 0.0000 0.6556 0.0000 0.0000 13.4046 -0.7688 -0.9991 9.9783 0.0000 0.0000 2.9132 0.0000 0.0000 19.9869 -1.3734 0.8062 13.2121 0.0000 0.0000 10.5887 0.0000 0.0000 0.0000 0.0000 0.0000 87.1798 -3.4315 3.6046 19.5467 14.4253 22.6013 192.3060 25.4426 166.2077 -50.6986 -9.4614 -7.4717 6.2521 0.0000 0.0000 7.4355 0.0000 0.0000 6.8408 -0.2372 -4.5095 3.0210 0.0000 0.0000 3.7282 0.0000 0.0000 -4.4281 -0.1935 -0.2294 2.3151 0.0000 0.0000 2.9549 0.0000 0.0000 -13.1140 -0.7321 0.0751 11.5447 0.0000 0.0000 3.0185 0.0000 0.0000 -25.6285 -1.9284 0.7428 17.2022 0.0000 0.0000 8.5372 0.0000 0.0000 0.0000 0.0000 0.0000 0.0000 0.0000 0.0000 0.0000 0.0000 0.0000 0.0000 0.0000 0.0000 0.0000 0.0000 0.0000 0.0000 0.0000 0.0000
0.0000 95.0000 0.0000 0.0000 0.0000 0.0000 0.0000 0.0000 0.0000 0.0000 0.0000 0.0000 0.0000 0.0000 0.0000 0.0000 0.0000 0.0000 0.0000 0.0000 0.0000 0.0000 0.0000 0.0000 -80.5225 8.7283 10.2984 -9.1666 7.0731 -7.9714 -169.8642 8.4624 173.3086 50.7288 -9.8438 5.6555 12.4504 0.0000 0.0000 11.8302 0.0000 0.0000 -5.1167 0.2841 -0.3916 4.7398 0.0000 0.0000 1.1758 0.0000 0.0000 7.3757 -0.2359 -1.1124 7.2197 0.0000 0.0000 0.5926 0.0000 0.0000 14.0094 -0.7913 -0.6726 13.1749 0.0000 0.0000 4.5702 0.0000 0.0000 19.5746 -1.3088 1.0590 16.6840 0.0000 0.0000 14.1525 0.0000 0.0000 0.0000 0.0000 0.0000 87.3633 -2.5786 2.7001 14.8135 12.1415 17.1705 181.5218 20.9393 170.0849 -49.3026 -8.8711 -8.5481 6.8574 0.0000 0.0000 15.5941 0.0000 0.0000 14.9225 0.5167 -3.0236 1.4943 0.0000 0.0000 2.1137 0.0000 0.0000 3.1371 0.1441 -0.4883 1.8028 0.0000 0.0000 0.2906 0.0000 0.0000 -6.3058 -0.2530 -1.1753 3.2039 0.0000 0.0000 2.8568 0.0000 0.0000 -15.7324 -0.9440 -1.3834 4.7482 0.0000 0.0000 3.0149 0.0000 0.0000 0.0000 0.0000 0.0000 0.0000 0.0000 0.0000 0.0000 0.0000 0.0000 0.0000 0.0000 0.0000 0.0000 0.0000 0.0000 0.0000 0.0000 0.0000
0.0000 95.0000 0.0000 0.0000 0.0000 0.0000 0.0000 0.0000 0.0000 0.0000 0.0000 0.0000 0.0000 0.0000 0.0000 0.0000 0.0000 0.0000 0.0000 0.0000 0.0000 0.0000 0.0000 0.0000 -80.9664 8.3314 9.7543 -8.9638 6.2983 -6.9338 -171.0323 10.2857 174.1154 51.0730 -9.9352 5.6001 12.3254 0.0000 0.0000 11.5503 0.0000 0.0000 -3.6856 0.3269 -1.0782 6.2184 0.0000 0.0000 1.1120 0.0000 0.0000 8.7139 -0.2199 -1.8862 7.9006 0.0000 0.0000 0.2809 0.0000 0.0000 15.1551 -0.8519 -1.2230 14.1652 0.0000 0.0000 5.1366 0.0000 0.0000 20.3923 -1.4247 0.6448 19.0093 0.0000 0.0000 18.9414 0.0000 0.0000 0.0000 0.0000 0.0000 87.3476 -1.6801 1.7597 11.5339 11.3940 14.9353 178.7993 26.2763 169.3227 -51.5884 -9.6760 -7.5135 6.4104 0.0000 0.0000 13.0575 0.0000 0.0000 11.1586 0.2639 -2.8580 1.9309 0.0000 0.0000 1.8721 0.0000 0.0000 -0.3987 -0.0205 -1.1162 1.3370 0.0000 0.0000 0.8237 0.0000 0.0000 -9.2585 -0.3598 -2.6608 2.1020 0.0000 0.0000 2.7106 0.0000 0.0000 -18.9604 -1.0096 -2.9304 3.0174 0.0000 0.0000 3.4321 0.0000 0.0000 0.0000 0.0000 0.0000 0.0000 0.0000 0.0000 0.0000 0.0000 0.0000 0.0000 0.0000 0.0000 0.0000 0.0000 0.0000 0.0000 0.0000 0.0000
0.0000 95.0000 0.0000 0.0000 0.0000 0.0000 0.0000 0.0000 0.0000 0.0000 0.0000 0.0000 0.0000 0.0000 0.0000 0.0000 0.0000 0.0000 0.0000 0.0000 0.0000 0.0000 0.0000 0.0000 -81.2844 8.0727 9.3990 -8.8290 5.7871 -6.2574 -171.2068 9.9809 173.7925 51.0730 -9.9352 5.6001 12.3254 0.0000 0.0000 11.5503 0.0000 0.0000 -3.6856 0.3269 -1.0782 6.2184 0.0000 0.0000 1.1120 0.0000 0.0000 8.7139 -0.2199 -1.8862 7.9006 0.0000 0.0000 0.2809 0.0000 0.0000 15.1551 -0.8519 -1.2230 14.1652 0.0000 0.0000 5.1366 0.0000 0.0000 20.3923 -1.4247 0.6448 19.0093 0.0000 0.0000 18.9414 0.0000 0.0000 0.0000 0.0000 0.0000 87.3133 -1.0748 1.1264 9.6057 11.1707 14.0161 177.0285 24.8972 169.9479 -51.5884 -9.6760 -7.5135 6.4104 0.0000 0.0000 13.0575 0.0000 0.0000 11.1586 0.2639 -2.8580 1.9309 0.0000 0.0000 1.8721 0.0000 0.0000 -0.3987 -0.0205 -1.1162 1.3370 0.0000 0.0000 0.8237 0.0000 0.0000 -9.2585 -0.3598 -2.6608 2.1020 0.0000 0.0000 2.7106 0.0000 0.0000 -18.9604 -1.0096 -2.9304 3.0174 0.0000 0.0000 3.4321 0.0000 0.0000 0.0000 0.0000 0.0000 0.0000 0.0000 0.0000 0.0000 0.0000 0.0000 0.0000 0.0000 0.0000 0.0000 0.0000 0.0000 0.0000 0.0000 0.0000
0.0000 95.0000 0.0000 0.0000 0.0000 0.0000 0.0000 0.0000 0.0000 0.0000 0.0000 0.0000 0.0000 0.0000 0.0000 0.0000 0.0000 0.0000 0.0000 0.0000 0.0000 0.0000 0.0000 0.0000 -81.4795 7.8246 9.0793 -8.8451 6.0159 -6.6011 -170.6305 12.3120 174.9021 50.3206 -9.8168 5.3284 12.6102 0.0000 0.0000 9.4436 0.0000 0.0000 -4.2257 0.3465 -1.0823 5.7453 0.0000 0.0000 0.8522 0.0000 0.0000 8.1952 -0.2056 -1.9028 8.4067 0.0000 0.0000 0.5950 0.0000 0.0000 14.6831 -0.8293 -1.0879 15.2493 0.0000 0.0000 5.1444 0.0000 0.0000 20.4990 -1.3979 0.9381 17.7726 0.0000 0.0000 17.6672 0.0000 0.0000 0.0000 0.0000 0.0000 87.2540 -0.7749 0.8129 8.2751 10.7712 13.1589 172.7823 35.2704 164.3366 -50.3753 -9.5772 -6.5344 6.7775 0.0000 0.0000 13.1475 0.0000 0.0000 8.5958 0.0304 -3.3806 2.9883 0.0000 0.0000 1.5290 0.0000 0.0000 -2.5504 -0.1284 -0.9925 1.1273 0.0000 0.0000 0.5643 0.0000 0.0000 -11.8561 -0.5662 -2.6097 3.3443 0.0000 0.0000 4.2754 0.0000 0.0000 -21.9288 -1.3250 -2.6852 3.9149 0.0000 0.0000 6.8004 0.0000 0.0000 0.0000 0.0000 0.0000 0.0000 0.0000 0.0000 0.0000 0.0000 0.0000 0.0000 0.0000 0.0000 0.0000 0.0000 0.0000 0.0000 0.0000 0.0000
0.0000 95.0000 0.0000 0.0000 0.0000 0.0000 0.0000 0.0000 0.0000 0.0000 0.0000 0.0000 0.0000 0.0000 0.0000 0.0000 0.0000 0.0000 0.0000 0.0000 0.0000 0.0000 0.0000 0.0000 -81.5121 7.7696 9.0104 -8.8487 5.9402 -6.5054 -170.6180 13.9465 175.0751 50.8653 -9.8853 5.6081 13.8485 0.0000 0.0000 9.7767 0.0000 0.0000 -4.0789 0.3242 -0.9640 6.1981 0.0000 0.0000 1.5871 0.0000 0.0000 9.0167 -0.1937 -2.3161 8.1986 0.0000 0.0000 0.8472 0.0000 0.0000 15.9695 -0.8882 -1.7534 13.8888 0.0000 0.0000 4.2554 0.0000 0.0000 22.3204 -1.6549 -0.1509 18.4405 0.0000 0.0000 17.5917 0.0000 0.0000 0.0000 0.0000 0.0000 87.2201 -0.6874 0.7216 7.0826 10.7101 12.7949 170.6459 41.0332 163.8395 -50.6192 -9.8010 -5.7384 5.4788 0.0000 0.0000 12.2683 0.0000 0.0000 7.0585 -0.0059 -2.7230 1.8794 0.0000 0.0000 1.8328 0.0000 0.0000 -2.7433 -0.1587 -1.8468 1.9483 0.0000 0.0000 0.4285 0.0000 0.0000 -11.9605 -0.5654 -2.8632 3.4802 0.0000 0.0000 3.5209 0.0000 0.0000 -20.3548 -1.0887 -3.4007 3.8492 0.0000 0.0000 4.0630 0.0000 0.0000 0.0000 0.0000 0.0000 0.0000 0.0000 0.0000 0.0000 0.0000 0.0000 0.0000 0.0000 0.0000 0.0000 0.0000 0.0000 0.0000 0.0000 0.0000
0.0000 95.0000 0.0000 0.0000 0.0000 0.0000 0.0000 0.0000 0.0000 0.0000 0.0000 0.0000 0.0000 0.0000 0.0000 0.0000 0.0000 0.0000 0.0000 0.0000 0.0000 0.0000 0.0000 0.0000 -81.6245 7.8802 9.1204 -8.7674 6.0445 -6.6152 -170.1781 14.0763 175.2930 50.1994 -9.6884 5.8055 13.1037 0.0000 0.0000 9.0988 0.0000 0.0000 -4.4230 0.2687 -0.4850 7.5127 0.0000 0.0000 2.3875 0.0000 0.0000 8.1243 -0.2109 -1.8033 9.5818 0.0000 0.0000 1.8336 0.0000 0.0000 14.7899 -0.8339 -1.0551 14.6122 0.0000 0.0000 5.9476 0.0000 0.0000 20.9232 -1.4376 0.8870 17.4411 0.0000 0.0000 17.1930 0.0000 0.0000 0.0000 0.0000 0.0000 87.1877 -0.1883 0.1978 6.2812 10.9752 12.8751 167.7670 48.6993 161.7750 -49.3451 -9.7358 -4.6658 5.3957 0.0000 0.0000 9.9271 0.0000 0.0000 7.1528 0.1250 -1.6695 1.1512 0.0000 0.0000 2.1569 0.0000 0.0000 -2.6145 -0.1349 -1.1331 2.6948 0.0000 0.0000 1.4273 0.0000 0.0000 -10.9291 -0.4970 -2.5342 4.4862 0.0000 0.0000 4.5581 0.0000 0.0000 -18.4370 -0.8113 -3.9940 4.6228 0.0000 0.0000 4.9300 0.0000 0.0000 0.0000 0.0000 0.0000 0.0000 0.0000 0.0000 0.0000 0.0000 0.0000 0.0000 0.0000 0.0000 0.0000 0.0000 0.0000 0.0000 0.0000 0.0000
0.0000 95.0000 0.0000 0.0000 0.0000 0.0000 0.0000 0.0000 0.0000 0.0000 0.0000 0.0000 0.0000 0.0000 0.0000 0.0000 0.0000 0.0000 0.0000 0.0000 0.0000 0.0000 0.0000 0.0000 -81.7096 7.9773 9.2189 -8.7063 6.1417 -6.7200 -170.2067 14.0785 175.2894 50.1994 -9.6884 5.8055 13.1037 0.0000 0.0000 9.0988 0.0000 0.0000 -4.4230 0.2687 -0.4850 7.5127 0.0000 0.0000 2.3875 0.0000 0.0000 8.1243 -0.2109 -1.8033 9.5818 0.0000 0.0000 1.8336 0.0000 0.0000 14.7899 -0.8339 -1.0551 14.6122 0.0000 0.0000 5.9476 0.0000 0.0000 20.9232 -1.4376 0.8870 17.4411 0.0000 0.0000 17.1930 0.0000 0.0000 0.0000 0.0000 0.0000 87.1608 0.1745 -0.1834 5.7215 11.1909 12.9722 166.9696 48.3525 161.4615 -49.3451 -9.7358 -4.6658 5.3957 0.0000 0.0000 9.9271 0.0000 0.0000 7.1528 0.1250 -1.6695 1.1512 0.0000 0.0000 2.1569 0.0000 0.0000 -2.6145 -0.1349 -1.1331 2.6948 0.0000 0.0000 1.4273 0.0000 0.0000 -10.9291 -0.4970 -2.5342 4.4862 0.0000 0.0000 4.5581 0.0000 0.0000 -18.4370 -0.8113 -3.9940 4.6228 0.0000 0.0000 4.9300 0.0000 0.0000 0.0000 0.0000 0.0000 0.0000 0.0000 0.0000 0.0000 0.0000 0.0000 0.0000 0.0000 0.0000 0.0000 0.0000 0.0000 0.0000 0.0000 0.0000
0.0000 95.0000 0.0000 0.0000 0.0000 0.0000 0.0000 0.0000 0.0000 0.0000 0.0000 0.0000 0.0000 0.0000 0.0000 0.0000 0.0000 0.0000 0.0000 0.0000 0.0000 0.0000 0.0000 0.0000 -81.5683 8.2285 9.5325 -8.6119 5.9988 -6.4943 -169.8160 15.1070 175.8147 50.3842 -9.7676 5.6345 13.6467 0.0000 0.0000 7.3204 0.0000 0.0000 -4.9088 0.3312 -0.7964 7.4660 0.0000 0.0000 1.7913 0.0000 0.0000 7.8403 -0.1881 -2.0272 9.4060 0.0000 0.0000 1.1795 0.0000 0.0000 14.9824 -0.8429 -1.0788 15.9036 0.0000 0.0000 5.8527 0.0000 0.0000 20.9091 -1.4288 0.9531 19.9729 0.0000 0.0000 20.8021 0.0000 0.0000 0.0000 0.0000 0.0000 87.4499 0.1072 -0.1121 4.5686 11.0569 12.5059 166.9045 47.0830 160.6054 -48.8273 -9.5059 -5.1728 4.8092 0.0000 0.0000 8.8825 0.0000 0.0000 6.0267 0.0680 -1.5913 2.1475 0.0000 0.0000 2.6669 0.0000 0.0000 -4.2817 -0.1893 -0.2897 1.5747 0.0000 0.0000 0.5313 0.0000 0.0000 -12.1212 -0.5872 -2.6021 4.2707 0.0000 0.0000 4.5924 0.0000 0.0000 -20.1098 -1.0128 -3.8140 3.7735 0.0000 0.0000 4.7644 0.0000 0.0000 0.0000 0.0000 0.0000 0.0000 0.0000 0.0000 0.0000 0.0000 0.0000 0.0000 0.0000 0.0000 0.0000 0.0000 0.0000 0.0000 0.0000 0.0000
0.0000 95.0000 0.0000 0.0000 0.0000 0.0000 0.0000 0.0000 0.0000 0.0000 0.0000 0.0000 0.0000 0.0000 0.0000 0.0000 0.0000 0.0000 0.0000 0.0000 0.0000 0.0000 0.0000 0.0000 -81.4976 8.3981 9.7408 -8.6449 6.2183 -6.7638 -169.8754 15.8824 175.4783 50.2223 -9.8154 5.2272 14.0379 0.0000 0.0000 7.9662 0.0000 0.0000 -4.7466 0.3107 -0.6928 7.2218 0.0000 0.0000 2.5848 0.0000 0.0000 8.0751 -0.1848 -2.1547 9.7931 0.0000 0.0000 1.9618 0.0000 0.0000 15.0396 -0.8492 -1.5247 14.9781 0.0000 0.0000 5.8738 0.0000 0.0000 21.3922 -1.5475 0.2327 19.2693 0.0000 0.0000 18.6375 0.0000 0.0000 0.0000 0.0000 0.0000 87.4335 0.2867 -0.2998 4.1684 11.5853 13.0066 164.2591 48.9613 158.5050 -48.1382 -9.3525 -5.1471 5.7111 0.0000 0.0000 8.6041 0.0000 0.0000 7.3159 0.0977 -1.9864 2.0243 0.0000 0.0000 2.9744 0.0000 0.0000 -2.9539 -0.1339 -0.4160 0.7789 0.0000 0.0000 0.3577 0.0000 0.0000 -10.8002 -0.4831 -2.6187 3.1295 0.0000 0.0000 3.5739 0.0000 0.0000 -19.0272 -0.9277 -3.5959 2.5389 0.0000 0.0000 3.0365 0.0000 0.0000 0.0000 0.0000 0.0000 0.0000 0.0000 0.0000 0.0000 0.0000 0.0000 0.0000 0.0000 0.0000 0.0000 0.0000 0.0000 0.0000 0.0000 0.0000
0.0000 95.0000 0.0000 0.0000 0.0000 0.0000 0.0000 0.0000 0.0000 0.0000 0.0000 0.0000 0.0000 0.0000 0.0000 0.0000 0.0000 0.0000 0.0000 0.0000 0.0000 0.0000 0.0000 0.0000 -81.7085 8.0256 9.2748 -8.4909 5.6713 -6.0841 -170.2156 14.4045 175.7103 50.8721 -9.8680 5.7007 14.0089 0.0000 0.0000 7.8476 0.0000 0.0000 -3.9269 0.2319 -0.3716 7.1112 0.0000 0.0000 2.2264 0.0000 0.0000 8.7187 -0.2194 -1.8938 9.0930 0.0000 0.0000 1.7507 0.0000 0.0000 15.7981 -0.8804 -1.1575 13.4642 0.0000 0.0000 5.3131 0.0000 0.0000 22.2637 -1.5494 0.8298 17.2715 0.0000 0.0000 16.3059 0.0000 0.0000 0.0000 0.0000 0.0000 87.6401 0.0857 -0.0893 3.5246 11.4982 12.7309 166.0281 46.1886 159.0817 -49.7644 -9.6177 -5.6574 6.1442 0.0000 0.0000 7.6484 0.0000 0.0000 6.1948 0.1335 -1.1516 1.9619 0.0000 0.0000 3.4101 0.0000 0.0000 -4.2137 -0.1833 -0.2070 1.6097 0.0000 0.0000 1.1795 0.0000 0.0000 -12.2184 -0.6007 -2.4225 3.6936 0.0000 0.0000 4.3561 0.0000 0.0000 -22.3254 -1.5488 -0.8827 3.2352 0.0000 0.0000 4.9051 0.0000 0.0000 0.0000 0.0000 0.0000 0.0000 0.0000 0.0000 0.0000 0.0000 0.0000 0.0000 0.0000 0.0000 0.0000 0.0000 0.0000 0.0000 0.0000 0.0000
0.0000 95.0000 0.0000 0.0000 0.0000 0.0000 0.0000 0.0000 0.0000 0.0000 0.0000 0.0000 0.0000 0.0000 0.0000 0.0000 0.0000 0.0000 0.0000 0.0000 0.0000 0.0000 0.0000 0.0000 -81.8654 7.7466 8.9281 -8.3794 5.2641 -5.5825 -170.2496 14.2593 175.5589 50.8721 -9.8680 5.7007 14.0089 0.0000 0.0000 7.8476 0.0000 0.0000 -3.9269 0.2319 -0.3716 7.1112 0.0000 0.0000 2.2264 0.0000 0.0000 8.7187 -0.2194 -1.8938 9.0930 0.0000 0.0000 1.7507 0.0000 0.0000 15.7981 -0.8804 -1.1575 13.4642 0.0000 0.0000 5.3131 0.0000 0.0000 22.2637 -1.5494 0.8298 17.2715 0.0000 0.0000 16.3059 0.0000 0.0000 0.0000 0.0000 0.0000 87.7962 -0.0592 0.0615 3.0394 11.4258 12.5159 165.6172 46.1147 158.8137 -49.7644 -9.6177 -5.6574 6.1442 0.0000 0.0000 7.6484 0.0000 0.0000 6.1948 0.1335 -1.1516 1.9619 0.0000 0.0000 3.4101 0.0000 0.0000 -4.2137 -0.1833 -0.2070 1.6097 0.0000 0.0000 1.1795 0.0000 0.0000 -12.2184 -0.6007 -2.4225 3.6936 0.0000 0.0000 4.3561 0.0000 0.0000 -22.3254 -1.5488 -0.8827 3.2352 0.0000 0.0000 4.9051 0.0000 0.0000 0.0000 0.0000 0.0000 0.0000 0.0000 0.0000 0.0000 0.0000 0.0000 0.0000 0.0000 0.0000 0.0000 0.0000 0.0000 0.0000 0.0000 0.0000
0.0000 95.0000 0.0000 0.0000 0.0000 0.0000 0.0000 0.0000 0.0000 0.0000 0.0000 0.0000 0.0000 0.0000 0.0000 0.0000 0.0000 0.0000 0.0000 0.0000 0.0000 0.0000 0.0000 0.0000 -81.7409 8.1105 9.3675 -8.2588 5.3977 -5.7097 -170.4204 10.7054 174.2168 50.9460 -9.7744 6.2451 13.5003 0.0000 0.0000 7.7990 0.0000 0.0000 -3.6840 0.2289 -0.4196 6.2904 0.0000 0.0000 1.7708 0.0000 0.0000 8.2335 -0.2308 -1.5666 9.5471 0.0000 0.0000 1.6450 0.0000 0.0000 14.6648 -0.8220 -0.5283 17.3318 0.0000 0.0000 7.7430 0.0000 0.0000 20.3460 -1.2868 1.7567 21.0920 0.0000 0.0000 23.0989 0.0000 0.0000 0.0000 0.0000 0.0000 87.8555 0.0646 -0.0671 3.0442 11.5212 12.6042 164.5497 49.6487 157.3117 -50.1971 -9.6680 -5.8998 6.5859 0.0000 0.0000 9.2232 0.0000 0.0000 6.7547 0.1964 -0.8874 2.5252 0.0000 0.0000 2.6655 0.0000 0.0000 -3.8440 -0.1464 0.4121 1.3777 0.0000 0.0000 1.1851 0.0000 0.0000 -11.8620 -0.6134 -1.3167 3.4938 0.0000 0.0000 3.7959 0.0000 0.0000 -21.1729 -1.4928 -0.5743 4.0038 0.0000 0.0000 4.9541 0.0000 0.0000 0.0000 0.0000 0.0000 0.0000 0.0000 0.0000 0.0000 0.0000 0.0000 0.0000 0.0000 0.0000 0.0000 0.0000 0.0000 0.0000 0.0000 0.0000
0.0000 95.0000 0.0000 0.0000 0.0000 0.0000 0.0000 0.0000 0.0000 0.0000 0.0000 0.0000 0.0000 0.0000 0.0000 0.0000 0.0000 0.0000 0.0000 0.0000 0.0000 0.0000 0.0000 0.0000 -81.6978 8.1490 9.4190 -8.1890 5.4055 -5.7215 -170.4782 11.1868 173.8256 50.9546 -9.8999 5.6385 13.1684 0.0000 0.0000 7.4219 0.0000 0.0000 -3.6636 0.2838 -0.7942 7.7453 0.0000 0.0000 2.3578 0.0000 0.0000 8.5441 -0.2252 -1.7572 9.6103 0.0000 0.0000 1.7445 0.0000 0.0000 14.6434 -0.8254 -0.9062 15.4892 0.0000 0.0000 7.4407 0.0000 0.0000 20.3654 -1.3861 0.9477 19.2754 0.0000 0.0000 21.4095 0.0000 0.0000 0.0000 0.0000 0.0000 87.7955 0.0886 -0.0921 3.1275 11.4290 12.5337 166.2872 46.7318 160.0674 -49.7454 -9.5528 -5.9386 6.7288 0.0000 0.0000 7.3807 0.0000 0.0000 7.1886 0.1999 -1.0509 1.9576 0.0000 0.0000 2.9950 0.0000 0.0000 -3.1947 -0.1268 0.2260 1.9332 0.0000 0.0000 0.3130 0.0000 0.0000 -11.6858 -0.5909 -1.6015 3.6841 0.0000 0.0000 4.2117 0.0000 0.0000 -21.2759 -1.4998 -0.5816 4.4215 0.0000 0.0000 5.9101 0.0000 0.0000 0.0000 0.0000 0.0000 0.0000 0.0000 0.0000 0.0000 0.0000 0.0000 0.0000 0.0000 0.0000 0.0000 0.0000 0.0000 0.0000 0.0000 0.0000
0.0000 95.0000 0.0000 0.0000 0.0000 0.0000 0.0000 0.0000 0.0000 0.0000 0.0000 0.0000 0.0000 0.0000 0.0000 0.0000 0.0000 0.0000 0.0000 0.0000 0.0000 0.0000 0.0000 0.0000 -81.4493 8.1777 9.4936 -8.3476 5.5094 -5.8699 -170.6817 11.8209 173.7319 51.4763 -10.1350 5.0648 13.7054 0.0000 0.0000 6.5887 0.0000 0.0000 -3.6516 0.3534 -1.2645 7.9268 0.0000 0.0000 2.6648 0.0000 0.0000 8.6625 -0.1703 -2.5237 9.5286 0.0000 0.0000 2.1536 0.0000 0.0000 14.8054 -0.8417 -1.7424 15.2481 0.0000 0.0000 7.3419 0.0000 0.0000 20.2883 -1.4469 0.3955 18.8458 0.0000 0.0000 20.1010 0.0000 0.0000 0.0000 0.0000 0.0000 87.5749 0.1533 -0.1599 3.3378 11.1067 12.2693 166.7993 46.6289 160.2143 -49.7993 -9.4922 -6.2800 6.6634 0.0000 0.0000 8.0150 0.0000 0.0000 6.6046 0.1967 -0.8208 1.9399 0.0000 0.0000 2.8364 0.0000 0.0000 -3.7213 -0.1521 0.0915 2.0931 0.0000 0.0000 0.3384 0.0000 0.0000 -11.8685 -0.5943 -1.8571 4.0638 0.0000 0.0000 4.4743 0.0000 0.0000 -20.9307 -1.3692 -1.4838 5.2629 0.0000 0.0000 6.9089 0.0000 0.0000 0.0000 0.0000 0.0000 0.0000 0.0000 0.0000 0.0000 0.0000 0.0000 0.0000 0.0000 0.0000 0.0000 0.0000 0.0000 0.0000 0.0000 0.0000
0.0000 95.0000 0.0000 0.0000 0.0000 0.0000 0.0000 0.0000 0.0000 0.0000 0.0000 0.0000 0.0000 0.0000 0.0000 0.0000 0.0000 0.0000 0.0000 0.0000 0.0000 0.0000 0.0000 0.0000 -81.2603 8.1973 9.5480 -8.4688 5.5819 -5.9756 -170.6151 11.8778 173.7989 51.4763 -10.1350 5.0648 13.7054 0.0000 0.0000 6.5887 0.0000 0.0000 -3.6516 0.3534 -1.2645 7.9268 0.0000 0.0000 2.6648 0.0000 0.0000 8.6625 -0.1703 -2.5237 9.5286 0.0000 0.0000 2.1536 0.0000 0.0000 14.8054 -0.8417 -1.7424 15.2481 0.0000 0.0000 7.3419 0.0000 0.0000 20.2883 -1.4469 0.3955 18.8458 0.0000 0.0000 20.1010 0.0000 0.0000 0.0000 0.0000 0.0000 87.4049 0.2012 -0.2105 3.5216 10.8753 12.0854 167.0010 46.4042 160.6090 -49.7993 -9.4922 -6.2800 6.6634 0.0000 0.0000 8.0150 0.0000 0.0000 6.6046 0.1967 -0.8208 1.9399 0.0000 0.0000 2.8364 0.0000 0.0000 -3.7213 -0.1521 0.0915 2.0931 0.0000 0.0000 0.3384 0.0000 0.0000 -11.8685 -0.5943 -1.8571 4.0638 0.0000 0.0000 4.4743 0.0000 0.0000 -20.9307 -1.3692 -1.4838 5.2629 0.0000 0.0000 6.9089 0.0000 0.0000 0.0000 0.0000 0.0000 0.0000 0.0000 0.0000 0.0000 0.0000 0.0000 0.0000 0.0000 0.0000 0.0000 0.0000 0.0000 0.0000 0.0000 0.0000
0.0000 95.0000 0.0000 0.0000 0.0000 0.0000 0.0000 0.0000 0.0000 0.0000 0.0000 0.0000 0.0000 0.0000 0.0000 0.0000 0.0000 0.0000 0.0000 0.0000 0.0000 0.0000 0.0000 0.0000 -81.3334 8.4635 9.8449 -8.2936 5.3800 -5.6527 -170.3561 9.9689 173.3016 51.2797 -10.0141 5.4461 13.5298 0.0000 0.0000 5.5493 0.0000 0.0000 -3.9310 0.2693 -0.6256 6.8508 0.0000 0.0000 2.4604 0.0000 0.0000 7.8644 -0.1980 -1.8914 9.4208 0.0000 0.0000 2.3225 0.0000 0.0000 14.5256 -0.8216 -1.0498 15.0920 0.0000 0.0000 6.5316 0.0000 0.0000 19.8636 -1.3024 1.2973 18.1014 0.0000 0.0000 18.5512 0.0000 0.0000 0.0000 0.0000 0.0000 87.5428 0.0939 -0.0980 3.2237 11.0183 12.1569 166.0301 47.2071 159.8290 -49.0286 -9.3803 -5.9487 5.6287 0.0000 0.0000 8.3033 0.0000 0.0000 6.5168 0.1918 -0.8236 1.9337 0.0000 0.0000 2.8485 0.0000 0.0000 -3.9987 -0.1687 -0.0580 1.4275 0.0000 0.0000 0.2953 0.0000 0.0000 -12.0538 -0.6043 -1.9539 3.2815 0.0000 0.0000 4.4225 0.0000 0.0000 -21.5559 -1.4737 -1.0135 3.8273 0.0000 0.0000 5.6846 0.0000 0.0000 0.0000 0.0000 0.0000 0.0000 0.0000 0.0000 0.0000 0.0000 0.0000 0.0000 0.0000 0.0000 0.0000 0.0000 0.0000 0.0000 0.0000 0.0000
