HIERARCHY
ROOT Hips
{
  OFFSET 0.000000 95.000000 0.000000
  CHANNELS 6 Xposition Yposition Zposition Zrotation Xrotation Yrotation
  JOINT Spine
  {
    OFFSET 0.000000 10.000000 0.000000
    CHANNELS 3 Zrotation Xrotation Yrotation
    JOINT Spine1
    {
      OFFSET 0.000000 12.000000 0.000000
      CHANNELS 3 Zrotation Xrotation Yrotation
      JOINT Spine2
      {
        OFFSET 0.000000 12.000000 0.000000
        CHANNELS 3 Zrotation Xrotation Yrotation
        JOINT Neck
        {
          OFFSET 0.000000 10.000000 0.000000
          CHANNELS 3 Zrotation Xrotation Yrotation
          JOINT Head
          {
            OFFSET 0.000000 8.000000 0.000000
            CHANNELS 3 Zrotation Xrotation Yrotation
            End Site
            {
              OFFSET 0.000000 10.000000 0.000000
            }
          }
        }
        JOINT LeftShoulder
        {
          OFFSET 6.000000 8.000000 0.000000
          CHANNELS 3 Zrotation Xrotation Yrotation
          JOINT LeftArm
          {
            OFFSET 12.000000 0.000000 0.000000
            CHANNELS 3 Zrotation Xrotation Yrotation
            JOINT LeftForeArm
            {
              OFFSET 24.000000 0.000000 0.000000
              CHANNELS 3 Zrotation Xrotation Yrotation
              JOINT LeftHand
              {
                OFFSET 22.000000 0.000000 0.000000
                CHANNELS 3 Zrotation Xrotation Yrotation
                JOINT LeftHandThumb1
                {
                  OFFSET 1.800000 -1.400000 0.500000
                  CHANNELS 3 Zrotation Xrotation Yrotation
                  JOINT LeftHandThumb2
                  {
                    OFFSET 2.400000 0.000000 0.000000
                    CHANNELS 3 Zrotation Xrotation Yrotation
                    JOINT LeftHandThumb3
                    {
                      OFFSET 1.900000 0.000000 0.000000
                      CHANNELS 3 Zrotation Xrotation Yrotation
                      End Site
                      {
                        OFFSET 1.600000 0.000000 0.000000
                      }
                    }
                  }
                }
                JOINT LeftHandIndex1
                {
                  OFFSET 6.600000 1.200000 0.300000
                  CHANNELS 3 Zrotation Xrotation Yrotation
                  JOINT LeftHandIndex2
                  {
                    OFFSET 2.000000 0.000000 0.000000
                    CHANNELS 3 Zrotation Xrotation Yrotation
                    JOINT LeftHandIndex3
                    {
                      OFFSET 1.200000 0.000000 0.000000
                      CHANNELS 3 Zrotation Xrotation Yrotation
                      End Site
                      {
                        OFFSET 1.000000 0.000000 0.000000
                      }
                    }
                  }
                }
                JOINT LeftHandMiddle1
                {
                  OFFSET 7.200000 0.000000 0.300000
                  CHANNELS 3 Zrotation Xrotation Yrotation
                  JOINT LeftHandMiddle2
                  {
                    OFFSET 3.000000 0.000000 0.000000
                    CHANNELS 3 Zrotation Xrotation Yrotation
                    JOINT LeftHandMiddle3
                    {
                      OFFSET 2.000000 0.000000 0.000000
                      CHANNELS 3 Zrotation Xrotation Yrotation
                      End Site
                      {
                        OFFSET 1.600000 0.000000 0.000000
                      }
                    }
                  }
                }
                JOINT LeftHandRing1
                {
                  OFFSET 7.100000 -1.000000 0.400000
                  CHANNELS 3 Zrotation Xrotation Yrotation
                  JOINT LeftHandRing2
                  {
                    OFFSET 2.600000 0.000000 0.000000
                    CHANNELS 3 Zrotation Xrotation Yrotation
                    JOINT LeftHandRing3
                    {
                      OFFSET 1.600000 0.000000 0.000000
                      CHANNELS 3 Zrotation Xrotation Yrotation
                      End Site
                      {
                        OFFSET 1.300000 0.000000 0.000000
                      }
                    }
                  }
                }
                JOINT LeftHandPinky1
                {
                  OFFSET 6.500000 -2.000000 0.500000
                  CHANNELS 3 Zrotation Xrotation Yrotation
                  JOINT LeftHandPinky2
                  {
                    OFFSET 1.900000 0.000000 0.000000
                    CHANNELS 3 Zrotation Xrotation Yrotation
                    JOINT LeftHandPinky3
                    {
                      OFFSET 1.400000 0.000000 0.000000
                      CHANNELS 3 Zrotation Xrotation Yrotation
                      End Site
                      {
                        OFFSET 1.300000 0.000000 0.000000
                      }
                    }
                  }
                }
              }
            }
          }
        }
        JOINT RightShoulder
        {
          OFFSET -6.000000 8.000000 0.000000
          CHANNELS 3 Zrotation Xrotation Yrotation
          JOINT RightArm
          {
            OFFSET -12.000000 0.000000 0.000000
            CHANNELS 3 Zrotation Xrotation Yrotation
            JOINT RightForeArm
            {
              OFFSET -24.000000 0.000000 0.000000
              CHANNELS 3 Zrotation Xrotation Yrotation
              JOINT RightHand
              {
                OFFSET -22.000000 0.000000 0.000000
                CHANNELS 3 Zrotation Xrotation Yrotation
                JOINT RightHandThumb1
                {
                  OFFSET -1.800000 -1.400000 0.500000
                  CHANNELS 3 Zrotation Xrotation Yrotation
                  JOINT RightHandThumb2
                  {
                    OFFSET -2.400000 0.000000 0.000000
                    CHANNELS 3 Zrotation Xrotation Yrotation
                    JOINT RightHandThumb3
                    {
                      OFFSET -1.900000 0.000000 0.000000
                      CHANNELS 3 Zrotation Xrotation Yrotation
                      End Site
                      {
                        OFFSET -1.600000 0.000000 0.000000
                      }
                    }
                  }
                }
                JOINT RightHandIndex1
                {
                  OFFSET -6.600000 1.200000 0.300000
                  CHANNELS 3 Zrotation Xrotation Yrotation
                  JOINT RightHandIndex2
                  {
                    OFFSET -2.000000 0.000000 0.000000
                    CHANNELS 3 Zrotation Xrotation Yrotation
                    JOINT RightHandIndex3
                    {
                      OFFSET -1.200000 0.000000 0.000000
                      CHANNELS 3 Zrotation Xrotation Yrotation
                      End Site
                      {
                        OFFSET -1.000000 0.000000 0.000000
                      }
                    }
                  }
                }
                JOINT RightHandMiddle1
                {
                  OFFSET -7.200000 0.000000 0.300000
                  CHANNELS 3 Zrotation Xrotation Yrotation
                  JOINT RightHandMiddle2
                  {
                    OFFSET -3.000000 0.000000 0.000000
                    CHANNELS 3 Zrotation Xrotation Yrotation
                    JOINT RightHandMiddle3
                    {
                      OFFSET -2.000000 0.000000 0.000000
                      CHANNELS 3 Zrotation Xrotation Yrotation
                      End Site
                      {
                        OFFSET -1.600000 0.000000 0.000000
                      }
                    }
                  }
                }
                JOINT RightHandRing1
                {
                  OFFSET -7.100000 -1.000000 0.400000
                  CHANNELS 3 Zrotation Xrotation Yrotation
                  JOINT RightHandRing2
                  {
                    OFFSET -2.600000 0.000000 0.000000
                    CHANNELS 3 Zrotation Xrotation Yrotation
                    JOINT RightHandRing3
                    {
                      OFFSET -1.600000 0.000000 0.000000
                      CHANNELS 3 Zrotation Xrotation Yrotation
                      End Site
                      {
                        OFFSET -1.300000 0.000000 0.000000
                      }
                    }
                  }
                }
                JOINT RightHandPinky1
                {
                  OFFSET -6.500000 -2.000000 0.500000
                  CHANNELS 3 Zrotation Xrotation Yrotation
                  JOINT RightHandPinky2
                  {
                    OFFSET -1.900000 0.000000 0.000000
                    CHANNELS 3 Zrotation Xrotation Yrotation
                    JOINT RightHandPinky3
                    {
                      OFFSET -1.400000 0.000000 0.000000
                      CHANNELS 3 Zrotation Xrotation Yrotation
                      End Site
                      {
                        OFFSET -1.300000 0.000000 0.000000
                      }
                    }
                  }
                }
              }
            }
          }
        }
      }
    }
  }
  JOINT LeftUpLeg
  {
    OFFSET 10.000000 -5.000000 0.000000
    CHANNELS 3 Zrotation Xrotation Yrotation
    JOINT LeftLeg
    {
      OFFSET 0.000000 -42.000000 0.000000
      CHANNELS 3 Zrotation Xrotation Yrotation
      JOINT LeftFoot
      {
        OFFSET 0.000000 -42.000000 4.000000
        CHANNELS 3 Zrotation Xrotation Yrotation
        End Site
        {
          OFFSET 0.000000 0.000000 12.000000
        }
      }
    }
  }
  JOINT RightUpLeg
  {
    OFFSET -10.000000 -5.000000 0.000000
    CHANNELS 3 Zrotation Xrotation Yrotation
    JOINT RightLeg
    {
      OFFSET 0.000000 -42.000000 0.000000
      CHANNELS 3 Zrotation Xrotation Yrotation
      JOINT RightFoot
      {
        OFFSET 0.000000 -42.000000 4.000000
        CHANNELS 3 Zrotation Xrotation Yrotation
        End Site
        {
          OFFSET 0.000000 0.000000 12.000000
        }
      }
    }
  }
}
MOTION
Frames: 60
Frame Time: 0.033333
0.0000 95.0000 0.0000 0.0000 0.0000 0.0000 0.0000 0.0000 0.0000 0.0000 0.0000 0.0000 0.0000 0.0000 0.0000 0.0000 0.0000 0.0000 0.0000 0.0000 0.0000 0.0000 0.0000 0.0000 -78.9265 0.5086 0.6177 -8.3033 -6.2126 8.8555 58.6574 -5.6217 178.4842 50.9279 -8.9363 10.2880 27.1696 0.0000 0.0000 4.9253 0.0000 0.0000 -26.7597 1.6833 9.1013 22.2782 0.0000 0.0000 43.8252 0.0000 0.0000 -37.1278 2.1687 1.6798 53.3969 0.0000 0.0000 90.0000 0.0000 0.0000 -30.7113 3.2963 3.3482 110.0000 0.0000 0.0000 58.3882 0.0000 0.0000 -23.6787 3.8011 3.2872 110.0000 0.0000 0.0000 27.2743 0.0000 0.0000 0.0000 0.0000 0.0000 81.7830 -5.5026 6.3527 0.8596 7.3213 8.5681 9.6437 18.1188 145.3019 -69.5007 -14.0064 -8.2065 4.7586 0.0000 0.0000 5.3908 0.0000 0.0000 5.1126 0.2905 0.4399 2.2335 0.0000 0.0000 2.1489 0.0000 0.0000 -2.0857 0.0123 5.4464 4.5195 0.0000 0.0000 2.0045 0.0000 0.0000 -10.1668 -0.8727 6.0065 6.3258 0.0000 0.0000 1.1306 0.0000 0.0000 -18.3494 -2.0917 5.3297 6.6788 0.0000 0.0000 2.9997 0.0000 0.0000 0.0000 0.0000 0.0000 0.0000 0.0000 0.0000 0.0000 0.0000 0.0000 0.0000 0.0000 0.0000 0.0000 0.0000 0.0000 0.0000 0.0000 0.0000
0.0000 95.0000 0.0000 0.0000 0.0000 0.0000 0.0000 0.0000 0.0000 0.0000 0.0000 0.0000 0.0000 0.0000 0.0000 0.0000 0.0000 0.0000 0.0000 0.0000 0.0000 0.0000 0.0000 0.0000 -78.7497 0.9012 1.0981 -8.4415 -5.6489 8.1856 58.6046 -5.4475 178.6678 50.9279 -8.9363 10.2880 27.1696 0.0000 0.0000 4.9253 0.0000 0.0000 -26.7597 1.6833 9.1013 22.2782 0.0000 0.0000 43.8252 0.0000 0.0000 -37.1278 2.1687 1.6798 53.3969 0.0000 0.0000 90.0000 0.0000 0.0000 -30.7113 3.2963 3.3482 110.0000 0.0000 0.0000 58.3882 0.0000 0.0000 -23.6787 3.8011 3.2872 110.0000 0.0000 0.0000 27.2743 0.0000 0.0000 0.0000 0.0000 0.0000 81.6689 -5.1471 5.9544 0.9188 7.8294 9.1892 9.3794 18.1841 145.0389 -69.5007 -14.0064 -8.2065 4.7586 0.0000 0.0000 5.3908 0.0000 0.0000 5.1126 0.2905 0.4399 2.2335 0.0000 0.0000 2.1489 0.0000 0.0000 -2.0857 0.0123 5.4464 4.5195 0.0000 0.0000 2.0045 0.0000 0.0000 -10.1668 -0.8727 6.0065 6.3258 0.0000 0.0000 1.1306 0.0000 0.0000 -18.3494 -2.0917 5.3297 6.6788 0.0000 0.0000 2.9997 0.0000 0.0000 0.0000 0.0000 0.0000 0.0000 0.0000 0.0000 0.0000 0.0000 0.0000 0.0000 0.0000 0.0000 0.0000 0.0000 0.0000 0.0000 0.0000 0.0000
0.0000 95.0000 0.0000 0.0000 0.0000 0.0000 0.0000 0.0000 0.0000 0.0000 0.0000 0.0000 0.0000 0.0000 0.0000 0.0000 0.0000 0.0000 0.0000 0.0000 0.0000 0.0000 0.0000 0.0000 -78.7031 0.8174 0.9968 -8.5231 -5.6120 8.1384 58.5644 -5.3146 178.8076 50.9279 -8.9363 10.2880 27.1696 0.0000 0.0000 4.9253 0.0000 0.0000 -26.7597 1.6833 9.1013 22.2782 0.0000 0.0000 43.8252 0.0000 0.0000 -37.1278 2.1687 1.6798 53.3969 0.0000 0.0000 90.0000 0.0000 0.0000 -30.7113 3.2963 3.3482 110.0000 0.0000 0.0000 58.3882 0.0000 0.0000 -23.6787 3.8011 3.2872 110.0000 0.0000 0.0000 27.2743 0.0000 0.0000 0.0000 0.0000 0.0000 81.4491 -4.5866 5.3268 1.5557 7.7335 9.2811 10.0454 17.8989 145.8298 -69.5007 -14.0064 -8.2065 4.7586 0.0000 0.0000 5.3908 0.0000 0.0000 5.1126 0.2905 0.4399 2.2335 0.0000 0.0000 2.1489 0.0000 0.0000 -2.0857 0.0123 5.4464 4.5195 0.0000 0.0000 2.0045 0.0000 0.0000 -10.1668 -0.8727 6.0065 6.3258 0.0000 0.0000 1.1306 0.0000 0.0000 -18.3494 -2.0917 5.3297 6.6788 0.0000 0.0000 2.9997 0.0000 0.0000 0.0000 0.0000 0.0000 0.0000 0.0000 0.0000 0.0000 0.0000 0.0000 0.0000 0.0000 0.0000 0.0000 0.0000 0.0000 0.0000 0.0000 0.0000
0.0000 95.0000 0.0000 0.0000 0.0000 0.0000 0.0000 0.0000 0.0000 0.0000 0.0000 0.0000 0.0000 0.0000 0.0000 0.0000 0.0000 0.0000 0.0000 0.0000 0.0000 0.0000 0.0000 0.0000 -78.6796 0.2962 0.3614 -9.1290 -5.5460 8.0423 57.9773 -4.6393 179.4995 50.9279 -8.9363 10.2880 27.1696 0.0000 0.0000 4.9253 0.0000 0.0000 -26.7597 1.6833 9.1013 22.2782 0.0000 0.0000 43.8252 0.0000 0.0000 -37.1278 2.1687 1.6798 53.3969 0.0000 0.0000 90.0000 0.0000 0.0000 -30.7113 3.2963 3.3482 110.0000 0.0000 0.0000 58.3882 0.0000 0.0000 -23.6787 3.8011 3.2872 110.0000 0.0000 0.0000 27.2743 0.0000 0.0000 0.0000 0.0000 0.0000 80.9862 -4.0570 4.7505 2.5571 7.8343 9.7263 10.6158 17.8974 146.2373 -69.5007 -14.0064 -8.2065 4.7586 0.0000 0.0000 5.3908 0.0000 0.0000 5.1126 0.2905 0.4399 2.2335 0.0000 0.0000 2.1489 0.0000 0.0000 -2.0857 0.0123 5.4464 4.5195 0.0000 0.0000 2.0045 0.0000 0.0000 -10.1668 -0.8727 6.0065 6.3258 0.0000 0.0000 1.1306 0.0000 0.0000 -18.3494 -2.0917 5.3297 6.6788 0.0000 0.0000 2.9997 0.0000 0.0000 0.0000 0.0000 0.0000 0.0000 0.0000 0.0000 0.0000 0.0000 0.0000 0.0000 0.0000 0.0000 0.0000 0.0000 0.0000 0.0000 0.0000 0.0000
0.0000 95.0000 0.0000 0.0000 0.0000 0.0000 0.0000 0.0000 0.0000 0.0000 0.0000 0.0000 0.0000 0.0000 0.0000 0.0000 0.0000 0.0000 0.0000 0.0000 0.0000 0.0000 0.0000 0.0000 -78.3884 0.6016 0.7377 -9.7083 -5.1225 7.6289 57.6351 -4.5540 179.5750 50.9279 -8.9363 10.2880 27.1696 0.0000 0.0000 4.9253 0.0000 0.0000 -26.7597 1.6833 9.1013 22.2782 0.0000 0.0000 43.8252 0.0000 0.0000 -37.1278 2.1687 1.6798 53.3969 0.0000 0.0000 90.0000 0.0000 0.0000 -30.7113 3.2963 3.3482 110.0000 0.0000 0.0000 58.3882 0.0000 0.0000 -23.6787 3.8011 3.2872 110.0000 0.0000 0.0000 27.2743 0.0000 0.0000 0.0000 0.0000 0.0000 79.6056 -3.1832 3.8198 5.3003 10.4528 14.0239 9.7535 20.2137 143.1216 -69.5007 -14.0064 -8.2065 4.7586 0.0000 0.0000 5.3908 0.0000 0.0000 5.1126 0.2905 0.4399 2.2335 0.0000 0.0000 2.1489 0.0000 0.0000 -2.0857 0.0123 5.4464 4.5195 0.0000 0.0000 2.0045 0.0000 0.0000 -10.1668 -0.8727 6.0065 6.3258 0.0000 0.0000 1.1306 0.0000 0.0000 -18.3494 -2.0917 5.3297 6.6788 0.0000 0.0000 2.9997 0.0000 0.0000 0.0000 0.0000 0.0000 0.0000 0.0000 0.0000 0.0000 0.0000 0.0000 0.0000 0.0000 0.0000 0.0000 0.0000 0.0000 0.0000 0.0000 0.0000
0.0000 95.0000 0.0000 0.0000 0.0000 0.0000 0.0000 0.0000 0.0000 0.0000 0.0000 0.0000 0.0000 0.0000 0.0000 0.0000 0.0000 0.0000 0.0000 0.0000 0.0000 0.0000 0.0000 0.0000 -77.8307 1.0872 1.3467 -10.4845 -4.1551 6.5096 57.2964 -4.0561 180.0762 50.9279 -8.9363 10.2880 27.1696 0.0000 0.0000 4.9253 0.0000 0.0000 -26.7597 1.6833 9.1013 22.2782 0.0000 0.0000 43.8252 0.0000 0.0000 -37.1278 2.1687 1.6798 53.3969 0.0000 0.0000 90.0000 0.0000 0.0000 -30.7113 3.2963 3.3482 110.0000 0.0000 0.0000 58.3882 0.0000 0.0000 -23.6787 3.8011 3.2872 110.0000 0.0000 0.0000 27.2743 0.0000 0.0000 0.0000 0.0000 0.0000 78.7311 -2.7196 3.3147 11.2395 11.4323 17.6393 12.6962 23.8739 141.5500 -69.5007 -14.0064 -8.2065 4.7586 0.0000 0.0000 5.3908 0.0000 0.0000 5.1126 0.2905 0.4399 2.2335 0.0000 0.0000 2.1489 0.0000 0.0000 -2.0857 0.0123 5.4464 4.5195 0.0000 0.0000 2.0045 0.0000 0.0000 -10.1668 -0.8727 6.0065 6.3258 0.0000 0.0000 1.1306 0.0000 0.0000 -18.3494 -2.0917 5.3297 6.6788 0.0000 0.0000 2.9997 0.0000 0.0000 0.0000 0.0000 0.0000 0.0000 0.0000 0.0000 0.0000 0.0000 0.0000 0.0000 0.0000 0.0000 0.0000 0.0000 0.0000 0.0000 0.0000 0.0000
0.0000 95.0000 0.0000 0.0000 0.0000 0.0000 0.0000 0.0000 0.0000 0.0000 0.0000 0.0000 0.0000 0.0000 0.0000 0.0000 0.0000 0.0000 0.0000 0.0000 0.0000 0.0000 0.0000 0.0000 -76.7574 4.1093 5.1873 -9.9146 -2.7424 5.1618 58.6357 -6.1723 177.8989 50.9279 -8.9363 10.2880 27.1696 0.0000 0.0000 4.9253 0.0000 0.0000 -26.7597 1.6833 9.1013 22.2782 0.0000 0.0000 43.8252 0.0000 0.0000 -37.1278 2.1687 1.6798 53.3969 0.0000 0.0000 90.0000 0.0000 0.0000 -30.7113 3.2963 3.3482 110.0000 0.0000 0.0000 58.3882 0.0000 0.0000 -23.6787 3.8011 3.2872 110.0000 0.0000 0.0000 27.2743 0.0000 0.0000 0.0000 0.0000 0.0000 76.6827 -5.9129 7.4719 13.0162 18.4938 30.3454 -1.0998 31.0841 121.6079 -69.5007 -14.0064 -8.2065 4.7586 0.0000 0.0000 5.3908 0.0000 0.0000 5.1126 0.2905 0.4399 2.2335 0.0000 0.0000 2.1489 0.0000 0.0000 -2.0857 0.0123 5.4464 4.5195 0.0000 0.0000 2.0045 0.0000 0.0000 -10.1668 -0.8727 6.0065 6.3258 0.0000 0.0000 1.1306 0.0000 0.0000 -18.3494 -2.0917 5.3297 6.6788 0.0000 0.0000 2.9997 0.0000 0.0000 0.0000 0.0000 0.0000 0.0000 0.0000 0.0000 0.0000 0.0000 0.0000 0.0000 0.0000 0.0000 0.0000 0.0000 0.0000 0.0000 0.0000 0.0000
0.0000 95.0000 0.0000 0.0000 0.0000 0.0000 0.0000 0.0000 0.0000 0.0000 0.0000 0.0000 0.0000 0.0000 0.0000 0.0000 0.0000 0.0000 0.0000 0.0000 0.0000 0.0000 0.0000 0.0000 -75.7035 6.6053 8.4935 -12.0322 10.8507 -15.4012 60.0535 7.7548 192.8563 50.9279 -8.9363 10.2880 27.1696 0.0000 0.0000 4.9253 0.0000 0.0000 -26.7597 1.6833 9.1013 22.2782 0.0000 0.0000 43.8252 0.0000 0.0000 -37.1278 2.1687 1.6798 53.3969 0.0000 0.0000 90.0000 0.0000 0.0000 -30.7113 3.2963 3.3482 110.0000 0.0000 0.0000 58.3882 0.0000 0.0000 -23.6787 3.8011 3.2872 110.0000 0.0000 0.0000 27.2743 0.0000 0.0000 0.0000 0.0000 0.0000 74.2594 -9.3613 12.3442 9.4723 30.0548 44.4208 -25.1288 27.1867 95.5717 -69.5007 -14.0064 -8.2065 4.7586 0.0000 0.0000 5.3908 0.0000 0.0000 5.1126 0.2905 0.4399 2.2335 0.0000 0.0000 2.1489 0.0000 0.0000 -2.0857 0.0123 5.4464 4.5195 0.0000 0.0000 2.0045 0.0000 0.0000 -10.1668 -0.8727 6.0065 6.3258 0.0000 0.0000 1.1306 0.0000 0.0000 -18.3494 -2.0917 5.3297 6.6788 0.0000 0.0000 2.9997 0.0000 0.0000 0.0000 0.0000 0.0000 0.0000 0.0000 0.0000 0.0000 0.0000 0.0000 0.0000 0.0000 0.0000 0.0000 0.0000 0.0000 0.0000 0.0000 0.0000
0.0000 95.0000 0.0000 0.0000 0.0000 0.0000 0.0000 0.0000 0.0000 0.0000 0.0000 0.0000 0.0000 0.0000 0.0000 0.0000 0.0000 0.0000 0.0000 0.0000 0.0000 0.0000 0.0000 0.0000 -74.5937 8.6696 11.3661 -12.4572 12.7974 -18.3293 60.9707 7.5608 192.8977 50.9279 -8.9363 10.2880 27.1696 0.0000 0.0000 4.9253 0.0000 0.0000 -26.7597 1.6833 9.1013 22.2782 0.0000 0.0000 43.8252 0.0000 0.0000 -37.1278 2.1687 1.6798 53.3969 0.0000 0.0000 90.0000 0.0000 0.0000 -30.7113 3.2963 3.3482 110.0000 0.0000 0.0000 58.3882 0.0000 0.0000 -23.6787 3.8011 3.2872 110.0000 0.0000 0.0000 27.2743 0.0000 0.0000 0.0000 0.0000 0.0000 72.4061 -12.1019 16.4804 8.6000 42.7611 58.5205 -43.1641 15.7377 75.8757 -69.5007 -14.0064 -8.2065 4.7586 0.0000 0.0000 5.3908 0.0000 0.0000 5.1126 0.2905 0.4399 2.2335 0.0000 0.0000 2.1489 0.0000 0.0000 -2.0857 0.0123 5.4464 4.5195 0.0000 0.0000 2.0045 0.0000 0.0000 -10.1668 -0.8727 6.0065 6.3258 0.0000 0.0000 1.1306 0.0000 0.0000 -18.3494 -2.0917 5.3297 6.6788 0.0000 0.0000 2.9997 0.0000 0.0000 0.0000 0.0000 0.0000 0.0000 0.0000 0.0000 0.0000 0.0000 0.0000 0.0000 0.0000 0.0000 0.0000 0.0000 0.0000 0.0000 0.0000 0.0000
0.0000 95.0000 0.0000 0.0000 0.0000 0.0000 0.0000 0.0000 0.0000 0.0000 0.0000 0.0000 0.0000 0.0000 0.0000 0.0000 0.0000 0.0000 0.0000 0.0000 0.0000 0.0000 0.0000 0.0000 -73.4197 11.1306 14.8902 -12.9463 15.1736 -22.0029 61.9719 7.4060 193.0023 50.9279 -8.9363 10.2880 27.1696 0.0000 0.0000 4.9253 0.0000 0.0000 -26.7597 1.6833 9.1013 22.2782 0.0000 0.0000 43.8252 0.0000 0.0000 -37.1278 2.1687 1.6798 53.3969 0.0000 0.0000 90.0000 0.0000 0.0000 -30.7113 3.2963 3.3482 110.0000 0.0000 0.0000 58.3882 0.0000 0.0000 -23.6787 3.8011 3.2872 110.0000 0.0000 0.0000 27.2743 0.0000 0.0000 0.0000 0.0000 0.0000 71.0456 -14.3310 19.9750 6.8022 59.7480 72.2755 -57.2481 -4.0059 64.5644 -69.5007 -14.0064 -8.2065 4.7586 0.0000 0.0000 5.3908 0.0000 0.0000 5.1126 0.2905 0.4399 2.2335 0.0000 0.0000 2.1489 0.0000 0.0000 -2.0857 0.0123 5.4464 4.5195 0.0000 0.0000 2.0045 0.0000 0.0000 -10.1668 -0.8727 6.0065 6.3258 0.0000 0.0000 1.1306 0.0000 0.0000 -18.3494 -2.0917 5.3297 6.6788 0.0000 0.0000 2.9997 0.0000 0.0000 0.0000 0.0000 0.0000 0.0000 0.0000 0.0000 0.0000 0.0000 0.0000 0.0000 0.0000 0.0000 0.0000 0.0000 0.0000 0.0000 0.0000 0.0000
0.0000 95.0000 0.0000 0.0000 0.0000 0.0000 0.0000 0.0000 0.0000 0.0000 0.0000 0.0000 0.0000 0.0000 0.0000 0.0000 0.0000 0.0000 0.0000 0.0000 0.0000 0.0000 0.0000 0.0000 -72.7069 12.7210 17.2242 -12.8336 16.7225 -24.3977 62.9895 7.2196 193.0758 50.9279 -8.9363 10.2880 27.1696 0.0000 0.0000 4.9253 0.0000 0.0000 -26.7597 1.6833 9.1013 22.2782 0.0000 0.0000 43.8252 0.0000 0.0000 -37.1278 2.1687 1.6798 53.3969 0.0000 0.0000 90.0000 0.0000 0.0000 -30.7113 3.2963 3.3482 110.0000 0.0000 0.0000 58.3882 0.0000 0.0000 -23.6787 3.8011 3.2872 110.0000 0.0000 0.0000 27.2743 0.0000 0.0000 0.0000 0.0000 0.0000 69.5239 -15.8841 22.7314 0.7669 75.6773 78.0465 -67.5598 -23.3013 63.4519 -69.5007 -14.0064 -8.2065 4.7586 0.0000 0.0000 5.3908 0.0000 0.0000 5.1126 0.2905 0.4399 2.2335 0.0000 0.0000 2.1489 0.0000 0.0000 -2.0857 0.0123 5.4464 4.5195 0.0000 0.0000 2.0045 0.0000 0.0000 -10.1668 -0.8727 6.0065 6.3258 0.0000 0.0000 1.1306 0.0000 0.0000 -18.3494 -2.0917 5.3297 6.6788 0.0000 0.0000 2.9997 0.0000 0.0000 0.0000 0.0000 0.0000 0.0000 0.0000 0.0000 0.0000 0.0000 0.0000 0.0000 0.0000 0.0000 0.0000 0.0000 0.0000 0.0000 0.0000 0.0000
0.0000 95.0000 0.0000 0.0000 0.0000 0.0000 0.0000 0.0000 0.0000 0.0000 0.0000 0.0000 0.0000 0.0000 0.0000 0.0000 0.0000 0.0000 0.0000 0.0000 0.0000 0.0000 0.0000 0.0000 -76.2131 4.7148 6.0094 -7.3617 9.2333 -12.6422 63.9214 7.0386 193.1299 50.9279 -8.9363 10.2880 27.1696 0.0000 0.0000 4.9253 0.0000 0.0000 -26.7597 1.6833 9.1013 22.2782 0.0000 0.0000 43.8252 0.0000 0.0000 -37.1278 2.1687 1.6798 53.3969 0.0000 0.0000 90.0000 0.0000 0.0000 -30.7113 3.2963 3.3482 110.0000 0.0000 0.0000 58.3882 0.0000 0.0000 -23.6787 3.8011 3.2872 110.0000 0.0000 0.0000 27.2743 0.0000 0.0000 0.0000 0.0000 0.0000 68.0756 -16.9887 24.9357 -126.5626 87.3529 -39.0869 -83.9799 -39.2601 70.2658 -63.7974 -12.4924 -9.5674 2.8344 0.0000 0.0000 3.1003 0.0000 0.0000 13.7328 0.5813 -0.5421 1.0507 0.0000 0.0000 2.3350 0.0000 0.0000 0.0338 0.0007 2.3205 1.8222 0.0000 0.0000 1.3505 0.0000 0.0000 -8.1467 -0.6865 3.3703 3.5698 0.0000 0.0000 1.7675 0.0000 0.0000 -17.2188 -1.5021 1.5302 5.0790 0.0000 0.0000 3.0678 0.0000 0.0000 0.0000 0.0000 0.0000 0.0000 0.0000 0.0000 0.0000 0.0000 0.0000 0.0000 0.0000 0.0000 0.0000 0.0000 0.0000 0.0000 0.0000 0.0000
0.0000 95.0000 0.0000 0.0000 0.0000 0.0000 0.0000 0.0000 0.0000 0.0000 0.0000 0.0000 0.0000 0.0000 0.0000 0.0000 0.0000 0.0000 0.0000 0.0000 0.0000 0.0000 0.0000 0.0000 -76.4670 4.7502 6.0270 -6.3214 9.3157 -12.5701 64.6874 6.8711 193.1516 50.9279 -8.9363 10.2880 27.1696 0.0000 0.0000 4.9253 0.0000 0.0000 -26.7597 1.6833 9.1013 22.2782 0.0000 0.0000 43.8252 0.0000 0.0000 -37.1278 2.1687 1.6798 53.3969 0.0000 0.0000 90.0000 0.0000 0.0000 -30.7113 3.2963 3.3482 110.0000 0.0000 0.0000 58.3882 0.0000 0.0000 -23.6787 3.8011 3.2872 110.0000 0.0000 0.0000 27.2743 0.0000 0.0000 0.0000 0.0000 0.0000 66.4136 -17.7326 26.8095 -159.6605 77.9511 -66.8524 -95.7118 -40.0486 77.4442 -63.6725 -12.1515 -13.1104 2.9983 0.0000 0.0000 3.9773 0.0000 0.0000 8.0222 -0.0186 -3.4376 1.9715 0.0000 0.0000 2.2368 0.0000 0.0000 -4.0915 -0.1673 0.0916 2.8519 0.0000 0.0000 0.9289 0.0000 0.0000 -11.8411 -0.6791 0.5313 3.7795 0.0000 0.0000 3.5478 0.0000 0.0000 -20.4519 -1.4792 -0.2280 5.2010 0.0000 0.0000 3.2232 0.0000 0.0000 0.0000 0.0000 0.0000 0.0000 0.0000 0.0000 0.0000 0.0000 0.0000 0.0000 0.0000 0.0000 0.0000 0.0000 0.0000 0.0000 0.0000 0.0000
0.0000 95.0000 0.0000 0.0000 0.0000 0.0000 0.0000 0.0000 0.0000 0.0000 0.0000 0.0000 0.0000 0.0000 0.0000 0.0000 0.0000 0.0000 0.0000 0.0000 0.0000 0.0000 0.0000 0.0000 -76.3185 4.7406 6.0309 -6.1028 9.3013 -12.5584 65.0444 6.7975 193.1661 50.9279 -8.9363 10.2880 27.1696 0.0000 0.0000 4.9253 0.0000 0.0000 -26.7597 1.6833 9.1013 22.2782 0.0000 0.0000 43.8252 0.0000 0.0000 -37.1278 2.1687 1.6798 53.3969 0.0000 0.0000 90.0000 0.0000 0.0000 -30.7113 3.2963 3.3482 110.0000 0.0000 0.0000 58.3882 0.0000 0.0000 -23.6787 3.8011 3.2872 110.0000 0.0000 0.0000 27.2743 0.0000 0.0000 0.0000 0.0000 0.0000 65.1680 -18.2884 28.2719 -161.8692 69.7588 -65.3904 -101.2384 -45.4281 79.6962 -62.7426 -11.6380 -15.5845 4.6920 0.0000 0.0000 4.0377 0.0000 0.0000 9.5517 0.0694 -3.7115 2.8008 0.0000 0.0000 2.7636 0.0000 0.0000 -2.8822 -0.1283 -0.3239 0.9698 0.0000 0.0000 1.9708 0.0000 0.0000 -11.2852 -0.6303 0.0302 1.7859 0.0000 0.0000 2.6615 0.0000 0.0000 -18.7288 -1.2921 -0.6757 2.5462 0.0000 0.0000 3.5522 0.0000 0.0000 0.0000 0.0000 0.0000 0.0000 0.0000 0.0000 0.0000 0.0000 0.0000 0.0000 0.0000 0.0000 0.0000 0.0000 0.0000 0.0000 0.0000 0.0000
0.0000 95.0000 0.0000 0.0000 0.0000 0.0000 0.0000 0.0000 0.0000 0.0000 0.0000 0.0000 0.0000 0.0000 0.0000 0.0000 0.0000 0.0000 0.0000 0.0000 0.0000 0.0000 0.0000 0.0000 -76.7744 4.7851 6.0380 -5.2588 9.3930 -12.4778 65.4182 6.7016 193.1592 50.9279 -8.9363 10.2880 27.1696 0.0000 0.0000 4.9253 0.0000 0.0000 -26.7597 1.6833 9.1013 22.2782 0.0000 0.0000 43.8252 0.0000 0.0000 -37.1278 2.1687 1.6798 53.3969 0.0000 0.0000 90.0000 0.0000 0.0000 -30.7113 3.2963 3.3482 110.0000 0.0000 0.0000 58.3882 0.0000 0.0000 -23.6787 3.8011 3.2872 110.0000 0.0000 0.0000 27.2743 0.0000 0.0000 0.0000 0.0000 0.0000 64.5900 -18.4909 28.8843 -163.4200 66.3488 -65.2705 -107.6485 -47.6290 86.2062 -62.6204 -11.7299 -14.2644 5.3669 0.0000 0.0000 4.2410 0.0000 0.0000 9.8928 0.1091 -3.5690 3.8205 0.0000 0.0000 3.6898 0.0000 0.0000 -2.7427 -0.1055 0.3690 1.6393 0.0000 0.0000 2.8683 0.0000 0.0000 -12.3856 -0.7133 0.7415 2.2460 0.0000 0.0000 1.4004 0.0000 0.0000 -20.0376 -1.4617 -0.1235 1.9635 0.0000 0.0000 2.7525 0.0000 0.0000 0.0000 0.0000 0.0000 0.0000 0.0000 0.0000 0.0000 0.0000 0.0000 0.0000 0.0000 0.0000 0.0000 0.0000 0.0000 0.0000 0.0000 0.0000
0.0000 95.0000 0.0000 0.0000 0.0000 0.0000 0.0000 0.0000 0.0000 0.0000 0.0000 0.0000 0.0000 0.0000 0.0000 0.0000 0.0000 0.0000 0.0000 0.0000 0.0000 0.0000 0.0000 0.0000 -77.1264 4.8196 6.0433 -4.6086 9.4654 -12.4186 65.7062 6.6305 193.1566 50.9279 -8.9363 10.2880 27.1696 0.0000 0.0000 4.9253 0.0000 0.0000 -26.7597 1.6833 9.1013 22.2782 0.0000 0.0000 43.8252 0.0000 0.0000 -37.1278 2.1687 1.6798 53.3969 0.0000 0.0000 90.0000 0.0000 0.0000 -30.7113 3.2963 3.3482 110.0000 0.0000 0.0000 58.3882 0.0000 0.0000 -23.6787 3.8011 3.2872 110.0000 0.0000 0.0000 27.2743 0.0000 0.0000 0.0000 0.0000 0.0000 64.1447 -18.6505 29.3685 -163.9474 64.8707 -65.1799 -109.9578 -48.8077 88.1686 -62.6204 -11.7299 -14.2644 5.3669 0.0000 0.0000 4.2410 0.0000 0.0000 9.8928 0.1091 -3.5690 3.8205 0.0000 0.0000 3.6898 0.0000 0.0000 -2.7427 -0.1055 0.3690 1.6393 0.0000 0.0000 2.8683 0.0000 0.0000 -12.3856 -0.7133 0.7415 2.2460 0.0000 0.0000 1.4004 0.0000 0.0000 -20.0376 -1.4617 -0.1235 1.9635 0.0000 0.0000 2.7525 0.0000 0.0000 0.0000 0.0000 0.0000 0.0000 0.0000 0.0000 0.0000 0.0000 0.0000 0.0000 0.0000 0.0000 0.0000 0.0000 0.0000 0.0000 0.0000 0.0000
0.0000 95.0000 0.0000 0.0000 0.0000 0.0000 0.0000 0.0000 0.0000 0.0000 0.0000 0.0000 0.0000 0.0000 0.0000 0.0000 0.0000 0.0000 0.0000 0.0000 0.0000 0.0000 0.0000 0.0000 -77.1061 4.8353 6.0652 -4.5230 9.4972 -12.4552 65.8182 6.6243 193.1806 50.9279 -8.9363 10.2880 27.1696 0.0000 0.0000 4.9253 0.0000 0.0000 -26.7597 1.6833 9.1013 22.2782 0.0000 0.0000 43.8252 0.0000 0.0000 -37.1278 2.1687 1.6798 53.3969 0.0000 0.0000 90.0000 0.0000 0.0000 -30.7113 3.2963 3.3482 110.0000 0.0000 0.0000 58.3882 0.0000 0.0000 -23.6787 3.8011 3.2872 110.0000 0.0000 0.0000 27.2743 0.0000 0.0000 0.0000 0.0000 0.0000 63.8125 -18.7966 29.7757 -164.6646 63.7186 -65.3971 -111.3012 -49.5696 90.0915 -62.5162 -11.6902 -14.3437 4.1151 0.0000 0.0000 5.8051 0.0000 0.0000 10.0788 0.1201 -3.6029 3.6440 0.0000 0.0000 3.9192 0.0000 0.0000 -2.7798 -0.1087 0.2958 1.5948 0.0000 0.0000 2.2749 0.0000 0.0000 -12.9053 -0.7340 0.5685 2.7878 0.0000 0.0000 2.2291 0.0000 0.0000 -19.9585 -1.4431 -0.2270 2.3187 0.0000 0.0000 3.8317 0.0000 0.0000 0.0000 0.0000 0.0000 0.0000 0.0000 0.0000 0.0000 0.0000 0.0000 0.0000 0.0000 0.0000 0.0000 0.0000 0.0000 0.0000 0.0000 0.0000
0.0000 95.0000 0.0000 0.0000 0.0000 0.0000 0.0000 0.0000 0.0000 0.0000 0.0000 0.0000 0.0000 0.0000 0.0000 0.0000 0.0000 0.0000 0.0000 0.0000 0.0000 0.0000 0.0000 0.0000 -77.1252 4.8420 6.0715 -3.9417 9.5296 -12.4270 66.3694 6.5177 193.2095 50.9279 -8.9363 10.2880 27.1696 0.0000 0.0000 4.9253 0.0000 0.0000 -26.7597 1.6833 9.1013 22.2782 0.0000 0.0000 43.8252 0.0000 0.0000 -37.1278 2.1687 1.6798 53.3969 0.0000 0.0000 90.0000 0.0000 0.0000 -30.7113 3.2963 3.3482 110.0000 0.0000 0.0000 58.3882 0.0000 0.0000 -23.6787 3.8011 3.2872 110.0000 0.0000 0.0000 27.2743 0.0000 0.0000 0.0000 0.0000 0.0000 63.3270 -19.0106 30.3783 -163.9028 64.1456 -65.2640 -110.0340 -50.0401 88.0284 -62.4276 -11.6587 -14.3882 4.3857 0.0000 0.0000 5.9161 0.0000 0.0000 10.8735 0.2071 -3.2920 3.6595 0.0000 0.0000 3.9374 0.0000 0.0000 -1.7749 -0.0664 0.4843 1.3045 0.0000 0.0000 2.2276 0.0000 0.0000 -11.2330 -0.6666 0.9720 2.2781 0.0000 0.0000 2.2817 0.0000 0.0000 -19.0837 -1.4266 0.1356 2.2645 0.0000 0.0000 3.5841 0.0000 0.0000 0.0000 0.0000 0.0000 0.0000 0.0000 0.0000 0.0000 0.0000 0.0000 0.0000 0.0000 0.0000 0.0000 0.0000 0.0000 0.0000 0.0000 0.0000
0.0000 95.0000 0.0000 0.0000 0.0000 0.0000 0.0000 0.0000 0.0000 0.0000 0.0000 0.0000 0.0000 0.0000 0.0000 0.0000 0.0000 0.0000 0.0000 0.0000 0.0000 0.0000 0.0000 0.0000 -76.9301 4.8185 6.0632 -4.0343 9.4626 -12.3922 66.4555 6.4719 193.1795 50.9279 -8.9363 10.2880 27.1696 0.0000 0.0000 4.9253 0.0000 0.0000 -26.7597 1.6833 9.1013 22.2782 0.0000 0.0000 43.8252 0.0000 0.0000 -37.1278 2.1687 1.6798 53.3969 0.0000 0.0000 90.0000 0.0000 0.0000 -30.7113 3.2963 3.3482 110.0000 0.0000 0.0000 58.3882 0.0000 0.0000 -23.6787 3.8011 3.2872 110.0000 0.0000 0.0000 27.2743 0.0000 0.0000 0.0000 0.0000 0.0000 63.0070 -19.1444 30.7690 -163.7981 65.0864 -65.7628 -101.3328 -51.0429 80.0645 -62.1107 -11.4805 -15.1724 4.4930 0.0000 0.0000 7.4499 0.0000 0.0000 9.9859 0.1986 -2.6839 2.7615 0.0000 0.0000 4.4790 0.0000 0.0000 -2.6135 -0.0934 0.6802 1.5844 0.0000 0.0000 2.7832 0.0000 0.0000 -10.5657 -0.6459 1.1934 2.4587 0.0000 0.0000 3.8426 0.0000 0.0000 -18.5835 -1.4704 0.7149 2.9000 0.0000 0.0000 4.4267 0.0000 0.0000 0.0000 0.0000 0.0000 0.0000 0.0000 0.0000 0.0000 0.0000 0.0000 0.0000 0.0000 0.0000 0.0000 0.0000 0.0000 0.0000 0.0000 0.0000
0.0000 95.0000 0.0000 0.0000 0.0000 0.0000 0.0000 0.0000 0.0000 0.0000 0.0000 0.0000 0.0000 0.0000 0.0000 0.0000 0.0000 0.0000 0.0000 0.0000 0.0000 0.0000 0.0000 0.0000 -77.0902 4.8483 6.0832 -3.5569 9.5278 -12.3876 66.7711 6.4161 193.2017 50.9279 -8.9363 10.2880 27.1696 0.0000 0.0000 4.9253 0.0000 0.0000 -26.7597 1.6833 9.1013 22.2782 0.0000 0.0000 43.8252 0.0000 0.0000 -37.1278 2.1687 1.6798 53.3969 0.0000 0.0000 90.0000 0.0000 0.0000 -30.7113 3.2963 3.3482 110.0000 0.0000 0.0000 58.3882 0.0000 0.0000 -23.6787 3.8011 3.2872 110.0000 0.0000 0.0000 27.2743 0.0000 0.0000 0.0000 0.0000 0.0000 61.8147 -19.3148 31.7353 -162.1064 65.6850 -64.7495 -93.9470 -49.6111 73.6289 -59.3557 -10.5629 -15.5529 3.2436 0.0000 0.0000 12.3967 0.0000 0.0000 8.3442 -0.0194 -3.6694 3.7298 0.0000 0.0000 3.9780 0.0000 0.0000 -3.4028 -0.1678 -0.8720 2.9500 0.0000 0.0000 4.5934 0.0000 0.0000 -10.8490 -0.5852 -0.4385 5.6701 0.0000 0.0000 1.5075 0.0000 0.0000 -17.7742 -1.2917 -0.1625 1.3045 0.0000 0.0000 4.1773 0.0000 0.0000 0.0000 0.0000 0.0000 0.0000 0.0000 0.0000 0.0000 0.0000 0.0000 0.0000 0.0000 0.0000 0.0000 0.0000 0.0000 0.0000 0.0000 0.0000
0.0000 95.0000 0.0000 0.0000 0.0000 0.0000 0.0000 0.0000 0.0000 0.0000 0.0000 0.0000 0.0000 0.0000 0.0000 0.0000 0.0000 0.0000 0.0000 0.0000 0.0000 0.0000 0.0000 0.0000 -77.1168 4.8498 6.0823 -3.2464 9.5364 -12.3576 67.0453 6.3548 193.2055 50.9279 -8.9363 10.2880 27.1696 0.0000 0.0000 4.9253 0.0000 0.0000 -26.7597 1.6833 9.1013 22.2782 0.0000 0.0000 43.8252 0.0000 0.0000 -37.1278 2.1687 1.6798 53.3969 0.0000 0.0000 90.0000 0.0000 0.0000 -30.7113 3.2963 3.3482 110.0000 0.0000 0.0000 58.3882 0.0000 0.0000 -23.6787 3.8011 3.2872 110.0000 0.0000 0.0000 27.2743 0.0000 0.0000 0.0000 0.0000 0.0000 59.8070 -19.6437 33.5064 -159.1428 66.7185 -63.0783 -74.5666 -48.0145 44.7995 -49.9102 -7.4842 -15.5537 6.3465 0.0000 0.0000 11.5105 0.0000 0.0000 20.0227 0.8963 1.1389 1.4655 0.0000 0.0000 3.2637 0.0000 0.0000 8.3033 0.2273 1.6416 1.4275 0.0000 0.0000 2.9665 0.0000 0.0000 -2.2743 0.0042 -1.0938 2.0765 0.0000 0.0000 4.4426 0.0000 0.0000 -7.9858 -0.5602 -0.1814 3.9507 0.0000 0.0000 1.8966 0.0000 0.0000 0.0000 0.0000 0.0000 0.0000 0.0000 0.0000 0.0000 0.0000 0.0000 0.0000 0.0000 0.0000 0.0000 0.0000 0.0000 0.0000 0.0000 0.0000
0.0000 95.0000 0.0000 0.0000 0.0000 0.0000 0.0000 0.0000 0.0000 0.0000 0.0000 0.0000 0.0000 0.0000 0.0000 0.0000 0.0000 0.0000 0.0000 0.0000 0.0000 0.0000 0.0000 0.0000 -77.1591 4.8455 6.0722 -2.9020 9.5356 -12.3085 67.3342 6.2844 193.2024 50.9279 -8.9363 10.2880 27.1696 0.0000 0.0000 4.9253 0.0000 0.0000 -26.7597 1.6833 9.1013 22.2782 0.0000 0.0000 43.8252 0.0000 0.0000 -37.1278 2.1687 1.6798 53.3969 0.0000 0.0000 90.0000 0.0000 0.0000 -30.7113 3.2963 3.3482 110.0000 0.0000 0.0000 58.3882 0.0000 0.0000 -23.6787 3.8011 3.2872 110.0000 0.0000 0.0000 27.2743 0.0000 0.0000 0.0000 0.0000 0.0000 56.5482 -19.4082 35.2750 -154.4498 67.9156 -58.9930 -45.8108 -28.6528 3.4132 -42.7629 -6.8932 -9.3409 7.4666 0.0000 0.0000 3.5694 0.0000 0.0000 16.8999 0.9085 4.8387 5.3250 0.0000 0.0000 1.3547 0.0000 0.0000 4.2222 0.0458 3.5301 8.8626 0.0000 0.0000 2.6382 0.0000 0.0000 -2.3490 -0.3050 1.4437 1.8798 0.0000 0.0000 3.6063 0.0000 0.0000 -5.2648 -1.5460 4.4580 9.3579 0.0000 0.0000 4.4418 0.0000 0.0000 0.0000 0.0000 0.0000 0.0000 0.0000 0.0000 0.0000 0.0000 0.0000 0.0000 0.0000 0.0000 0.0000 0.0000 0.0000 0.0000 0.0000 0.0000
0.0000 95.0000 0.0000 0.0000 0.0000 0.0000 0.0000 0.0000 0.0000 0.0000 0.0000 0.0000 0.0000 0.0000 0.0000 0.0000 0.0000 0.0000 0.0000 0.0000 0.0000 0.0000 0.0000 0.0000 -77.0122 4.8311 6.0701 -2.7109 9.5161 -12.2943 67.6626 6.2176 193.2142 50.9279 -8.9363 10.2880 27.1696 0.0000 0.0000 4.9253 0.0000 0.0000 -26.7597 1.6833 9.1013 22.2782 0.0000 0.0000 43.8252 0.0000 0.0000 -37.1278 2.1687 1.6798 53.3969 0.0000 0.0000 90.0000 0.0000 0.0000 -30.7113 3.2963 3.3482 110.0000 0.0000 0.0000 58.3882 0.0000 0.0000 -23.6787 3.8011 3.2872 110.0000 0.0000 0.0000 27.2743 0.0000 0.0000 0.0000 0.0000 0.0000 53.8108 -18.6553 35.8718 -147.3908 71.7840 -52.7683 -43.9360 7.2059 -23.2590 -39.9660 -3.5250 -17.2538 9.5206 0.0000 0.0000 9.1051 0.0000 0.0000 19.5865 0.8205 -5.9434 4.3009 0.0000 0.0000 2.1045 0.0000 0.0000 8.8843 0.7833 -5.2856 4.0987 0.0000 0.0000 3.7443 0.0000 0.0000 0.1035 0.4527 -3.1461 3.8440 0.0000 0.0000 3.4594 0.0000 0.0000 -9.2833 -0.3421 -1.6132 6.5884 0.0000 0.0000 2.8674 0.0000 0.0000 0.0000 0.0000 0.0000 0.0000 0.0000 0.0000 0.0000 0.0000 0.0000 0.0000 0.0000 0.0000 0.0000 0.0000 0.0000 0.0000 0.0000 0.0000
0.0000 95.0000 0.0000 0.0000 0.0000 0.0000 0.0000 0.0000 0.0000 0.0000 0.0000 0.0000 0.0000 0.0000 0.0000 0.0000 0.0000 0.0000 0.0000 0.0000 0.0000 0.0000 0.0000 0.0000 -77.0243 4.8092 6.0413 -2.7679 9.4762 -12.2463 67.5851 6.2148 193.1891 50.9279 -8.9363 10.2880 27.1696 0.0000 0.0000 4.9253 0.0000 0.0000 -26.7597 1.6833 9.1013 22.2782 0.0000 0.0000 43.8252 0.0000 0.0000 -37.1278 2.1687 1.6798 53.3969 0.0000 0.0000 90.0000 0.0000 0.0000 -30.7113 3.2963 3.3482 110.0000 0.0000 0.0000 58.3882 0.0000 0.0000 -23.6787 3.8011 3.2872 110.0000 0.0000 0.0000 27.2743 0.0000 0.0000 0.0000 0.0000 0.0000 51.6112 -18.0107 36.2931 -141.5837 74.6944 -47.1568 -42.7438 32.7172 -47.3497 -49.1712 -8.3338 -10.7820 11.6875 0.0000 0.0000 6.0687 0.0000 0.0000 17.1918 0.6353 -4.4253 8.1297 0.0000 0.0000 5.4863 0.0000 0.0000 5.1179 0.4028 -4.2224 7.4331 0.0000 0.0000 5.2759 0.0000 0.0000 -1.8552 0.4365 -4.3389 5.2728 0.0000 0.0000 5.4970 0.0000 0.0000 -5.0267 0.6833 -4.0830 12.6920 0.0000 0.0000 5.8260 0.0000 0.0000 0.0000 0.0000 0.0000 0.0000 0.0000 0.0000 0.0000 0.0000 0.0000 0.0000 0.0000 0.0000 0.0000 0.0000 0.0000 0.0000 0.0000 0.0000
0.0000 95.0000 0.0000 0.0000 0.0000 0.0000 0.0000 0.0000 0.0000 0.0000 0.0000 0.0000 0.0000 0.0000 0.0000 0.0000 0.0000 0.0000 0.0000 0.0000 0.0000 0.0000 0.0000 0.0000 -76.5107 4.7743 6.0529 -2.8177 9.3992 -12.2644 68.0346 6.1217 193.2028 50.9279 -8.9363 10.2880 27.1696 0.0000 0.0000 4.9253 0.0000 0.0000 -26.7597 1.6833 9.1013 22.2782 0.0000 0.0000 43.8252 0.0000 0.0000 -37.1278 2.1687 1.6798 53.3969 0.0000 0.0000 90.0000 0.0000 0.0000 -30.7113 3.2963 3.3482 110.0000 0.0000 0.0000 58.3882 0.0000 0.0000 -23.6787 3.8011 3.2872 110.0000 0.0000 0.0000 27.2743 0.0000 0.0000 0.0000 0.0000 0.0000 49.3341 -17.5732 37.2031 -131.0143 77.6233 -37.5003 -45.9348 40.3044 -49.4181 -55.1544 -10.6820 -6.7879 20.4900 0.0000 0.0000 8.2583 0.0000 0.0000 20.2010 0.8805 -5.6435 9.4342 0.0000 0.0000 6.1798 0.0000 0.0000 7.3709 0.7141 -6.2795 6.5509 0.0000 0.0000 2.1051 0.0000 0.0000 1.6930 1.0793 -6.2805 5.5220 0.0000 0.0000 4.5661 0.0000 0.0000 -4.0385 1.3891 -6.2675 10.2783 0.0000 0.0000 2.8890 0.0000 0.0000 0.0000 0.0000 0.0000 0.0000 0.0000 0.0000 0.0000 0.0000 0.0000 0.0000 0.0000 0.0000 0.0000 0.0000 0.0000 0.0000 0.0000 0.0000
0.0000 95.0000 0.0000 0.0000 0.0000 0.0000 0.0000 0.0000 0.0000 0.0000 0.0000 0.0000 0.0000 0.0000 0.0000 0.0000 0.0000 0.0000 0.0000 0.0000 0.0000 0.0000 0.0000 0.0000 -76.1520 4.7467 6.0567 -2.9002 9.3370 -12.2709 68.3001 6.0625 193.2055 50.9279 -8.9363 10.2880 27.1696 0.0000 0.0000 4.9253 0.0000 0.0000 -26.7597 1.6833 9.1013 22.2782 0.0000 0.0000 43.8252 0.0000 0.0000 -37.1278 2.1687 1.6798 53.3969 0.0000 0.0000 90.0000 0.0000 0.0000 -30.7113 3.2963 3.3482 110.0000 0.0000 0.0000 58.3882 0.0000 0.0000 -23.6787 3.8011 3.2872 110.0000 0.0000 0.0000 27.2743 0.0000 0.0000 0.0000 0.0000 0.0000 47.9230 -16.9102 36.9880 -103.8857 81.9616 -11.4916 -49.3853 44.6772 -45.4058 -59.5780 -12.2829 -2.2889 24.3377 0.0000 0.0000 3.1241 0.0000 0.0000 22.4481 1.1143 -7.0745 9.2268 0.0000 0.0000 6.9616 0.0000 0.0000 8.5070 0.9012 -7.3006 7.8175 0.0000 0.0000 2.3978 0.0000 0.0000 2.1385 1.2573 -7.0704 9.1227 0.0000 0.0000 4.5633 0.0000 0.0000 -4.7723 1.5861 -7.3801 13.3734 0.0000 0.0000 2.1297 0.0000 0.0000 0.0000 0.0000 0.0000 0.0000 0.0000 0.0000 0.0000 0.0000 0.0000 0.0000 0.0000 0.0000 0.0000 0.0000 0.0000 0.0000 0.0000 0.0000
0.0000 95.0000 0.0000 0.0000 0.0000 0.0000 0.0000 0.0000 0.0000 0.0000 0.0000 0.0000 0.0000 0.0000 0.0000 0.0000 0.0000 0.0000 0.0000 0.0000 0.0000 0.0000 0.0000 0.0000 -75.6419 4.6972 6.0488 -3.0335 9.2282 -12.2542 68.6563 5.9722 193.1953 50.9279 -8.9363 10.2880 27.1696 0.0000 0.0000 4.9253 0.0000 0.0000 -26.7597 1.6833 9.1013 22.2782 0.0000 0.0000 43.8252 0.0000 0.0000 -37.1278 2.1687 1.6798 53.3969 0.0000 0.0000 90.0000 0.0000 0.0000 -30.7113 3.2963 3.3482 110.0000 0.0000 0.0000 58.3882 0.0000 0.0000 -23.6787 3.8011 3.2872 110.0000 0.0000 0.0000 27.2743 0.0000 0.0000 0.0000 0.0000 0.0000 48.3027 -16.6370 36.1203 -68.8460 84.0099 22.8280 -44.9449 49.8329 -30.2818 -61.8544 -13.2910 3.4264 27.9059 0.0000 0.0000 8.4542 0.0000 0.0000 24.7944 1.4085 -8.2849 8.7102 0.0000 0.0000 8.6866 0.0000 0.0000 8.9365 0.9276 -7.0570 11.3236 0.0000 0.0000 3.1522 0.0000 0.0000 1.4936 1.1575 -6.9274 15.5205 0.0000 0.0000 4.0710 0.0000 0.0000 -7.4166 1.4159 -8.2516 18.3587 0.0000 0.0000 0.9230 0.0000 0.0000 0.0000 0.0000 0.0000 0.0000 0.0000 0.0000 0.0000 0.0000 0.0000 0.0000 0.0000 0.0000 0.0000 0.0000 0.0000 0.0000 0.0000 0.0000
0.0000 95.0000 0.0000 0.0000 0.0000 0.0000 0.0000 0.0000 0.0000 0.0000 0.0000 0.0000 0.0000 0.0000 0.0000 0.0000 0.0000 0.0000 0.0000 0.0000 0.0000 0.0000 0.0000 0.0000 -75.3904 4.6870 6.0631 -3.2769 9.1927 -12.2897 68.6648 5.9721 193.1975 50.9279 -8.9363 10.2880 27.1696 0.0000 0.0000 4.9253 0.0000 0.0000 -26.7597 1.6833 9.1013 22.2782 0.0000 0.0000 43.8252 0.0000 0.0000 -37.1278 2.1687 1.6798 53.3969 0.0000 0.0000 90.0000 0.0000 0.0000 -30.7113 3.2963 3.3482 110.0000 0.0000 0.0000 58.3882 0.0000 0.0000 -23.6787 3.8011 3.2872 110.0000 0.0000 0.0000 27.2743 0.0000 0.0000 0.0000 0.0000 0.0000 47.9426 -16.0576 35.2022 -23.4854 82.2578 67.7501 -20.5298 49.1836 6.3908 -58.3161 -13.2853 7.3333 29.2590 0.0000 0.0000 20.5347 0.0000 0.0000 26.7961 1.4328 -4.4626 9.8910 0.0000 0.0000 12.0257 0.0000 0.0000 8.8590 0.2925 0.9975 18.9643 0.0000 0.0000 6.8755 0.0000 0.0000 -0.6587 0.1422 -1.3275 24.9220 0.0000 0.0000 3.5444 0.0000 0.0000 -13.3541 -0.0176 -5.3140 25.5618 0.0000 0.0000 1.0980 0.0000 0.0000 0.0000 0.0000 0.0000 0.0000 0.0000 0.0000 0.0000 0.0000 0.0000 0.0000 0.0000 0.0000 0.0000 0.0000 0.0000 0.0000 0.0000 0.0000
0.0000 95.0000 0.0000 0.0000 0.0000 0.0000 0.0000 0.0000 0.0000 0.0000 0.0000 0.0000 0.0000 0.0000 0.0000 0.0000 0.0000 0.0000 0.0000 0.0000 0.0000 0.0000 0.0000 0.0000 -74.8300 4.6499 6.0762 -3.9989 9.0872 -12.3537 68.5040 6.0021 193.1890 50.9279 -8.9363 10.2880 27.1696 0.0000 0.0000 4.9253 0.0000 0.0000 -26.7597 1.6833 9.1013 22.2782 0.0000 0.0000 43.8252 0.0000 0.0000 -37.1278 2.1687 1.6798 53.3969 0.0000 0.0000 90.0000 0.0000 0.0000 -30.7113 3.2963 3.3482 110.0000 0.0000 0.0000 58.3882 0.0000 0.0000 -23.6787 3.8011 3.2872 110.0000 0.0000 0.0000 27.2743 0.0000 0.0000 0.0000 0.0000 0.0000 48.8004 -15.6790 33.7684 -1.6001 78.2603 88.6008 10.0133 31.9409 42.3202 -53.5245 -12.3020 4.6818 27.0354 0.0000 0.0000 34.9830 0.0000 0.0000 32.1504 0.5899 8.2434 18.1896 0.0000 0.0000 15.2716 0.0000 0.0000 15.6738 -1.3719 14.7148 14.9868 0.0000 0.0000 17.4605 0.0000 0.0000 1.7548 -1.2461 8.6133 25.1378 0.0000 0.0000 10.9505 0.0000 0.0000 -16.6026 -1.7357 3.2840 29.3227 0.0000 0.0000 4.1924 0.0000 0.0000 0.0000 0.0000 0.0000 0.0000 0.0000 0.0000 0.0000 0.0000 0.0000 0.0000 0.0000 0.0000 0.0000 0.0000 0.0000 0.0000 0.0000 0.0000
0.0000 95.0000 0.0000 0.0000 0.0000 0.0000 0.0000 0.0000 0.0000 0.0000 0.0000 0.0000 0.0000 0.0000 0.0000 0.0000 0.0000 0.0000 0.0000 0.0000 0.0000 0.0000 0.0000 0.0000 -74.8715 4.6313 6.0473 -3.9664 9.0721 -12.3211 68.4927 6.0036 193.1877 50.9279 -8.9363 10.2880 27.1696 0.0000 0.0000 4.9253 0.0000 0.0000 -26.7597 1.6833 9.1013 22.2782 0.0000 0.0000 43.8252 0.0000 0.0000 -37.1278 2.1687 1.6798 53.3969 0.0000 0.0000 90.0000 0.0000 0.0000 -30.7113 3.2963 3.3482 110.0000 0.0000 0.0000 58.3882 0.0000 0.0000 -23.6787 3.8011 3.2872 110.0000 0.0000 0.0000 27.2743 0.0000 0.0000 0.0000 0.0000 0.0000 49.4910 -15.4865 32.8733 3.7198 73.6245 91.6499 31.1345 16.2814 58.2989 -54.9303 -11.7207 -0.1250 22.4019 0.0000 0.0000 48.9327 0.0000 0.0000 33.3288 0.2617 10.8771 17.3704 0.0000 0.0000 14.2707 0.0000 0.0000 18.8883 -1.5778 14.2364 7.0656 0.0000 0.0000 14.4046 0.0000 0.0000 3.2467 -1.4153 9.4314 19.9029 0.0000 0.0000 7.5576 0.0000 0.0000 -17.0298 -2.2366 6.5129 24.8518 0.0000 0.0000 6.5557 0.0000 0.0000 0.0000 0.0000 0.0000 0.0000 0.0000 0.0000 0.0000 0.0000 0.0000 0.0000 0.0000 0.0000 0.0000 0.0000 0.0000 0.0000 0.0000 0.0000
0.0000 95.0000 0.0000 0.0000 0.0000 0.0000 0.0000 0.0000 0.0000 0.0000 0.0000 0.0000 0.0000 0.0000 0.0000 0.0000 0.0000 0.0000 0.0000 0.0000 0.0000 0.0000 0.0000 0.0000 -75.0749 4.6424 6.0396 -3.9314 9.1034 -12.3144 68.3308 6.0405 193.1872 50.9279 -8.9363 10.2880 27.1696 0.0000 0.0000 4.9253 0.0000 0.0000 -26.7597 1.6833 9.1013 22.2782 0.0000 0.0000 43.8252 0.0000 0.0000 -37.1278 2.1687 1.6798 53.3969 0.0000 0.0000 90.0000 0.0000 0.0000 -30.7113 3.2963 3.3482 110.0000 0.0000 0.0000 58.3882 0.0000 0.0000 -23.6787 3.8011 3.2872 110.0000 0.0000 0.0000 27.2743 0.0000 0.0000 0.0000 0.0000 0.0000 50.2060 -15.3673 32.1299 7.3341 70.2581 93.5820 43.0458 25.6117 54.8634 -65.0065 -14.0077 7.2512 24.1023 0.0000 0.0000 50.6501 0.0000 0.0000 19.7837 0.9697 13.0110 12.9833 0.0000 0.0000 17.3927 0.0000 0.0000 8.0850 -0.7986 16.0360 6.6745 0.0000 0.0000 20.0647 0.0000 0.0000 -0.5448 -1.3371 9.6302 19.3524 0.0000 0.0000 13.7948 0.0000 0.0000 -7.9518 -2.4230 7.8608 22.5752 0.0000 0.0000 3.3315 0.0000 0.0000 0.0000 0.0000 0.0000 0.0000 0.0000 0.0000 0.0000 0.0000 0.0000 0.0000 0.0000 0.0000 0.0000 0.0000 0.0000 0.0000 0.0000 0.0000
0.0000 95.0000 0.0000 0.0000 0.0000 0.0000 0.0000 0.0000 0.0000 0.0000 0.0000 0.0000 0.0000 0.0000 0.0000 0.0000 0.0000 0.0000 0.0000 0.0000 0.0000 0.0000 0.0000 0.0000 -75.1821 4.6419 6.0274 -4.0665 9.1018 -12.3038 68.0920 6.0837 193.1727 50.9279 -8.9363 10.2880 27.1696 0.0000 0.0000 4.9253 0.0000 0.0000 -26.7597 1.6833 9.1013 22.2782 0.0000 0.0000 43.8252 0.0000 0.0000 -37.1278 2.1687 1.6798 53.3969 0.0000 0.0000 90.0000 0.0000 0.0000 -30.7113 3.2963 3.3482 110.0000 0.0000 0.0000 58.3882 0.0000 0.0000 -23.6787 3.8011 3.2872 110.0000 0.0000 0.0000 27.2743 0.0000 0.0000 0.0000 0.0000 0.0000 50.7010 -15.2251 31.5073 8.6836 68.3819 93.9731 42.3029 28.2606 59.7884 -61.7129 -13.4137 4.8701 21.7220 0.0000 0.0000 51.9303 0.0000 0.0000 20.5307 0.9178 13.5303 19.1740 0.0000 0.0000 23.7125 0.0000 0.0000 8.0002 -0.8718 17.1903 20.2158 0.0000 0.0000 28.4200 0.0000 0.0000 2.1116 -1.7341 11.6292 29.7359 0.0000 0.0000 21.5940 0.0000 0.0000 3.1276 -4.7747 14.9188 28.5041 0.0000 0.0000 12.7027 0.0000 0.0000 0.0000 0.0000 0.0000 0.0000 0.0000 0.0000 0.0000 0.0000 0.0000 0.0000 0.0000 0.0000 0.0000 0.0000 0.0000 0.0000 0.0000 0.0000
0.0000 95.0000 0.0000 0.0000 0.0000 0.0000 0.0000 0.0000 0.0000 0.0000 0.0000 0.0000 0.0000 0.0000 0.0000 0.0000 0.0000 0.0000 0.0000 0.0000 0.0000 0.0000 0.0000 0.0000 -75.3134 4.6546 6.0296 -4.4257 9.1263 -12.3493 67.6211 6.1947 193.1750 50.9279 -8.9363 10.2880 27.1696 0.0000 0.0000 4.9253 0.0000 0.0000 -26.7597 1.6833 9.1013 22.2782 0.0000 0.0000 43.8252 0.0000 0.0000 -37.1278 2.1687 1.6798 53.3969 0.0000 0.0000 90.0000 0.0000 0.0000 -30.7113 3.2963 3.3482 110.0000 0.0000 0.0000 58.3882 0.0000 0.0000 -23.6787 3.8011 3.2872 110.0000 0.0000 0.0000 27.2743 0.0000 0.0000 0.0000 0.0000 0.0000 51.0004 -15.3285 31.5106 9.7084 67.7603 94.4735 41.0772 29.9565 61.3418 -61.2386 -13.0681 2.1259 24.5965 0.0000 0.0000 46.9309 0.0000 0.0000 21.6187 0.8668 10.2959 20.1006 0.0000 0.0000 17.0817 0.0000 0.0000 8.7072 -0.7759 14.9372 15.6199 0.0000 0.0000 24.0370 0.0000 0.0000 5.7153 -1.8176 11.1684 30.4705 0.0000 0.0000 18.9624 0.0000 0.0000 11.0828 -5.1000 14.3928 26.4796 0.0000 0.0000 14.3080 0.0000 0.0000 0.0000 0.0000 0.0000 0.0000 0.0000 0.0000 0.0000 0.0000 0.0000 0.0000 0.0000 0.0000 0.0000 0.0000 0.0000 0.0000 0.0000 0.0000
0.0000 95.0000 0.0000 0.0000 0.0000 0.0000 0.0000 0.0000 0.0000 0.0000 0.0000 0.0000 0.0000 0.0000 0.0000 0.0000 0.0000 0.0000 0.0000 0.0000 0.0000 0.0000 0.0000 0.0000 -75.3407 4.6658 6.0410 -4.6221 9.1420 -12.3871 67.4084 6.2481 193.1796 50.9279 -8.9363 10.2880 27.1696 0.0000 0.0000 4.9253 0.0000 0.0000 -26.7597 1.6833 9.1013 22.2782 0.0000 0.0000 43.8252 0.0000 0.0000 -37.1278 2.1687 1.6798 53.3969 0.0000 0.0000 90.0000 0.0000 0.0000 -30.7113 3.2963 3.3482 110.0000 0.0000 0.0000 58.3882 0.0000 0.0000 -23.6787 3.8011 3.2872 110.0000 0.0000 0.0000 27.2743 0.0000 0.0000 0.0000 0.0000 0.0000 51.2778 -15.3642 31.3952 10.1219 67.1210 94.3451 42.5169 29.3278 59.4154 -61.0470 -13.1730 3.4029 23.7517 0.0000 0.0000 52.0377 0.0000 0.0000 23.8338 0.7338 11.3908 13.9145 0.0000 0.0000 15.8579 0.0000 0.0000 12.4030 -1.2075 15.8501 11.0132 0.0000 0.0000 23.6422 0.0000 0.0000 4.5905 -1.8405 11.5647 25.7450 0.0000 0.0000 21.2408 0.0000 0.0000 3.0273 -4.3834 13.7715 30.9270 0.0000 0.0000 11.9861 0.0000 0.0000 0.0000 0.0000 0.0000 0.0000 0.0000 0.0000 0.0000 0.0000 0.0000 0.0000 0.0000 0.0000 0.0000 0.0000 0.0000 0.0000 0.0000 0.0000
0.0000 95.0000 0.0000 0.0000 0.0000 0.0000 0.0000 0.0000 0.0000 0.0000 0.0000 0.0000 0.0000 0.0000 0.0000 0.0000 0.0000 0.0000 0.0000 0.0000 0.0000 0.0000 0.0000 0.0000 -75.4237 4.6682 6.0351 -4.6440 9.1471 -12.3779 67.3048 6.2659 193.1720 50.9279 -8.9363 10.2880 27.1696 0.0000 0.0000 4.9253 0.0000 0.0000 -26.7597 1.6833 9.1013 22.2782 0.0000 0.0000 43.8252 0.0000 0.0000 -37.1278 2.1687 1.6798 53.3969 0.0000 0.0000 90.0000 0.0000 0.0000 -30.7113 3.2963 3.3482 110.0000 0.0000 0.0000 58.3882 0.0000 0.0000 -23.6787 3.8011 3.2872 110.0000 0.0000 0.0000 27.2743 0.0000 0.0000 0.0000 0.0000 0.0000 51.1402 -15.2921 31.3450 10.0822 66.6867 94.2096 46.2350 29.5987 62.0614 -61.8958 -13.2806 3.2589 24.0379 0.0000 0.0000 52.1148 0.0000 0.0000 22.2714 0.8024 12.6048 21.9683 0.0000 0.0000 17.9645 0.0000 0.0000 11.2442 -1.2011 16.9282 20.4489 0.0000 0.0000 24.5633 0.0000 0.0000 5.5243 -1.8699 11.4874 28.4571 0.0000 0.0000 22.2991 0.0000 0.0000 6.7440 -4.9362 14.6977 31.4338 0.0000 0.0000 15.4882 0.0000 0.0000 0.0000 0.0000 0.0000 0.0000 0.0000 0.0000 0.0000 0.0000 0.0000 0.0000 0.0000 0.0000 0.0000 0.0000 0.0000 0.0000 0.0000 0.0000
0.0000 95.0000 0.0000 0.0000 0.0000 0.0000 0.0000 0.0000 0.0000 0.0000 0.0000 0.0000 0.0000 0.0000 0.0000 0.0000 0.0000 0.0000 0.0000 0.0000 0.0000 0.0000 0.0000 0.0000 -75.7585 4.6809 6.0151 -4.4249 9.1938 -12.3415 67.1927 6.2900 193.1694 50.9279 -8.9363 10.2880 27.1696 0.0000 0.0000 4.9253 0.0000 0.0000 -26.7597 1.6833 9.1013 22.2782 0.0000 0.0000 43.8252 0.0000 0.0000 -37.1278 2.1687 1.6798 53.3969 0.0000 0.0000 90.0000 0.0000 0.0000 -30.7113 3.2963 3.3482 110.0000 0.0000 0.0000 58.3882 0.0000 0.0000 -23.6787 3.8011 3.2872 110.0000 0.0000 0.0000 27.2743 0.0000 0.0000 0.0000 0.0000 0.0000 51.1063 -15.3243 31.4312 9.4546 66.0386 92.9618 45.6909 31.1276 62.3513 -61.2256 -13.2568 3.9656 25.9618 0.0000 0.0000 50.8056 0.0000 0.0000 23.0585 0.7321 13.4400 21.9657 0.0000 0.0000 19.8829 0.0000 0.0000 11.6046 -1.2971 17.4845 22.7506 0.0000 0.0000 28.3252 0.0000 0.0000 6.9654 -2.2044 12.8001 34.6989 0.0000 0.0000 24.0663 0.0000 0.0000 7.5843 -5.1772 15.1856 29.4471 0.0000 0.0000 20.1160 0.0000 0.0000 0.0000 0.0000 0.0000 0.0000 0.0000 0.0000 0.0000 0.0000 0.0000 0.0000 0.0000 0.0000 0.0000 0.0000 0.0000 0.0000 0.0000 0.0000
0.0000 95.0000 0.0000 0.0000 0.0000 0.0000 0.0000 0.0000 0.0000 0.0000 0.0000 0.0000 0.0000 0.0000 0.0000 0.0000 0.0000 0.0000 0.0000 0.0000 0.0000 0.0000 0.0000 0.0000 -75.9932 4.7043 6.0198 -4.2623 9.2463 -12.3410 67.1269 6.3098 193.1747 50.9279 -8.9363 10.2880 27.1696 0.0000 0.0000 4.9253 0.0000 0.0000 -26.7597 1.6833 9.1013 22.2782 0.0000 0.0000 43.8252 0.0000 0.0000 -37.1278 2.1687 1.6798 53.3969 0.0000 0.0000 90.0000 0.0000 0.0000 -30.7113 3.2963 3.3482 110.0000 0.0000 0.0000 58.3882 0.0000 0.0000 -23.6787 3.8011 3.2872 110.0000 0.0000 0.0000 27.2743 0.0000 0.0000 0.0000 0.0000 0.0000 50.9215 -15.4484 31.8011 8.3323 66.4084 91.7182 48.0754 33.5892 62.0690 -64.2889 -13.7339 4.6778 25.4378 0.0000 0.0000 49.0243 0.0000 0.0000 20.6748 0.9085 12.0906 22.7183 0.0000 0.0000 22.6387 0.0000 0.0000 9.2919 -1.0161 17.2264 24.3255 0.0000 0.0000 25.8753 0.0000 0.0000 4.1578 -1.8386 11.6690 35.3995 0.0000 0.0000 22.4174 0.0000 0.0000 4.6330 -4.9908 15.2472 33.8759 0.0000 0.0000 13.8560 0.0000 0.0000 0.0000 0.0000 0.0000 0.0000 0.0000 0.0000 0.0000 0.0000 0.0000 0.0000 0.0000 0.0000 0.0000 0.0000 0.0000 0.0000 0.0000 0.0000
0.0000 95.0000 0.0000 0.0000 0.0000 0.0000 0.0000 0.0000 0.0000 0.0000 0.0000 0.0000 0.0000 0.0000 0.0000 0.0000 0.0000 0.0000 0.0000 0.0000 0.0000 0.0000 0.0000 0.0000 -76.4195 4.7419 6.0217 -3.7893 9.3350 -12.3104 67.1764 6.3031 193.1806 50.9279 -8.9363 10.2880 27.1696 0.0000 0.0000 4.9253 0.0000 0.0000 -26.7597 1.6833 9.1013 22.2782 0.0000 0.0000 43.8252 0.0000 0.0000 -37.1278 2.1687 1.6798 53.3969 0.0000 0.0000 90.0000 0.0000 0.0000 -30.7113 3.2963 3.3482 110.0000 0.0000 0.0000 58.3882 0.0000 0.0000 -23.6787 3.8011 3.2872 110.0000 0.0000 0.0000 27.2743 0.0000 0.0000 0.0000 0.0000 0.0000 50.5888 -15.4376 32.0066 7.2611 66.1473 90.4218 51.9678 32.0312 63.4984 -66.5575 -13.9733 3.6570 24.9406 0.0000 0.0000 47.9451 0.0000 0.0000 16.3878 1.0257 8.0739 25.2239 0.0000 0.0000 24.2133 0.0000 0.0000 4.6880 -0.2961 11.9967 25.8739 0.0000 0.0000 26.4321 0.0000 0.0000 0.7701 -1.1231 7.9150 37.6653 0.0000 0.0000 22.2396 0.0000 0.0000 0.3279 -4.3605 14.1782 38.6070 0.0000 0.0000 13.7356 0.0000 0.0000 0.0000 0.0000 0.0000 0.0000 0.0000 0.0000 0.0000 0.0000 0.0000 0.0000 0.0000 0.0000 0.0000 0.0000 0.0000 0.0000 0.0000 0.0000
0.0000 95.0000 0.0000 0.0000 0.0000 0.0000 0.0000 0.0000 0.0000 0.0000 0.0000 0.0000 0.0000 0.0000 0.0000 0.0000 0.0000 0.0000 0.0000 0.0000 0.0000 0.0000 0.0000 0.0000 -76.6246 4.7606 6.0233 -3.6675 9.3750 -12.3039 67.0972 6.3211 193.1799 50.9279 -8.9363 10.2880 27.1696 0.0000 0.0000 4.9253 0.0000 0.0000 -26.7597 1.6833 9.1013 22.2782 0.0000 0.0000 43.8252 0.0000 0.0000 -37.1278 2.1687 1.6798 53.3969 0.0000 0.0000 90.0000 0.0000 0.0000 -30.7113 3.2963 3.3482 110.0000 0.0000 0.0000 58.3882 0.0000 0.0000 -23.6787 3.8011 3.2872 110.0000 0.0000 0.0000 27.2743 0.0000 0.0000 0.0000 0.0000 0.0000 50.6554 -15.3631 31.8129 7.5630 66.0587 90.8227 46.1356 34.1027 59.9600 -64.9393 -13.9141 6.0225 23.9004 0.0000 0.0000 47.3627 0.0000 0.0000 18.5557 1.0564 13.0775 17.5348 0.0000 0.0000 21.2935 0.0000 0.0000 6.6371 -0.6928 16.6777 17.6522 0.0000 0.0000 26.2886 0.0000 0.0000 0.9148 -1.7455 12.0871 29.4625 0.0000 0.0000 19.2087 0.0000 0.0000 2.0460 -4.8913 15.4970 27.2358 0.0000 0.0000 8.1459 0.0000 0.0000 0.0000 0.0000 0.0000 0.0000 0.0000 0.0000 0.0000 0.0000 0.0000 0.0000 0.0000 0.0000 0.0000 0.0000 0.0000 0.0000 0.0000 0.0000
0.0000 95.0000 0.0000 0.0000 0.0000 0.0000 0.0000 0.0000 0.0000 0.0000 0.0000 0.0000 0.0000 0.0000 0.0000 0.0000 0.0000 0.0000 0.0000 0.0000 0.0000 0.0000 0.0000 0.0000 -76.6016 4.7615 6.0268 -3.8025 9.3822 -12.3342 66.9940 6.3558 193.1924 50.9279 -8.9363 10.2880 27.1696 0.0000 0.0000 4.9253 0.0000 0.0000 -26.7597 1.6833 9.1013 22.2782 0.0000 0.0000 43.8252 0.0000 0.0000 -37.1278 2.1687 1.6798 53.3969 0.0000 0.0000 90.0000 0.0000 0.0000 -30.7113 3.2963 3.3482 110.0000 0.0000 0.0000 58.3882 0.0000 0.0000 -23.6787 3.8011 3.2872 110.0000 0.0000 0.0000 27.2743 0.0000 0.0000 0.0000 0.0000 0.0000 51.1490 -15.2798 31.3149 7.5833 65.9209 90.6178 41.4480 35.1694 56.4731 -63.6180 -13.9073 7.8740 21.9523 0.0000 0.0000 44.9380 0.0000 0.0000 21.6679 0.8362 13.2375 11.1554 0.0000 0.0000 13.9189 0.0000 0.0000 9.4619 -1.1990 19.1835 9.9388 0.0000 0.0000 12.5066 0.0000 0.0000 4.9974 -2.2427 13.6279 23.6214 0.0000 0.0000 7.7985 0.0000 0.0000 6.5339 -4.7026 14.1030 20.7038 0.0000 0.0000 0.7281 0.0000 0.0000 0.0000 0.0000 0.0000 0.0000 0.0000 0.0000 0.0000 0.0000 0.0000 0.0000 0.0000 0.0000 0.0000 0.0000 0.0000 0.0000 0.0000 0.0000
0.0000 95.0000 0.0000 0.0000 0.0000 0.0000 0.0000 0.0000 0.0000 0.0000 0.0000 0.0000 0.0000 0.0000 0.0000 0.0000 0.0000 0.0000 0.0000 0.0000 0.0000 0.0000 0.0000 0.0000 -76.3254 4.7363 6.0247 -4.3617 9.3124 -12.3668 66.7140 6.4072 193.1752 50.9279 -8.9363 10.2880 27.1696 0.0000 0.0000 4.9253 0.0000 0.0000 -26.7597 1.6833 9.1013 22.2782 0.0000 0.0000 43.8252 0.0000 0.0000 -37.1278 2.1687 1.6798 53.3969 0.0000 0.0000 90.0000 0.0000 0.0000 -30.7113 3.2963 3.3482 110.0000 0.0000 0.0000 58.3882 0.0000 0.0000 -23.6787 3.8011 3.2872 110.0000 0.0000 0.0000 27.2743 0.0000 0.0000 0.0000 0.0000 0.0000 51.7532 -15.2202 30.7995 8.6968 65.8447 91.6910 31.1152 40.1635 48.9596 -60.1633 -13.9336 11.3441 19.2776 0.0000 0.0000 45.0774 0.0000 0.0000 25.5888 0.1464 22.4404 4.5142 0.0000 0.0000 7.9536 0.0000 0.0000 12.2983 -2.1835 24.8340 3.6330 0.0000 0.0000 7.4077 0.0000 0.0000 9.3220 -4.2838 21.3720 20.5836 0.0000 0.0000 4.1493 0.0000 0.0000 11.8817 -9.3854 24.3472 21.4726 0.0000 0.0000 1.1807 0.0000 0.0000 0.0000 0.0000 0.0000 0.0000 0.0000 0.0000 0.0000 0.0000 0.0000 0.0000 0.0000 0.0000 0.0000 0.0000 0.0000 0.0000 0.0000 0.0000
0.0000 95.0000 0.0000 0.0000 0.0000 0.0000 0.0000 0.0000 0.0000 0.0000 0.0000 0.0000 0.0000 0.0000 0.0000 0.0000 0.0000 0.0000 0.0000 0.0000 0.0000 0.0000 0.0000 0.0000 -76.1432 4.7316 6.0384 -4.9089 9.2775 -12.4235 66.3592 6.4817 193.1642 50.9279 -8.9363 10.2880 27.1696 0.0000 0.0000 4.9253 0.0000 0.0000 -26.7597 1.6833 9.1013 22.2782 0.0000 0.0000 43.8252 0.0000 0.0000 -37.1278 2.1687 1.6798 53.3969 0.0000 0.0000 90.0000 0.0000 0.0000 -30.7113 3.2963 3.3482 110.0000 0.0000 0.0000 58.3882 0.0000 0.0000 -23.6787 3.8011 3.2872 110.0000 0.0000 0.0000 27.2743 0.0000 0.0000 0.0000 0.0000 0.0000 52.7852 -15.0139 29.7430 9.6879 66.5321 93.1126 41.4566 29.7932 54.3565 -61.9756 -13.8419 8.9729 17.6152 0.0000 0.0000 50.8451 0.0000 0.0000 19.2206 0.9935 11.7084 4.4798 0.0000 0.0000 5.4893 0.0000 0.0000 4.8453 -0.5044 16.6508 1.5812 0.0000 0.0000 6.3782 0.0000 0.0000 -2.0207 -1.3803 10.3364 14.9182 0.0000 0.0000 5.8825 0.0000 0.0000 2.7307 -3.5048 11.1753 18.3992 0.0000 0.0000 3.2935 0.0000 0.0000 0.0000 0.0000 0.0000 0.0000 0.0000 0.0000 0.0000 0.0000 0.0000 0.0000 0.0000 0.0000 0.0000 0.0000 0.0000 0.0000 0.0000 0.0000
0.0000 95.0000 0.0000 0.0000 0.0000 0.0000 0.0000 0.0000 0.0000 0.0000 0.0000 0.0000 0.0000 0.0000 0.0000 0.0000 0.0000 0.0000 0.0000 0.0000 0.0000 0.0000 0.0000 0.0000 -75.8165 4.6861 6.0156 -5.1704 9.1754 -12.3891 66.4080 6.4460 193.1357 50.9279 -8.9363 10.2880 27.1696 0.0000 0.0000 4.9253 0.0000 0.0000 -26.7597 1.6833 9.1013 22.2782 0.0000 0.0000 43.8252 0.0000 0.0000 -37.1278 2.1687 1.6798 53.3969 0.0000 0.0000 90.0000 0.0000 0.0000 -30.7113 3.2963 3.3482 110.0000 0.0000 0.0000 58.3882 0.0000 0.0000 -23.6787 3.8011 3.2872 110.0000 0.0000 0.0000 27.2743 0.0000 0.0000 0.0000 0.0000 0.0000 53.5783 -15.0662 29.3538 10.4301 66.5898 93.4939 40.6255 54.6901 54.5555 -64.3944 -13.9082 6.8116 24.4198 0.0000 0.0000 39.3628 0.0000 0.0000 16.2271 1.4571 19.2693 11.9295 0.0000 0.0000 5.6111 0.0000 0.0000 7.3741 -1.3428 25.3858 4.7145 0.0000 0.0000 3.1033 0.0000 0.0000 1.0466 -3.4471 23.2954 15.4386 0.0000 0.0000 4.9390 0.0000 0.0000 0.9308 -9.5638 30.4045 14.9198 0.0000 0.0000 3.0520 0.0000 0.0000 0.0000 0.0000 0.0000 0.0000 0.0000 0.0000 0.0000 0.0000 0.0000 0.0000 0.0000 0.0000 0.0000 0.0000 0.0000 0.0000 0.0000 0.0000
0.0000 95.0000 0.0000 0.0000 0.0000 0.0000 0.0000 0.0000 0.0000 0.0000 0.0000 0.0000 0.0000 0.0000 0.0000 0.0000 0.0000 0.0000 0.0000 0.0000 0.0000 0.0000 0.0000 0.0000 -75.4809 4.6568 6.0142 -5.7680 9.0879 -12.4140 66.1443 6.4854 193.1087 50.9279 -8.9363 10.2880 27.1696 0.0000 0.0000 4.9253 0.0000 0.0000 -26.7597 1.6833 9.1013 22.2782 0.0000 0.0000 43.8252 0.0000 0.0000 -37.1278 2.1687 1.6798 53.3969 0.0000 0.0000 90.0000 0.0000 0.0000 -30.7113 3.2963 3.3482 110.0000 0.0000 0.0000 58.3882 0.0000 0.0000 -23.6787 3.8011 3.2872 110.0000 0.0000 0.0000 27.2743 0.0000 0.0000 0.0000 0.0000 0.0000 55.1489 -14.9618 28.2291 13.5260 64.9046 95.3181 30.4367 40.1820 40.2087 -62.1607 -13.6388 6.6309 10.5203 0.0000 0.0000 24.6619 0.0000 0.0000 20.2993 0.9508 20.1534 16.9646 0.0000 0.0000 8.8432 0.0000 0.0000 14.6739 -2.8867 26.9162 12.9502 0.0000 0.0000 4.3434 0.0000 0.0000 8.2528 -5.2894 26.6273 16.4829 0.0000 0.0000 2.9328 0.0000 0.0000 4.3331 -9.1121 27.0599 15.3239 0.0000 0.0000 1.4189 0.0000 0.0000 0.0000 0.0000 0.0000 0.0000 0.0000 0.0000 0.0000 0.0000 0.0000 0.0000 0.0000 0.0000 0.0000 0.0000 0.0000 0.0000 0.0000 0.0000
0.0000 95.0000 0.0000 0.0000 0.0000 0.0000 0.0000 0.0000 0.0000 0.0000 0.0000 0.0000 0.0000 0.0000 0.0000 0.0000 0.0000 0.0000 0.0000 0.0000 0.0000 0.0000 0.0000 0.0000 -71.4549 12.8396 17.7812 -11.3426 16.7255 -24.7165 65.6086 6.5830 193.0743 50.9279 -8.9363 10.2880 27.1696 0.0000 0.0000 4.9253 0.0000 0.0000 -26.7597 1.6833 9.1013 22.2782 0.0000 0.0000 43.8252 0.0000 0.0000 -37.1278 2.1687 1.6798 53.3969 0.0000 0.0000 90.0000 0.0000 0.0000 -30.7113 3.2963 3.3482 110.0000 0.0000 0.0000 58.3882 0.0000 0.0000 -23.6787 3.8011 3.2872 110.0000 0.0000 0.0000 27.2743 0.0000 0.0000 0.0000 0.0000 0.0000 57.4206 -15.3102 27.5753 12.7935 60.6605 89.2178 26.7198 33.1529 34.6336 -63.2567 -13.7918 6.9535 3.4245 0.0000 0.0000 7.5143 0.0000 0.0000 24.7061 0.3677 20.1052 20.9435 0.0000 0.0000 9.6597 0.0000 0.0000 22.0934 -4.0118 25.1131 16.9753 0.0000 0.0000 7.5357 0.0000 0.0000 16.4420 -6.4041 25.1510 18.8797 0.0000 0.0000 5.5367 0.0000 0.0000 7.9880 -8.6710 24.1629 17.4931 0.0000 0.0000 2.4681 0.0000 0.0000 0.0000 0.0000 0.0000 0.0000 0.0000 0.0000 0.0000 0.0000 0.0000 0.0000 0.0000 0.0000 0.0000 0.0000 0.0000 0.0000 0.0000 0.0000
0.0000 95.0000 0.0000 0.0000 0.0000 0.0000 0.0000 0.0000 0.0000 0.0000 0.0000 0.0000 0.0000 0.0000 0.0000 0.0000 0.0000 0.0000 0.0000 0.0000 0.0000 0.0000 0.0000 0.0000 -71.3022 12.5505 17.4319 -11.8794 16.3980 -24.3854 65.1985 6.6586 193.0486 50.9279 -8.9363 10.2880 27.1696 0.0000 0.0000 4.9253 0.0000 0.0000 -26.7597 1.6833 9.1013 22.2782 0.0000 0.0000 43.8252 0.0000 0.0000 -37.1278 2.1687 1.6798 53.3969 0.0000 0.0000 90.0000 0.0000 0.0000 -30.7113 3.2963 3.3482 110.0000 0.0000 0.0000 58.3882 0.0000 0.0000 -23.6787 3.8011 3.2872 110.0000 0.0000 0.0000 27.2743 0.0000 0.0000 0.0000 0.0000 0.0000 59.0791 -15.5597 27.1100 11.7783 58.2198 84.4912 27.0927 38.4759 36.7223 -63.2567 -13.7918 6.9535 3.4245 0.0000 0.0000 7.5143 0.0000 0.0000 24.7061 0.3677 20.1052 20.9435 0.0000 0.0000 9.6597 0.0000 0.0000 22.0934 -4.0118 25.1131 16.9753 0.0000 0.0000 7.5357 0.0000 0.0000 16.4420 -6.4041 25.1510 18.8797 0.0000 0.0000 5.5367 0.0000 0.0000 7.9880 -8.6710 24.1629 17.4931 0.0000 0.0000 2.4681 0.0000 0.0000 0.0000 0.0000 0.0000 0.0000 0.0000 0.0000 0.0000 0.0000 0.0000 0.0000 0.0000 0.0000 0.0000 0.0000 0.0000 0.0000 0.0000 0.0000
0.0000 95.0000 0.0000 0.0000 0.0000 0.0000 0.0000 0.0000 0.0000 0.0000 0.0000 0.0000 0.0000 0.0000 0.0000 0.0000 0.0000 0.0000 0.0000 0.0000 0.0000 0.0000 0.0000 0.0000 -71.4813 12.3965 17.1637 -11.9641 16.2603 -24.1287 64.9269 6.7209 193.0455 50.9279 -8.9363 10.2880 27.1696 0.0000 0.0000 4.9253 0.0000 0.0000 -26.7597 1.6833 9.1013 22.2782 0.0000 0.0000 43.8252 0.0000 0.0000 -37.1278 2.1687 1.6798 53.3969 0.0000 0.0000 90.0000 0.0000 0.0000 -30.7113 3.2963 3.3482 110.0000 0.0000 0.0000 58.3882 0.0000 0.0000 -23.6787 3.8011 3.2872 110.0000 0.0000 0.0000 27.2743 0.0000 0.0000 0.0000 0.0000 0.0000 61.1818 -15.7628 26.3576 11.5593 53.8950 78.8067 55.8122 24.3303 61.0190 -75.3750 -15.3462 -3.8652 5.6431 0.0000 0.0000 17.9831 0.0000 0.0000 20.8078 0.9225 1.4238 16.9297 0.0000 0.0000 6.5843 0.0000 0.0000 15.8416 -0.1499 5.8496 11.0746 0.0000 0.0000 5.7077 0.0000 0.0000 9.9823 -0.6288 5.1963 10.5160 0.0000 0.0000 3.9146 0.0000 0.0000 3.3175 -1.5811 5.4264 8.7504 0.0000 0.0000 0.6976 0.0000 0.0000 0.0000 0.0000 0.0000 0.0000 0.0000 0.0000 0.0000 0.0000 0.0000 0.0000 0.0000 0.0000 0.0000 0.0000 0.0000 0.0000 0.0000 0.0000
0.0000 95.0000 0.0000 0.0000 0.0000 0.0000 0.0000 0.0000 0.0000 0.0000 0.0000 0.0000 0.0000 0.0000 0.0000 0.0000 0.0000 0.0000 0.0000 0.0000 0.0000 0.0000 0.0000 0.0000 -71.8787 11.9263 16.3985 -11.8911 15.8182 -23.3339 64.5462 6.7888 193.0185 50.9279 -8.9363 10.2880 27.1696 0.0000 0.0000 4.9253 0.0000 0.0000 -26.7597 1.6833 9.1013 22.2782 0.0000 0.0000 43.8252 0.0000 0.0000 -37.1278 2.1687 1.6798 53.3969 0.0000 0.0000 90.0000 0.0000 0.0000 -30.7113 3.2963 3.3482 110.0000 0.0000 0.0000 58.3882 0.0000 0.0000 -23.6787 3.8011 3.2872 110.0000 0.0000 0.0000 27.2743 0.0000 0.0000 0.0000 0.0000 0.0000 63.2855 -14.9560 24.0493 15.2647 45.3822 74.8696 79.2018 18.2420 77.4214 -82.1478 -17.3601 -11.7852 8.8914 0.0000 0.0000 42.0662 0.0000 0.0000 21.9090 1.0181 -3.7711 14.0303 0.0000 0.0000 4.4716 0.0000 0.0000 13.5446 0.5094 0.4844 9.8144 0.0000 0.0000 4.3628 0.0000 0.0000 7.1286 0.8597 -2.2106 6.8017 0.0000 0.0000 2.8770 0.0000 0.0000 1.1889 0.7953 -2.2009 2.6331 0.0000 0.0000 2.8894 0.0000 0.0000 0.0000 0.0000 0.0000 0.0000 0.0000 0.0000 0.0000 0.0000 0.0000 0.0000 0.0000 0.0000 0.0000 0.0000 0.0000 0.0000 0.0000 0.0000
0.0000 95.0000 0.0000 0.0000 0.0000 0.0000 0.0000 0.0000 0.0000 0.0000 0.0000 0.0000 0.0000 0.0000 0.0000 0.0000 0.0000 0.0000 0.0000 0.0000 0.0000 0.0000 0.0000 0.0000 -72.6064 10.7601 14.6099 -7.6641 2.5675 -1.7139 63.7450 -8.2045 175.5915 50.9279 -8.9363 10.2880 27.1696 0.0000 0.0000 4.9253 0.0000 0.0000 -26.7597 1.6833 9.1013 22.2782 0.0000 0.0000 43.8252 0.0000 0.0000 -37.1278 2.1687 1.6798 53.3969 0.0000 0.0000 90.0000 0.0000 0.0000 -30.7113 3.2963 3.3482 110.0000 0.0000 0.0000 58.3882 0.0000 0.0000 -23.6787 3.8011 3.2872 110.0000 0.0000 0.0000 27.2743 0.0000 0.0000 0.0000 0.0000 0.0000 65.5746 -13.8630 21.3759 17.4311 37.1642 67.7267 91.0938 27.2101 86.6252 -82.1478 -17.3601 -11.7852 8.8914 0.0000 0.0000 42.0662 0.0000 0.0000 21.9090 1.0181 -3.7711 14.0303 0.0000 0.0000 4.4716 0.0000 0.0000 13.5446 0.5094 0.4844 9.8144 0.0000 0.0000 4.3628 0.0000 0.0000 7.1286 0.8597 -2.2106 6.8017 0.0000 0.0000 2.8770 0.0000 0.0000 1.1889 0.7953 -2.2009 2.6331 0.0000 0.0000 2.8894 0.0000 0.0000 0.0000 0.0000 0.0000 0.0000 0.0000 0.0000 0.0000 0.0000 0.0000 0.0000 0.0000 0.0000 0.0000 0.0000 0.0000 0.0000 0.0000 0.0000
0.0000 95.0000 0.0000 0.0000 0.0000 0.0000 0.0000 0.0000 0.0000 0.0000 0.0000 0.0000 0.0000 0.0000 0.0000 0.0000 0.0000 0.0000 0.0000 0.0000 0.0000 0.0000 0.0000 0.0000 -74.6981 7.4732 9.7827 -7.9629 1.2198 -0.2863 62.0137 -5.6088 178.5726 50.9279 -8.9363 10.2880 27.1696 0.0000 0.0000 4.9253 0.0000 0.0000 -26.7597 1.6833 9.1013 22.2782 0.0000 0.0000 43.8252 0.0000 0.0000 -37.1278 2.1687 1.6798 53.3969 0.0000 0.0000 90.0000 0.0000 0.0000 -30.7113 3.2963 3.3482 110.0000 0.0000 0.0000 58.3882 0.0000 0.0000 -23.6787 3.8011 3.2872 110.0000 0.0000 0.0000 27.2743 0.0000 0.0000 0.0000 0.0000 0.0000 68.3246 -12.2216 17.9299 19.1970 29.0644 57.9585 107.8973 33.6954 102.5013 -82.1478 -17.3601 -11.7852 8.8914 0.0000 0.0000 42.0662 0.0000 0.0000 21.9090 1.0181 -3.7711 14.0303 0.0000 0.0000 4.4716 0.0000 0.0000 13.5446 0.5094 0.4844 9.8144 0.0000 0.0000 4.3628 0.0000 0.0000 7.1286 0.8597 -2.2106 6.8017 0.0000 0.0000 2.8770 0.0000 0.0000 1.1889 0.7953 -2.2009 2.6331 0.0000 0.0000 2.8894 0.0000 0.0000 0.0000 0.0000 0.0000 0.0000 0.0000 0.0000 0.0000 0.0000 0.0000 0.0000 0.0000 0.0000 0.0000 0.0000 0.0000 0.0000 0.0000 0.0000
0.0000 95.0000 0.0000 0.0000 0.0000 0.0000 0.0000 0.0000 0.0000 0.0000 0.0000 0.0000 0.0000 0.0000 0.0000 0.0000 0.0000 0.0000 0.0000 0.0000 0.0000 0.0000 0.0000 0.0000 -76.5039 3.6459 4.6235 -8.1322 -0.5847 1.5995 60.6008 -2.9629 181.4389 50.9279 -8.9363 10.2880 27.1696 0.0000 0.0000 4.9253 0.0000 0.0000 -26.7597 1.6833 9.1013 22.2782 0.0000 0.0000 43.8252 0.0000 0.0000 -37.1278 2.1687 1.6798 53.3969 0.0000 0.0000 90.0000 0.0000 0.0000 -30.7113 3.2963 3.3482 110.0000 0.0000 0.0000 58.3882 0.0000 0.0000 -23.6787 3.8011 3.2872 110.0000 0.0000 0.0000 27.2743 0.0000 0.0000 0.0000 0.0000 0.0000 71.1507 -10.4673 14.5952 19.7030 19.8939 42.6185 130.4527 33.3719 126.8414 -82.1478 -17.3601 -11.7852 8.8914 0.0000 0.0000 42.0662 0.0000 0.0000 21.9090 1.0181 -3.7711 14.0303 0.0000 0.0000 4.4716 0.0000 0.0000 13.5446 0.5094 0.4844 9.8144 0.0000 0.0000 4.3628 0.0000 0.0000 7.1286 0.8597 -2.2106 6.8017 0.0000 0.0000 2.8770 0.0000 0.0000 1.1889 0.7953 -2.2009 2.6331 0.0000 0.0000 2.8894 0.0000 0.0000 0.0000 0.0000 0.0000 0.0000 0.0000 0.0000 0.0000 0.0000 0.0000 0.0000 0.0000 0.0000 0.0000 0.0000 0.0000 0.0000 0.0000 0.0000
0.0000 95.0000 0.0000 0.0000 0.0000 0.0000 0.0000 0.0000 0.0000 0.0000 0.0000 0.0000 0.0000 0.0000 0.0000 0.0000 0.0000 0.0000 0.0000 0.0000 0.0000 0.0000 0.0000 0.0000 -77.1266 2.3053 2.8913 -8.7886 -1.9132 3.3157 59.4724 -2.8675 181.4595 50.9279 -8.9363 10.2880 27.1696 0.0000 0.0000 4.9253 0.0000 0.0000 -26.7597 1.6833 9.1013 22.2782 0.0000 0.0000 43.8252 0.0000 0.0000 -37.1278 2.1687 1.6798 53.3969 0.0000 0.0000 90.0000 0.0000 0.0000 -30.7113 3.2963 3.3482 110.0000 0.0000 0.0000 58.3882 0.0000 0.0000 -23.6787 3.8011 3.2872 110.0000 0.0000 0.0000 27.2743 0.0000 0.0000 0.0000 0.0000 0.0000 74.2899 -8.4511 11.1412 17.6672 13.1667 27.2772 145.5033 24.6395 147.4183 -82.1478 -17.3601 -11.7852 8.8914 0.0000 0.0000 42.0662 0.0000 0.0000 21.9090 1.0181 -3.7711 14.0303 0.0000 0.0000 4.4716 0.0000 0.0000 13.5446 0.5094 0.4844 9.8144 0.0000 0.0000 4.3628 0.0000 0.0000 7.1286 0.8597 -2.2106 6.8017 0.0000 0.0000 2.8770 0.0000 0.0000 1.1889 0.7953 -2.2009 2.6331 0.0000 0.0000 2.8894 0.0000 0.0000 0.0000 0.0000 0.0000 0.0000 0.0000 0.0000 0.0000 0.0000 0.0000 0.0000 0.0000 0.0000 0.0000 0.0000 0.0000 0.0000 0.0000 0.0000
0.0000 95.0000 0.0000 0.0000 0.0000 0.0000 0.0000 0.0000 0.0000 0.0000 0.0000 0.0000 0.0000 0.0000 0.0000 0.0000 0.0000 0.0000 0.0000 0.0000 0.0000 0.0000 0.0000 0.0000 -77.3493 1.4693 1.8356 -9.7493 -2.9716 4.7896 58.3949 -3.1128 181.1234 50.9279 -8.9363 10.2880 27.1696 0.0000 0.0000 4.9253 0.0000 0.0000 -26.7597 1.6833 9.1013 22.2782 0.0000 0.0000 43.8252 0.0000 0.0000 -37.1278 2.1687 1.6798 53.3969 0.0000 0.0000 90.0000 0.0000 0.0000 -30.7113 3.2963 3.3482 110.0000 0.0000 0.0000 58.3882 0.0000 0.0000 -23.6787 3.8011 3.2872 110.0000 0.0000 0.0000 27.2743 0.0000 0.0000 0.0000 0.0000 0.0000 76.5793 -7.0272 8.8946 14.4638 10.5058 19.5215 149.1658 18.0111 156.2515 -82.1478 -17.3601 -11.7852 8.8914 0.0000 0.0000 42.0662 0.0000 0.0000 21.9090 1.0181 -3.7711 14.0303 0.0000 0.0000 4.4716 0.0000 0.0000 13.5446 0.5094 0.4844 9.8144 0.0000 0.0000 4.3628 0.0000 0.0000 7.1286 0.8597 -2.2106 6.8017 0.0000 0.0000 2.8770 0.0000 0.0000 1.1889 0.7953 -2.2009 2.6331 0.0000 0.0000 2.8894 0.0000 0.0000 0.0000 0.0000 0.0000 0.0000 0.0000 0.0000 0.0000 0.0000 0.0000 0.0000 0.0000 0.0000 0.0000 0.0000 0.0000 0.0000 0.0000 0.0000
0.0000 95.0000 0.0000 0.0000 0.0000 0.0000 0.0000 0.0000 0.0000 0.0000 0.0000 0.0000 0.0000 0.0000 0.0000 0.0000 0.0000 0.0000 0.0000 0.0000 0.0000 0.0000 0.0000 0.0000 -77.5501 1.6249 2.0227 -9.7594 -3.7531 5.9674 58.2360 -4.2424 179.9269 50.9279 -8.9363 10.2880 27.1696 0.0000 0.0000 4.9253 0.0000 0.0000 -26.7597 1.6833 9.1013 22.2782 0.0000 0.0000 43.8252 0.0000 0.0000 -37.1278 2.1687 1.6798 53.3969 0.0000 0.0000 90.0000 0.0000 0.0000 -30.7113 3.2963 3.3482 110.0000 0.0000 0.0000 58.3882 0.0000 0.0000 -23.6787 3.8011 3.2872 110.0000 0.0000 0.0000 27.2743 0.0000 0.0000 0.0000 0.0000 0.0000 78.2663 -6.6194 8.1310 10.5307 9.2059 15.0575 148.7629 14.2384 160.2356 -82.1478 -17.3601 -11.7852 8.8914 0.0000 0.0000 42.0662 0.0000 0.0000 21.9090 1.0181 -3.7711 14.0303 0.0000 0.0000 4.4716 0.0000 0.0000 13.5446 0.5094 0.4844 9.8144 0.0000 0.0000 4.3628 0.0000 0.0000 7.1286 0.8597 -2.2106 6.8017 0.0000 0.0000 2.8770 0.0000 0.0000 1.1889 0.7953 -2.2009 2.6331 0.0000 0.0000 2.8894 0.0000 0.0000 0.0000 0.0000 0.0000 0.0000 0.0000 0.0000 0.0000 0.0000 0.0000 0.0000 0.0000 0.0000 0.0000 0.0000 0.0000 0.0000 0.0000 0.0000
0.0000 95.0000 0.0000 0.0000 0.0000 0.0000 0.0000 0.0000 0.0000 0.0000 0.0000 0.0000 0.0000 0.0000 0.0000 0.0000 0.0000 0.0000 0.0000 0.0000 0.0000 0.0000 0.0000 0.0000 -77.9142 1.0828 1.3391 -9.8538 -4.8126 7.3751 57.9188 -4.8360 179.2914 50.9279 -8.9363 10.2880 27.1696 0.0000 0.0000 4.9253 0.0000 0.0000 -26.7597 1.6833 9.1013 22.2782 0.0000 0.0000 43.8252 0.0000 0.0000 -37.1278 2.1687 1.6798 53.3969 0.0000 0.0000 90.0000 0.0000 0.0000 -30.7113 3.2963 3.3482 110.0000 0.0000 0.0000 58.3882 0.0000 0.0000 -23.6787 3.8011 3.2872 110.0000 0.0000 0.0000 27.2743 0.0000 0.0000 0.0000 0.0000 0.0000 79.7307 -6.1778 7.3946 7.1376 8.6609 12.5528 147.6979 11.8730 162.5881 -82.1478 -17.3601 -11.7852 8.8914 0.0000 0.0000 42.0662 0.0000 0.0000 21.9090 1.0181 -3.7711 14.0303 0.0000 0.0000 4.4716 0.0000 0.0000 13.5446 0.5094 0.4844 9.8144 0.0000 0.0000 4.3628 0.0000 0.0000 7.1286 0.8597 -2.2106 6.8017 0.0000 0.0000 2.8770 0.0000 0.0000 1.1889 0.7953 -2.2009 2.6331 0.0000 0.0000 2.8894 0.0000 0.0000 0.0000 0.0000 0.0000 0.0000 0.0000 0.0000 0.0000 0.0000 0.0000 0.0000 0.0000 0.0000 0.0000 0.0000 0.0000 0.0000 0.0000 0.0000
0.0000 95.0000 0.0000 0.0000 0.0000 0.0000 0.0000 0.0000 0.0000 0.0000 0.0000 0.0000 0.0000 0.0000 0.0000 0.0000 0.0000 0.0000 0.0000 0.0000 0.0000 0.0000 0.0000 0.0000 -78.1247 0.9745 1.2007 -9.5802 -5.3316 8.0353 58.0568 -5.2988 178.8106 50.9279 -8.9363 10.2880 27.1696 0.0000 0.0000 4.9253 0.0000 0.0000 -26.7597 1.6833 9.1013 22.2782 0.0000 0.0000 43.8252 0.0000 0.0000 -37.1278 2.1687 1.6798 53.3969 0.0000 0.0000 90.0000 0.0000 0.0000 -30.7113 3.2963 3.3482 110.0000 0.0000 0.0000 58.3882 0.0000 0.0000 -23.6787 3.8011 3.2872 110.0000 0.0000 0.0000 27.2743 0.0000 0.0000 0.0000 0.0000 0.0000 80.6380 -5.9038 6.9544 4.7318 8.1166 10.8354 146.7572 10.2529 164.2125 -82.1478 -17.3601 -11.7852 8.8914 0.0000 0.0000 42.0662 0.0000 0.0000 21.9090 1.0181 -3.7711 14.0303 0.0000 0.0000 4.4716 0.0000 0.0000 13.5446 0.5094 0.4844 9.8144 0.0000 0.0000 4.3628 0.0000 0.0000 7.1286 0.8597 -2.2106 6.8017 0.0000 0.0000 2.8770 0.0000 0.0000 1.1889 0.7953 -2.2009 2.6331 0.0000 0.0000 2.8894 0.0000 0.0000 0.0000 0.0000 0.0000 0.0000 0.0000 0.0000 0.0000 0.0000 0.0000 0.0000 0.0000 0.0000 0.0000 0.0000 0.0000 0.0000 0.0000 0.0000
0.0000 95.0000 0.0000 0.0000 0.0000 0.0000 0.0000 0.0000 0.0000 0.0000 0.0000 0.0000 0.0000 0.0000 0.0000 0.0000 0.0000 0.0000 0.0000 0.0000 0.0000 0.0000 0.0000 0.0000 -78.2709 1.3035 1.6019 -9.3621 -5.2786 7.9696 58.1164 -5.6003 178.4953 50.9279 -8.9363 10.2880 27.1696 0.0000 0.0000 4.9253 0.0000 0.0000 -26.7597 1.6833 9.1013 22.2782 0.0000 0.0000 43.8252 0.0000 0.0000 -37.1278 2.1687 1.6798 53.3969 0.0000 0.0000 90.0000 0.0000 0.0000 -30.7113 3.2963 3.3482 110.0000 0.0000 0.0000 58.3882 0.0000 0.0000 -23.6787 3.8011 3.2872 110.0000 0.0000 0.0000 27.2743 0.0000 0.0000 0.0000 0.0000 0.0000 81.1940 -5.8208 6.7898 3.5234 7.6419 9.7805 146.4315 9.3425 165.1854 -82.1478 -17.3601 -11.7852 8.8914 0.0000 0.0000 42.0662 0.0000 0.0000 21.9090 1.0181 -3.7711 14.0303 0.0000 0.0000 4.4716 0.0000 0.0000 13.5446 0.5094 0.4844 9.8144 0.0000 0.0000 4.3628 0.0000 0.0000 7.1286 0.8597 -2.2106 6.8017 0.0000 0.0000 2.8770 0.0000 0.0000 1.1889 0.7953 -2.2009 2.6331 0.0000 0.0000 2.8894 0.0000 0.0000 0.0000 0.0000 0.0000 0.0000 0.0000 0.0000 0.0000 0.0000 0.0000 0.0000 0.0000 0.0000 0.0000 0.0000 0.0000 0.0000 0.0000 0.0000
0.0000 95.0000 0.0000 0.0000 0.0000 0.0000 0.0000 0.0000 0.0000 0.0000 0.0000 0.0000 0.0000 0.0000 0.0000 0.0000 0.0000 0.0000 0.0000 0.0000 0.0000 0.0000 0.0000 0.0000 -77.9089 0.7385 0.9134 -9.6887 -5.4570 8.2178 58.1864 -5.2022 178.9158 50.9279 -8.9363 10.2880 27.1696 0.0000 0.0000 4.9253 0.0000 0.0000 -26.7597 1.6833 9.1013 22.2782 0.0000 0.0000 43.8252 0.0000 0.0000 -37.1278 2.1687 1.6798 53.3969 0.0000 0.0000 90.0000 0.0000 0.0000 -30.7113 3.2963 3.3482 110.0000 0.0000 0.0000 58.3882 0.0000 0.0000 -23.6787 3.8011 3.2872 110.0000 0.0000 0.0000 27.2743 0.0000 0.0000 0.0000 0.0000 0.0000 81.3081 -5.9368 6.9111 3.1791 7.4721 9.4608 146.2818 9.1998 165.3220 -82.1478 -17.3601 -11.7852 8.8914 0.0000 0.0000 42.0662 0.0000 0.0000 21.9090 1.0181 -3.7711 14.0303 0.0000 0.0000 4.4716 0.0000 0.0000 13.5446 0.5094 0.4844 9.8144 0.0000 0.0000 4.3628 0.0000 0.0000 7.1286 0.8597 -2.2106 6.8017 0.0000 0.0000 2.8770 0.0000 0.0000 1.1889 0.7953 -2.2009 2.6331 0.0000 0.0000 2.8894 0.0000 0.0000 0.0000 0.0000 0.0000 0.0000 0.0000 0.0000 0.0000 0.0000 0.0000 0.0000 0.0000 0.0000 0.0000 0.0000 0.0000 0.0000 0.0000 0.0000
0.0000 95.0000 0.0000 0.0000 0.0000 0.0000 0.0000 0.0000 0.0000 0.0000 0.0000 0.0000 0.0000 0.0000 0.0000 0.0000 0.0000 0.0000 0.0000 0.0000 0.0000 0.0000 0.0000 0.0000 -77.8204 0.2961 0.3668 -9.8634 -5.1262 7.6696 58.0533 -4.2718 179.8876 50.9279 -8.9363 10.2880 27.1696 0.0000 0.0000 4.9253 0.0000 0.0000 -26.7597 1.6833 9.1013 22.2782 0.0000 0.0000 43.8252 0.0000 0.0000 -37.1278 2.1687 1.6798 53.3969 0.0000 0.0000 90.0000 0.0000 0.0000 -30.7113 3.2963 3.3482 110.0000 0.0000 0.0000 58.3882 0.0000 0.0000 -23.6787 3.8011 3.2872 110.0000 0.0000 0.0000 27.2743 0.0000 0.0000 0.0000 0.0000 0.0000 81.6572 -5.7155 6.6129 2.0221 7.4039 8.9938 145.6080 8.6083 165.8883 -82.1478 -17.3601 -11.7852 8.8914 0.0000 0.0000 42.0662 0.0000 0.0000 21.9090 1.0181 -3.7711 14.0303 0.0000 0.0000 4.4716 0.0000 0.0000 13.5446 0.5094 0.4844 9.8144 0.0000 0.0000 4.3628 0.0000 0.0000 7.1286 0.8597 -2.2106 6.8017 0.0000 0.0000 2.8770 0.0000 0.0000 1.1889 0.7953 -2.2009 2.6331 0.0000 0.0000 2.8894 0.0000 0.0000 0.0000 0.0000 0.0000 0.0000 0.0000 0.0000 0.0000 0.0000 0.0000 0.0000 0.0000 0.0000 0.0000 0.0000 0.0000 0.0000 0.0000 0.0000
0.0000 95.0000 0.0000 0.0000 0.0000 0.0000 0.0000 0.0000 0.0000 0.0000 0.0000 0.0000 0.0000 0.0000 0.0000 0.0000 0.0000 0.0000 0.0000 0.0000 0.0000 0.0000 0.0000 0.0000 -77.5707 0.1200 0.1494 -9.9843 -5.2174 7.8179 58.1971 -4.2077 179.9616 50.9279 -8.9363 10.2880 27.1696 0.0000 0.0000 4.9253 0.0000 0.0000 -26.7597 1.6833 9.1013 22.2782 0.0000 0.0000 43.8252 0.0000 0.0000 -37.1278 2.1687 1.6798 53.3969 0.0000 0.0000 90.0000 0.0000 0.0000 -30.7113 3.2963 3.3482 110.0000 0.0000 0.0000 58.3882 0.0000 0.0000 -23.6787 3.8011 3.2872 110.0000 0.0000 0.0000 27.2743 0.0000 0.0000 0.0000 0.0000 0.0000 81.6591 -5.7758 6.6825 2.0237 6.9980 8.5189 145.7647 8.2737 166.2984 -82.1478 -17.3601 -11.7852 8.8914 0.0000 0.0000 42.0662 0.0000 0.0000 21.9090 1.0181 -3.7711 14.0303 0.0000 0.0000 4.4716 0.0000 0.0000 13.5446 0.5094 0.4844 9.8144 0.0000 0.0000 4.3628 0.0000 0.0000 7.1286 0.8597 -2.2106 6.8017 0.0000 0.0000 2.8770 0.0000 0.0000 1.1889 0.7953 -2.2009 2.6331 0.0000 0.0000 2.8894 0.0000 0.0000 0.0000 0.0000 0.0000 0.0000 0.0000 0.0000 0.0000 0.0000 0.0000 0.0000 0.0000 0.0000 0.0000 0.0000 0.0000 0.0000 0.0000 0.0000
