HIERARCHY
ROOT Hips
{
  OFFSET 0.000000 95.000000 0.000000
  CHANNELS 6 Xposition Yposition Zposition Zrotation Xrotation Yrotation
  JOINT Spine
  {
    OFFSET 0.000000 10.000000 0.000000
    CHANNELS 3 Zrotation Xrotation Yrotation
    JOINT Spine1
    {
      OFFSET 0.000000 12.000000 0.000000
      CHANNELS 3 Zrotation Xrotation Yrotation
      JOINT Spine2
      {
        OFFSET 0.000000 12.000000 0.000000
        CHANNELS 3 Zrotation Xrotation Yrotation
        JOINT Neck
        {
          OFFSET 0.000000 10.000000 0.000000
          CHANNELS 3 Zrotation Xrotation Yrotation
          JOINT Head
          {
            OFFSET 0.000000 8.000000 0.000000
            CHANNELS 3 Zrotation Xrotation Yrotation
            End Site
            {
              OFFSET 0.000000 10.000000 0.000000
            }
          }
        }
        JOINT LeftShoulder
        {
          OFFSET 6.000000 8.000000 0.000000
          CHANNELS 3 Zrotation Xrotation Yrotation
          JOINT LeftArm
          {
            OFFSET 12.000000 0.000000 0.000000
            CHANNELS 3 Zrotation Xrotation Yrotation
            JOINT LeftForeArm
            {
              OFFSET 24.000000 0.000000 0.000000
              CHANNELS 3 Zrotation Xrotation Yrotation
              JOINT LeftHand
              {
                OFFSET 22.000000 0.000000 0.000000
                CHANNELS 3 Zrotation Xrotation Yrotation
                JOINT LeftHandThumb1
                {
                  OFFSET 1.800000 -1.400000 0.500000
                  CHANNELS 3 Zrotation Xrotation Yrotation
                  JOINT LeftHandThumb2
                  {
                    OFFSET 2.400000 0.000000 0.000000
                    CHANNELS 3 Zrotation Xrotation Yrotation
                    JOINT LeftHandThumb3
                    {
                      OFFSET 1.900000 0.000000 0.000000
                      CHANNELS 3 Zrotation Xrotation Yrotation
                      End Site
                      {
                        OFFSET 1.600000 0.000000 0.000000
                      }
                    }
                  }
                }
                JOINT LeftHandIndex1
                {
                  OFFSET 6.600000 1.200000 0.300000
                  CHANNELS 3 Zrotation Xrotation Yrotation
                  JOINT LeftHandIndex2
                  {
                    OFFSET 2.000000 0.000000 0.000000
                    CHANNELS 3 Zrotation Xrotation Yrotation
                    JOINT LeftHandIndex3
                    {
                      OFFSET 1.200000 0.000000 0.000000
                      CHANNELS 3 Zrotation Xrotation Yrotation
                      End Site
                      {
                        OFFSET 1.000000 0.000000 0.000000
                      }
                    }
                  }
                }
                JOINT LeftHandMiddle1
                {
                  OFFSET 7.200000 0.000000 0.300000
                  CHANNELS 3 Zrotation Xrotation Yrotation
                  JOINT LeftHandMiddle2
                  {
                    OFFSET 3.000000 0.000000 0.000000
                    CHANNELS 3 Zrotation Xrotation Yrotation
                    JOINT LeftHandMiddle3
                    {
                      OFFSET 2.000000 0.000000 0.000000
                      CHANNELS 3 Zrotation Xrotation Yrotation
                      End Site
                      {
                        OFFSET 1.600000 0.000000 0.000000
                      }
                    }
                  }
                }
                JOINT LeftHandRing1
                {
                  OFFSET 7.100000 -1.000000 0.400000
                  CHANNELS 3 Zrotation Xrotation Yrotation
                  JOINT LeftHandRing2
                  {
                    OFFSET 2.600000 0.000000 0.000000
                    CHANNELS 3 Zrotation Xrotation Yrotation
                    JOINT LeftHandRing3
                    {
                      OFFSET 1.600000 0.000000 0.000000
                      CHANNELS 3 Zrotation Xrotation Yrotation
                      End Site
                      {
                        OFFSET 1.300000 0.000000 0.000000
                      }
                    }
                  }
                }
                JOINT LeftHandPinky1
                {
                  OFFSET 6.500000 -2.000000 0.500000
                  CHANNELS 3 Zrotation Xrotation Yrotation
                  JOINT LeftHandPinky2
                  {
                    OFFSET 1.900000 0.000000 0.000000
                    CHANNELS 3 Zrotation Xrotation Yrotation
                    JOINT LeftHandPinky3
                    {
                      OFFSET 1.400000 0.000000 0.000000
                      CHANNELS 3 Zrotation Xrotation Yrotation
                      End Site
                      {
                        OFFSET 1.300000 0.000000 0.000000
                      }
                    }
                  }
                }
              }
            }
          }
        }
        JOINT RightShoulder
        {
          OFFSET -6.000000 8.000000 0.000000
          CHANNELS 3 Zrotation Xrotation Yrotation
          JOINT RightArm
          {
            OFFSET -12.000000 0.000000 0.000000
            CHANNELS 3 Zrotation Xrotation Yrotation
            JOINT RightForeArm
            {
              OFFSET -24.000000 0.000000 0.000000
              CHANNELS 3 Zrotation Xrotation Yrotation
              JOINT RightHand
              {
                OFFSET -22.000000 0.000000 0.000000
                CHANNELS 3 Zrotation Xrotation Yrotation
                JOINT RightHandThumb1
                {
                  OFFSET -1.800000 -1.400000 0.500000
                  CHANNELS 3 Zrotation Xrotation Yrotation
                  JOINT RightHandThumb2
                  {
                    OFFSET -2.400000 0.000000 0.000000
                    CHANNELS 3 Zrotation Xrotation Yrotation
                    JOINT RightHandThumb3
                    {
                      OFFSET -1.900000 0.000000 0.000000
                      CHANNELS 3 Zrotation Xrotation Yrotation
                      End Site
                      {
                        OFFSET -1.600000 0.000000 0.000000
                      }
                    }
                  }
                }
                JOINT RightHandIndex1
                {
                  OFFSET -6.600000 1.200000 0.300000
                  CHANNELS 3 Zrotation Xrotation Yrotation
                  JOINT RightHandIndex2
                  {
                    OFFSET -2.000000 0.000000 0.000000
                    CHANNELS 3 Zrotation Xrotation Yrotation
                    JOINT RightHandIndex3
                    {
                      OFFSET -1.200000 0.000000 0.000000
                      CHANNELS 3 Zrotation Xrotation Yrotation
                      End Site
                      {
                        OFFSET -1.000000 0.000000 0.000000
                      }
                    }
                  }
                }
                JOINT RightHandMiddle1
                {
                  OFFSET -7.200000 0.000000 0.300000
                  CHANNELS 3 Zrotation Xrotation Yrotation
                  JOINT RightHandMiddle2
                  {
                    OFFSET -3.000000 0.000000 0.000000
                    CHANNELS 3 Zrotation Xrotation Yrotation
                    JOINT RightHandMiddle3
                    {
                      OFFSET -2.000000 0.000000 0.000000
                      CHANNELS 3 Zrotation Xrotation Yrotation
                      End Site
                      {
                        OFFSET -1.600000 0.000000 0.000000
                      }
                    }
                  }
                }
                JOINT RightHandRing1
                {
                  OFFSET -7.100000 -1.000000 0.400000
                  CHANNELS 3 Zrotation Xrotation Yrotation
                  JOINT RightHandRing2
                  {
                    OFFSET -2.600000 0.000000 0.000000
                    CHANNELS 3 Zrotation Xrotation Yrotation
                    JOINT RightHandRing3
                    {
                      OFFSET -1.600000 0.000000 0.000000
                      CHANNELS 3 Zrotation Xrotation Yrotation
                      End Site
                      {
                        OFFSET -1.300000 0.000000 0.000000
                      }
                    }
                  }
                }
                JOINT RightHandPinky1
                {
                  OFFSET -6.500000 -2.000000 0.500000
                  CHANNELS 3 Zrotation Xrotation Yrotation
                  JOINT RightHandPinky2
                  {
                    OFFSET -1.900000 0.000000 0.000000
                    CHANNELS 3 Zrotation Xrotation Yrotation
                    JOINT RightHandPinky3
                    {
                      OFFSET -1.400000 0.000000 0.000000
                      CHANNELS 3 Zrotation Xrotation Yrotation
                      End Site
                      {
                        OFFSET -1.300000 0.000000 0.000000
                      }
                    }
                  }
                }
              }
            }
          }
        }
      }
    }
  }
  JOINT LeftUpLeg
  {
    OFFSET 10.000000 -5.000000 0.000000
    CHANNELS 3 Zrotation Xrotation Yrotation
    JOINT LeftLeg
    {
      OFFSET 0.000000 -42.000000 0.000000
      CHANNELS 3 Zrotation Xrotation Yrotation
      JOINT LeftFoot
      {
        OFFSET 0.000000 -42.000000 4.000000
        CHANNELS 3 Zrotation Xrotation Yrotation
        End Site
        {
          OFFSET 0.000000 0.000000 12.000000
        }
      }
    }
  }
  JOINT RightUpLeg
  {
    OFFSET -10.000000 -5.000000 0.000000
    CHANNELS 3 Zrotation Xrotation Yrotation
    JOINT RightLeg
    {
      OFFSET 0.000000 -42.000000 0.000000
      CHANNELS 3 Zrotation Xrotation Yrotation
      JOINT RightFoot
      {
        OFFSET 0.000000 -42.000000 4.000000
        CHANNELS 3 Zrotation Xrotation Yrotation
        End Site
        {
          OFFSET 0.000000 0.000000 12.000000
        }
      }
    }
  }
}
MOTION
Frames: 60
Frame Time: 0.033333
0.0000 95.0000 0.0000 0.0000 0.0000 0.0000 0.0000 0.0000 0.0000 0.0000 0.0000 0.0000 0.0000 0.0000 0.0000 0.0000 0.0000 0.0000 0.0000 0.0000 0.0000 0.0000 0.0000 0.0000 -77.2592 3.8116 4.7687 -11.5824 8.2275 -11.6387 -159.4398 24.3572 -166.6643 58.6318 -11.8513 4.1924 15.7108 0.0000 0.0000 11.6227 0.0000 0.0000 -3.2811 -0.8325 6.4164 9.9045 0.0000 0.0000 2.5350 0.0000 0.0000 8.7329 -0.6033 3.1163 17.4501 0.0000 0.0000 3.5119 0.0000 0.0000 18.1734 -1.0602 2.6294 19.8574 0.0000 0.0000 1.1281 0.0000 0.0000 25.1782 -1.6439 2.5402 14.8847 0.0000 0.0000 4.8612 0.0000 0.0000 0.0000 0.0000 0.0000 89.2871 -2.3842 2.4140 -4.6659 11.4579 10.4593 -141.2759 33.5505 -32.2596 -74.2271 -15.2133 -13.9524 6.3751 0.0000 0.0000 7.7605 0.0000 0.0000 9.8195 -1.1620 -16.7675 10.9495 0.0000 0.0000 11.0413 0.0000 0.0000 21.2055 2.0985 -6.4039 89.3295 0.0000 0.0000 20.0754 0.0000 0.0000 26.2100 -1.6601 8.3236 93.7793 0.0000 0.0000 13.8616 0.0000 0.0000 26.6153 -5.6180 13.4422 87.3748 0.0000 0.0000 13.9915 0.0000 0.0000 0.0000 0.0000 0.0000 0.0000 0.0000 0.0000 0.0000 0.0000 0.0000 0.0000 0.0000 0.0000 0.0000 0.0000 0.0000 0.0000 0.0000 0.0000
0.0000 95.0000 0.0000 0.0000 0.0000 0.0000 0.0000 0.0000 0.0000 0.0000 0.0000 0.0000 0.0000 0.0000 0.0000 0.0000 0.0000 0.0000 0.0000 0.0000 0.0000 0.0000 0.0000 0.0000 -77.2128 3.9255 4.9152 -11.3612 8.3448 -11.7691 -159.1414 24.2979 -166.5643 58.6318 -11.8513 4.1924 15.7108 0.0000 0.0000 11.6227 0.0000 0.0000 -3.2811 -0.8325 6.4164 9.9045 0.0000 0.0000 2.5350 0.0000 0.0000 8.7329 -0.6033 3.1163 17.4501 0.0000 0.0000 3.5119 0.0000 0.0000 18.1734 -1.0602 2.6294 19.8574 0.0000 0.0000 1.1281 0.0000 0.0000 25.1782 -1.6439 2.5402 14.8847 0.0000 0.0000 4.8612 0.0000 0.0000 0.0000 0.0000 0.0000 89.2765 -2.5327 2.5649 -4.6467 11.2756 10.2812 -141.3446 33.5535 -32.2722 -74.2271 -15.2133 -13.9524 6.3751 0.0000 0.0000 7.7605 0.0000 0.0000 9.8195 -1.1620 -16.7675 10.9495 0.0000 0.0000 11.0413 0.0000 0.0000 21.2055 2.0985 -6.4039 89.3295 0.0000 0.0000 20.0754 0.0000 0.0000 26.2100 -1.6601 8.3236 93.7793 0.0000 0.0000 13.8616 0.0000 0.0000 26.6153 -5.6180 13.4422 87.3748 0.0000 0.0000 13.9915 0.0000 0.0000 0.0000 0.0000 0.0000 0.0000 0.0000 0.0000 0.0000 0.0000 0.0000 0.0000 0.0000 0.0000 0.0000 0.0000 0.0000 0.0000 0.0000 0.0000
0.0000 95.0000 0.0000 0.0000 0.0000 0.0000 0.0000 0.0000 0.0000 0.0000 0.0000 0.0000 0.0000 0.0000 0.0000 0.0000 0.0000 0.0000 0.0000 0.0000 0.0000 0.0000 0.0000 0.0000 -77.5646 3.9103 4.8655 -11.0857 8.3702 -11.7000 -159.2239 24.3160 -166.5902 58.6318 -11.8513 4.1924 15.7108 0.0000 0.0000 11.6227 0.0000 0.0000 -3.2811 -0.8325 6.4164 9.9045 0.0000 0.0000 2.5350 0.0000 0.0000 8.7329 -0.6033 3.1163 17.4501 0.0000 0.0000 3.5119 0.0000 0.0000 18.1734 -1.0602 2.6294 19.8574 0.0000 0.0000 1.1281 0.0000 0.0000 25.1782 -1.6439 2.5402 14.8847 0.0000 0.0000 4.8612 0.0000 0.0000 0.0000 0.0000 0.0000 89.2126 -2.1676 2.1976 -4.2158 11.3125 10.4586 -141.8624 33.6210 -32.3189 -74.2271 -15.2133 -13.9524 6.3751 0.0000 0.0000 7.7605 0.0000 0.0000 9.8195 -1.1620 -16.7675 10.9495 0.0000 0.0000 11.0413 0.0000 0.0000 21.2055 2.0985 -6.4039 89.3295 0.0000 0.0000 20.0754 0.0000 0.0000 26.2100 -1.6601 8.3236 93.7793 0.0000 0.0000 13.8616 0.0000 0.0000 26.6153 -5.6180 13.4422 87.3748 0.0000 0.0000 13.9915 0.0000 0.0000 0.0000 0.0000 0.0000 0.0000 0.0000 0.0000 0.0000 0.0000 0.0000 0.0000 0.0000 0.0000 0.0000 0.0000 0.0000 0.0000 0.0000 0.0000
0.0000 95.0000 0.0000 0.0000 0.0000 0.0000 0.0000 0.0000 0.0000 0.0000 0.0000 0.0000 0.0000 0.0000 0.0000 0.0000 0.0000 0.0000 0.0000 0.0000 0.0000 0.0000 0.0000 0.0000 -77.4635 3.5767 4.4586 -11.3024 8.0259 -11.3140 -159.3866 24.3541 -166.6388 58.6318 -11.8513 4.1924 15.7108 0.0000 0.0000 11.6227 0.0000 0.0000 -3.2811 -0.8325 6.4164 9.9045 0.0000 0.0000 2.5350 0.0000 0.0000 8.7329 -0.6033 3.1163 17.4501 0.0000 0.0000 3.5119 0.0000 0.0000 18.1734 -1.0602 2.6294 19.8574 0.0000 0.0000 1.1281 0.0000 0.0000 25.1782 -1.6439 2.5402 14.8847 0.0000 0.0000 4.8612 0.0000 0.0000 0.0000 0.0000 0.0000 89.2711 -1.7715 1.7942 -4.2313 11.4684 10.6282 -142.0090 33.8109 -32.1500 -74.2271 -15.2133 -13.9524 6.3751 0.0000 0.0000 7.7605 0.0000 0.0000 9.8195 -1.1620 -16.7675 10.9495 0.0000 0.0000 11.0413 0.0000 0.0000 21.2055 2.0985 -6.4039 89.3295 0.0000 0.0000 20.0754 0.0000 0.0000 26.2100 -1.6601 8.3236 93.7793 0.0000 0.0000 13.8616 0.0000 0.0000 26.6153 -5.6180 13.4422 87.3748 0.0000 0.0000 13.9915 0.0000 0.0000 0.0000 0.0000 0.0000 0.0000 0.0000 0.0000 0.0000 0.0000 0.0000 0.0000 0.0000 0.0000 0.0000 0.0000 0.0000 0.0000 0.0000 0.0000
0.0000 95.0000 0.0000 0.0000 0.0000 0.0000 0.0000 0.0000 0.0000 0.0000 0.0000 0.0000 0.0000 0.0000 0.0000 0.0000 0.0000 0.0000 0.0000 0.0000 0.0000 0.0000 0.0000 0.0000 -77.3120 3.2488 4.0610 -11.7123 7.6742 -10.9491 -159.7017 24.4191 -166.7417 58.6318 -11.8513 4.1924 15.7108 0.0000 0.0000 11.6227 0.0000 0.0000 -3.2811 -0.8325 6.4164 9.9045 0.0000 0.0000 2.5350 0.0000 0.0000 8.7329 -0.6033 3.1163 17.4501 0.0000 0.0000 3.5119 0.0000 0.0000 18.1734 -1.0602 2.6294 19.8574 0.0000 0.0000 1.1281 0.0000 0.0000 25.1782 -1.6439 2.5402 14.8847 0.0000 0.0000 4.8612 0.0000 0.0000 0.0000 0.0000 0.0000 89.3638 -1.4854 1.5020 -4.2477 11.5331 10.6953 -142.2067 33.9655 -32.0314 -74.2271 -15.2133 -13.9524 6.3751 0.0000 0.0000 7.7605 0.0000 0.0000 9.8195 -1.1620 -16.7675 10.9495 0.0000 0.0000 11.0413 0.0000 0.0000 21.2055 2.0985 -6.4039 89.3295 0.0000 0.0000 20.0754 0.0000 0.0000 26.2100 -1.6601 8.3236 93.7793 0.0000 0.0000 13.8616 0.0000 0.0000 26.6153 -5.6180 13.4422 87.3748 0.0000 0.0000 13.9915 0.0000 0.0000 0.0000 0.0000 0.0000 0.0000 0.0000 0.0000 0.0000 0.0000 0.0000 0.0000 0.0000 0.0000 0.0000 0.0000 0.0000 0.0000 0.0000 0.0000
0.0000 95.0000 0.0000 0.0000 0.0000 0.0000 0.0000 0.0000 0.0000 0.0000 0.0000 0.0000 0.0000 0.0000 0.0000 0.0000 0.0000 0.0000 0.0000 0.0000 0.0000 0.0000 0.0000 0.0000 -77.3235 3.6679 4.5837 -11.9908 8.0899 -11.5068 -159.9522 24.4770 -166.8169 58.6318 -11.8513 4.1924 15.7108 0.0000 0.0000 11.6227 0.0000 0.0000 -3.2811 -0.8325 6.4164 9.9045 0.0000 0.0000 2.5350 0.0000 0.0000 8.7329 -0.6033 3.1163 17.4501 0.0000 0.0000 3.5119 0.0000 0.0000 18.1734 -1.0602 2.6294 19.8574 0.0000 0.0000 1.1281 0.0000 0.0000 25.1782 -1.6439 2.5402 14.8847 0.0000 0.0000 4.8612 0.0000 0.0000 0.0000 0.0000 0.0000 89.3344 -1.6608 1.6802 -4.1841 11.4052 10.5780 -142.2391 33.8955 -32.1135 -74.2271 -15.2133 -13.9524 6.3751 0.0000 0.0000 7.7605 0.0000 0.0000 9.8195 -1.1620 -16.7675 10.9495 0.0000 0.0000 11.0413 0.0000 0.0000 21.2055 2.0985 -6.4039 89.3295 0.0000 0.0000 20.0754 0.0000 0.0000 26.2100 -1.6601 8.3236 93.7793 0.0000 0.0000 13.8616 0.0000 0.0000 26.6153 -5.6180 13.4422 87.3748 0.0000 0.0000 13.9915 0.0000 0.0000 0.0000 0.0000 0.0000 0.0000 0.0000 0.0000 0.0000 0.0000 0.0000 0.0000 0.0000 0.0000 0.0000 0.0000 0.0000 0.0000 0.0000 0.0000
0.0000 95.0000 0.0000 0.0000 0.0000 0.0000 0.0000 0.0000 0.0000 0.0000 0.0000 0.0000 0.0000 0.0000 0.0000 0.0000 0.0000 0.0000 0.0000 0.0000 0.0000 0.0000 0.0000 0.0000 -77.4869 4.5309 5.6450 -12.0630 8.9681 -12.5915 -160.0870 24.5119 -166.8536 58.6318 -11.8513 4.1924 15.7108 0.0000 0.0000 11.6227 0.0000 0.0000 -3.2811 -0.8325 6.4164 9.9045 0.0000 0.0000 2.5350 0.0000 0.0000 8.7329 -0.6033 3.1163 17.4501 0.0000 0.0000 3.5119 0.0000 0.0000 18.1734 -1.0602 2.6294 19.8574 0.0000 0.0000 1.1281 0.0000 0.0000 25.1782 -1.6439 2.5402 14.8847 0.0000 0.0000 4.8612 0.0000 0.0000 0.0000 0.0000 0.0000 88.9615 -1.3172 1.3413 -2.7510 10.8497 10.4443 -143.8594 33.9677 -32.4124 -74.2271 -15.2133 -13.9524 6.3751 0.0000 0.0000 7.7605 0.0000 0.0000 9.8195 -1.1620 -16.7675 10.9495 0.0000 0.0000 11.0413 0.0000 0.0000 21.2055 2.0985 -6.4039 89.3295 0.0000 0.0000 20.0754 0.0000 0.0000 26.2100 -1.6601 8.3236 93.7793 0.0000 0.0000 13.8616 0.0000 0.0000 26.6153 -5.6180 13.4422 87.3748 0.0000 0.0000 13.9915 0.0000 0.0000 0.0000 0.0000 0.0000 0.0000 0.0000 0.0000 0.0000 0.0000 0.0000 0.0000 0.0000 0.0000 0.0000 0.0000 0.0000 0.0000 0.0000 0.0000
0.0000 95.0000 0.0000 0.0000 0.0000 0.0000 0.0000 0.0000 0.0000 0.0000 0.0000 0.0000 0.0000 0.0000 0.0000 0.0000 0.0000 0.0000 0.0000 0.0000 0.0000 0.0000 0.0000 0.0000 -77.2781 3.9534 4.9443 -13.2418 -2.3421 5.0936 -163.4922 10.6773 -182.1970 58.6318 -11.8513 4.1924 15.7108 0.0000 0.0000 11.6227 0.0000 0.0000 -3.2811 -0.8325 6.4164 9.9045 0.0000 0.0000 2.5350 0.0000 0.0000 8.7329 -0.6033 3.1163 17.4501 0.0000 0.0000 3.5119 0.0000 0.0000 18.1734 -1.0602 2.6294 19.8574 0.0000 0.0000 1.1281 0.0000 0.0000 25.1782 -1.6439 2.5402 14.8847 0.0000 0.0000 4.8612 0.0000 0.0000 0.0000 0.0000 0.0000 88.4456 -1.3883 1.4265 -0.0589 11.3757 11.6409 -145.3754 32.3180 -34.4103 -74.2271 -15.2133 -13.9524 6.3751 0.0000 0.0000 7.7605 0.0000 0.0000 9.8195 -1.1620 -16.7675 10.9495 0.0000 0.0000 11.0413 0.0000 0.0000 21.2055 2.0985 -6.4039 89.3295 0.0000 0.0000 20.0754 0.0000 0.0000 26.2100 -1.6601 8.3236 93.7793 0.0000 0.0000 13.8616 0.0000 0.0000 26.6153 -5.6180 13.4422 87.3748 0.0000 0.0000 13.9915 0.0000 0.0000 0.0000 0.0000 0.0000 0.0000 0.0000 0.0000 0.0000 0.0000 0.0000 0.0000 0.0000 0.0000 0.0000 0.0000 0.0000 0.0000 0.0000 0.0000
0.0000 95.0000 0.0000 0.0000 0.0000 0.0000 0.0000 0.0000 0.0000 0.0000 0.0000 0.0000 0.0000 0.0000 0.0000 0.0000 0.0000 0.0000 0.0000 0.0000 0.0000 0.0000 0.0000 0.0000 -77.0687 1.7688 2.2209 -16.7871 2.3110 -3.1553 -169.3637 17.5665 -180.5337 84.6691 -17.6074 7.4982 21.5849 0.0000 0.0000 14.7031 0.0000 0.0000 -6.5440 -0.5183 6.5720 12.2336 0.0000 0.0000 5.6856 0.0000 0.0000 5.3946 -0.4322 4.3836 16.1015 0.0000 0.0000 4.8410 0.0000 0.0000 15.1951 -0.8170 4.0739 18.7486 0.0000 0.0000 3.9120 0.0000 0.0000 25.4611 -1.6473 2.8444 12.5496 0.0000 0.0000 6.2152 0.0000 0.0000 0.0000 0.0000 0.0000 87.5167 -2.0254 2.1151 3.9979 14.7955 16.6062 -144.2190 27.4983 -39.0043 -74.2271 -15.2133 -13.9524 6.3751 0.0000 0.0000 7.7605 0.0000 0.0000 9.8195 -1.1620 -16.7675 10.9495 0.0000 0.0000 11.0413 0.0000 0.0000 21.2055 2.0985 -6.4039 89.3295 0.0000 0.0000 20.0754 0.0000 0.0000 26.2100 -1.6601 8.3236 93.7793 0.0000 0.0000 13.8616 0.0000 0.0000 26.6153 -5.6180 13.4422 87.3748 0.0000 0.0000 13.9915 0.0000 0.0000 0.0000 0.0000 0.0000 0.0000 0.0000 0.0000 0.0000 0.0000 0.0000 0.0000 0.0000 0.0000 0.0000 0.0000 0.0000 0.0000 0.0000 0.0000
0.0000 95.0000 0.0000 0.0000 0.0000 0.0000 0.0000 0.0000 0.0000 0.0000 0.0000 0.0000 0.0000 0.0000 0.0000 0.0000 0.0000 0.0000 0.0000 0.0000 0.0000 0.0000 0.0000 0.0000 -75.5575 -1.1846 -1.5283 -27.8252 7.2510 -17.3742 -289.8761 10.1623 -158.8428 37.9401 -5.4481 9.5586 56.2856 0.0000 0.0000 27.2133 0.0000 0.0000 -83.5576 3.8660 -0.2215 39.1095 0.0000 0.0000 52.8290 0.0000 0.0000 -81.9639 2.3494 -2.0676 65.9295 0.0000 0.0000 60.0892 0.0000 0.0000 -75.3648 3.2316 -2.3014 87.4021 0.0000 0.0000 52.8659 0.0000 0.0000 -68.5334 5.1165 -1.9737 93.3206 0.0000 0.0000 44.1824 0.0000 0.0000 0.0000 0.0000 0.0000 87.0978 -4.2499 4.4706 9.5580 32.0900 39.1334 -124.7720 15.0275 -52.8986 -74.2271 -15.2133 -13.9524 6.3751 0.0000 0.0000 7.7605 0.0000 0.0000 9.8195 -1.1620 -16.7675 10.9495 0.0000 0.0000 11.0413 0.0000 0.0000 21.2055 2.0985 -6.4039 89.3295 0.0000 0.0000 20.0754 0.0000 0.0000 26.2100 -1.6601 8.3236 93.7793 0.0000 0.0000 13.8616 0.0000 0.0000 26.6153 -5.6180 13.4422 87.3748 0.0000 0.0000 13.9915 0.0000 0.0000 0.0000 0.0000 0.0000 0.0000 0.0000 0.0000 0.0000 0.0000 0.0000 0.0000 0.0000 0.0000 0.0000 0.0000 0.0000 0.0000 0.0000 0.0000
0.0000 95.0000 0.0000 0.0000 0.0000 0.0000 0.0000 0.0000 0.0000 0.0000 0.0000 0.0000 0.0000 0.0000 0.0000 0.0000 0.0000 0.0000 0.0000 0.0000 0.0000 0.0000 0.0000 0.0000 -75.0326 -5.5703 -7.2511 -43.1179 21.2487 -71.3626 -318.5622 67.6605 -67.3365 52.3633 -9.4476 9.7048 1.1473 0.0000 0.0000 18.4135 0.0000 0.0000 -10.0847 0.4047 0.5179 2.6085 0.0000 0.0000 2.7868 0.0000 0.0000 4.0698 -0.1453 -0.6852 2.8799 0.0000 0.0000 3.9892 0.0000 0.0000 11.2055 -0.5898 0.8321 3.9655 0.0000 0.0000 5.5289 0.0000 0.0000 17.7465 -0.8524 3.1964 9.0995 0.0000 0.0000 3.6042 0.0000 0.0000 0.0000 0.0000 0.0000 86.9189 -9.3417 9.8556 21.4271 66.7399 85.1997 -124.4019 -18.0508 -120.0098 -8.0803 1.5228 -5.4188 2.5329 0.0000 0.0000 20.1497 0.0000 0.0000 14.2900 0.4492 -3.4367 4.2647 0.0000 0.0000 2.0230 0.0000 0.0000 4.4418 0.4868 -7.7309 3.5646 0.0000 0.0000 2.0059 0.0000 0.0000 -3.6070 0.8691 -9.7792 2.8925 0.0000 0.0000 4.2471 0.0000 0.0000 -13.0420 1.0949 -10.9955 6.2485 0.0000 0.0000 5.1470 0.0000 0.0000 0.0000 0.0000 0.0000 0.0000 0.0000 0.0000 0.0000 0.0000 0.0000 0.0000 0.0000 0.0000 0.0000 0.0000 0.0000 0.0000 0.0000 0.0000
0.0000 95.0000 0.0000 0.0000 0.0000 0.0000 0.0000 0.0000 0.0000 0.0000 0.0000 0.0000 0.0000 0.0000 0.0000 0.0000 0.0000 0.0000 0.0000 0.0000 0.0000 0.0000 0.0000 0.0000 -74.5898 -9.0988 -11.9280 -103.7946 64.9408 -209.9190 -290.1135 -38.7791 -25.9488 55.3147 -10.2784 9.4854 4.5090 0.0000 0.0000 24.7734 0.0000 0.0000 -9.0055 0.5498 -1.4337 0.7554 0.0000 0.0000 1.3858 0.0000 0.0000 2.2593 -0.0394 -2.7734 0.2471 0.0000 0.0000 0.9330 0.0000 0.0000 11.3553 -0.6962 -1.5597 2.1979 0.0000 0.0000 3.2225 0.0000 0.0000 20.6387 -1.2858 1.9804 4.4894 0.0000 0.0000 2.4742 0.0000 0.0000 0.0000 0.0000 0.0000 87.0024 -13.7009 14.4296 173.5833 70.0334 -92.0028 -92.3044 34.2052 -112.0704 -11.7391 2.2124 -8.3077 4.1655 0.0000 0.0000 22.4730 0.0000 0.0000 9.7660 -0.1662 -6.3572 0.7923 0.0000 0.0000 1.5699 0.0000 0.0000 0.7567 0.0882 -8.5260 2.2195 0.0000 0.0000 0.1697 0.0000 0.0000 -6.2092 0.5126 -9.9534 4.0096 0.0000 0.0000 1.1043 0.0000 0.0000 -14.7866 0.9864 -12.1029 7.5420 0.0000 0.0000 1.5521 0.0000 0.0000 0.0000 0.0000 0.0000 0.0000 0.0000 0.0000 0.0000 0.0000 0.0000 0.0000 0.0000 0.0000 0.0000 0.0000 0.0000 0.0000 0.0000 0.0000
0.0000 95.0000 0.0000 0.0000 0.0000 0.0000 0.0000 0.0000 0.0000 0.0000 0.0000 0.0000 0.0000 0.0000 0.0000 0.0000 0.0000 0.0000 0.0000 0.0000 0.0000 0.0000 0.0000 0.0000 -74.3932 -12.3506 -16.2273 -164.4711 44.7089 -290.9515 -215.8730 -67.9318 -112.2056 57.5299 -10.6051 11.2788 10.3110 0.0000 0.0000 18.6637 0.0000 0.0000 -11.3858 0.5491 -0.4860 1.9573 0.0000 0.0000 1.6874 0.0000 0.0000 0.7443 -0.0192 -1.8121 1.7665 0.0000 0.0000 0.1164 0.0000 0.0000 10.6828 -0.6543 -1.2607 2.0287 0.0000 0.0000 1.4949 0.0000 0.0000 21.6524 -1.4821 1.0070 4.7882 0.0000 0.0000 1.3541 0.0000 0.0000 0.0000 0.0000 0.0000 87.4792 -17.6789 18.4609 185.2959 44.0561 -67.8237 -54.4388 46.7189 -73.0591 -11.1784 1.6271 -7.1064 6.6868 0.0000 0.0000 17.0922 0.0000 0.0000 10.4137 0.0773 -4.3665 3.4592 0.0000 0.0000 2.0644 0.0000 0.0000 1.1354 0.1143 -6.7202 0.4469 0.0000 0.0000 1.5048 0.0000 0.0000 -5.1760 0.5637 -8.9383 1.2042 0.0000 0.0000 0.8861 0.0000 0.0000 -13.2757 0.8656 -9.9927 2.5859 0.0000 0.0000 1.8566 0.0000 0.0000 0.0000 0.0000 0.0000 0.0000 0.0000 0.0000 0.0000 0.0000 0.0000 0.0000 0.0000 0.0000 0.0000 0.0000 0.0000 0.0000 0.0000 0.0000
0.0000 95.0000 0.0000 0.0000 0.0000 0.0000 0.0000 0.0000 0.0000 0.0000 0.0000 0.0000 0.0000 0.0000 0.0000 0.0000 0.0000 0.0000 0.0000 0.0000 0.0000 0.0000 0.0000 0.0000 -74.2289 -14.4059 -18.9638 -172.9818 37.2420 -299.3008 -199.8538 -63.6206 -131.8900 56.9119 -10.4948 10.8593 9.6168 0.0000 0.0000 18.3210 0.0000 0.0000 -11.6365 0.5790 -0.7401 0.9327 0.0000 0.0000 1.6024 0.0000 0.0000 0.5942 -0.0168 -1.5258 1.5710 0.0000 0.0000 0.3150 0.0000 0.0000 10.3059 -0.6190 -0.8870 1.1407 0.0000 0.0000 2.7461 0.0000 0.0000 21.5079 -1.3698 1.9193 4.3877 0.0000 0.0000 2.2247 0.0000 0.0000 0.0000 0.0000 0.0000 88.0090 -20.0075 20.7001 187.4893 34.3698 -63.3124 -42.6655 46.3694 -59.3912 -11.2647 1.7229 -7.2989 6.8863 0.0000 0.0000 19.7832 0.0000 0.0000 9.0415 -0.0819 -4.8118 2.3900 0.0000 0.0000 1.5738 0.0000 0.0000 0.5421 0.0563 -7.0791 0.8343 0.0000 0.0000 1.6521 0.0000 0.0000 -5.2274 0.5783 -9.1630 1.4244 0.0000 0.0000 1.0417 0.0000 0.0000 -13.1965 0.9310 -10.2701 2.6187 0.0000 0.0000 2.4233 0.0000 0.0000 0.0000 0.0000 0.0000 0.0000 0.0000 0.0000 0.0000 0.0000 0.0000 0.0000 0.0000 0.0000 0.0000 0.0000 0.0000 0.0000 0.0000 0.0000
0.0000 95.0000 0.0000 0.0000 0.0000 0.0000 0.0000 0.0000 0.0000 0.0000 0.0000 0.0000 0.0000 0.0000 0.0000 0.0000 0.0000 0.0000 0.0000 0.0000 0.0000 0.0000 0.0000 0.0000 -74.0299 -15.2188 -20.0961 -176.1156 39.8158 -298.0566 -206.3222 -72.2242 -128.4418 58.0750 -11.1472 8.4777 7.0853 0.0000 0.0000 30.5589 0.0000 0.0000 -8.6921 0.6990 -2.9633 2.1252 0.0000 0.0000 2.5580 0.0000 0.0000 2.9911 -0.0134 -4.2601 3.2963 0.0000 0.0000 1.2957 0.0000 0.0000 13.3140 -0.8095 -2.9195 3.8987 0.0000 0.0000 1.1820 0.0000 0.0000 24.1889 -1.7701 0.0202 5.3150 0.0000 0.0000 1.0736 0.0000 0.0000 0.0000 0.0000 0.0000 87.8761 -21.8577 22.6623 188.4720 33.2569 -64.8778 -49.6203 51.3803 -62.6259 -10.5904 1.6555 -6.8488 7.5213 0.0000 0.0000 20.0673 0.0000 0.0000 11.7869 0.1481 -4.9221 3.5795 0.0000 0.0000 2.2596 0.0000 0.0000 2.3917 0.2687 -8.0472 0.8549 0.0000 0.0000 1.0423 0.0000 0.0000 -4.0926 0.8032 -9.8135 1.1435 0.0000 0.0000 0.6562 0.0000 0.0000 -12.2453 1.1765 -10.7079 5.0520 0.0000 0.0000 2.2651 0.0000 0.0000 0.0000 0.0000 0.0000 0.0000 0.0000 0.0000 0.0000 0.0000 0.0000 0.0000 0.0000 0.0000 0.0000 0.0000 0.0000 0.0000 0.0000 0.0000
0.0000 95.0000 0.0000 0.0000 0.0000 0.0000 0.0000 0.0000 0.0000 0.0000 0.0000 0.0000 0.0000 0.0000 0.0000 0.0000 0.0000 0.0000 0.0000 0.0000 0.0000 0.0000 0.0000 0.0000 -74.2208 -15.5330 -20.4378 -177.8252 42.9966 -296.3578 -218.8504 -72.0100 -114.7157 57.5481 -10.9272 9.0808 5.6314 0.0000 0.0000 24.3756 0.0000 0.0000 -9.6231 0.7925 -3.7613 1.9417 0.0000 0.0000 2.1543 0.0000 0.0000 2.1666 0.0073 -5.1576 2.4800 0.0000 0.0000 0.8674 0.0000 0.0000 12.3565 -0.8167 -4.0448 3.1906 0.0000 0.0000 1.9887 0.0000 0.0000 23.0394 -1.7877 -1.0070 5.9851 0.0000 0.0000 0.4393 0.0000 0.0000 0.0000 0.0000 0.0000 88.1641 -22.3206 23.0284 188.6526 35.1445 -66.8692 -53.4982 51.2899 -66.2183 -9.5694 1.9076 -6.7139 6.5262 0.0000 0.0000 18.5345 0.0000 0.0000 11.3151 0.1057 -4.9346 3.2081 0.0000 0.0000 2.5301 0.0000 0.0000 2.7175 0.2979 -7.7382 1.6036 0.0000 0.0000 1.2066 0.0000 0.0000 -3.2217 0.8853 -9.4377 2.0130 0.0000 0.0000 0.9835 0.0000 0.0000 -11.9113 1.2223 -10.6514 4.3852 0.0000 0.0000 2.3820 0.0000 0.0000 0.0000 0.0000 0.0000 0.0000 0.0000 0.0000 0.0000 0.0000 0.0000 0.0000 0.0000 0.0000 0.0000 0.0000 0.0000 0.0000 0.0000 0.0000
0.0000 95.0000 0.0000 0.0000 0.0000 0.0000 0.0000 0.0000 0.0000 0.0000 0.0000 0.0000 0.0000 0.0000 0.0000 0.0000 0.0000 0.0000 0.0000 0.0000 0.0000 0.0000 0.0000 0.0000 -74.2260 -16.1269 -21.2097 -178.2833 39.6588 -297.8832 -210.0767 -63.5780 -124.8960 59.3927 -11.0709 11.7114 9.1862 0.0000 0.0000 19.7576 0.0000 0.0000 -8.9699 0.4187 -0.1557 1.9305 0.0000 0.0000 2.0337 0.0000 0.0000 3.1823 -0.0971 -1.2766 1.8755 0.0000 0.0000 0.4426 0.0000 0.0000 13.5661 -0.7693 -0.6648 1.9189 0.0000 0.0000 1.5781 0.0000 0.0000 24.8112 -1.6469 2.0826 4.3247 0.0000 0.0000 2.2471 0.0000 0.0000 0.0000 0.0000 0.0000 87.7440 -23.0834 23.9844 189.5116 31.8953 -65.2420 -46.4273 47.8523 -60.4202 -9.4913 1.7359 -6.4179 7.1939 0.0000 0.0000 18.4074 0.0000 0.0000 12.1725 0.2263 -4.3219 4.0415 0.0000 0.0000 2.4997 0.0000 0.0000 3.6843 0.3573 -6.3016 1.5293 0.0000 0.0000 1.5991 0.0000 0.0000 -2.6947 0.7939 -8.0429 2.1684 0.0000 0.0000 0.7643 0.0000 0.0000 -10.8661 1.0057 -8.7681 2.4827 0.0000 0.0000 2.0603 0.0000 0.0000 0.0000 0.0000 0.0000 0.0000 0.0000 0.0000 0.0000 0.0000 0.0000 0.0000 0.0000 0.0000 0.0000 0.0000 0.0000 0.0000 0.0000 0.0000
0.0000 95.0000 0.0000 0.0000 0.0000 0.0000 0.0000 0.0000 0.0000 0.0000 0.0000 0.0000 0.0000 0.0000 0.0000 0.0000 0.0000 0.0000 0.0000 0.0000 0.0000 0.0000 0.0000 0.0000 -74.4520 -16.4969 -21.6050 -178.5069 36.3962 -299.5171 -203.7603 -60.6289 -130.3066 59.0451 -10.9458 11.9147 9.6823 0.0000 0.0000 17.7319 0.0000 0.0000 -10.6629 0.4798 -0.0215 2.0482 0.0000 0.0000 2.2213 0.0000 0.0000 1.6889 -0.0529 -1.1820 2.4359 0.0000 0.0000 0.1428 0.0000 0.0000 11.8753 -0.6896 -0.7739 1.5804 0.0000 0.0000 1.8128 0.0000 0.0000 22.3933 -1.5037 1.3740 4.0857 0.0000 0.0000 2.0132 0.0000 0.0000 0.0000 0.0000 0.0000 87.7547 -23.8289 24.7526 190.0693 28.8696 -64.1219 -42.1462 47.8563 -57.1075 -10.9799 1.4608 -6.7485 6.1169 0.0000 0.0000 18.0456 0.0000 0.0000 10.7926 0.1430 -3.9680 3.5077 0.0000 0.0000 2.5104 0.0000 0.0000 1.9281 0.1856 -6.2245 0.7496 0.0000 0.0000 2.1251 0.0000 0.0000 -4.0013 0.6177 -7.9550 0.9891 0.0000 0.0000 0.3241 0.0000 0.0000 -11.7589 0.9582 -9.2143 3.6039 0.0000 0.0000 1.1980 0.0000 0.0000 0.0000 0.0000 0.0000 0.0000 0.0000 0.0000 0.0000 0.0000 0.0000 0.0000 0.0000 0.0000 0.0000 0.0000 0.0000 0.0000 0.0000 0.0000
0.0000 95.0000 0.0000 0.0000 0.0000 0.0000 0.0000 0.0000 0.0000 0.0000 0.0000 0.0000 0.0000 0.0000 0.0000 0.0000 0.0000 0.0000 0.0000 0.0000 0.0000 0.0000 0.0000 0.0000 -74.9150 -16.3337 -21.2189 -177.7508 35.5416 -299.8031 -199.5327 -62.4106 -133.8320 58.6332 -10.8151 12.0119 9.6260 0.0000 0.0000 18.9085 0.0000 0.0000 -10.9200 0.5392 -0.5895 2.1108 0.0000 0.0000 1.8162 0.0000 0.0000 1.2031 -0.0312 -1.7964 2.3690 0.0000 0.0000 0.4098 0.0000 0.0000 11.0583 -0.6834 -1.5503 1.6459 0.0000 0.0000 1.6792 0.0000 0.0000 21.6570 -1.5186 0.6753 3.9159 0.0000 0.0000 1.3506 0.0000 0.0000 0.0000 0.0000 0.0000 87.6695 -24.0104 24.9767 190.3498 28.6750 -64.0956 -41.9078 47.0813 -56.0130 -10.1633 1.6877 -6.6814 7.0443 0.0000 0.0000 17.7673 0.0000 0.0000 11.6197 0.1897 -4.2080 3.4214 0.0000 0.0000 1.9820 0.0000 0.0000 2.3097 0.2283 -6.5161 1.0839 0.0000 0.0000 1.1316 0.0000 0.0000 -3.7683 0.6944 -8.3886 1.5640 0.0000 0.0000 0.7244 0.0000 0.0000 -11.8861 0.9945 -9.4955 3.5374 0.0000 0.0000 2.1747 0.0000 0.0000 0.0000 0.0000 0.0000 0.0000 0.0000 0.0000 0.0000 0.0000 0.0000 0.0000 0.0000 0.0000 0.0000 0.0000 0.0000 0.0000 0.0000 0.0000
0.0000 95.0000 0.0000 0.0000 0.0000 0.0000 0.0000 0.0000 0.0000 0.0000 0.0000 0.0000 0.0000 0.0000 0.0000 0.0000 0.0000 0.0000 0.0000 0.0000 0.0000 0.0000 0.0000 0.0000 -75.5692 -16.2920 -20.9223 -177.6108 37.1294 -298.4876 -205.3110 -70.1911 -129.0829 58.4944 -10.9056 11.0555 8.7570 0.0000 0.0000 22.8675 0.0000 0.0000 -9.9066 0.6224 -1.9047 2.3298 0.0000 0.0000 1.5273 0.0000 0.0000 1.4104 -0.0182 -3.2948 2.5438 0.0000 0.0000 0.3755 0.0000 0.0000 11.8117 -0.7178 -1.6307 2.7524 0.0000 0.0000 2.1381 0.0000 0.0000 23.1984 -1.5228 1.8751 5.1290 0.0000 0.0000 1.6364 0.0000 0.0000 0.0000 0.0000 0.0000 88.3491 -23.5913 24.2608 189.5604 29.9402 -64.9111 -45.3971 50.5435 -59.1341 -10.6056 1.8702 -7.1839 8.5237 0.0000 0.0000 19.0829 0.0000 0.0000 10.0769 -0.0406 -5.3392 2.9607 0.0000 0.0000 2.1543 0.0000 0.0000 0.7892 0.0864 -7.7280 1.1100 0.0000 0.0000 1.4830 0.0000 0.0000 -5.5610 0.5331 -9.1691 0.8415 0.0000 0.0000 0.6467 0.0000 0.0000 -14.5217 0.6867 -10.1351 4.4199 0.0000 0.0000 2.1130 0.0000 0.0000 0.0000 0.0000 0.0000 0.0000 0.0000 0.0000 0.0000 0.0000 0.0000 0.0000 0.0000 0.0000 0.0000 0.0000 0.0000 0.0000 0.0000 0.0000
0.0000 95.0000 0.0000 0.0000 0.0000 0.0000 0.0000 0.0000 0.0000 0.0000 0.0000 0.0000 0.0000 0.0000 0.0000 0.0000 0.0000 0.0000 0.0000 0.0000 0.0000 0.0000 0.0000 0.0000 -75.6171 -16.5028 -21.1727 -177.8708 37.5355 -297.9697 -208.9091 -69.1994 -124.9092 57.7698 -10.6067 11.7373 8.5314 0.0000 0.0000 21.9973 0.0000 0.0000 -10.2561 0.5586 -1.0919 2.5300 0.0000 0.0000 2.0139 0.0000 0.0000 1.6351 -0.0318 -2.5427 3.3345 0.0000 0.0000 0.3566 0.0000 0.0000 11.9180 -0.7125 -1.3599 3.1707 0.0000 0.0000 1.6120 0.0000 0.0000 22.9828 -1.5082 1.8316 4.5295 0.0000 0.0000 1.4069 0.0000 0.0000 0.0000 0.0000 0.0000 88.2443 -23.7020 24.4179 189.6451 30.1710 -65.1643 -46.7975 49.5844 -61.0246 -10.3973 1.4116 -6.3793 7.5391 0.0000 0.0000 19.2835 0.0000 0.0000 11.5153 0.2315 -3.5762 3.9694 0.0000 0.0000 2.6514 0.0000 0.0000 2.1719 0.2122 -6.3899 0.4580 0.0000 0.0000 1.5991 0.0000 0.0000 -4.2263 0.5910 -7.9711 0.4318 0.0000 0.0000 0.5738 0.0000 0.0000 -12.6838 0.6614 -8.4302 3.7172 0.0000 0.0000 2.7575 0.0000 0.0000 0.0000 0.0000 0.0000 0.0000 0.0000 0.0000 0.0000 0.0000 0.0000 0.0000 0.0000 0.0000 0.0000 0.0000 0.0000 0.0000 0.0000 0.0000
0.0000 95.0000 0.0000 0.0000 0.0000 0.0000 0.0000 0.0000 0.0000 0.0000 0.0000 0.0000 0.0000 0.0000 0.0000 0.0000 0.0000 0.0000 0.0000 0.0000 0.0000 0.0000 0.0000 0.0000 -75.5145 -16.7596 -21.5380 -177.7697 35.8502 -298.6374 -203.8340 -61.8130 -130.8057 59.1350 -10.9788 11.8579 7.8846 0.0000 0.0000 15.8188 0.0000 0.0000 -9.5323 0.4978 -0.7230 3.1551 0.0000 0.0000 2.2951 0.0000 0.0000 2.4598 -0.0524 -2.3300 3.7383 0.0000 0.0000 1.0926 0.0000 0.0000 13.1357 -0.7771 -1.8338 2.3160 0.0000 0.0000 0.7722 0.0000 0.0000 23.2994 -1.6414 0.7149 3.4361 0.0000 0.0000 1.2627 0.0000 0.0000 0.0000 0.0000 0.0000 88.1862 -24.0763 24.8271 190.5543 28.6270 -64.1582 -41.0983 48.4314 -55.9099 -10.2508 1.2701 -6.0909 7.0963 0.0000 0.0000 15.8979 0.0000 0.0000 11.0018 0.1305 -4.3132 3.4866 0.0000 0.0000 2.6267 0.0000 0.0000 1.9320 0.1923 -6.5965 0.1986 0.0000 0.0000 2.2303 0.0000 0.0000 -4.5037 0.6033 -8.4364 0.1725 0.0000 0.0000 0.7384 0.0000 0.0000 -12.1731 0.9381 -9.4429 2.9518 0.0000 0.0000 1.5060 0.0000 0.0000 0.0000 0.0000 0.0000 0.0000 0.0000 0.0000 0.0000 0.0000 0.0000 0.0000 0.0000 0.0000 0.0000 0.0000 0.0000 0.0000 0.0000 0.0000
0.0000 95.0000 0.0000 0.0000 0.0000 0.0000 0.0000 0.0000 0.0000 0.0000 0.0000 0.0000 0.0000 0.0000 0.0000 0.0000 0.0000 0.0000 0.0000 0.0000 0.0000 0.0000 0.0000 0.0000 -76.0063 -16.6189 -21.1749 -176.7933 33.9072 -299.5119 -202.1460 -61.6575 -132.4150 59.1073 -10.8873 12.4977 8.4240 0.0000 0.0000 15.8042 0.0000 0.0000 -9.8849 0.4594 -0.1702 2.7326 0.0000 0.0000 1.9292 0.0000 0.0000 2.2824 -0.0597 -1.7767 2.9719 0.0000 0.0000 0.2538 0.0000 0.0000 13.0611 -0.7543 -1.0551 2.0965 0.0000 0.0000 1.7402 0.0000 0.0000 23.1518 -1.5905 1.1268 4.1101 0.0000 0.0000 1.0884 0.0000 0.0000 0.0000 0.0000 0.0000 88.4079 -24.0983 24.7568 190.8805 26.9537 -62.9410 -39.1119 47.9934 -54.1196 -10.9608 1.2772 -6.4559 7.5664 0.0000 0.0000 16.5452 0.0000 0.0000 9.3241 -0.0965 -5.2077 1.9222 0.0000 0.0000 1.2280 0.0000 0.0000 1.1069 0.1192 -7.5218 0.4275 0.0000 0.0000 0.4300 0.0000 0.0000 -4.4367 0.7109 -9.3964 1.4519 0.0000 0.0000 1.4502 0.0000 0.0000 -12.2487 1.0857 -10.2520 3.2170 0.0000 0.0000 1.8303 0.0000 0.0000 0.0000 0.0000 0.0000 0.0000 0.0000 0.0000 0.0000 0.0000 0.0000 0.0000 0.0000 0.0000 0.0000 0.0000 0.0000 0.0000 0.0000 0.0000
0.0000 95.0000 0.0000 0.0000 0.0000 0.0000 0.0000 0.0000 0.0000 0.0000 0.0000 0.0000 0.0000 0.0000 0.0000 0.0000 0.0000 0.0000 0.0000 0.0000 0.0000 0.0000 0.0000 0.0000 -76.3882 -16.4100 -20.7711 -175.4567 33.2179 -299.4399 -194.6946 -63.3142 -138.1682 57.7207 -10.6804 11.1267 10.5549 0.0000 0.0000 18.6185 0.0000 0.0000 -11.3395 0.5886 -0.9981 2.2073 0.0000 0.0000 1.8849 0.0000 0.0000 0.5529 -0.0110 -2.4847 2.5340 0.0000 0.0000 0.7236 0.0000 0.0000 10.9797 -0.6796 -1.5394 1.7225 0.0000 0.0000 1.5477 0.0000 0.0000 21.7231 -1.4402 1.4455 5.1030 0.0000 0.0000 1.4829 0.0000 0.0000 0.0000 0.0000 0.0000 88.3522 -23.8913 24.5676 190.4607 27.6311 -63.2963 -41.8804 49.4176 -55.9864 -11.3128 1.4821 -6.9516 8.3441 0.0000 0.0000 19.3581 0.0000 0.0000 10.6924 0.0622 -4.8051 3.3221 0.0000 0.0000 1.9352 0.0000 0.0000 1.5788 0.1671 -7.3103 0.4959 0.0000 0.0000 1.2102 0.0000 0.0000 -4.6916 0.6126 -8.7730 0.6345 0.0000 0.0000 1.0686 0.0000 0.0000 -13.0254 0.7879 -9.3674 4.4062 0.0000 0.0000 2.7385 0.0000 0.0000 0.0000 0.0000 0.0000 0.0000 0.0000 0.0000 0.0000 0.0000 0.0000 0.0000 0.0000 0.0000 0.0000 0.0000 0.0000 0.0000 0.0000 0.0000
0.0000 95.0000 0.0000 0.0000 0.0000 0.0000 0.0000 0.0000 0.0000 0.0000 0.0000 0.0000 0.0000 0.0000 0.0000 0.0000 0.0000 0.0000 0.0000 0.0000 0.0000 0.0000 0.0000 0.0000 -75.8722 -16.6068 -21.2096 -176.4214 36.2449 -297.6472 -199.8434 -69.6684 -132.8762 57.1930 -10.6441 10.3764 9.7060 0.0000 0.0000 20.2406 0.0000 0.0000 -10.8322 0.6959 -2.4677 2.3187 0.0000 0.0000 2.1046 0.0000 0.0000 0.3976 -0.0030 -3.9138 2.9995 0.0000 0.0000 0.4606 0.0000 0.0000 10.3081 -0.7242 -3.0029 3.8871 0.0000 0.0000 1.6208 0.0000 0.0000 20.5031 -1.5434 -0.2799 6.0086 0.0000 0.0000 1.0514 0.0000 0.0000 0.0000 0.0000 0.0000 88.3195 -23.9375 24.6286 190.3871 29.0677 -64.3565 -45.6647 50.7832 -58.7024 -11.3534 1.5802 -7.1244 6.6867 0.0000 0.0000 17.6556 0.0000 0.0000 11.0680 0.0850 -4.9226 3.7600 0.0000 0.0000 2.8167 0.0000 0.0000 1.5826 0.1734 -7.7348 0.8843 0.0000 0.0000 1.4952 0.0000 0.0000 -4.8232 0.6556 -9.3820 1.9075 0.0000 0.0000 0.6161 0.0000 0.0000 -12.7945 0.9898 -10.2273 5.3081 0.0000 0.0000 2.2868 0.0000 0.0000 0.0000 0.0000 0.0000 0.0000 0.0000 0.0000 0.0000 0.0000 0.0000 0.0000 0.0000 0.0000 0.0000 0.0000 0.0000 0.0000 0.0000 0.0000
0.0000 95.0000 0.0000 0.0000 0.0000 0.0000 0.0000 0.0000 0.0000 0.0000 0.0000 0.0000 0.0000 0.0000 0.0000 0.0000 0.0000 0.0000 0.0000 0.0000 0.0000 0.0000 0.0000 0.0000 -75.7775 -16.0573 -20.5479 -175.5913 39.1675 -296.0203 -210.3373 -70.8849 -121.7887 57.6470 -10.7422 10.5536 10.8974 0.0000 0.0000 21.9119 0.0000 0.0000 -11.0818 0.6714 -2.1053 2.6972 0.0000 0.0000 2.0412 0.0000 0.0000 0.8754 -0.0102 -3.4337 3.5932 0.0000 0.0000 0.8484 0.0000 0.0000 10.6017 -0.7007 -2.3238 3.8165 0.0000 0.0000 2.9747 0.0000 0.0000 20.8615 -1.5110 0.2124 6.4549 0.0000 0.0000 1.6346 0.0000 0.0000 0.0000 0.0000 0.0000 88.5229 -23.3124 23.9040 189.9159 31.5404 -65.3197 -46.6844 50.2797 -57.6442 -9.4111 2.3018 -7.2218 6.0354 0.0000 0.0000 13.6182 0.0000 0.0000 11.4597 0.0480 -5.8111 3.0910 0.0000 0.0000 3.1813 0.0000 0.0000 2.7116 0.3083 -8.1997 1.2706 0.0000 0.0000 2.0658 0.0000 0.0000 -3.8808 0.8842 -10.2805 1.2580 0.0000 0.0000 1.0019 0.0000 0.0000 -12.9318 1.2699 -11.8076 5.3960 0.0000 0.0000 2.5505 0.0000 0.0000 0.0000 0.0000 0.0000 0.0000 0.0000 0.0000 0.0000 0.0000 0.0000 0.0000 0.0000 0.0000 0.0000 0.0000 0.0000 0.0000 0.0000 0.0000
0.0000 95.0000 0.0000 0.0000 0.0000 0.0000 0.0000 0.0000 0.0000 0.0000 0.0000 0.0000 0.0000 0.0000 0.0000 0.0000 0.0000 0.0000 0.0000 0.0000 0.0000 0.0000 0.0000 0.0000 -75.6868 -16.1348 -20.6792 -175.5873 40.5860 -294.8754 -213.4257 -69.4538 -118.7955 58.0185 -10.8897 10.2249 10.3134 0.0000 0.0000 19.5003 0.0000 0.0000 -11.1583 0.7042 -2.4794 1.4482 0.0000 0.0000 1.7832 0.0000 0.0000 1.3723 -0.0106 -3.8844 2.2264 0.0000 0.0000 1.1711 0.0000 0.0000 11.6256 -0.7619 -2.9880 3.3805 0.0000 0.0000 3.1278 0.0000 0.0000 22.0020 -1.6433 -0.2512 5.8146 0.0000 0.0000 1.8443 0.0000 0.0000 0.0000 0.0000 0.0000 88.5475 -22.8836 23.4551 189.8023 32.9201 -65.6172 -48.3389 50.2794 -62.4206 -11.7725 1.9672 -7.9449 6.2370 0.0000 0.0000 18.0576 0.0000 0.0000 10.0597 -0.0695 -5.6340 3.0840 0.0000 0.0000 2.8479 0.0000 0.0000 1.0719 0.1201 -8.0161 0.7998 0.0000 0.0000 2.2263 0.0000 0.0000 -5.5783 0.5824 -9.7256 0.8762 0.0000 0.0000 0.2431 0.0000 0.0000 -13.2599 0.9834 -10.6046 4.0520 0.0000 0.0000 1.7113 0.0000 0.0000 0.0000 0.0000 0.0000 0.0000 0.0000 0.0000 0.0000 0.0000 0.0000 0.0000 0.0000 0.0000 0.0000 0.0000 0.0000 0.0000 0.0000 0.0000
0.0000 95.0000 0.0000 0.0000 0.0000 0.0000 0.0000 0.0000 0.0000 0.0000 0.0000 0.0000 0.0000 0.0000 0.0000 0.0000 0.0000 0.0000 0.0000 0.0000 0.0000 0.0000 0.0000 0.0000 -76.1701 -15.8908 -20.1964 -174.5689 39.6116 -295.1477 -210.9866 -69.8834 -120.4550 57.6669 -10.7189 10.7539 10.9264 0.0000 0.0000 20.0083 0.0000 0.0000 -11.6963 0.7278 -2.6271 1.8535 0.0000 0.0000 1.9742 0.0000 0.0000 0.8630 -0.0064 -3.9180 3.0429 0.0000 0.0000 0.9476 0.0000 0.0000 11.1298 -0.7557 -3.1830 3.8794 0.0000 0.0000 2.7620 0.0000 0.0000 21.1884 -1.6449 -0.7610 5.9685 0.0000 0.0000 0.8696 0.0000 0.0000 0.0000 0.0000 0.0000 88.5899 -22.7133 23.2641 190.1491 33.4353 -65.4565 -49.5186 50.0317 -63.5228 -11.2372 1.7435 -7.3165 6.9755 0.0000 0.0000 16.7730 0.0000 0.0000 10.0423 -0.0561 -5.4723 3.4700 0.0000 0.0000 3.1579 0.0000 0.0000 1.5102 0.1659 -7.7680 0.8266 0.0000 0.0000 2.1280 0.0000 0.0000 -5.1857 0.6219 -9.5554 1.1248 0.0000 0.0000 0.2821 0.0000 0.0000 -13.3012 0.9691 -10.5656 4.2979 0.0000 0.0000 1.8692 0.0000 0.0000 0.0000 0.0000 0.0000 0.0000 0.0000 0.0000 0.0000 0.0000 0.0000 0.0000 0.0000 0.0000 0.0000 0.0000 0.0000 0.0000 0.0000 0.0000
0.0000 95.0000 0.0000 0.0000 0.0000 0.0000 0.0000 0.0000 0.0000 0.0000 0.0000 0.0000 0.0000 0.0000 0.0000 0.0000 0.0000 0.0000 0.0000 0.0000 0.0000 0.0000 0.0000 0.0000 -76.4288 -15.4222 -19.5162 -173.2367 39.1574 -295.3189 -208.1109 -70.9466 -123.8317 58.6257 -11.0620 10.1616 12.4245 0.0000 0.0000 20.3820 0.0000 0.0000 -10.4997 0.7031 -2.6350 2.9305 0.0000 0.0000 2.3321 0.0000 0.0000 1.5640 -0.0093 -4.0920 2.7513 0.0000 0.0000 1.0182 0.0000 0.0000 11.9412 -0.7609 -2.7008 2.9267 0.0000 0.0000 1.3966 0.0000 0.0000 22.8408 -1.5634 1.1459 5.0831 0.0000 0.0000 1.6854 0.0000 0.0000 0.0000 0.0000 0.0000 88.4927 -22.2184 22.7954 189.3236 34.2784 -65.7553 -49.6417 50.0015 -63.0384 -11.9011 2.2282 -8.4199 6.4672 0.0000 0.0000 15.5429 0.0000 0.0000 10.6725 0.0102 -5.3821 3.7070 0.0000 0.0000 3.1912 0.0000 0.0000 1.6552 0.1802 -7.6554 1.2038 0.0000 0.0000 2.2594 0.0000 0.0000 -4.7922 0.6707 -9.4902 1.1881 0.0000 0.0000 0.7839 0.0000 0.0000 -12.8926 1.0839 -10.8029 4.7364 0.0000 0.0000 2.1945 0.0000 0.0000 0.0000 0.0000 0.0000 0.0000 0.0000 0.0000 0.0000 0.0000 0.0000 0.0000 0.0000 0.0000 0.0000 0.0000 0.0000 0.0000 0.0000 0.0000
0.0000 95.0000 0.0000 0.0000 0.0000 0.0000 0.0000 0.0000 0.0000 0.0000 0.0000 0.0000 0.0000 0.0000 0.0000 0.0000 0.0000 0.0000 0.0000 0.0000 0.0000 0.0000 0.0000 0.0000 -76.4123 -15.3937 -19.4860 -173.0556 39.9485 -294.6453 -211.6483 -69.5431 -119.5508 58.3519 -10.9264 10.6145 11.7327 0.0000 0.0000 20.1998 0.0000 0.0000 -11.1067 0.6294 -1.5904 2.9014 0.0000 0.0000 2.2809 0.0000 0.0000 0.7256 -0.0102 -3.1607 2.3213 0.0000 0.0000 0.6825 0.0000 0.0000 11.1205 -0.7064 -2.0308 3.3609 0.0000 0.0000 1.8743 0.0000 0.0000 21.8873 -1.4873 1.1344 5.7125 0.0000 0.0000 1.2834 0.0000 0.0000 0.0000 0.0000 0.0000 88.6159 -21.8873 22.4091 189.0423 35.2786 -66.1267 -51.5078 50.3263 -65.1798 -11.8855 2.3014 -8.5251 7.7108 0.0000 0.0000 16.4663 0.0000 0.0000 10.5894 -0.0052 -5.4700 3.2582 0.0000 0.0000 3.3933 0.0000 0.0000 1.3672 0.1536 -8.0469 1.0976 0.0000 0.0000 1.8094 0.0000 0.0000 -4.9927 0.6762 -9.8320 0.9786 0.0000 0.0000 0.6020 0.0000 0.0000 -13.0950 1.0841 -10.9871 4.7771 0.0000 0.0000 2.2178 0.0000 0.0000 0.0000 0.0000 0.0000 0.0000 0.0000 0.0000 0.0000 0.0000 0.0000 0.0000 0.0000 0.0000 0.0000 0.0000 0.0000 0.0000 0.0000 0.0000
0.0000 95.0000 0.0000 0.0000 0.0000 0.0000 0.0000 0.0000 0.0000 0.0000 0.0000 0.0000 0.0000 0.0000 0.0000 0.0000 0.0000 0.0000 0.0000 0.0000 0.0000 0.0000 0.0000 0.0000 -75.9393 -15.3401 -19.5813 -173.0768 41.7958 -293.5396 -216.8994 -69.4694 -115.2659 59.7289 -11.2526 11.0140 12.1788 0.0000 0.0000 20.4965 0.0000 0.0000 -9.9667 0.5505 -1.1127 3.0439 0.0000 0.0000 2.8647 0.0000 0.0000 2.0181 -0.0388 -2.5668 1.5588 0.0000 0.0000 0.2239 0.0000 0.0000 12.0682 -0.7186 -1.3480 2.7549 0.0000 0.0000 2.5329 0.0000 0.0000 22.8104 -1.5267 1.4931 6.3501 0.0000 0.0000 1.8524 0.0000 0.0000 0.0000 0.0000 0.0000 88.3452 -21.7313 22.3524 189.0250 36.5744 -66.6717 -53.4235 52.6811 -66.5287 -12.3429 2.6994 -9.3976 6.4579 0.0000 0.0000 15.6635 0.0000 0.0000 10.8820 -0.1696 -7.7069 3.5290 0.0000 0.0000 2.9290 0.0000 0.0000 0.8375 0.1042 -9.4129 2.0926 0.0000 0.0000 1.8391 0.0000 0.0000 -5.3281 0.7833 -11.4595 2.0979 0.0000 0.0000 1.0955 0.0000 0.0000 -13.3640 1.4878 -13.3785 5.5666 0.0000 0.0000 2.3551 0.0000 0.0000 0.0000 0.0000 0.0000 0.0000 0.0000 0.0000 0.0000 0.0000 0.0000 0.0000 0.0000 0.0000 0.0000 0.0000 0.0000 0.0000 0.0000 0.0000
0.0000 95.0000 0.0000 0.0000 0.0000 0.0000 0.0000 0.0000 0.0000 0.0000 0.0000 0.0000 0.0000 0.0000 0.0000 0.0000 0.0000 0.0000 0.0000 0.0000 0.0000 0.0000 0.0000 0.0000 -75.5976 -15.7228 -20.1873 -174.1114 43.8120 -292.2303 -220.8068 -65.7662 -107.6735 58.7957 -10.6967 13.2417 14.4746 0.0000 0.0000 15.4338 0.0000 0.0000 -15.0770 0.6360 0.7707 4.1398 0.0000 0.0000 1.9871 0.0000 0.0000 -2.9125 0.1139 -0.2919 2.6686 0.0000 0.0000 0.6453 0.0000 0.0000 6.5262 -0.2342 1.5769 2.0602 0.0000 0.0000 2.9336 0.0000 0.0000 16.1515 -0.5216 4.2672 7.3437 0.0000 0.0000 2.9439 0.0000 0.0000 0.0000 0.0000 0.0000 87.9265 -21.5562 22.3311 189.3205 38.7110 -67.4656 -56.4914 53.2230 -69.4484 -12.7756 3.3981 -10.7369 7.9056 0.0000 0.0000 15.8142 0.0000 0.0000 11.3358 -0.2028 -8.7352 3.3704 0.0000 0.0000 3.1994 0.0000 0.0000 0.7919 0.1038 -10.1632 3.2281 0.0000 0.0000 2.7366 0.0000 0.0000 -5.4919 0.8100 -12.0169 3.2692 0.0000 0.0000 1.5449 0.0000 0.0000 -14.2256 1.4621 -14.1655 6.7406 0.0000 0.0000 2.6137 0.0000 0.0000 0.0000 0.0000 0.0000 0.0000 0.0000 0.0000 0.0000 0.0000 0.0000 0.0000 0.0000 0.0000 0.0000 0.0000 0.0000 0.0000 0.0000 0.0000
0.0000 95.0000 0.0000 0.0000 0.0000 0.0000 0.0000 0.0000 0.0000 0.0000 0.0000 0.0000 0.0000 0.0000 0.0000 0.0000 0.0000 0.0000 0.0000 0.0000 0.0000 0.0000 0.0000 0.0000 -74.9435 -14.9766 -19.4606 -171.9525 49.3194 -288.0846 -221.2114 -67.4793 -112.7492 63.5846 -12.7048 6.4717 15.2539 0.0000 0.0000 9.4908 0.0000 0.0000 -9.9680 1.1145 -7.1897 3.0368 0.0000 0.0000 3.0606 0.0000 0.0000 0.9439 0.0377 -9.3505 2.1492 0.0000 0.0000 1.6427 0.0000 0.0000 10.3279 -1.0385 -9.3520 5.0068 0.0000 0.0000 1.7125 0.0000 0.0000 19.4500 -2.4647 -8.0395 8.1950 0.0000 0.0000 1.0220 0.0000 0.0000 0.0000 0.0000 0.0000 87.4185 -20.7717 21.7070 188.9174 43.0449 -69.2204 -65.7273 53.2738 -77.9849 -13.3036 4.2135 -12.3296 9.1803 0.0000 0.0000 12.5117 0.0000 0.0000 13.1999 -0.1352 -11.1589 5.4051 0.0000 0.0000 3.7784 0.0000 0.0000 -0.0521 -0.0079 -12.4426 6.7323 0.0000 0.0000 2.8677 0.0000 0.0000 -6.3513 0.8526 -14.1206 7.8475 0.0000 0.0000 2.7230 0.0000 0.0000 -13.9170 2.0012 -16.7391 10.5734 0.0000 0.0000 4.3199 0.0000 0.0000 0.0000 0.0000 0.0000 0.0000 0.0000 0.0000 0.0000 0.0000 0.0000 0.0000 0.0000 0.0000 0.0000 0.0000 0.0000 0.0000 0.0000 0.0000
0.0000 95.0000 0.0000 0.0000 0.0000 0.0000 0.0000 0.0000 0.0000 0.0000 0.0000 0.0000 0.0000 0.0000 0.0000 0.0000 0.0000 0.0000 0.0000 0.0000 0.0000 0.0000 0.0000 0.0000 -74.7048 -13.5455 -17.6886 -166.7376 53.7942 -282.9564 -232.0002 -69.7246 -100.4118 63.7266 -12.9710 3.6934 16.2293 0.0000 0.0000 8.3468 0.0000 0.0000 -11.3845 1.1576 -8.0599 3.6568 0.0000 0.0000 2.0915 0.0000 0.0000 -1.5563 -0.0727 -10.1224 1.6158 0.0000 0.0000 1.4210 0.0000 0.0000 7.4112 -1.1749 -10.1395 4.6391 0.0000 0.0000 1.8510 0.0000 0.0000 16.0304 -2.5744 -8.7334 8.0563 0.0000 0.0000 1.5150 0.0000 0.0000 0.0000 0.0000 0.0000 87.0731 -19.6402 20.6484 187.8171 47.6740 -71.2798 -81.1587 57.6395 -92.2998 -13.9056 5.2566 -14.3446 6.7743 0.0000 0.0000 12.2934 0.0000 0.0000 11.3131 -0.7883 -15.7689 8.3021 0.0000 0.0000 10.3587 0.0000 0.0000 2.0836 0.3840 -16.1125 13.4638 0.0000 0.0000 14.1072 0.0000 0.0000 -4.1817 1.7196 -18.5119 17.4918 0.0000 0.0000 12.7222 0.0000 0.0000 -11.2618 3.6238 -21.5091 17.3962 0.0000 0.0000 10.9109 0.0000 0.0000 0.0000 0.0000 0.0000 0.0000 0.0000 0.0000 0.0000 0.0000 0.0000 0.0000 0.0000 0.0000 0.0000 0.0000 0.0000 0.0000 0.0000 0.0000
0.0000 95.0000 0.0000 0.0000 0.0000 0.0000 0.0000 0.0000 0.0000 0.0000 0.0000 0.0000 0.0000 0.0000 0.0000 0.0000 0.0000 0.0000 0.0000 0.0000 0.0000 0.0000 0.0000 0.0000 -73.6390 -12.1480 -16.1798 -144.3241 67.7836 -252.4548 -312.6634 -72.0318 -23.7964 75.5403 -15.0519 -11.8421 15.4701 0.0000 0.0000 9.1988 0.0000 0.0000 -5.3719 3.3126 -22.8774 1.7194 0.0000 0.0000 2.8935 0.0000 0.0000 7.6956 1.4216 -25.6742 3.9565 0.0000 0.0000 4.6980 0.0000 0.0000 15.9054 -0.9027 -26.0311 8.1198 0.0000 0.0000 4.3890 0.0000 0.0000 25.0004 -3.8000 -24.8477 9.4859 0.0000 0.0000 4.4246 0.0000 0.0000 0.0000 0.0000 0.0000 86.2059 -17.9196 19.1253 186.9523 59.2099 -76.8908 -143.4950 60.0914 -140.9753 -0.3195 16.1709 -19.9365 8.3857 0.0000 0.0000 11.3689 0.0000 0.0000 20.8788 1.0216 -33.0139 14.4946 0.0000 0.0000 65.7127 0.0000 0.0000 14.6908 5.1145 -33.4468 43.0614 0.0000 0.0000 90.0000 0.0000 0.0000 10.0353 9.0603 -34.9135 74.7218 0.0000 0.0000 70.2027 0.0000 0.0000 5.4243 13.7187 -35.0079 61.6018 0.0000 0.0000 68.3952 0.0000 0.0000 0.0000 0.0000 0.0000 0.0000 0.0000 0.0000 0.0000 0.0000 0.0000 0.0000 0.0000 0.0000 0.0000 0.0000 0.0000 0.0000 0.0000 0.0000
0.0000 95.0000 0.0000 0.0000 0.0000 0.0000 0.0000 0.0000 0.0000 0.0000 0.0000 0.0000 0.0000 0.0000 0.0000 0.0000 0.0000 0.0000 0.0000 0.0000 0.0000 0.0000 0.0000 0.0000 -72.8757 -10.2744 -13.8856 -66.8301 67.2268 -157.6320 -349.3517 -40.7744 -20.5960 97.0553 -12.8025 -30.0722 24.2153 0.0000 0.0000 5.7569 0.0000 0.0000 20.9100 7.9182 -23.4181 15.4377 0.0000 0.0000 5.5537 0.0000 0.0000 39.3723 8.6420 -28.6219 18.6436 0.0000 0.0000 11.6559 0.0000 0.0000 47.3359 6.4582 -32.0760 18.5592 0.0000 0.0000 9.5541 0.0000 0.0000 50.7447 1.3876 -33.8242 16.1287 0.0000 0.0000 6.2294 0.0000 0.0000 0.0000 0.0000 0.0000 85.8293 -15.5867 16.7485 181.2465 78.5318 -92.7126 -198.9020 30.8413 -182.6662 33.2719 31.3193 -13.0636 4.9619 0.0000 0.0000 16.3606 0.0000 0.0000 18.8473 -0.1349 -57.6891 45.2314 0.0000 0.0000 24.5349 0.0000 0.0000 16.6281 11.1534 -62.7258 52.3242 0.0000 0.0000 35.9252 0.0000 0.0000 12.6865 19.5590 -63.9554 55.7347 0.0000 0.0000 29.3055 0.0000 0.0000 13.4989 30.7670 -59.5801 41.0753 0.0000 0.0000 18.0988 0.0000 0.0000 0.0000 0.0000 0.0000 0.0000 0.0000 0.0000 0.0000 0.0000 0.0000 0.0000 0.0000 0.0000 0.0000 0.0000 0.0000 0.0000 0.0000 0.0000
0.0000 95.0000 0.0000 0.0000 0.0000 0.0000 0.0000 0.0000 0.0000 0.0000 0.0000 0.0000 0.0000 0.0000 0.0000 0.0000 0.0000 0.0000 0.0000 0.0000 0.0000 0.0000 0.0000 0.0000 -72.1881 -8.3556 -11.4431 -40.7065 42.0028 -103.7967 -331.0955 -17.2067 27.1360 93.1829 -10.1567 -46.8442 21.4299 0.0000 0.0000 47.2067 0.0000 0.0000 5.6980 13.3382 -55.1365 17.7164 0.0000 0.0000 9.6165 0.0000 0.0000 21.6379 13.4213 -68.0127 18.0738 0.0000 0.0000 7.6121 0.0000 0.0000 31.9447 9.2476 -70.8997 21.4339 0.0000 0.0000 9.0125 0.0000 0.0000 37.1234 -0.3354 -77.1707 20.1376 0.0000 0.0000 8.3097 0.0000 0.0000 0.0000 0.0000 0.0000 85.5655 -12.4185 13.4100 29.9112 79.9570 -256.0149 -218.5296 11.6730 -187.2368 58.8097 41.7784 -4.5740 12.7924 0.0000 0.0000 19.8853 0.0000 0.0000 22.7069 2.3490 -62.6918 63.0629 0.0000 0.0000 23.6063 0.0000 0.0000 18.2401 14.4098 -71.6675 61.8459 0.0000 0.0000 28.5973 0.0000 0.0000 13.2832 24.7651 -75.6584 60.6489 0.0000 0.0000 24.7985 0.0000 0.0000 13.1227 39.1353 -73.1640 47.2460 0.0000 0.0000 20.3517 0.0000 0.0000 0.0000 0.0000 0.0000 0.0000 0.0000 0.0000 0.0000 0.0000 0.0000 0.0000 0.0000 0.0000 0.0000 0.0000 0.0000 0.0000 0.0000 0.0000
0.0000 95.0000 0.0000 0.0000 0.0000 0.0000 0.0000 0.0000 0.0000 0.0000 0.0000 0.0000 0.0000 0.0000 0.0000 0.0000 0.0000 0.0000 0.0000 0.0000 0.0000 0.0000 0.0000 0.0000 -73.3570 -4.9197 -6.6022 -35.1307 21.5497 -60.8573 -350.1159 4.7409 33.3555 74.7867 -14.0358 -75.2964 49.3216 0.0000 0.0000 23.4775 0.0000 0.0000 -19.8630 1.1193 -37.3164 46.7768 0.0000 0.0000 28.9515 0.0000 0.0000 -17.1228 -10.0113 -65.1533 34.7756 0.0000 0.0000 13.1083 0.0000 0.0000 -8.7654 -17.4528 -73.5727 33.3120 0.0000 0.0000 17.2802 0.0000 0.0000 -7.4694 -24.4469 -62.7572 39.3639 0.0000 0.0000 22.2794 0.0000 0.0000 0.0000 0.0000 0.0000 85.5904 -8.1334 8.7822 19.9413 57.4123 -283.3549 -222.1931 -12.2658 -190.9785 11.0117 38.8518 -34.2411 41.6180 0.0000 0.0000 15.7820 0.0000 0.0000 19.9410 0.5735 -52.0000 95.3569 0.0000 0.0000 22.6798 0.0000 0.0000 14.5405 10.1228 -64.7684 84.8088 0.0000 0.0000 21.0525 0.0000 0.0000 7.8507 20.0357 -75.8863 75.6212 0.0000 0.0000 20.0057 0.0000 0.0000 5.4166 35.4498 -78.7163 61.9985 0.0000 0.0000 24.1490 0.0000 0.0000 0.0000 0.0000 0.0000 0.0000 0.0000 0.0000 0.0000 0.0000 0.0000 0.0000 0.0000 0.0000 0.0000 0.0000 0.0000 0.0000 0.0000 0.0000
0.0000 95.0000 0.0000 0.0000 0.0000 0.0000 0.0000 0.0000 0.0000 0.0000 0.0000 0.0000 0.0000 0.0000 0.0000 0.0000 0.0000 0.0000 0.0000 0.0000 0.0000 0.0000 0.0000 0.0000 -74.0274 -2.3156 -3.0710 -30.2197 14.4893 -37.0824 -353.7343 61.5577 34.7960 42.0321 -9.0907 1.0687 10.4804 0.0000 0.0000 5.5391 0.0000 0.0000 -4.9825 1.8379 -11.7768 30.2846 0.0000 0.0000 25.1351 0.0000 0.0000 4.7671 0.4362 -15.2222 37.7927 0.0000 0.0000 19.1700 0.0000 0.0000 12.5982 -1.2226 -17.5770 35.2932 0.0000 0.0000 24.0001 0.0000 0.0000 21.5561 -3.3061 -15.7346 33.7108 0.0000 0.0000 27.3243 0.0000 0.0000 0.0000 0.0000 0.0000 86.0116 -5.3302 5.7142 15.2519 41.9939 -304.1769 -265.6877 -58.0957 -132.2355 -22.1383 5.7830 -21.3793 12.3992 0.0000 0.0000 2.2240 0.0000 0.0000 36.4806 5.3752 -26.1254 55.4086 0.0000 0.0000 35.3891 0.0000 0.0000 26.5999 8.7436 -31.0714 53.2485 0.0000 0.0000 33.8556 0.0000 0.0000 19.0346 10.2955 -28.1144 61.8531 0.0000 0.0000 24.5133 0.0000 0.0000 9.1354 10.4773 -23.8348 50.5721 0.0000 0.0000 20.2207 0.0000 0.0000 0.0000 0.0000 0.0000 0.0000 0.0000 0.0000 0.0000 0.0000 0.0000 0.0000 0.0000 0.0000 0.0000 0.0000 0.0000 0.0000 0.0000 0.0000
0.0000 95.0000 0.0000 0.0000 0.0000 0.0000 0.0000 0.0000 0.0000 0.0000 0.0000 0.0000 0.0000 0.0000 0.0000 0.0000 0.0000 0.0000 0.0000 0.0000 0.0000 0.0000 0.0000 0.0000 -75.1492 0.3653 0.4748 -24.3906 9.2246 -19.0328 -327.4167 75.9759 44.3481 42.0321 -9.0907 1.0687 10.4804 0.0000 0.0000 5.5391 0.0000 0.0000 -4.9825 1.8379 -11.7768 30.2846 0.0000 0.0000 25.1351 0.0000 0.0000 4.7671 0.4362 -15.2222 37.7927 0.0000 0.0000 19.1700 0.0000 0.0000 12.5982 -1.2226 -17.5770 35.2932 0.0000 0.0000 24.0001 0.0000 0.0000 21.5561 -3.3061 -15.7346 33.7108 0.0000 0.0000 27.3243 0.0000 0.0000 0.0000 0.0000 0.0000 86.0995 -3.7766 4.0427 9.3365 29.8671 -322.9256 -295.9772 -69.2828 -90.6695 -22.1383 5.7830 -21.3793 12.3992 0.0000 0.0000 2.2240 0.0000 0.0000 36.4806 5.3752 -26.1254 55.4086 0.0000 0.0000 35.3891 0.0000 0.0000 26.5999 8.7436 -31.0714 53.2485 0.0000 0.0000 33.8556 0.0000 0.0000 19.0346 10.2955 -28.1144 61.8531 0.0000 0.0000 24.5133 0.0000 0.0000 9.1354 10.4773 -23.8348 50.5721 0.0000 0.0000 20.2207 0.0000 0.0000 0.0000 0.0000 0.0000 0.0000 0.0000 0.0000 0.0000 0.0000 0.0000 0.0000 0.0000 0.0000 0.0000 0.0000 0.0000 0.0000 0.0000 0.0000
0.0000 95.0000 0.0000 0.0000 0.0000 0.0000 0.0000 0.0000 0.0000 0.0000 0.0000 0.0000 0.0000 0.0000 0.0000 0.0000 0.0000 0.0000 0.0000 0.0000 0.0000 0.0000 0.0000 0.0000 -75.6322 2.5843 3.3293 -20.8979 5.1382 -8.2711 -274.9719 82.9025 86.0323 42.0321 -9.0907 1.0687 10.4804 0.0000 0.0000 5.5391 0.0000 0.0000 -4.9825 1.8379 -11.7768 30.2846 0.0000 0.0000 25.1351 0.0000 0.0000 4.7671 0.4362 -15.2222 37.7927 0.0000 0.0000 19.1700 0.0000 0.0000 12.5982 -1.2226 -17.5770 35.2932 0.0000 0.0000 24.0001 0.0000 0.0000 21.5561 -3.3061 -15.7346 33.7108 0.0000 0.0000 27.3243 0.0000 0.0000 0.0000 0.0000 0.0000 86.2938 -3.1191 3.3275 5.5139 22.5822 -333.6172 -321.0232 -67.7725 -58.0731 -22.1383 5.7830 -21.3793 12.3992 0.0000 0.0000 2.2240 0.0000 0.0000 36.4806 5.3752 -26.1254 55.4086 0.0000 0.0000 35.3891 0.0000 0.0000 26.5999 8.7436 -31.0714 53.2485 0.0000 0.0000 33.8556 0.0000 0.0000 19.0346 10.2955 -28.1144 61.8531 0.0000 0.0000 24.5133 0.0000 0.0000 9.1354 10.4773 -23.8348 50.5721 0.0000 0.0000 20.2207 0.0000 0.0000 0.0000 0.0000 0.0000 0.0000 0.0000 0.0000 0.0000 0.0000 0.0000 0.0000 0.0000 0.0000 0.0000 0.0000 0.0000 0.0000 0.0000 0.0000
0.0000 95.0000 0.0000 0.0000 0.0000 0.0000 0.0000 0.0000 0.0000 0.0000 0.0000 0.0000 0.0000 0.0000 0.0000 0.0000 0.0000 0.0000 0.0000 0.0000 0.0000 0.0000 0.0000 0.0000 -75.5559 3.5869 4.6268 -17.3571 -0.2210 2.2084 -200.2787 80.3851 151.0832 42.0321 -9.0907 1.0687 10.4804 0.0000 0.0000 5.5391 0.0000 0.0000 -4.9825 1.8379 -11.7768 30.2846 0.0000 0.0000 25.1351 0.0000 0.0000 4.7671 0.4362 -15.2222 37.7927 0.0000 0.0000 19.1700 0.0000 0.0000 12.5982 -1.2226 -17.5770 35.2932 0.0000 0.0000 24.0001 0.0000 0.0000 21.5561 -3.3061 -15.7346 33.7108 0.0000 0.0000 27.3243 0.0000 0.0000 0.0000 0.0000 0.0000 86.6932 -2.3605 2.5008 1.9513 15.6307 -342.9192 -335.1873 -61.8840 -36.1934 -22.1383 5.7830 -21.3793 12.3992 0.0000 0.0000 2.2240 0.0000 0.0000 36.4806 5.3752 -26.1254 55.4086 0.0000 0.0000 35.3891 0.0000 0.0000 26.5999 8.7436 -31.0714 53.2485 0.0000 0.0000 33.8556 0.0000 0.0000 19.0346 10.2955 -28.1144 61.8531 0.0000 0.0000 24.5133 0.0000 0.0000 9.1354 10.4773 -23.8348 50.5721 0.0000 0.0000 20.2207 0.0000 0.0000 0.0000 0.0000 0.0000 0.0000 0.0000 0.0000 0.0000 0.0000 0.0000 0.0000 0.0000 0.0000 0.0000 0.0000 0.0000 0.0000 0.0000 0.0000
0.0000 95.0000 0.0000 0.0000 0.0000 0.0000 0.0000 0.0000 0.0000 0.0000 0.0000 0.0000 0.0000 0.0000 0.0000 0.0000 0.0000 0.0000 0.0000 0.0000 0.0000 0.0000 0.0000 0.0000 -75.4929 4.2815 5.5286 -14.5090 -3.5751 7.7437 -176.9075 76.0068 168.9091 42.0321 -9.0907 1.0687 10.4804 0.0000 0.0000 5.5391 0.0000 0.0000 -4.9825 1.8379 -11.7768 30.2846 0.0000 0.0000 25.1351 0.0000 0.0000 4.7671 0.4362 -15.2222 37.7927 0.0000 0.0000 19.1700 0.0000 0.0000 12.5982 -1.2226 -17.5770 35.2932 0.0000 0.0000 24.0001 0.0000 0.0000 21.5561 -3.3061 -15.7346 33.7108 0.0000 0.0000 27.3243 0.0000 0.0000 0.0000 0.0000 0.0000 87.1980 -1.2866 1.3511 -0.1807 11.6941 -347.7990 -339.6241 -57.1697 -26.6386 -22.1383 5.7830 -21.3793 12.3992 0.0000 0.0000 2.2240 0.0000 0.0000 36.4806 5.3752 -26.1254 55.4086 0.0000 0.0000 35.3891 0.0000 0.0000 26.5999 8.7436 -31.0714 53.2485 0.0000 0.0000 33.8556 0.0000 0.0000 19.0346 10.2955 -28.1144 61.8531 0.0000 0.0000 24.5133 0.0000 0.0000 9.1354 10.4773 -23.8348 50.5721 0.0000 0.0000 20.2207 0.0000 0.0000 0.0000 0.0000 0.0000 0.0000 0.0000 0.0000 0.0000 0.0000 0.0000 0.0000 0.0000 0.0000 0.0000 0.0000 0.0000 0.0000 0.0000 0.0000
0.0000 95.0000 0.0000 0.0000 0.0000 0.0000 0.0000 0.0000 0.0000 0.0000 0.0000 0.0000 0.0000 0.0000 0.0000 0.0000 0.0000 0.0000 0.0000 0.0000 0.0000 0.0000 0.0000 0.0000 -75.5843 5.5411 7.1419 -14.0294 9.7823 -14.3161 -10.9805 87.2964 -8.2490 42.0321 -9.0907 1.0687 10.4804 0.0000 0.0000 5.5391 0.0000 0.0000 -4.9825 1.8379 -11.7768 30.2846 0.0000 0.0000 25.1351 0.0000 0.0000 4.7671 0.4362 -15.2222 37.7927 0.0000 0.0000 19.1700 0.0000 0.0000 12.5982 -1.2226 -17.5770 35.2932 0.0000 0.0000 24.0001 0.0000 0.0000 21.5561 -3.3061 -15.7346 33.7108 0.0000 0.0000 27.3243 0.0000 0.0000 0.0000 0.0000 0.0000 87.4937 -0.8968 0.9369 -1.7970 10.5757 -349.3392 -339.1432 -55.3387 -25.1388 -22.1383 5.7830 -21.3793 12.3992 0.0000 0.0000 2.2240 0.0000 0.0000 36.4806 5.3752 -26.1254 55.4086 0.0000 0.0000 35.3891 0.0000 0.0000 26.5999 8.7436 -31.0714 53.2485 0.0000 0.0000 33.8556 0.0000 0.0000 19.0346 10.2955 -28.1144 61.8531 0.0000 0.0000 24.5133 0.0000 0.0000 9.1354 10.4773 -23.8348 50.5721 0.0000 0.0000 20.2207 0.0000 0.0000 0.0000 0.0000 0.0000 0.0000 0.0000 0.0000 0.0000 0.0000 0.0000 0.0000 0.0000 0.0000 0.0000 0.0000 0.0000 0.0000 0.0000 0.0000
0.0000 95.0000 0.0000 0.0000 0.0000 0.0000 0.0000 0.0000 0.0000 0.0000 0.0000 0.0000 0.0000 0.0000 0.0000 0.0000 0.0000 0.0000 0.0000 0.0000 0.0000 0.0000 0.0000 0.0000 -75.8694 5.5786 7.1535 -12.4652 9.8828 -14.1754 -34.3892 86.8583 -31.7612 42.0321 -9.0907 1.0687 10.4804 0.0000 0.0000 5.5391 0.0000 0.0000 -4.9825 1.8379 -11.7768 30.2846 0.0000 0.0000 25.1351 0.0000 0.0000 4.7671 0.4362 -15.2222 37.7927 0.0000 0.0000 19.1700 0.0000 0.0000 12.5982 -1.2226 -17.5770 35.2932 0.0000 0.0000 24.0001 0.0000 0.0000 21.5561 -3.3061 -15.7346 33.7108 0.0000 0.0000 27.3243 0.0000 0.0000 0.0000 0.0000 0.0000 87.8374 -0.7327 0.7609 -3.2794 10.7758 -349.4866 -337.3867 -54.8349 -26.3215 -22.1383 5.7830 -21.3793 12.3992 0.0000 0.0000 2.2240 0.0000 0.0000 36.4806 5.3752 -26.1254 55.4086 0.0000 0.0000 35.3891 0.0000 0.0000 26.5999 8.7436 -31.0714 53.2485 0.0000 0.0000 33.8556 0.0000 0.0000 19.0346 10.2955 -28.1144 61.8531 0.0000 0.0000 24.5133 0.0000 0.0000 9.1354 10.4773 -23.8348 50.5721 0.0000 0.0000 20.2207 0.0000 0.0000 0.0000 0.0000 0.0000 0.0000 0.0000 0.0000 0.0000 0.0000 0.0000 0.0000 0.0000 0.0000 0.0000 0.0000 0.0000 0.0000 0.0000 0.0000
0.0000 95.0000 0.0000 0.0000 0.0000 0.0000 0.0000 0.0000 0.0000 0.0000 0.0000 0.0000 0.0000 0.0000 0.0000 0.0000 0.0000 0.0000 0.0000 0.0000 0.0000 0.0000 0.0000 0.0000 -75.9983 5.3810 6.8844 -12.0738 9.6989 -13.8548 -37.9513 86.7397 -35.3534 42.0321 -9.0907 1.0687 10.4804 0.0000 0.0000 5.5391 0.0000 0.0000 -4.9825 1.8379 -11.7768 30.2846 0.0000 0.0000 25.1351 0.0000 0.0000 4.7671 0.4362 -15.2222 37.7927 0.0000 0.0000 19.1700 0.0000 0.0000 12.5982 -1.2226 -17.5770 35.2932 0.0000 0.0000 24.0001 0.0000 0.0000 21.5561 -3.3061 -15.7346 33.7108 0.0000 0.0000 27.3243 0.0000 0.0000 0.0000 0.0000 0.0000 87.9719 -0.5903 0.6116 -4.3066 11.0527 -349.4308 -335.8964 -54.5272 -27.4745 -22.1383 5.7830 -21.3793 12.3992 0.0000 0.0000 2.2240 0.0000 0.0000 36.4806 5.3752 -26.1254 55.4086 0.0000 0.0000 35.3891 0.0000 0.0000 26.5999 8.7436 -31.0714 53.2485 0.0000 0.0000 33.8556 0.0000 0.0000 19.0346 10.2955 -28.1144 61.8531 0.0000 0.0000 24.5133 0.0000 0.0000 9.1354 10.4773 -23.8348 50.5721 0.0000 0.0000 20.2207 0.0000 0.0000 0.0000 0.0000 0.0000 0.0000 0.0000 0.0000 0.0000 0.0000 0.0000 0.0000 0.0000 0.0000 0.0000 0.0000 0.0000 0.0000 0.0000 0.0000
0.0000 95.0000 0.0000 0.0000 0.0000 0.0000 0.0000 0.0000 0.0000 0.0000 0.0000 0.0000 0.0000 0.0000 0.0000 0.0000 0.0000 0.0000 0.0000 0.0000 0.0000 0.0000 0.0000 0.0000 -76.2722 4.8274 6.1464 -11.5256 9.1837 -13.0595 -40.7812 86.6220 -38.2034 42.0321 -9.0907 1.0687 10.4804 0.0000 0.0000 5.5391 0.0000 0.0000 -4.9825 1.8379 -11.7768 30.2846 0.0000 0.0000 25.1351 0.0000 0.0000 4.7671 0.4362 -15.2222 37.7927 0.0000 0.0000 19.1700 0.0000 0.0000 12.5982 -1.2226 -17.5770 35.2932 0.0000 0.0000 24.0001 0.0000 0.0000 21.5561 -3.3061 -15.7346 33.7108 0.0000 0.0000 27.3243 0.0000 0.0000 0.0000 0.0000 0.0000 88.0963 -0.6965 0.7200 -4.9919 11.2920 -349.3702 -334.7720 -54.5221 -28.6102 -22.1383 5.7830 -21.3793 12.3992 0.0000 0.0000 2.2240 0.0000 0.0000 36.4806 5.3752 -26.1254 55.4086 0.0000 0.0000 35.3891 0.0000 0.0000 26.5999 8.7436 -31.0714 53.2485 0.0000 0.0000 33.8556 0.0000 0.0000 19.0346 10.2955 -28.1144 61.8531 0.0000 0.0000 24.5133 0.0000 0.0000 9.1354 10.4773 -23.8348 50.5721 0.0000 0.0000 20.2207 0.0000 0.0000 0.0000 0.0000 0.0000 0.0000 0.0000 0.0000 0.0000 0.0000 0.0000 0.0000 0.0000 0.0000 0.0000 0.0000 0.0000 0.0000 0.0000 0.0000
0.0000 95.0000 0.0000 0.0000 0.0000 0.0000 0.0000 0.0000 0.0000 0.0000 0.0000 0.0000 0.0000 0.0000 0.0000 0.0000 0.0000 0.0000 0.0000 0.0000 0.0000 0.0000 0.0000 0.0000 -75.8591 4.0117 5.1464 -12.0827 8.3157 -12.0944 -37.4806 86.7687 -34.8883 42.0321 -9.0907 1.0687 10.4804 0.0000 0.0000 5.5391 0.0000 0.0000 -4.9825 1.8379 -11.7768 30.2846 0.0000 0.0000 25.1351 0.0000 0.0000 4.7671 0.4362 -15.2222 37.7927 0.0000 0.0000 19.1700 0.0000 0.0000 12.5982 -1.2226 -17.5770 35.2932 0.0000 0.0000 24.0001 0.0000 0.0000 21.5561 -3.3061 -15.7346 33.7108 0.0000 0.0000 27.3243 0.0000 0.0000 0.0000 0.0000 0.0000 88.2310 -0.8154 0.8410 -5.4159 11.5219 -349.2762 -334.0499 -54.6286 -29.4700 -22.1383 5.7830 -21.3793 12.3992 0.0000 0.0000 2.2240 0.0000 0.0000 36.4806 5.3752 -26.1254 55.4086 0.0000 0.0000 35.3891 0.0000 0.0000 26.5999 8.7436 -31.0714 53.2485 0.0000 0.0000 33.8556 0.0000 0.0000 19.0346 10.2955 -28.1144 61.8531 0.0000 0.0000 24.5133 0.0000 0.0000 9.1354 10.4773 -23.8348 50.5721 0.0000 0.0000 20.2207 0.0000 0.0000 0.0000 0.0000 0.0000 0.0000 0.0000 0.0000 0.0000 0.0000 0.0000 0.0000 0.0000 0.0000 0.0000 0.0000 0.0000 0.0000 0.0000 0.0000
0.0000 95.0000 0.0000 0.0000 0.0000 0.0000 0.0000 0.0000 0.0000 0.0000 0.0000 0.0000 0.0000 0.0000 0.0000 0.0000 0.0000 0.0000 0.0000 0.0000 0.0000 0.0000 0.0000 0.0000 -75.6201 3.5184 4.5334 -12.5161 7.7864 -11.5076 -33.7091 86.9120 -31.1037 42.0321 -9.0907 1.0687 10.4804 0.0000 0.0000 5.5391 0.0000 0.0000 -4.9825 1.8379 -11.7768 30.2846 0.0000 0.0000 25.1351 0.0000 0.0000 4.7671 0.4362 -15.2222 37.7927 0.0000 0.0000 19.1700 0.0000 0.0000 12.5982 -1.2226 -17.5770 35.2932 0.0000 0.0000 24.0001 0.0000 0.0000 21.5561 -3.3061 -15.7346 33.7108 0.0000 0.0000 27.3243 0.0000 0.0000 0.0000 0.0000 0.0000 88.3459 -0.7039 0.7245 -5.4561 11.7716 -349.0595 -334.0010 -54.7341 -29.6382 -22.1383 5.7830 -21.3793 12.3992 0.0000 0.0000 2.2240 0.0000 0.0000 36.4806 5.3752 -26.1254 55.4086 0.0000 0.0000 35.3891 0.0000 0.0000 26.5999 8.7436 -31.0714 53.2485 0.0000 0.0000 33.8556 0.0000 0.0000 19.0346 10.2955 -28.1144 61.8531 0.0000 0.0000 24.5133 0.0000 0.0000 9.1354 10.4773 -23.8348 50.5721 0.0000 0.0000 20.2207 0.0000 0.0000 0.0000 0.0000 0.0000 0.0000 0.0000 0.0000 0.0000 0.0000 0.0000 0.0000 0.0000 0.0000 0.0000 0.0000 0.0000 0.0000 0.0000 0.0000
0.0000 95.0000 0.0000 0.0000 0.0000 0.0000 0.0000 0.0000 0.0000 0.0000 0.0000 0.0000 0.0000 0.0000 0.0000 0.0000 0.0000 0.0000 0.0000 0.0000 0.0000 0.0000 0.0000 0.0000 -75.9323 2.0985 2.6890 -12.2979 6.3979 -9.6277 -29.4213 87.0534 -26.8095 42.0321 -9.0907 1.0687 10.4804 0.0000 0.0000 5.5391 0.0000 0.0000 -4.9825 1.8379 -11.7768 30.2846 0.0000 0.0000 25.1351 0.0000 0.0000 4.7671 0.4362 -15.2222 37.7927 0.0000 0.0000 19.1700 0.0000 0.0000 12.5982 -1.2226 -17.5770 35.2932 0.0000 0.0000 24.0001 0.0000 0.0000 21.5561 -3.3061 -15.7346 33.7108 0.0000 0.0000 27.3243 0.0000 0.0000 0.0000 0.0000 0.0000 88.9246 -0.6915 0.7046 -6.0748 12.1766 -348.9202 -333.6448 -54.9041 -30.1967 -22.1383 5.7830 -21.3793 12.3992 0.0000 0.0000 2.2240 0.0000 0.0000 36.4806 5.3752 -26.1254 55.4086 0.0000 0.0000 35.3891 0.0000 0.0000 26.5999 8.7436 -31.0714 53.2485 0.0000 0.0000 33.8556 0.0000 0.0000 19.0346 10.2955 -28.1144 61.8531 0.0000 0.0000 24.5133 0.0000 0.0000 9.1354 10.4773 -23.8348 50.5721 0.0000 0.0000 20.2207 0.0000 0.0000 0.0000 0.0000 0.0000 0.0000 0.0000 0.0000 0.0000 0.0000 0.0000 0.0000 0.0000 0.0000 0.0000 0.0000 0.0000 0.0000 0.0000 0.0000
0.0000 95.0000 0.0000 0.0000 0.0000 0.0000 0.0000 0.0000 0.0000 0.0000 0.0000 0.0000 0.0000 0.0000 0.0000 0.0000 0.0000 0.0000 0.0000 0.0000 0.0000 0.0000 0.0000 0.0000 -76.4390 2.7462 3.4869 -12.2933 7.0837 -10.4242 -21.7674 87.2287 -19.1346 42.0321 -9.0907 1.0687 10.4804 0.0000 0.0000 5.5391 0.0000 0.0000 -4.9825 1.8379 -11.7768 30.2846 0.0000 0.0000 25.1351 0.0000 0.0000 4.7671 0.4362 -15.2222 37.7927 0.0000 0.0000 19.1700 0.0000 0.0000 12.5982 -1.2226 -17.5770 35.2932 0.0000 0.0000 24.0001 0.0000 0.0000 21.5561 -3.3061 -15.7346 33.7108 0.0000 0.0000 27.3243 0.0000 0.0000 0.0000 0.0000 0.0000 89.1245 -0.7835 0.7956 -5.4203 12.2894 -348.7305 -334.7529 -55.4165 -29.6239 -22.1383 5.7830 -21.3793 12.3992 0.0000 0.0000 2.2240 0.0000 0.0000 36.4806 5.3752 -26.1254 55.4086 0.0000 0.0000 35.3891 0.0000 0.0000 26.5999 8.7436 -31.0714 53.2485 0.0000 0.0000 33.8556 0.0000 0.0000 19.0346 10.2955 -28.1144 61.8531 0.0000 0.0000 24.5133 0.0000 0.0000 9.1354 10.4773 -23.8348 50.5721 0.0000 0.0000 20.2207 0.0000 0.0000 0.0000 0.0000 0.0000 0.0000 0.0000 0.0000 0.0000 0.0000 0.0000 0.0000 0.0000 0.0000 0.0000 0.0000 0.0000 0.0000 0.0000 0.0000
0.0000 95.0000 0.0000 0.0000 0.0000 0.0000 0.0000 0.0000 0.0000 0.0000 0.0000 0.0000 0.0000 0.0000 0.0000 0.0000 0.0000 0.0000 0.0000 0.0000 0.0000 0.0000 0.0000 0.0000 -76.8033 2.8735 3.6248 -12.3097 7.2408 -10.5642 -14.4597 87.3322 -11.8055 42.0321 -9.0907 1.0687 10.4804 0.0000 0.0000 5.5391 0.0000 0.0000 -4.9825 1.8379 -11.7768 30.2846 0.0000 0.0000 25.1351 0.0000 0.0000 4.7671 0.4362 -15.2222 37.7927 0.0000 0.0000 19.1700 0.0000 0.0000 12.5982 -1.2226 -17.5770 35.2932 0.0000 0.0000 24.0001 0.0000 0.0000 21.5561 -3.3061 -15.7346 33.7108 0.0000 0.0000 27.3243 0.0000 0.0000 0.0000 0.0000 0.0000 89.2618 -0.8561 0.8672 -4.9187 12.4097 -348.5480 -335.5486 -55.8265 -29.2628 -22.1383 5.7830 -21.3793 12.3992 0.0000 0.0000 2.2240 0.0000 0.0000 36.4806 5.3752 -26.1254 55.4086 0.0000 0.0000 35.3891 0.0000 0.0000 26.5999 8.7436 -31.0714 53.2485 0.0000 0.0000 33.8556 0.0000 0.0000 19.0346 10.2955 -28.1144 61.8531 0.0000 0.0000 24.5133 0.0000 0.0000 9.1354 10.4773 -23.8348 50.5721 0.0000 0.0000 20.2207 0.0000 0.0000 0.0000 0.0000 0.0000 0.0000 0.0000 0.0000 0.0000 0.0000 0.0000 0.0000 0.0000 0.0000 0.0000 0.0000 0.0000 0.0000 0.0000 0.0000
0.0000 95.0000 0.0000 0.0000 0.0000 0.0000 0.0000 0.0000 0.0000 0.0000 0.0000 0.0000 0.0000 0.0000 0.0000 0.0000 0.0000 0.0000 0.0000 0.0000 0.0000 0.0000 0.0000 0.0000 -76.9492 3.6935 4.6467 -12.3476 8.0712 -11.5977 -12.7126 87.3470 -10.0510 42.0321 -9.0907 1.0687 10.4804 0.0000 0.0000 5.5391 0.0000 0.0000 -4.9825 1.8379 -11.7768 30.2846 0.0000 0.0000 25.1351 0.0000 0.0000 4.7671 0.4362 -15.2222 37.7927 0.0000 0.0000 19.1700 0.0000 0.0000 12.5982 -1.2226 -17.5770 35.2932 0.0000 0.0000 24.0001 0.0000 0.0000 21.5561 -3.3061 -15.7346 33.7108 0.0000 0.0000 27.3243 0.0000 0.0000 0.0000 0.0000 0.0000 89.2508 -1.4998 1.5196 -3.9467 11.9128 -348.8635 -337.0707 -56.4143 -28.3645 -22.1383 5.7830 -21.3793 12.3992 0.0000 0.0000 2.2240 0.0000 0.0000 36.4806 5.3752 -26.1254 55.4086 0.0000 0.0000 35.3891 0.0000 0.0000 26.5999 8.7436 -31.0714 53.2485 0.0000 0.0000 33.8556 0.0000 0.0000 19.0346 10.2955 -28.1144 61.8531 0.0000 0.0000 24.5133 0.0000 0.0000 9.1354 10.4773 -23.8348 50.5721 0.0000 0.0000 20.2207 0.0000 0.0000 0.0000 0.0000 0.0000 0.0000 0.0000 0.0000 0.0000 0.0000 0.0000 0.0000 0.0000 0.0000 0.0000 0.0000 0.0000 0.0000 0.0000 0.0000
0.0000 95.0000 0.0000 0.0000 0.0000 0.0000 0.0000 0.0000 0.0000 0.0000 0.0000 0.0000 0.0000 0.0000 0.0000 0.0000 0.0000 0.0000 0.0000 0.0000 0.0000 0.0000 0.0000 0.0000 -76.9765 3.3645 4.2308 -12.6818 7.7254 -11.1923 -4.0646 87.4050 -1.3896 42.0321 -9.0907 1.0687 10.4804 0.0000 0.0000 5.5391 0.0000 0.0000 -4.9825 1.8379 -11.7768 30.2846 0.0000 0.0000 25.1351 0.0000 0.0000 4.7671 0.4362 -15.2222 37.7927 0.0000 0.0000 19.1700 0.0000 0.0000 12.5982 -1.2226 -17.5770 35.2932 0.0000 0.0000 24.0001 0.0000 0.0000 21.5561 -3.3061 -15.7346 33.7108 0.0000 0.0000 27.3243 0.0000 0.0000 0.0000 0.0000 0.0000 89.4777 -1.4239 1.4369 -3.6925 12.1458 -348.6254 -337.6615 -56.6972 -28.0787 -22.1383 5.7830 -21.3793 12.3992 0.0000 0.0000 2.2240 0.0000 0.0000 36.4806 5.3752 -26.1254 55.4086 0.0000 0.0000 35.3891 0.0000 0.0000 26.5999 8.7436 -31.0714 53.2485 0.0000 0.0000 33.8556 0.0000 0.0000 19.0346 10.2955 -28.1144 61.8531 0.0000 0.0000 24.5133 0.0000 0.0000 9.1354 10.4773 -23.8348 50.5721 0.0000 0.0000 20.2207 0.0000 0.0000 0.0000 0.0000 0.0000 0.0000 0.0000 0.0000 0.0000 0.0000 0.0000 0.0000 0.0000 0.0000 0.0000 0.0000 0.0000 0.0000 0.0000 0.0000
0.0000 95.0000 0.0000 0.0000 0.0000 0.0000 0.0000 0.0000 0.0000 0.0000 0.0000 0.0000 0.0000 0.0000 0.0000 0.0000 0.0000 0.0000 0.0000 0.0000 0.0000 0.0000 0.0000 0.0000 -76.8531 3.3784 4.2577 -12.9444 7.7239 -11.2468 -1.0841 87.4011 1.6054 42.0321 -9.0907 1.0687 10.4804 0.0000 0.0000 5.5391 0.0000 0.0000 -4.9825 1.8379 -11.7768 30.2846 0.0000 0.0000 25.1351 0.0000 0.0000 4.7671 0.4362 -15.2222 37.7927 0.0000 0.0000 19.1700 0.0000 0.0000 12.5982 -1.2226 -17.5770 35.2932 0.0000 0.0000 24.0001 0.0000 0.0000 21.5561 -3.3061 -15.7346 33.7108 0.0000 0.0000 27.3243 0.0000 0.0000 0.0000 0.0000 0.0000 89.4629 -1.3831 1.3961 -3.7389 12.0302 -348.7381 -337.7226 -56.5546 -27.8628 -22.1383 5.7830 -21.3793 12.3992 0.0000 0.0000 2.2240 0.0000 0.0000 36.4806 5.3752 -26.1254 55.4086 0.0000 0.0000 35.3891 0.0000 0.0000 26.5999 8.7436 -31.0714 53.2485 0.0000 0.0000 33.8556 0.0000 0.0000 19.0346 10.2955 -28.1144 61.8531 0.0000 0.0000 24.5133 0.0000 0.0000 9.1354 10.4773 -23.8348 50.5721 0.0000 0.0000 20.2207 0.0000 0.0000 0.0000 0.0000 0.0000 0.0000 0.0000 0.0000 0.0000 0.0000 0.0000 0.0000 0.0000 0.0000 0.0000 0.0000 0.0000 0.0000 0.0000 0.0000
0.0000 95.0000 0.0000 0.0000 0.0000 0.0000 0.0000 0.0000 0.0000 0.0000 0.0000 0.0000 0.0000 0.0000 0.0000 0.0000 0.0000 0.0000 0.0000 0.0000 0.0000 0.0000 0.0000 0.0000 -76.9100 3.2023 4.0317 -12.4413 7.5678 -10.9753 -10.2860 87.3758 -7.6267 42.0321 -9.0907 1.0687 10.4804 0.0000 0.0000 5.5391 0.0000 0.0000 -4.9825 1.8379 -11.7768 30.2846 0.0000 0.0000 25.1351 0.0000 0.0000 4.7671 0.4362 -15.2222 37.7927 0.0000 0.0000 19.1700 0.0000 0.0000 12.5982 -1.2226 -17.5770 35.2932 0.0000 0.0000 24.0001 0.0000 0.0000 21.5561 -3.3061 -15.7346 33.7108 0.0000 0.0000 27.3243 0.0000 0.0000 0.0000 0.0000 0.0000 89.6348 -1.3825 1.3914 -4.0838 12.1384 -348.7457 -337.3776 -56.5304 -28.1824 -22.1383 5.7830 -21.3793 12.3992 0.0000 0.0000 2.2240 0.0000 0.0000 36.4806 5.3752 -26.1254 55.4086 0.0000 0.0000 35.3891 0.0000 0.0000 26.5999 8.7436 -31.0714 53.2485 0.0000 0.0000 33.8556 0.0000 0.0000 19.0346 10.2955 -28.1144 61.8531 0.0000 0.0000 24.5133 0.0000 0.0000 9.1354 10.4773 -23.8348 50.5721 0.0000 0.0000 20.2207 0.0000 0.0000 0.0000 0.0000 0.0000 0.0000 0.0000 0.0000 0.0000 0.0000 0.0000 0.0000 0.0000 0.0000 0.0000 0.0000 0.0000 0.0000 0.0000 0.0000
0.0000 95.0000 0.0000 0.0000 0.0000 0.0000 0.0000 0.0000 0.0000 0.0000 0.0000 0.0000 0.0000 0.0000 0.0000 0.0000 0.0000 0.0000 0.0000 0.0000 0.0000 0.0000 0.0000 0.0000 -76.4715 3.8666 4.9061 -12.9151 8.1804 -11.8979 -11.2712 87.3622 -8.6084 42.0321 -9.0907 1.0687 10.4804 0.0000 0.0000 5.5391 0.0000 0.0000 -4.9825 1.8379 -11.7768 30.2846 0.0000 0.0000 25.1351 0.0000 0.0000 4.7671 0.4362 -15.2222 37.7927 0.0000 0.0000 19.1700 0.0000 0.0000 12.5982 -1.2226 -17.5770 35.2932 0.0000 0.0000 24.0001 0.0000 0.0000 21.5561 -3.3061 -15.7346 33.7108 0.0000 0.0000 27.3243 0.0000 0.0000 0.0000 0.0000 0.0000 89.7136 -1.6159 1.6240 -4.2001 11.6881 -349.2275 -337.6619 -56.3609 -27.7132 -22.1383 5.7830 -21.3793 12.3992 0.0000 0.0000 2.2240 0.0000 0.0000 36.4806 5.3752 -26.1254 55.4086 0.0000 0.0000 35.3891 0.0000 0.0000 26.5999 8.7436 -31.0714 53.2485 0.0000 0.0000 33.8556 0.0000 0.0000 19.0346 10.2955 -28.1144 61.8531 0.0000 0.0000 24.5133 0.0000 0.0000 9.1354 10.4773 -23.8348 50.5721 0.0000 0.0000 20.2207 0.0000 0.0000 0.0000 0.0000 0.0000 0.0000 0.0000 0.0000 0.0000 0.0000 0.0000 0.0000 0.0000 0.0000 0.0000 0.0000 0.0000 0.0000 0.0000 0.0000
0.0000 95.0000 0.0000 0.0000 0.0000 0.0000 0.0000 0.0000 0.0000 0.0000 0.0000 0.0000 0.0000 0.0000 0.0000 0.0000 0.0000 0.0000 0.0000 0.0000 0.0000 0.0000 0.0000 0.0000 -76.2652 4.0545 5.1636 -13.1551 8.3484 -12.1860 -11.0543 87.3546 -8.3817 42.0321 -9.0907 1.0687 10.4804 0.0000 0.0000 5.5391 0.0000 0.0000 -4.9825 1.8379 -11.7768 30.2846 0.0000 0.0000 25.1351 0.0000 0.0000 4.7671 0.4362 -15.2222 37.7927 0.0000 0.0000 19.1700 0.0000 0.0000 12.5982 -1.2226 -17.5770 35.2932 0.0000 0.0000 24.0001 0.0000 0.0000 21.5561 -3.3061 -15.7346 33.7108 0.0000 0.0000 27.3243 0.0000 0.0000 0.0000 0.0000 0.0000 89.6188 -1.4792 1.4890 -4.0031 11.4545 -349.3732 -338.1457 -56.1345 -26.9851 -22.1383 5.7830 -21.3793 12.3992 0.0000 0.0000 2.2240 0.0000 0.0000 36.4806 5.3752 -26.1254 55.4086 0.0000 0.0000 35.3891 0.0000 0.0000 26.5999 8.7436 -31.0714 53.2485 0.0000 0.0000 33.8556 0.0000 0.0000 19.0346 10.2955 -28.1144 61.8531 0.0000 0.0000 24.5133 0.0000 0.0000 9.1354 10.4773 -23.8348 50.5721 0.0000 0.0000 20.2207 0.0000 0.0000 0.0000 0.0000 0.0000 0.0000 0.0000 0.0000 0.0000 0.0000 0.0000 0.0000 0.0000 0.0000 0.0000 0.0000 0.0000 0.0000 0.0000 0.0000
0.0000 95.0000 0.0000 0.0000 0.0000 0.0000 0.0000 0.0000 0.0000 0.0000 0.0000 0.0000 0.0000 0.0000 0.0000 0.0000 0.0000 0.0000 0.0000 0.0000 0.0000 0.0000 0.0000 0.0000 -76.2470 4.0782 5.1953 -13.0928 8.3753 -12.2175 -12.8089 87.3362 -10.1377 42.0321 -9.0907 1.0687 10.4804 0.0000 0.0000 5.5391 0.0000 0.0000 -4.9825 1.8379 -11.7768 30.2846 0.0000 0.0000 25.1351 0.0000 0.0000 4.7671 0.4362 -15.2222 37.7927 0.0000 0.0000 19.1700 0.0000 0.0000 12.5982 -1.2226 -17.5770 35.2932 0.0000 0.0000 24.0001 0.0000 0.0000 21.5561 -3.3061 -15.7346 33.7108 0.0000 0.0000 27.3243 0.0000 0.0000 0.0000 0.0000 0.0000 89.6332 -1.5970 1.6072 -4.0760 11.1478 -349.6882 -338.2974 -55.9745 -26.6609 -22.1383 5.7830 -21.3793 12.3992 0.0000 0.0000 2.2240 0.0000 0.0000 36.4806 5.3752 -26.1254 55.4086 0.0000 0.0000 35.3891 0.0000 0.0000 26.5999 8.7436 -31.0714 53.2485 0.0000 0.0000 33.8556 0.0000 0.0000 19.0346 10.2955 -28.1144 61.8531 0.0000 0.0000 24.5133 0.0000 0.0000 9.1354 10.4773 -23.8348 50.5721 0.0000 0.0000 20.2207 0.0000 0.0000 0.0000 0.0000 0.0000 0.0000 0.0000 0.0000 0.0000 0.0000 0.0000 0.0000 0.0000 0.0000 0.0000 0.0000 0.0000 0.0000 0.0000 0.0000
0.0000 95.0000 0.0000 0.0000 0.0000 0.0000 0.0000 0.0000 0.0000 0.0000 0.0000 0.0000 0.0000 0.0000 0.0000 0.0000 0.0000 0.0000 0.0000 0.0000 0.0000 0.0000 0.0000 0.0000 -76.2748 4.1534 5.2885 -13.0147 8.4480 -12.2930 -14.0519 87.3344 -11.3944 42.0321 -9.0907 1.0687 10.4804 0.0000 0.0000 5.5391 0.0000 0.0000 -4.9825 1.8379 -11.7768 30.2846 0.0000 0.0000 25.1351 0.0000 0.0000 4.7671 0.4362 -15.2222 37.7927 0.0000 0.0000 19.1700 0.0000 0.0000 12.5982 -1.2226 -17.5770 35.2932 0.0000 0.0000 24.0001 0.0000 0.0000 21.5561 -3.3061 -15.7346 33.7108 0.0000 0.0000 27.3243 0.0000 0.0000 0.0000 0.0000 0.0000 89.7022 -1.7080 1.7169 -4.0501 11.2262 -349.6321 -338.3003 -56.1538 -26.8525 -22.1383 5.7830 -21.3793 12.3992 0.0000 0.0000 2.2240 0.0000 0.0000 36.4806 5.3752 -26.1254 55.4086 0.0000 0.0000 35.3891 0.0000 0.0000 26.5999 8.7436 -31.0714 53.2485 0.0000 0.0000 33.8556 0.0000 0.0000 19.0346 10.2955 -28.1144 61.8531 0.0000 0.0000 24.5133 0.0000 0.0000 9.1354 10.4773 -23.8348 50.5721 0.0000 0.0000 20.2207 0.0000 0.0000 0.0000 0.0000 0.0000 0.0000 0.0000 0.0000 0.0000 0.0000 0.0000 0.0000 0.0000 0.0000 0.0000 0.0000 0.0000 0.0000 0.0000 0.0000
