HIERARCHY
ROOT Hips
{
  OFFSET 0.000000 95.000000 0.000000
  CHANNELS 6 Xposition Yposition Zposition Zrotation Xrotation Yrotation
  JOINT Spine
  {
    OFFSET 0.000000 10.000000 0.000000
    CHANNELS 3 Zrotation Xrotation Yrotation
    JOINT Spine1
    {
      OFFSET 0.000000 12.000000 0.000000
      CHANNELS 3 Zrotation Xrotation Yrotation
      JOINT Spine2
      {
        OFFSET 0.000000 12.000000 0.000000
        CHANNELS 3 Zrotation Xrotation Yrotation
        JOINT Neck
        {
          OFFSET 0.000000 10.000000 0.000000
          CHANNELS 3 Zrotation Xrotation Yrotation
          JOINT Head
          {
            OFFSET 0.000000 8.000000 0.000000
            CHANNELS 3 Zrotation Xrotation Yrotation
            End Site
            {
              OFFSET 0.000000 10.000000 0.000000
            }
          }
        }
        JOINT LeftShoulder
        {
          OFFSET 6.000000 8.000000 0.000000
          CHANNELS 3 Zrotation Xrotation Yrotation
          JOINT LeftArm
          {
            OFFSET 12.000000 0.000000 0.000000
            CHANNELS 3 Zrotation Xrotation Yrotation
            JOINT LeftForeArm
            {
              OFFSET 24.000000 0.000000 0.000000
              CHANNELS 3 Zrotation Xrotation Yrotation
              JOINT LeftHand
              {
                OFFSET 22.000000 0.000000 0.000000
                CHANNELS 3 Zrotation Xrotation Yrotation
                JOINT LeftHandThumb1
                {
                  OFFSET 1.800000 -1.400000 0.500000
                  CHANNELS 3 Zrotation Xrotation Yrotation
                  JOINT LeftHandThumb2
                  {
                    OFFSET 2.400000 0.000000 0.000000
                    CHANNELS 3 Zrotation Xrotation Yrotation
                    JOINT LeftHandThumb3
                    {
                      OFFSET 1.900000 0.000000 0.000000
                      CHANNELS 3 Zrotation Xrotation Yrotation
                      End Site
                      {
                        OFFSET 1.600000 0.000000 0.000000
                      }
                    }
                  }
                }
                JOINT LeftHandIndex1
                {
                  OFFSET 6.600000 1.200000 0.300000
                  CHANNELS 3 Zrotation Xrotation Yrotation
                  JOINT LeftHandIndex2
                  {
                    OFFSET 2.000000 0.000000 0.000000
                    CHANNELS 3 Zrotation Xrotation Yrotation
                    JOINT LeftHandIndex3
                    {
                      OFFSET 1.200000 0.000000 0.000000
                      CHANNELS 3 Zrotation Xrotation Yrotation
                      End Site
                      {
                        OFFSET 1.000000 0.000000 0.000000
                      }
                    }
                  }
                }
                JOINT LeftHandMiddle1
                {
                  OFFSET 7.200000 0.000000 0.300000
                  CHANNELS 3 Zrotation Xrotation Yrotation
                  JOINT LeftHandMiddle2
                  {
                    OFFSET 3.000000 0.000000 0.000000
                    CHANNELS 3 Zrotation Xrotation Yrotation
                    JOINT LeftHandMiddle3
                    {
                      OFFSET 2.000000 0.000000 0.000000
                      CHANNELS 3 Zrotation Xrotation Yrotation
                      End Site
                      {
                        OFFSET 1.600000 0.000000 0.000000
                      }
                    }
                  }
                }
                JOINT LeftHandRing1
                {
                  OFFSET 7.100000 -1.000000 0.400000
                  CHANNELS 3 Zrotation Xrotation Yrotation
                  JOINT LeftHandRing2
                  {
                    OFFSET 2.600000 0.000000 0.000000
                    CHANNELS 3 Zrotation Xrotation Yrotation
                    JOINT LeftHandRing3
                    {
                      OFFSET 1.600000 0.000000 0.000000
                      CHANNELS 3 Zrotation Xrotation Yrotation
                      End Site
                      {
                        OFFSET 1.300000 0.000000 0.000000
                      }
                    }
                  }
                }
                JOINT LeftHandPinky1
                {
                  OFFSET 6.500000 -2.000000 0.500000
                  CHANNELS 3 Zrotation Xrotation Yrotation
                  JOINT LeftHandPinky2
                  {
                    OFFSET 1.900000 0.000000 0.000000
                    CHANNELS 3 Zrotation Xrotation Yrotation
                    JOINT LeftHandPinky3
                    {
                      OFFSET 1.400000 0.000000 0.000000
                      CHANNELS 3 Zrotation Xrotation Yrotation
                      End Site
                      {
                        OFFSET 1.300000 0.000000 0.000000
                      }
                    }
                  }
                }
              }
            }
          }
        }
        JOINT RightShoulder
        {
          OFFSET -6.000000 8.000000 0.000000
          CHANNELS 3 Zrotation Xrotation Yrotation
          JOINT RightArm
          {
            OFFSET -12.000000 0.000000 0.000000
            CHANNELS 3 Zrotation Xrotation Yrotation
            JOINT RightForeArm
            {
              OFFSET -24.000000 0.000000 0.000000
              CHANNELS 3 Zrotation Xrotation Yrotation
              JOINT RightHand
              {
                OFFSET -22.000000 0.000000 0.000000
                CHANNELS 3 Zrotation Xrotation Yrotation
                JOINT RightHandThumb1
                {
                  OFFSET -1.800000 -1.400000 0.500000
                  CHANNELS 3 Zrotation Xrotation Yrotation
                  JOINT RightHandThumb2
                  {
                    OFFSET -2.400000 0.000000 0.000000
                    CHANNELS 3 Zrotation Xrotation Yrotation
                    JOINT RightHandThumb3
                    {
                      OFFSET -1.900000 0.000000 0.000000
                      CHANNELS 3 Zrotation Xrotation Yrotation
                      End Site
                      {
                        OFFSET -1.600000 0.000000 0.000000
                      }
                    }
                  }
                }
                JOINT RightHandIndex1
                {
                  OFFSET -6.600000 1.200000 0.300000
                  CHANNELS 3 Zrotation Xrotation Yrotation
                  JOINT RightHandIndex2
                  {
                    OFFSET -2.000000 0.000000 0.000000
                    CHANNELS 3 Zrotation Xrotation Yrotation
                    JOINT RightHandIndex3
                    {
                      OFFSET -1.200000 0.000000 0.000000
                      CHANNELS 3 Zrotation Xrotation Yrotation
                      End Site
                      {
                        OFFSET -1.000000 0.000000 0.000000
                      }
                    }
                  }
                }
                JOINT RightHandMiddle1
                {
                  OFFSET -7.200000 0.000000 0.300000
                  CHANNELS 3 Zrotation Xrotation Yrotation
                  JOINT RightHandMiddle2
                  {
                    OFFSET -3.000000 0.000000 0.000000
                    CHANNELS 3 Zrotation Xrotation Yrotation
                    JOINT RightHandMiddle3
                    {
                      OFFSET -2.000000 0.000000 0.000000
                      CHANNELS 3 Zrotation Xrotation Yrotation
                      End Site
                      {
                        OFFSET -1.600000 0.000000 0.000000
                      }
                    }
                  }
                }
                JOINT RightHandRing1
                {
                  OFFSET -7.100000 -1.000000 0.400000
                  CHANNELS 3 Zrotation Xrotation Yrotation
                  JOINT RightHandRing2
                  {
                    OFFSET -2.600000 0.000000 0.000000
                    CHANNELS 3 Zrotation Xrotation Yrotation
                    JOINT RightHandRing3
                    {
                      OFFSET -1.600000 0.000000 0.000000
                      CHANNELS 3 Zrotation Xrotation Yrotation
                      End Site
                      {
                        OFFSET -1.300000 0.000000 0.000000
                      }
                    }
                  }
                }
                JOINT RightHandPinky1
                {
                  OFFSET -6.500000 -2.000000 0.500000
                  CHANNELS 3 Zrotation Xrotation Yrotation
                  JOINT RightHandPinky2
                  {
                    OFFSET -1.900000 0.000000 0.000000
                    CHANNELS 3 Zrotation Xrotation Yrotation
                    JOINT RightHandPinky3
                    {
                      OFFSET -1.400000 0.000000 0.000000
                      CHANNELS 3 Zrotation Xrotation Yrotation
                      End Site
                      {
                        OFFSET -1.300000 0.000000 0.000000
                      }
                    }
                  }
                }
              }
            }
          }
        }
      }
    }
  }
  JOINT LeftUpLeg
  {
    OFFSET 10.000000 -5.000000 0.000000
    CHANNELS 3 Zrotation Xrotation Yrotation
    JOINT LeftLeg
    {
      OFFSET 0.000000 -42.000000 0.000000
      CHANNELS 3 Zrotation Xrotation Yrotation
      JOINT LeftFoot
      {
        OFFSET 0.000000 -42.000000 4.000000
        CHANNELS 3 Zrotation Xrotation Yrotation
        End Site
        {
          OFFSET 0.000000 0.000000 12.000000
        }
      }
    }
  }
  JOINT RightUpLeg
  {
    OFFSET -10.000000 -5.000000 0.000000
    CHANNELS 3 Zrotation Xrotation Yrotation
    JOINT RightLeg
    {
      OFFSET 0.000000 -42.000000 0.000000
      CHANNELS 3 Zrotation Xrotation Yrotation
      JOINT RightFoot
      {
        OFFSET 0.000000 -42.000000 4.000000
        CHANNELS 3 Zrotation Xrotation Yrotation
        End Site
        {
          OFFSET 0.000000 0.000000 12.000000
        }
      }
    }
  }
}
MOTION
Frames: 60
Frame Time: 0.033333
0.0000 95.0000 0.0000 0.0000 0.0000 0.0000 0.0000 0.0000 0.0000 0.0000 0.0000 0.0000 0.0000 0.0000 0.0000 0.0000 0.0000 0.0000 0.0000 0.0000 0.0000 0.0000 0.0000 0.0000 -78.7883 9.2659 11.2711 -4.9935 -5.6858 8.4023 -157.3969 36.7375 175.1411 48.7466 -12.5613 -8.9391 16.6313 0.0000 0.0000 16.9278 0.0000 0.0000 -5.4920 0.5999 -2.6586 60.5424 0.0000 0.0000 57.0095 0.0000 0.0000 6.9724 0.2843 -9.4368 68.6384 0.0000 0.0000 47.0330 0.0000 0.0000 18.9199 -0.6348 -16.2190 69.4650 0.0000 0.0000 36.3909 0.0000 0.0000 27.8764 -2.9404 -16.8754 61.5087 0.0000 0.0000 43.8442 0.0000 0.0000 0.0000 0.0000 0.0000 87.7312 0.3992 -0.4154 -2.0243 6.2382 6.2815 161.5732 13.0828 176.5871 -61.1953 -12.4010 -4.1418 21.6503 0.0000 0.0000 7.7949 0.0000 0.0000 18.8599 0.8077 -2.1398 110.0000 0.0000 0.0000 23.8416 0.0000 0.0000 2.9376 0.0205 3.9727 110.0000 0.0000 0.0000 33.7435 0.0000 0.0000 -8.7549 -0.7149 3.5704 110.0000 0.0000 0.0000 23.3594 0.0000 0.0000 -18.0240 -1.8327 3.5446 110.0000 0.0000 0.0000 25.1463 0.0000 0.0000 0.0000 0.0000 0.0000 0.0000 0.0000 0.0000 0.0000 0.0000 0.0000 0.0000 0.0000 0.0000 0.0000 0.0000 0.0000 0.0000 0.0000 0.0000
0.0000 95.0000 0.0000 0.0000 0.0000 0.0000 0.0000 0.0000 0.0000 0.0000 0.0000 0.0000 0.0000 0.0000 0.0000 0.0000 0.0000 0.0000 0.0000 0.0000 0.0000 0.0000 0.0000 0.0000 -78.9700 9.2006 11.1558 -4.7165 -5.4473 7.9715 -157.3374 37.1434 175.6448 48.7466 -12.5613 -8.9391 16.6313 0.0000 0.0000 16.9278 0.0000 0.0000 -5.4920 0.5999 -2.6586 60.5424 0.0000 0.0000 57.0095 0.0000 0.0000 6.9724 0.2843 -9.4368 68.6384 0.0000 0.0000 47.0330 0.0000 0.0000 18.9199 -0.6348 -16.2190 69.4650 0.0000 0.0000 36.3909 0.0000 0.0000 27.8764 -2.9404 -16.8754 61.5087 0.0000 0.0000 43.8442 0.0000 0.0000 0.0000 0.0000 0.0000 87.9927 0.3401 -0.3522 -2.3280 6.2043 6.1857 161.5370 13.0792 176.5842 -61.1953 -12.4010 -4.1418 21.6503 0.0000 0.0000 7.7949 0.0000 0.0000 18.8599 0.8077 -2.1398 110.0000 0.0000 0.0000 23.8416 0.0000 0.0000 2.9376 0.0205 3.9727 110.0000 0.0000 0.0000 33.7435 0.0000 0.0000 -8.7549 -0.7149 3.5704 110.0000 0.0000 0.0000 23.3594 0.0000 0.0000 -18.0240 -1.8327 3.5446 110.0000 0.0000 0.0000 25.1463 0.0000 0.0000 0.0000 0.0000 0.0000 0.0000 0.0000 0.0000 0.0000 0.0000 0.0000 0.0000 0.0000 0.0000 0.0000 0.0000 0.0000 0.0000 0.0000 0.0000
0.0000 95.0000 0.0000 0.0000 0.0000 0.0000 0.0000 0.0000 0.0000 0.0000 0.0000 0.0000 0.0000 0.0000 0.0000 0.0000 0.0000 0.0000 0.0000 0.0000 0.0000 0.0000 0.0000 0.0000 -79.4796 8.7633 10.5314 -4.1193 -5.4116 7.6295 -157.1719 37.8286 176.5469 48.7466 -12.5613 -8.9391 16.6313 0.0000 0.0000 16.9278 0.0000 0.0000 -5.4920 0.5999 -2.6586 60.5424 0.0000 0.0000 57.0095 0.0000 0.0000 6.9724 0.2843 -9.4368 68.6384 0.0000 0.0000 47.0330 0.0000 0.0000 18.9199 -0.6348 -16.2190 69.4650 0.0000 0.0000 36.3909 0.0000 0.0000 27.8764 -2.9404 -16.8754 61.5087 0.0000 0.0000 43.8442 0.0000 0.0000 0.0000 0.0000 0.0000 88.1191 -0.0588 0.0608 -2.6414 6.1435 6.0596 161.3346 13.3768 176.2213 -61.1953 -12.4010 -4.1418 21.6503 0.0000 0.0000 7.7949 0.0000 0.0000 18.8599 0.8077 -2.1398 110.0000 0.0000 0.0000 23.8416 0.0000 0.0000 2.9376 0.0205 3.9727 110.0000 0.0000 0.0000 33.7435 0.0000 0.0000 -8.7549 -0.7149 3.5704 110.0000 0.0000 0.0000 23.3594 0.0000 0.0000 -18.0240 -1.8327 3.5446 110.0000 0.0000 0.0000 25.1463 0.0000 0.0000 0.0000 0.0000 0.0000 0.0000 0.0000 0.0000 0.0000 0.0000 0.0000 0.0000 0.0000 0.0000 0.0000 0.0000 0.0000 0.0000 0.0000 0.0000
0.0000 95.0000 0.0000 0.0000 0.0000 0.0000 0.0000 0.0000 0.0000 0.0000 0.0000 0.0000 0.0000 0.0000 0.0000 0.0000 0.0000 0.0000 0.0000 0.0000 0.0000 0.0000 0.0000 0.0000 -79.9905 8.1563 9.7150 -3.8399 -5.0155 6.9494 -157.4403 39.0397 177.6867 48.7466 -12.5613 -8.9391 16.6313 0.0000 0.0000 16.9278 0.0000 0.0000 -5.4920 0.5999 -2.6586 60.5424 0.0000 0.0000 57.0095 0.0000 0.0000 6.9724 0.2843 -9.4368 68.6384 0.0000 0.0000 47.0330 0.0000 0.0000 18.9199 -0.6348 -16.2190 69.4650 0.0000 0.0000 36.3909 0.0000 0.0000 27.8764 -2.9404 -16.8754 61.5087 0.0000 0.0000 43.8442 0.0000 0.0000 0.0000 0.0000 0.0000 88.2641 -0.2268 0.2338 -2.9659 6.4364 6.2867 161.0919 13.7843 175.7271 -61.1953 -12.4010 -4.1418 21.6503 0.0000 0.0000 7.7949 0.0000 0.0000 18.8599 0.8077 -2.1398 110.0000 0.0000 0.0000 23.8416 0.0000 0.0000 2.9376 0.0205 3.9727 110.0000 0.0000 0.0000 33.7435 0.0000 0.0000 -8.7549 -0.7149 3.5704 110.0000 0.0000 0.0000 23.3594 0.0000 0.0000 -18.0240 -1.8327 3.5446 110.0000 0.0000 0.0000 25.1463 0.0000 0.0000 0.0000 0.0000 0.0000 0.0000 0.0000 0.0000 0.0000 0.0000 0.0000 0.0000 0.0000 0.0000 0.0000 0.0000 0.0000 0.0000 0.0000 0.0000
0.0000 95.0000 0.0000 0.0000 0.0000 0.0000 0.0000 0.0000 0.0000 0.0000 0.0000 0.0000 0.0000 0.0000 0.0000 0.0000 0.0000 0.0000 0.0000 0.0000 0.0000 0.0000 0.0000 0.0000 -80.4642 8.1483 9.6249 -3.0594 -5.1974 6.8846 -157.0175 39.0146 178.0028 48.7466 -12.5613 -8.9391 16.6313 0.0000 0.0000 16.9278 0.0000 0.0000 -5.4920 0.5999 -2.6586 60.5424 0.0000 0.0000 57.0095 0.0000 0.0000 6.9724 0.2843 -9.4368 68.6384 0.0000 0.0000 47.0330 0.0000 0.0000 18.9199 -0.6348 -16.2190 69.4650 0.0000 0.0000 36.3909 0.0000 0.0000 27.8764 -2.9404 -16.8754 61.5087 0.0000 0.0000 43.8442 0.0000 0.0000 0.0000 0.0000 0.0000 88.3854 -0.5024 0.5168 -3.1134 6.3847 6.1896 161.0589 13.9794 175.5061 -61.1953 -12.4010 -4.1418 21.6503 0.0000 0.0000 7.7949 0.0000 0.0000 18.8599 0.8077 -2.1398 110.0000 0.0000 0.0000 23.8416 0.0000 0.0000 2.9376 0.0205 3.9727 110.0000 0.0000 0.0000 33.7435 0.0000 0.0000 -8.7549 -0.7149 3.5704 110.0000 0.0000 0.0000 23.3594 0.0000 0.0000 -18.0240 -1.8327 3.5446 110.0000 0.0000 0.0000 25.1463 0.0000 0.0000 0.0000 0.0000 0.0000 0.0000 0.0000 0.0000 0.0000 0.0000 0.0000 0.0000 0.0000 0.0000 0.0000 0.0000 0.0000 0.0000 0.0000 0.0000
0.0000 95.0000 0.0000 0.0000 0.0000 0.0000 0.0000 0.0000 0.0000 0.0000 0.0000 0.0000 0.0000 0.0000 0.0000 0.0000 0.0000 0.0000 0.0000 0.0000 0.0000 0.0000 0.0000 0.0000 -80.9838 7.8548 9.1941 -2.4856 -5.0128 6.4298 -156.9245 39.6625 178.8046 48.7466 -12.5613 -8.9391 16.6313 0.0000 0.0000 16.9278 0.0000 0.0000 -5.4920 0.5999 -2.6586 60.5424 0.0000 0.0000 57.0095 0.0000 0.0000 6.9724 0.2843 -9.4368 68.6384 0.0000 0.0000 47.0330 0.0000 0.0000 18.9199 -0.6348 -16.2190 69.4650 0.0000 0.0000 36.3909 0.0000 0.0000 27.8764 -2.9404 -16.8754 61.5087 0.0000 0.0000 43.8442 0.0000 0.0000 0.0000 0.0000 0.0000 88.6402 -0.8969 0.9184 -3.6847 6.4714 6.1513 160.7000 14.3754 174.9945 -61.1953 -12.4010 -4.1418 21.6503 0.0000 0.0000 7.7949 0.0000 0.0000 18.8599 0.8077 -2.1398 110.0000 0.0000 0.0000 23.8416 0.0000 0.0000 2.9376 0.0205 3.9727 110.0000 0.0000 0.0000 33.7435 0.0000 0.0000 -8.7549 -0.7149 3.5704 110.0000 0.0000 0.0000 23.3594 0.0000 0.0000 -18.0240 -1.8327 3.5446 110.0000 0.0000 0.0000 25.1463 0.0000 0.0000 0.0000 0.0000 0.0000 0.0000 0.0000 0.0000 0.0000 0.0000 0.0000 0.0000 0.0000 0.0000 0.0000 0.0000 0.0000 0.0000 0.0000 0.0000
0.0000 95.0000 0.0000 0.0000 0.0000 0.0000 0.0000 0.0000 0.0000 0.0000 0.0000 0.0000 0.0000 0.0000 0.0000 0.0000 0.0000 0.0000 0.0000 0.0000 0.0000 0.0000 0.0000 0.0000 -80.9157 7.9674 9.3369 -2.3523 -5.1094 6.5185 -156.6755 39.4344 178.7546 48.7466 -12.5613 -8.9391 16.6313 0.0000 0.0000 16.9278 0.0000 0.0000 -5.4920 0.5999 -2.6586 60.5424 0.0000 0.0000 57.0095 0.0000 0.0000 6.9724 0.2843 -9.4368 68.6384 0.0000 0.0000 47.0330 0.0000 0.0000 18.9199 -0.6348 -16.2190 69.4650 0.0000 0.0000 36.3909 0.0000 0.0000 27.8764 -2.9404 -16.8754 61.5087 0.0000 0.0000 43.8442 0.0000 0.0000 0.0000 0.0000 0.0000 88.7360 -1.0400 1.0632 -3.9989 6.3250 5.9522 160.4992 14.3449 174.9855 -61.1953 -12.4010 -4.1418 21.6503 0.0000 0.0000 7.7949 0.0000 0.0000 18.8599 0.8077 -2.1398 110.0000 0.0000 0.0000 23.8416 0.0000 0.0000 2.9376 0.0205 3.9727 110.0000 0.0000 0.0000 33.7435 0.0000 0.0000 -8.7549 -0.7149 3.5704 110.0000 0.0000 0.0000 23.3594 0.0000 0.0000 -18.0240 -1.8327 3.5446 110.0000 0.0000 0.0000 25.1463 0.0000 0.0000 0.0000 0.0000 0.0000 0.0000 0.0000 0.0000 0.0000 0.0000 0.0000 0.0000 0.0000 0.0000 0.0000 0.0000 0.0000 0.0000 0.0000 0.0000
0.0000 95.0000 0.0000 0.0000 0.0000 0.0000 0.0000 0.0000 0.0000 0.0000 0.0000 0.0000 0.0000 0.0000 0.0000 0.0000 0.0000 0.0000 0.0000 0.0000 0.0000 0.0000 0.0000 0.0000 -81.0324 7.6856 8.9886 -2.3241 -5.0649 6.4377 -156.7410 39.7968 179.1068 48.7466 -12.5613 -8.9391 16.6313 0.0000 0.0000 16.9278 0.0000 0.0000 -5.4920 0.5999 -2.6586 60.5424 0.0000 0.0000 57.0095 0.0000 0.0000 6.9724 0.2843 -9.4368 68.6384 0.0000 0.0000 47.0330 0.0000 0.0000 18.9199 -0.6348 -16.2190 69.4650 0.0000 0.0000 36.3909 0.0000 0.0000 27.8764 -2.9404 -16.8754 61.5087 0.0000 0.0000 43.8442 0.0000 0.0000 0.0000 0.0000 0.0000 88.7560 -0.8719 0.8910 -4.2307 6.2093 5.8257 160.3173 14.0659 175.2571 -61.1953 -12.4010 -4.1418 21.6503 0.0000 0.0000 7.7949 0.0000 0.0000 18.8599 0.8077 -2.1398 110.0000 0.0000 0.0000 23.8416 0.0000 0.0000 2.9376 0.0205 3.9727 110.0000 0.0000 0.0000 33.7435 0.0000 0.0000 -8.7549 -0.7149 3.5704 110.0000 0.0000 0.0000 23.3594 0.0000 0.0000 -18.0240 -1.8327 3.5446 110.0000 0.0000 0.0000 25.1463 0.0000 0.0000 0.0000 0.0000 0.0000 0.0000 0.0000 0.0000 0.0000 0.0000 0.0000 0.0000 0.0000 0.0000 0.0000 0.0000 0.0000 0.0000 0.0000 0.0000
0.0000 95.0000 0.0000 0.0000 0.0000 0.0000 0.0000 0.0000 0.0000 0.0000 0.0000 0.0000 0.0000 0.0000 0.0000 0.0000 0.0000 0.0000 0.0000 0.0000 0.0000 0.0000 0.0000 0.0000 -80.9711 7.7534 9.0776 -2.3947 -5.1469 6.5631 -156.7527 39.6249 178.9046 48.7466 -12.5613 -8.9391 16.6313 0.0000 0.0000 16.9278 0.0000 0.0000 -5.4920 0.5999 -2.6586 60.5424 0.0000 0.0000 57.0095 0.0000 0.0000 6.9724 0.2843 -9.4368 68.6384 0.0000 0.0000 47.0330 0.0000 0.0000 18.9199 -0.6348 -16.2190 69.4650 0.0000 0.0000 36.3909 0.0000 0.0000 27.8764 -2.9404 -16.8754 61.5087 0.0000 0.0000 43.8442 0.0000 0.0000 0.0000 0.0000 0.0000 88.6737 -0.7719 0.7900 -4.0796 6.2056 5.8560 160.3925 13.9843 175.3636 -61.1953 -12.4010 -4.1418 21.6503 0.0000 0.0000 7.7949 0.0000 0.0000 18.8599 0.8077 -2.1398 110.0000 0.0000 0.0000 23.8416 0.0000 0.0000 2.9376 0.0205 3.9727 110.0000 0.0000 0.0000 33.7435 0.0000 0.0000 -8.7549 -0.7149 3.5704 110.0000 0.0000 0.0000 23.3594 0.0000 0.0000 -18.0240 -1.8327 3.5446 110.0000 0.0000 0.0000 25.1463 0.0000 0.0000 0.0000 0.0000 0.0000 0.0000 0.0000 0.0000 0.0000 0.0000 0.0000 0.0000 0.0000 0.0000 0.0000 0.0000 0.0000 0.0000 0.0000 0.0000
0.0000 95.0000 0.0000 0.0000 0.0000 0.0000 0.0000 0.0000 0.0000 0.0000 0.0000 0.0000 0.0000 0.0000 0.0000 0.0000 0.0000 0.0000 0.0000 0.0000 0.0000 0.0000 0.0000 0.0000 -80.9289 7.3972 8.6674 -2.7594 -4.8873 6.3451 -157.1387 40.2407 179.2725 48.7466 -12.5613 -8.9391 16.6313 0.0000 0.0000 16.9278 0.0000 0.0000 -5.4920 0.5999 -2.6586 60.5424 0.0000 0.0000 57.0095 0.0000 0.0000 6.9724 0.2843 -9.4368 68.6384 0.0000 0.0000 47.0330 0.0000 0.0000 18.9199 -0.6348 -16.2190 69.4650 0.0000 0.0000 36.3909 0.0000 0.0000 27.8764 -2.9404 -16.8754 61.5087 0.0000 0.0000 43.8442 0.0000 0.0000 0.0000 0.0000 0.0000 88.5053 -0.6082 0.6242 -4.0234 6.3731 6.0523 160.2549 13.9973 175.3206 -61.1953 -12.4010 -4.1418 21.6503 0.0000 0.0000 7.7949 0.0000 0.0000 18.8599 0.8077 -2.1398 110.0000 0.0000 0.0000 23.8416 0.0000 0.0000 2.9376 0.0205 3.9727 110.0000 0.0000 0.0000 33.7435 0.0000 0.0000 -8.7549 -0.7149 3.5704 110.0000 0.0000 0.0000 23.3594 0.0000 0.0000 -18.0240 -1.8327 3.5446 110.0000 0.0000 0.0000 25.1463 0.0000 0.0000 0.0000 0.0000 0.0000 0.0000 0.0000 0.0000 0.0000 0.0000 0.0000 0.0000 0.0000 0.0000 0.0000 0.0000 0.0000 0.0000 0.0000 0.0000
0.0000 95.0000 0.0000 0.0000 0.0000 0.0000 0.0000 0.0000 0.0000 0.0000 0.0000 0.0000 0.0000 0.0000 0.0000 0.0000 0.0000 0.0000 0.0000 0.0000 0.0000 0.0000 0.0000 0.0000 -80.9020 7.2289 8.4744 -2.8371 -4.7302 6.1732 -157.1955 40.5711 179.5928 48.7466 -12.5613 -8.9391 16.6313 0.0000 0.0000 16.9278 0.0000 0.0000 -5.4920 0.5999 -2.6586 60.5424 0.0000 0.0000 57.0095 0.0000 0.0000 6.9724 0.2843 -9.4368 68.6384 0.0000 0.0000 47.0330 0.0000 0.0000 18.9199 -0.6348 -16.2190 69.4650 0.0000 0.0000 36.3909 0.0000 0.0000 27.8764 -2.9404 -16.8754 61.5087 0.0000 0.0000 43.8442 0.0000 0.0000 0.0000 0.0000 0.0000 88.5136 -0.3442 0.3533 -4.0906 6.3903 6.0804 160.2099 13.7650 175.5703 -61.1953 -12.4010 -4.1418 21.6503 0.0000 0.0000 7.7949 0.0000 0.0000 18.8599 0.8077 -2.1398 110.0000 0.0000 0.0000 23.8416 0.0000 0.0000 2.9376 0.0205 3.9727 110.0000 0.0000 0.0000 33.7435 0.0000 0.0000 -8.7549 -0.7149 3.5704 110.0000 0.0000 0.0000 23.3594 0.0000 0.0000 -18.0240 -1.8327 3.5446 110.0000 0.0000 0.0000 25.1463 0.0000 0.0000 0.0000 0.0000 0.0000 0.0000 0.0000 0.0000 0.0000 0.0000 0.0000 0.0000 0.0000 0.0000 0.0000 0.0000 0.0000 0.0000 0.0000 0.0000
0.0000 95.0000 0.0000 0.0000 0.0000 0.0000 0.0000 0.0000 0.0000 0.0000 0.0000 0.0000 0.0000 0.0000 0.0000 0.0000 0.0000 0.0000 0.0000 0.0000 0.0000 0.0000 0.0000 0.0000 -80.8614 7.3758 8.6526 -2.8712 -4.6298 6.0712 -157.2299 40.5155 179.5024 48.7466 -12.5613 -8.9391 16.6313 0.0000 0.0000 16.9278 0.0000 0.0000 -5.4920 0.5999 -2.6586 60.5424 0.0000 0.0000 57.0095 0.0000 0.0000 6.9724 0.2843 -9.4368 68.6384 0.0000 0.0000 47.0330 0.0000 0.0000 18.9199 -0.6348 -16.2190 69.4650 0.0000 0.0000 36.3909 0.0000 0.0000 27.8764 -2.9404 -16.8754 61.5087 0.0000 0.0000 43.8442 0.0000 0.0000 0.0000 0.0000 0.0000 88.4564 -0.2720 0.2794 -4.1467 6.5389 6.2278 160.0712 13.8331 175.4659 -61.1953 -12.4010 -4.1418 21.6503 0.0000 0.0000 7.7949 0.0000 0.0000 18.8599 0.8077 -2.1398 110.0000 0.0000 0.0000 23.8416 0.0000 0.0000 2.9376 0.0205 3.9727 110.0000 0.0000 0.0000 33.7435 0.0000 0.0000 -8.7549 -0.7149 3.5704 110.0000 0.0000 0.0000 23.3594 0.0000 0.0000 -18.0240 -1.8327 3.5446 110.0000 0.0000 0.0000 25.1463 0.0000 0.0000 0.0000 0.0000 0.0000 0.0000 0.0000 0.0000 0.0000 0.0000 0.0000 0.0000 0.0000 0.0000 0.0000 0.0000 0.0000 0.0000 0.0000 0.0000
0.0000 95.0000 0.0000 0.0000 0.0000 0.0000 0.0000 0.0000 0.0000 0.0000 0.0000 0.0000 0.0000 0.0000 0.0000 0.0000 0.0000 0.0000 0.0000 0.0000 0.0000 0.0000 0.0000 0.0000 -80.7537 7.0000 8.2278 -4.3113 -2.1605 3.3626 -159.1386 43.5265 181.1958 48.7466 -12.5613 -8.9391 16.6313 0.0000 0.0000 16.9278 0.0000 0.0000 -5.4920 0.5999 -2.6586 60.5424 0.0000 0.0000 57.0095 0.0000 0.0000 6.9724 0.2843 -9.4368 68.6384 0.0000 0.0000 47.0330 0.0000 0.0000 18.9199 -0.6348 -16.2190 69.4650 0.0000 0.0000 36.3909 0.0000 0.0000 27.8764 -2.9404 -16.8754 61.5087 0.0000 0.0000 43.8442 0.0000 0.0000 0.0000 0.0000 0.0000 87.5712 -0.1771 0.1848 -0.9931 7.3270 7.5077 162.1931 14.7641 174.8893 -61.1953 -12.4010 -4.1418 21.6503 0.0000 0.0000 7.7949 0.0000 0.0000 18.8599 0.8077 -2.1398 110.0000 0.0000 0.0000 23.8416 0.0000 0.0000 2.9376 0.0205 3.9727 110.0000 0.0000 0.0000 33.7435 0.0000 0.0000 -8.7549 -0.7149 3.5704 110.0000 0.0000 0.0000 23.3594 0.0000 0.0000 -18.0240 -1.8327 3.5446 110.0000 0.0000 0.0000 25.1463 0.0000 0.0000 0.0000 0.0000 0.0000 0.0000 0.0000 0.0000 0.0000 0.0000 0.0000 0.0000 0.0000 0.0000 0.0000 0.0000 0.0000 0.0000 0.0000 0.0000
0.0000 95.0000 0.0000 0.0000 0.0000 0.0000 0.0000 0.0000 0.0000 0.0000 0.0000 0.0000 0.0000 0.0000 0.0000 0.0000 0.0000 0.0000 0.0000 0.0000 0.0000 0.0000 0.0000 0.0000 -79.8099 5.5793 6.6693 -8.9313 3.7211 -4.0503 -163.3426 51.8891 186.2717 48.7466 -12.5613 -8.9391 16.6313 0.0000 0.0000 16.9278 0.0000 0.0000 -5.4920 0.5999 -2.6586 60.5424 0.0000 0.0000 57.0095 0.0000 0.0000 6.9724 0.2843 -9.4368 68.6384 0.0000 0.0000 47.0330 0.0000 0.0000 18.9199 -0.6348 -16.2190 69.4650 0.0000 0.0000 36.3909 0.0000 0.0000 27.8764 -2.9404 -16.8754 61.5087 0.0000 0.0000 43.8442 0.0000 0.0000 0.0000 0.0000 0.0000 86.2753 -3.6447 3.8895 6.8563 18.4416 22.2966 154.8853 46.8214 154.5983 -69.2408 -14.5592 10.0417 35.7711 0.0000 0.0000 22.5473 0.0000 0.0000 10.4837 0.7017 2.6230 110.0000 0.0000 0.0000 29.0724 0.0000 0.0000 -10.2438 0.2009 7.0134 110.0000 0.0000 0.0000 33.3187 0.0000 0.0000 -24.7458 -0.7964 7.5308 110.0000 0.0000 0.0000 28.9513 0.0000 0.0000 -38.5506 -2.4898 7.4162 110.0000 0.0000 0.0000 29.4188 0.0000 0.0000 0.0000 0.0000 0.0000 0.0000 0.0000 0.0000 0.0000 0.0000 0.0000 0.0000 0.0000 0.0000 0.0000 0.0000 0.0000 0.0000 0.0000 0.0000
0.0000 95.0000 0.0000 0.0000 0.0000 0.0000 0.0000 0.0000 0.0000 0.0000 0.0000 0.0000 0.0000 0.0000 0.0000 0.0000 0.0000 0.0000 0.0000 0.0000 0.0000 0.0000 0.0000 0.0000 -78.2475 5.0698 6.2311 -14.8079 6.8033 -9.0501 -165.2574 44.5379 186.4993 59.8110 -14.1278 -13.2832 25.6011 0.0000 0.0000 15.6748 0.0000 0.0000 -11.4378 0.3390 2.1634 13.3197 0.0000 0.0000 21.0911 0.0000 0.0000 24.1780 2.3929 -15.9104 110.0000 0.0000 0.0000 30.5590 0.0000 0.0000 38.8289 2.8320 -24.5846 110.0000 0.0000 0.0000 31.1395 0.0000 0.0000 53.0371 2.1722 -35.2180 95.2092 0.0000 0.0000 41.3458 0.0000 0.0000 0.0000 0.0000 0.0000 84.8866 -5.4789 5.9902 15.6236 29.2501 41.6610 133.2098 55.8908 132.3824 -79.8214 -15.3255 12.2115 38.7575 0.0000 0.0000 28.1956 0.0000 0.0000 1.9188 0.9590 5.3073 110.0000 0.0000 0.0000 27.6040 0.0000 0.0000 -8.0409 0.1567 7.0004 110.0000 0.0000 0.0000 34.2836 0.0000 0.0000 -16.9120 -0.8801 7.4026 110.0000 0.0000 0.0000 28.1984 0.0000 0.0000 -28.1459 -2.5231 9.1716 110.0000 0.0000 0.0000 29.2588 0.0000 0.0000 0.0000 0.0000 0.0000 0.0000 0.0000 0.0000 0.0000 0.0000 0.0000 0.0000 0.0000 0.0000 0.0000 0.0000 0.0000 0.0000 0.0000 0.0000
0.0000 95.0000 0.0000 0.0000 0.0000 0.0000 0.0000 0.0000 0.0000 0.0000 0.0000 0.0000 0.0000 0.0000 0.0000 0.0000 0.0000 0.0000 0.0000 0.0000 0.0000 0.0000 0.0000 0.0000 -76.8164 1.6727 2.1098 -25.3113 8.2631 -15.7506 -149.5289 42.8899 161.9400 67.0103 -14.9637 -21.5093 49.0212 0.0000 0.0000 32.9218 0.0000 0.0000 -29.5762 -0.0393 -17.1096 21.9467 0.0000 0.0000 71.6815 0.0000 0.0000 -23.7739 -3.2927 -20.3225 71.2579 0.0000 0.0000 90.0000 0.0000 0.0000 -14.1569 -5.0532 -21.7133 100.5316 0.0000 0.0000 65.6718 0.0000 0.0000 -5.9538 -7.6070 -22.1539 110.0000 0.0000 0.0000 43.5787 0.0000 0.0000 0.0000 0.0000 0.0000 83.9658 -9.1122 10.1211 25.5719 52.1687 78.7460 -28.5480 47.6695 40.0032 -65.1304 -13.4383 -1.1579 2.8386 0.0000 0.0000 18.1801 0.0000 0.0000 44.6484 -1.9589 18.4512 69.2117 0.0000 0.0000 48.0348 0.0000 0.0000 42.3145 -6.9621 22.6371 93.0752 0.0000 0.0000 73.1988 0.0000 0.0000 35.3371 -9.4100 23.9752 110.0000 0.0000 0.0000 53.2743 0.0000 0.0000 19.2655 -10.6589 24.3535 110.0000 0.0000 0.0000 29.8683 0.0000 0.0000 0.0000 0.0000 0.0000 0.0000 0.0000 0.0000 0.0000 0.0000 0.0000 0.0000 0.0000 0.0000 0.0000 0.0000 0.0000 0.0000 0.0000 0.0000
0.0000 95.0000 0.0000 0.0000 0.0000 0.0000 0.0000 0.0000 0.0000 0.0000 0.0000 0.0000 0.0000 0.0000 0.0000 0.0000 0.0000 0.0000 0.0000 0.0000 0.0000 0.0000 0.0000 0.0000 -76.5272 3.7604 4.7667 -41.2083 7.3776 -16.1432 -119.4284 54.0889 160.4026 84.7157 -15.3657 -15.0853 8.0930 0.0000 0.0000 13.2634 0.0000 0.0000 -25.2933 0.3178 -19.4406 1.7706 0.0000 0.0000 25.8614 0.0000 0.0000 -0.4617 -0.1000 -29.2248 22.8022 0.0000 0.0000 42.0825 0.0000 0.0000 7.3572 -3.0402 -34.2893 62.1927 0.0000 0.0000 45.8682 0.0000 0.0000 20.1981 -5.8982 -35.8539 65.8059 0.0000 0.0000 24.0946 0.0000 0.0000 0.0000 0.0000 0.0000 85.2975 -11.0008 11.9363 113.4925 68.7602 205.9238 -43.8282 -11.2481 -1.0072 -32.8968 -12.9694 14.5964 37.9787 0.0000 0.0000 40.4923 0.0000 0.0000 1.5486 0.2076 0.8189 8.3018 0.0000 0.0000 8.8726 0.0000 0.0000 46.6577 -19.1488 47.4951 85.6331 0.0000 0.0000 59.9570 0.0000 0.0000 39.6598 -23.9375 48.6994 97.9610 0.0000 0.0000 63.7065 0.0000 0.0000 27.4070 -29.2144 52.1039 101.7644 0.0000 0.0000 52.8326 0.0000 0.0000 0.0000 0.0000 0.0000 0.0000 0.0000 0.0000 0.0000 0.0000 0.0000 0.0000 0.0000 0.0000 0.0000 0.0000 0.0000 0.0000 0.0000 0.0000
0.0000 95.0000 0.0000 0.0000 0.0000 0.0000 0.0000 0.0000 0.0000 0.0000 0.0000 0.0000 0.0000 0.0000 0.0000 0.0000 0.0000 0.0000 0.0000 0.0000 0.0000 0.0000 0.0000 0.0000 -77.6495 4.2342 5.2603 -70.4297 4.2146 -4.9484 -110.5939 14.4189 140.9336 35.8821 -9.7006 -4.3338 53.4589 0.0000 0.0000 32.2733 0.0000 0.0000 3.3541 -1.5112 6.3740 13.9640 0.0000 0.0000 7.8033 0.0000 0.0000 -26.2500 -3.8379 -21.1259 42.7620 0.0000 0.0000 22.6617 0.0000 0.0000 -37.1830 -11.3563 -27.1017 56.0281 0.0000 0.0000 49.4084 0.0000 0.0000 -22.5979 -12.2815 -26.2374 18.8710 0.0000 0.0000 72.3872 0.0000 0.0000 0.0000 0.0000 0.0000 86.7917 -13.5641 14.3378 157.6970 47.3138 272.3997 -49.1743 -52.2320 15.1219 -26.3861 -7.8380 3.4695 22.2567 0.0000 0.0000 11.0802 0.0000 0.0000 7.2901 -0.2676 -5.0932 3.0683 0.0000 0.0000 6.9590 0.0000 0.0000 43.3061 -11.1296 32.3497 101.1034 0.0000 0.0000 54.0070 0.0000 0.0000 46.1929 -19.1100 36.1850 101.3503 0.0000 0.0000 64.8646 0.0000 0.0000 39.7735 -26.5860 40.1171 96.8818 0.0000 0.0000 53.6200 0.0000 0.0000 0.0000 0.0000 0.0000 0.0000 0.0000 0.0000 0.0000 0.0000 0.0000 0.0000 0.0000 0.0000 0.0000 0.0000 0.0000 0.0000 0.0000 0.0000
0.0000 95.0000 0.0000 0.0000 0.0000 0.0000 0.0000 0.0000 0.0000 0.0000 0.0000 0.0000 0.0000 0.0000 0.0000 0.0000 0.0000 0.0000 0.0000 0.0000 0.0000 0.0000 0.0000 0.0000 -79.1349 3.1603 3.8241 -115.4791 -4.1437 -25.7886 -142.5361 -2.7301 137.3729 30.1997 -6.6558 1.0714 36.5850 0.0000 0.0000 27.1114 0.0000 0.0000 -8.3516 -0.2155 5.4931 13.3772 0.0000 0.0000 2.2376 0.0000 0.0000 -54.2870 -19.4594 -41.7568 59.0654 0.0000 0.0000 42.5705 0.0000 0.0000 -48.8847 -22.2096 -39.4193 89.4663 0.0000 0.0000 55.4581 0.0000 0.0000 -41.7595 -20.4602 -31.2147 55.2406 0.0000 0.0000 90.0000 0.0000 0.0000 0.0000 0.0000 0.0000 87.9876 -15.9155 16.4768 163.7222 36.2708 283.7515 -75.2654 -68.1761 51.9099 -26.3348 -5.3101 -2.1957 39.3551 0.0000 0.0000 33.2584 0.0000 0.0000 7.7294 0.0795 -2.3756 4.8646 0.0000 0.0000 5.4012 0.0000 0.0000 50.4739 -8.0053 21.6599 87.9296 0.0000 0.0000 38.8335 0.0000 0.0000 54.4863 -14.2670 25.2143 102.1609 0.0000 0.0000 48.4119 0.0000 0.0000 54.6760 -20.3391 26.4569 90.5363 0.0000 0.0000 41.9909 0.0000 0.0000 0.0000 0.0000 0.0000 0.0000 0.0000 0.0000 0.0000 0.0000 0.0000 0.0000 0.0000 0.0000 0.0000 0.0000 0.0000 0.0000 0.0000 0.0000
0.0000 95.0000 0.0000 0.0000 0.0000 0.0000 0.0000 0.0000 0.0000 0.0000 0.0000 0.0000 0.0000 0.0000 0.0000 0.0000 0.0000 0.0000 0.0000 0.0000 0.0000 0.0000 0.0000 0.0000 -79.7758 0.4458 0.5334 -134.4267 10.0552 17.9584 -132.0508 -47.9410 136.4777 35.1817 -8.3094 -0.6466 38.6173 0.0000 0.0000 24.5566 0.0000 0.0000 -2.8163 -1.5373 10.5647 10.6340 0.0000 0.0000 3.3574 0.0000 0.0000 -50.1233 -15.4159 -37.0569 42.7859 0.0000 0.0000 10.2382 0.0000 0.0000 -49.8053 -23.5523 -40.8574 85.2909 0.0000 0.0000 59.6366 0.0000 0.0000 -38.8308 -20.7041 -32.7697 61.0331 0.0000 0.0000 90.0000 0.0000 0.0000 0.0000 0.0000 0.0000 87.6400 -17.7100 18.4424 165.8364 35.6079 283.1527 -68.8977 -67.1417 51.8844 -22.8113 -6.1887 1.3283 35.1424 0.0000 0.0000 21.1421 0.0000 0.0000 1.8873 0.0234 -0.3768 3.2669 0.0000 0.0000 8.6844 0.0000 0.0000 50.1309 -7.5190 20.7668 84.0052 0.0000 0.0000 74.6090 0.0000 0.0000 46.5681 -11.8182 24.2524 93.7461 0.0000 0.0000 74.9654 0.0000 0.0000 30.5394 -14.3397 26.8366 97.2408 0.0000 0.0000 55.4622 0.0000 0.0000 0.0000 0.0000 0.0000 0.0000 0.0000 0.0000 0.0000 0.0000 0.0000 0.0000 0.0000 0.0000 0.0000 0.0000 0.0000 0.0000 0.0000 0.0000
0.0000 95.0000 0.0000 0.0000 0.0000 0.0000 0.0000 0.0000 0.0000 0.0000 0.0000 0.0000 0.0000 0.0000 0.0000 0.0000 0.0000 0.0000 0.0000 0.0000 0.0000 0.0000 0.0000 0.0000 -80.5339 -0.7585 -0.8954 -137.1437 13.3191 26.6824 -124.4425 -60.7189 140.8092 29.9067 -6.8252 0.5030 30.4057 0.0000 0.0000 34.2051 0.0000 0.0000 -8.9353 -0.3796 7.6164 11.5986 0.0000 0.0000 1.1551 0.0000 0.0000 -51.1252 -16.8818 -39.2445 18.8174 0.0000 0.0000 7.1500 0.0000 0.0000 -55.1398 -24.0289 -38.3831 11.5957 0.0000 0.0000 8.2187 0.0000 0.0000 -48.2813 -23.6956 -32.4596 11.8899 0.0000 0.0000 6.7710 0.0000 0.0000 0.0000 0.0000 0.0000 88.3612 -18.6375 19.1684 167.3038 33.9255 283.8714 -47.5486 -63.6346 24.1865 -26.2662 -8.5392 5.1154 31.8700 0.0000 0.0000 27.0377 0.0000 0.0000 9.6130 0.3297 -1.0580 5.9684 0.0000 0.0000 7.2704 0.0000 0.0000 53.5169 -15.1407 34.3037 98.5977 0.0000 0.0000 61.0256 0.0000 0.0000 52.1505 -20.9543 35.7271 102.3835 0.0000 0.0000 61.6137 0.0000 0.0000 42.8799 -27.2756 39.3137 96.7505 0.0000 0.0000 47.2284 0.0000 0.0000 0.0000 0.0000 0.0000 0.0000 0.0000 0.0000 0.0000 0.0000 0.0000 0.0000 0.0000 0.0000 0.0000 0.0000 0.0000 0.0000 0.0000 0.0000
0.0000 95.0000 0.0000 0.0000 0.0000 0.0000 0.0000 0.0000 0.0000 0.0000 0.0000 0.0000 0.0000 0.0000 0.0000 0.0000 0.0000 0.0000 0.0000 0.0000 0.0000 0.0000 0.0000 0.0000 -81.0476 0.5990 0.7008 -134.8138 6.1902 10.3091 -145.8413 -42.2271 152.2366 31.0147 -7.0962 0.4000 25.4021 0.0000 0.0000 30.6886 0.0000 0.0000 -10.3905 0.0491 4.6600 16.7015 0.0000 0.0000 3.7325 0.0000 0.0000 -58.0771 -14.3133 -30.2590 12.5721 0.0000 0.0000 4.5082 0.0000 0.0000 -63.8430 -17.5250 -26.1981 1.7772 0.0000 0.0000 3.3192 0.0000 0.0000 -53.0291 -14.9785 -21.2836 10.9187 0.0000 0.0000 10.2431 0.0000 0.0000 0.0000 0.0000 0.0000 89.4460 -19.1702 19.3530 169.1467 30.6322 286.8772 -41.3087 -64.2076 20.1479 -25.1171 -10.0193 8.8288 27.3985 0.0000 0.0000 11.7152 0.0000 0.0000 5.9870 -0.3340 -4.6987 2.7360 0.0000 0.0000 7.8740 0.0000 0.0000 42.6129 -13.7392 39.1037 97.3353 0.0000 0.0000 59.4622 0.0000 0.0000 43.7977 -22.4705 43.1177 96.2116 0.0000 0.0000 62.7220 0.0000 0.0000 34.5472 -29.5428 47.3523 94.9825 0.0000 0.0000 52.4812 0.0000 0.0000 0.0000 0.0000 0.0000 0.0000 0.0000 0.0000 0.0000 0.0000 0.0000 0.0000 0.0000 0.0000 0.0000 0.0000 0.0000 0.0000 0.0000 0.0000
0.0000 95.0000 0.0000 0.0000 0.0000 0.0000 0.0000 0.0000 0.0000 0.0000 0.0000 0.0000 0.0000 0.0000 0.0000 0.0000 0.0000 0.0000 0.0000 0.0000 0.0000 0.0000 0.0000 0.0000 -81.2068 2.6121 3.0470 -136.2815 -7.4834 -22.2208 -160.7824 -12.7027 152.3738 30.7074 -5.8151 3.4279 23.0338 0.0000 0.0000 36.9583 0.0000 0.0000 -10.3202 0.0516 4.5650 10.6120 0.0000 0.0000 1.7219 0.0000 0.0000 -63.8047 -18.5383 -34.1534 9.9854 0.0000 0.0000 6.2043 0.0000 0.0000 -65.2255 -19.9301 -28.5219 4.5351 0.0000 0.0000 5.7618 0.0000 0.0000 -59.9366 -18.2193 -22.8546 17.8253 0.0000 0.0000 6.2145 0.0000 0.0000 0.0000 0.0000 0.0000 90.0044 -19.4138 19.4124 168.2352 29.4889 286.4515 -45.1744 -65.8587 28.8398 -28.1488 -9.3415 6.3529 39.1557 0.0000 0.0000 22.7147 0.0000 0.0000 3.0784 -0.0527 -1.2450 7.5615 0.0000 0.0000 8.1444 0.0000 0.0000 47.2299 -13.9589 36.0574 99.2624 0.0000 0.0000 66.8944 0.0000 0.0000 41.5082 -19.3740 39.4534 110.0000 0.0000 0.0000 51.2589 0.0000 0.0000 21.7532 -21.1120 42.7686 110.0000 0.0000 0.0000 37.5109 0.0000 0.0000 0.0000 0.0000 0.0000 0.0000 0.0000 0.0000 0.0000 0.0000 0.0000 0.0000 0.0000 0.0000 0.0000 0.0000 0.0000 0.0000 0.0000 0.0000
0.0000 95.0000 0.0000 0.0000 0.0000 0.0000 0.0000 0.0000 0.0000 0.0000 0.0000 0.0000 0.0000 0.0000 0.0000 0.0000 0.0000 0.0000 0.0000 0.0000 0.0000 0.0000 0.0000 0.0000 -81.2629 1.3576 1.5821 -138.1482 -0.1493 -4.3637 -136.2445 -30.4306 126.8441 50.9159 -5.6659 25.2265 4.0086 0.0000 0.0000 8.7246 0.0000 0.0000 -3.5539 -12.9897 73.2301 105.9707 0.0000 0.0000 12.0539 0.0000 0.0000 6.9074 -6.5957 82.5772 110.0000 0.0000 0.0000 6.3997 0.0000 0.0000 12.7145 2.0032 76.6266 110.0000 0.0000 0.0000 6.9868 0.0000 0.0000 -33.5137 42.1077 54.1193 110.0000 0.0000 0.0000 12.6313 0.0000 0.0000 0.0000 0.0000 0.0000 90.0652 -19.6386 19.6167 168.8088 33.0230 283.2697 -39.6802 -58.6780 27.0814 -31.2058 -9.0902 4.6126 34.6252 0.0000 0.0000 28.2622 0.0000 0.0000 35.0859 -1.2416 21.8492 70.2269 0.0000 0.0000 40.3696 0.0000 0.0000 51.6084 -18.4652 41.9356 95.1855 0.0000 0.0000 71.4261 0.0000 0.0000 42.6147 -23.3553 45.4195 103.3129 0.0000 0.0000 62.8612 0.0000 0.0000 19.0859 -22.7497 47.7405 110.0000 0.0000 0.0000 52.5464 0.0000 0.0000 0.0000 0.0000 0.0000 0.0000 0.0000 0.0000 0.0000 0.0000 0.0000 0.0000 0.0000 0.0000 0.0000 0.0000 0.0000 0.0000 0.0000 0.0000
0.0000 95.0000 0.0000 0.0000 0.0000 0.0000 0.0000 0.0000 0.0000 0.0000 0.0000 0.0000 0.0000 0.0000 0.0000 0.0000 0.0000 0.0000 0.0000 0.0000 0.0000 0.0000 0.0000 0.0000 -81.4893 0.7775 0.9025 -138.6312 2.8315 2.8696 -128.7691 -39.9936 114.9440 52.0790 -5.2707 29.2779 6.8793 0.0000 0.0000 13.6800 0.0000 0.0000 -16.8783 -1.7714 67.0318 76.7954 0.0000 0.0000 14.3840 0.0000 0.0000 -5.1698 5.7172 90.9938 110.0000 0.0000 0.0000 10.0590 0.0000 0.0000 2.1483 12.5234 81.7763 110.0000 0.0000 0.0000 3.0334 0.0000 0.0000 -64.7410 43.2895 31.1181 110.0000 0.0000 0.0000 9.9881 0.0000 0.0000 0.0000 0.0000 0.0000 90.1904 -19.6027 19.5389 169.1771 35.0620 281.7687 -48.7276 -57.6259 38.0634 -31.8087 -7.8169 1.0430 32.4180 0.0000 0.0000 22.1166 0.0000 0.0000 68.7532 -13.0243 35.5668 91.7170 0.0000 0.0000 64.9551 0.0000 0.0000 55.2283 -17.8016 38.1059 101.3075 0.0000 0.0000 60.9277 0.0000 0.0000 42.0629 -20.0595 40.2679 107.8267 0.0000 0.0000 54.7992 0.0000 0.0000 18.5694 -19.4163 41.8329 110.0000 0.0000 0.0000 48.0721 0.0000 0.0000 0.0000 0.0000 0.0000 0.0000 0.0000 0.0000 0.0000 0.0000 0.0000 0.0000 0.0000 0.0000 0.0000 0.0000 0.0000 0.0000 0.0000 0.0000
0.0000 95.0000 0.0000 0.0000 0.0000 0.0000 0.0000 0.0000 0.0000 0.0000 0.0000 0.0000 0.0000 0.0000 0.0000 0.0000 0.0000 0.0000 0.0000 0.0000 0.0000 0.0000 0.0000 0.0000 -81.4779 0.7197 0.8355 -139.1358 1.5544 0.6812 -134.9134 -41.6939 116.5779 54.3275 -6.4297 28.8030 6.8084 0.0000 0.0000 10.4442 0.0000 0.0000 -13.1432 -2.2792 41.4469 39.8439 0.0000 0.0000 6.1801 0.0000 0.0000 -4.9115 4.6766 82.4188 110.0000 0.0000 0.0000 6.2407 0.0000 0.0000 1.2690 12.8349 79.5383 110.0000 0.0000 0.0000 3.7171 0.0000 0.0000 -67.5670 35.8370 23.1698 110.0000 0.0000 0.0000 2.5784 0.0000 0.0000 0.0000 0.0000 0.0000 90.7464 -19.1199 18.8769 168.8248 36.0557 281.1202 -49.5721 -56.2832 36.8902 -31.3534 -7.5644 0.6175 34.4122 0.0000 0.0000 21.8662 0.0000 0.0000 69.7398 -13.6553 36.2048 91.2420 0.0000 0.0000 66.1619 0.0000 0.0000 55.4933 -17.8715 38.0544 103.5704 0.0000 0.0000 62.2891 0.0000 0.0000 41.4902 -19.7649 40.1400 110.0000 0.0000 0.0000 55.5153 0.0000 0.0000 17.8068 -18.8521 41.2728 110.0000 0.0000 0.0000 46.3912 0.0000 0.0000 0.0000 0.0000 0.0000 0.0000 0.0000 0.0000 0.0000 0.0000 0.0000 0.0000 0.0000 0.0000 0.0000 0.0000 0.0000 0.0000 0.0000 0.0000
0.0000 95.0000 0.0000 0.0000 0.0000 0.0000 0.0000 0.0000 0.0000 0.0000 0.0000 0.0000 0.0000 0.0000 0.0000 0.0000 0.0000 0.0000 0.0000 0.0000 0.0000 0.0000 0.0000 0.0000 -81.6488 0.8151 0.9435 -140.6555 0.3899 -1.6950 -138.8251 -40.3882 117.5741 55.0450 -7.0433 27.3303 9.7879 0.0000 0.0000 8.6182 0.0000 0.0000 -12.9382 -3.6784 56.9757 64.8807 0.0000 0.0000 12.8719 0.0000 0.0000 -8.8216 8.6672 84.2131 110.0000 0.0000 0.0000 9.8645 0.0000 0.0000 -6.2682 19.4346 78.2127 110.0000 0.0000 0.0000 2.8186 0.0000 0.0000 -82.1175 22.3477 7.4353 101.6921 0.0000 0.0000 4.5233 0.0000 0.0000 0.0000 0.0000 0.0000 91.2654 -18.7753 18.3722 168.9401 36.0457 281.5403 -41.9042 -55.1332 32.2618 -34.5135 -9.1877 3.4702 32.0698 0.0000 0.0000 18.9740 0.0000 0.0000 64.1877 -12.8853 38.6347 94.4592 0.0000 0.0000 65.8102 0.0000 0.0000 50.5788 -17.6701 41.1925 101.2218 0.0000 0.0000 59.7278 0.0000 0.0000 38.5097 -20.2992 43.1626 106.1089 0.0000 0.0000 53.5815 0.0000 0.0000 16.2379 -19.8626 44.4203 110.0000 0.0000 0.0000 49.0709 0.0000 0.0000 0.0000 0.0000 0.0000 0.0000 0.0000 0.0000 0.0000 0.0000 0.0000 0.0000 0.0000 0.0000 0.0000 0.0000 0.0000 0.0000 0.0000 0.0000
0.0000 95.0000 0.0000 0.0000 0.0000 0.0000 0.0000 0.0000 0.0000 0.0000 0.0000 0.0000 0.0000 0.0000 0.0000 0.0000 0.0000 0.0000 0.0000 0.0000 0.0000 0.0000 0.0000 0.0000 -81.9752 0.7579 0.8722 -140.7697 -1.2264 -4.3929 -144.4064 -36.8842 130.1069 54.2721 -8.2993 18.9441 8.8333 0.0000 0.0000 7.0370 0.0000 0.0000 -4.9800 -7.9174 53.7685 97.7388 0.0000 0.0000 28.3485 0.0000 0.0000 -10.4364 6.8867 61.9857 110.0000 0.0000 0.0000 15.4979 0.0000 0.0000 -30.9782 17.8063 35.0877 95.4435 0.0000 0.0000 0.0874 0.0000 0.0000 -73.7776 -4.5766 -9.5851 59.0046 0.0000 0.0000 5.5036 0.0000 0.0000 0.0000 0.0000 0.0000 91.7502 -18.6324 18.0811 168.3937 34.9647 282.0109 -30.6057 -50.6210 13.7169 -31.1812 -11.1409 9.9817 37.3852 0.0000 0.0000 12.5379 0.0000 0.0000 2.2724 0.2468 0.8920 6.4765 0.0000 0.0000 7.6562 0.0000 0.0000 37.8568 -15.6047 48.3323 94.2144 0.0000 0.0000 70.4879 0.0000 0.0000 30.9591 -19.5927 47.9655 103.1038 0.0000 0.0000 71.1791 0.0000 0.0000 12.5033 -21.7079 51.3989 107.9320 0.0000 0.0000 58.2041 0.0000 0.0000 0.0000 0.0000 0.0000 0.0000 0.0000 0.0000 0.0000 0.0000 0.0000 0.0000 0.0000 0.0000 0.0000 0.0000 0.0000 0.0000 0.0000 0.0000
0.0000 95.0000 0.0000 0.0000 0.0000 0.0000 0.0000 0.0000 0.0000 0.0000 0.0000 0.0000 0.0000 0.0000 0.0000 0.0000 0.0000 0.0000 0.0000 0.0000 0.0000 0.0000 0.0000 0.0000 -81.6972 0.8241 0.9531 -140.5266 0.6767 -1.2145 -143.5222 -37.5497 132.9433 55.8704 -8.8236 19.2403 9.3252 0.0000 0.0000 10.5153 0.0000 0.0000 -3.3632 -7.8594 48.6900 91.4517 0.0000 0.0000 28.8135 0.0000 0.0000 -57.7528 28.0451 43.9555 88.1466 0.0000 0.0000 20.8950 0.0000 0.0000 -89.4120 8.2605 0.6445 62.2962 0.0000 0.0000 4.5888 0.0000 0.0000 -82.6508 -11.7924 -13.8277 46.5984 0.0000 0.0000 5.0669 0.0000 0.0000 0.0000 0.0000 0.0000 90.6573 -18.9983 18.7855 168.9320 37.1137 280.5359 -44.7750 -53.2724 24.3601 -27.7958 -9.0164 5.6944 31.6139 0.0000 0.0000 14.9874 0.0000 0.0000 3.3272 0.0656 -0.5588 3.7602 0.0000 0.0000 6.7300 0.0000 0.0000 40.7863 -13.4580 39.9878 100.3554 0.0000 0.0000 63.8094 0.0000 0.0000 35.0295 -17.8200 41.0531 107.8665 0.0000 0.0000 63.9281 0.0000 0.0000 17.9836 -20.6911 44.7091 109.1922 0.0000 0.0000 53.8329 0.0000 0.0000 0.0000 0.0000 0.0000 0.0000 0.0000 0.0000 0.0000 0.0000 0.0000 0.0000 0.0000 0.0000 0.0000 0.0000 0.0000 0.0000 0.0000 0.0000
0.0000 95.0000 0.0000 0.0000 0.0000 0.0000 0.0000 0.0000 0.0000 0.0000 0.0000 0.0000 0.0000 0.0000 0.0000 0.0000 0.0000 0.0000 0.0000 0.0000 0.0000 0.0000 0.0000 0.0000 -82.0833 -0.4798 -0.5511 -139.2895 6.3532 13.0416 -130.3766 -50.4198 132.1102 42.7297 -7.7295 6.3967 5.6673 0.0000 0.0000 24.6778 0.0000 0.0000 -12.9578 0.4312 2.2240 7.5742 0.0000 0.0000 6.8363 0.0000 0.0000 -57.4730 -24.4518 -47.8975 16.7822 0.0000 0.0000 4.9350 0.0000 0.0000 -57.6559 -31.4332 -46.5611 21.6378 0.0000 0.0000 17.9492 0.0000 0.0000 -55.1907 -31.0163 -37.3004 17.2114 0.0000 0.0000 11.9965 0.0000 0.0000 0.0000 0.0000 0.0000 90.4454 -19.3636 19.2165 170.6168 37.4144 281.2453 -39.5374 -57.2835 14.5202 -29.8798 -10.2631 8.0789 27.8877 0.0000 0.0000 16.3104 0.0000 0.0000 5.0410 0.7769 4.0267 1.6130 0.0000 0.0000 6.6616 0.0000 0.0000 37.6771 -12.7221 40.9615 100.1822 0.0000 0.0000 57.5990 0.0000 0.0000 33.5503 -18.1845 42.8976 105.1989 0.0000 0.0000 66.8341 0.0000 0.0000 19.0633 -21.5168 45.4576 107.4772 0.0000 0.0000 54.9475 0.0000 0.0000 0.0000 0.0000 0.0000 0.0000 0.0000 0.0000 0.0000 0.0000 0.0000 0.0000 0.0000 0.0000 0.0000 0.0000 0.0000 0.0000 0.0000 0.0000
0.0000 95.0000 0.0000 0.0000 0.0000 0.0000 0.0000 0.0000 0.0000 0.0000 0.0000 0.0000 0.0000 0.0000 0.0000 0.0000 0.0000 0.0000 0.0000 0.0000 0.0000 0.0000 0.0000 0.0000 -81.8496 -2.2511 -2.5963 -139.9456 14.8648 32.7686 -88.1078 -63.4258 103.7988 34.8961 -8.3650 -0.9564 15.2729 0.0000 0.0000 39.7132 0.0000 0.0000 -15.1165 0.7502 -1.5802 7.8204 0.0000 0.0000 3.9485 0.0000 0.0000 -45.8939 -25.7210 -61.4425 9.8161 0.0000 0.0000 4.9824 0.0000 0.0000 -47.3283 -34.9265 -59.3507 15.5006 0.0000 0.0000 7.9828 0.0000 0.0000 -45.4788 -36.9932 -49.5577 15.9748 0.0000 0.0000 14.5383 0.0000 0.0000 0.0000 0.0000 0.0000 89.4026 -19.7162 19.9187 172.7662 40.2473 280.6833 -66.8174 -59.2849 39.0354 -29.4398 -6.9066 -0.0693 25.7311 0.0000 0.0000 22.5189 0.0000 0.0000 9.8055 0.5901 1.5916 3.4740 0.0000 0.0000 4.6702 0.0000 0.0000 48.6889 -10.2732 27.2460 106.0208 0.0000 0.0000 45.1378 0.0000 0.0000 45.5160 -14.5665 29.1621 110.0000 0.0000 0.0000 43.7734 0.0000 0.0000 28.8262 -17.2739 32.2067 110.0000 0.0000 0.0000 33.7447 0.0000 0.0000 0.0000 0.0000 0.0000 0.0000 0.0000 0.0000 0.0000 0.0000 0.0000 0.0000 0.0000 0.0000 0.0000 0.0000 0.0000 0.0000 0.0000 0.0000
0.0000 95.0000 0.0000 0.0000 0.0000 0.0000 0.0000 0.0000 0.0000 0.0000 0.0000 0.0000 0.0000 0.0000 0.0000 0.0000 0.0000 0.0000 0.0000 0.0000 0.0000 0.0000 0.0000 0.0000 -81.5836 -2.8983 -3.3584 -138.2461 18.8085 42.2079 -72.3112 -68.1698 95.8955 30.4371 -7.2138 -0.1892 25.3440 0.0000 0.0000 24.2671 0.0000 0.0000 -16.8818 0.8076 -1.7060 8.9554 0.0000 0.0000 8.7517 0.0000 0.0000 -42.0209 -23.0002 -60.5947 56.5205 0.0000 0.0000 37.6753 0.0000 0.0000 -39.4939 -29.7243 -58.6148 91.1899 0.0000 0.0000 50.6165 0.0000 0.0000 -35.5572 -30.4075 -47.8688 31.4795 0.0000 0.0000 34.1822 0.0000 0.0000 0.0000 0.0000 0.0000 89.0906 -19.5619 19.8687 173.4470 41.1661 280.9407 -52.0888 -52.5448 15.4695 -32.3202 -7.7872 0.7103 16.3527 0.0000 0.0000 2.0888 0.0000 0.0000 14.4711 0.7189 1.3595 13.3005 0.0000 0.0000 6.1235 0.0000 0.0000 47.6910 -16.5814 41.2645 91.0064 0.0000 0.0000 40.2798 0.0000 0.0000 43.8955 -22.3588 42.8679 101.3810 0.0000 0.0000 39.2805 0.0000 0.0000 35.9360 -28.8094 45.4090 86.9178 0.0000 0.0000 32.4747 0.0000 0.0000 0.0000 0.0000 0.0000 0.0000 0.0000 0.0000 0.0000 0.0000 0.0000 0.0000 0.0000 0.0000 0.0000 0.0000 0.0000 0.0000 0.0000 0.0000
0.0000 95.0000 0.0000 0.0000 0.0000 0.0000 0.0000 0.0000 0.0000 0.0000 0.0000 0.0000 0.0000 0.0000 0.0000 0.0000 0.0000 0.0000 0.0000 0.0000 0.0000 0.0000 0.0000 0.0000 -81.0079 -3.3020 -3.8652 -134.2534 25.5992 57.6727 -34.7927 -44.8511 62.9680 38.8312 -11.5520 -8.9183 32.1031 0.0000 0.0000 33.7696 0.0000 0.0000 -36.4272 -9.6375 -72.0619 38.0470 0.0000 0.0000 15.8187 0.0000 0.0000 -23.2401 -22.4789 -92.8127 70.6320 0.0000 0.0000 69.9911 0.0000 0.0000 -15.2369 -27.1781 -86.3126 94.8569 0.0000 0.0000 71.5251 0.0000 0.0000 -6.1167 -30.6761 -77.7018 79.4823 0.0000 0.0000 86.4146 0.0000 0.0000 0.0000 0.0000 0.0000 88.1083 -19.1516 19.7821 174.6615 44.2533 280.6981 -42.1558 -49.1702 4.6433 -38.2908 -9.3593 2.1138 15.1034 0.0000 0.0000 2.2019 0.0000 0.0000 25.5470 0.0411 24.9412 79.0605 0.0000 0.0000 37.7601 0.0000 0.0000 37.7729 -16.5552 50.8475 98.3465 0.0000 0.0000 47.1171 0.0000 0.0000 31.9275 -22.0507 52.0541 100.4973 0.0000 0.0000 39.7437 0.0000 0.0000 19.9208 -26.6042 54.0335 100.6901 0.0000 0.0000 42.6479 0.0000 0.0000 0.0000 0.0000 0.0000 0.0000 0.0000 0.0000 0.0000 0.0000 0.0000 0.0000 0.0000 0.0000 0.0000 0.0000 0.0000 0.0000 0.0000 0.0000
0.0000 95.0000 0.0000 0.0000 0.0000 0.0000 0.0000 0.0000 0.0000 0.0000 0.0000 0.0000 0.0000 0.0000 0.0000 0.0000 0.0000 0.0000 0.0000 0.0000 0.0000 0.0000 0.0000 0.0000 -78.1565 -4.6765 -5.7572 -110.4558 46.5840 121.7324 29.1557 -33.5086 15.5543 33.3481 -9.9059 -5.9615 22.1972 0.0000 0.0000 6.6627 0.0000 0.0000 -74.7395 -24.6246 -52.6951 35.7982 0.0000 0.0000 41.2406 0.0000 0.0000 -63.7697 -30.0627 -51.4692 48.5995 0.0000 0.0000 90.0000 0.0000 0.0000 -58.9999 -29.3660 -43.0708 52.4979 0.0000 0.0000 90.0000 0.0000 0.0000 -44.3496 -26.3262 -37.3815 40.7113 0.0000 0.0000 90.0000 0.0000 0.0000 0.0000 0.0000 0.0000 85.6613 -18.7527 20.2000 177.5451 55.1822 276.8164 -9.6486 -40.2295 12.6163 -62.2928 -14.8977 20.1212 15.5928 0.0000 0.0000 16.7790 0.0000 0.0000 42.9210 -7.2726 44.8292 64.4070 0.0000 0.0000 90.0000 0.0000 0.0000 31.7523 -12.4488 46.7339 110.0000 0.0000 0.0000 51.7601 0.0000 0.0000 19.0580 -14.7863 48.6184 110.0000 0.0000 0.0000 39.3263 0.0000 0.0000 6.0524 -18.6220 50.8364 110.0000 0.0000 0.0000 42.4054 0.0000 0.0000 0.0000 0.0000 0.0000 0.0000 0.0000 0.0000 0.0000 0.0000 0.0000 0.0000 0.0000 0.0000 0.0000 0.0000 0.0000 0.0000 0.0000 0.0000
0.0000 95.0000 0.0000 0.0000 0.0000 0.0000 0.0000 0.0000 0.0000 0.0000 0.0000 0.0000 0.0000 0.0000 0.0000 0.0000 0.0000 0.0000 0.0000 0.0000 0.0000 0.0000 0.0000 0.0000 -75.3093 -5.3232 -6.8954 -62.2242 45.0461 215.3431 -34.8422 13.8755 -37.0528 86.7421 -16.9226 -2.3939 50.4902 0.0000 0.0000 13.4118 0.0000 0.0000 -9.0134 -0.7432 11.2363 110.0000 0.0000 0.0000 21.8678 0.0000 0.0000 -16.4844 0.9539 1.8060 110.0000 0.0000 0.0000 14.9399 0.0000 0.0000 -6.4083 1.2113 4.2551 110.0000 0.0000 0.0000 15.1873 0.0000 0.0000 9.7675 -0.6093 0.5764 110.0000 0.0000 0.0000 7.7506 0.0000 0.0000 0.0000 0.0000 0.0000 84.2017 -16.9145 18.6888 172.8469 74.1517 261.7609 30.9639 -12.8666 -20.0601 -90.9497 -7.3453 66.2286 27.4364 0.0000 0.0000 46.6780 0.0000 0.0000 21.0634 0.5844 72.6265 24.9513 0.0000 0.0000 90.0000 0.0000 0.0000 8.1599 -5.7521 75.0875 110.0000 0.0000 0.0000 35.7797 0.0000 0.0000 -2.5038 -10.7569 78.6932 110.0000 0.0000 0.0000 33.4120 0.0000 0.0000 -17.3661 -15.1373 82.6889 110.0000 0.0000 0.0000 37.0874 0.0000 0.0000 0.0000 0.0000 0.0000 0.0000 0.0000 0.0000 0.0000 0.0000 0.0000 0.0000 0.0000 0.0000 0.0000 0.0000 0.0000 0.0000 0.0000 0.0000
0.0000 95.0000 0.0000 0.0000 0.0000 0.0000 0.0000 0.0000 0.0000 0.0000 0.0000 0.0000 0.0000 0.0000 0.0000 0.0000 0.0000 0.0000 0.0000 0.0000 0.0000 0.0000 0.0000 0.0000 -73.4036 -4.4662 -5.9891 -46.3389 27.9760 266.2847 -57.2598 59.1992 -35.6850 93.8676 -15.2807 -17.7460 53.5695 0.0000 0.0000 23.0332 0.0000 0.0000 5.3900 -0.0571 -0.8240 110.0000 0.0000 0.0000 36.0631 0.0000 0.0000 2.7182 0.0358 -6.2808 110.0000 0.0000 0.0000 21.9248 0.0000 0.0000 7.4437 -0.9482 -7.1186 110.0000 0.0000 0.0000 23.4216 0.0000 0.0000 13.1048 -2.5647 -8.5826 110.0000 0.0000 0.0000 20.4959 0.0000 0.0000 0.0000 0.0000 0.0000 82.9595 -14.5744 16.4604 45.0268 83.4365 122.3713 -24.9825 2.9880 -40.6625 -72.9656 -14.9005 32.3204 48.7913 0.0000 0.0000 53.1687 0.0000 0.0000 29.5708 -6.4558 83.5748 9.9304 0.0000 0.0000 16.7100 0.0000 0.0000 21.0953 -18.9651 88.5588 18.1526 0.0000 0.0000 59.1085 0.0000 0.0000 11.8473 -25.0327 88.1183 40.2735 0.0000 0.0000 89.7725 0.0000 0.0000 -3.1627 -29.0701 89.8251 35.9001 0.0000 0.0000 63.6688 0.0000 0.0000 0.0000 0.0000 0.0000 0.0000 0.0000 0.0000 0.0000 0.0000 0.0000 0.0000 0.0000 0.0000 0.0000 0.0000 0.0000 0.0000 0.0000 0.0000
0.0000 95.0000 0.0000 0.0000 0.0000 0.0000 0.0000 0.0000 0.0000 0.0000 0.0000 0.0000 0.0000 0.0000 0.0000 0.0000 0.0000 0.0000 0.0000 0.0000 0.0000 0.0000 0.0000 0.0000 -72.2186 -3.0984 -4.2466 -37.2218 15.6479 309.3247 61.3109 80.2835 80.4117 74.4512 -14.7141 -35.0418 47.0388 0.0000 0.0000 17.4677 0.0000 0.0000 -3.5189 3.2999 -20.8577 110.0000 0.0000 0.0000 31.0690 0.0000 0.0000 4.4245 0.7798 -24.7535 110.0000 0.0000 0.0000 34.7693 0.0000 0.0000 9.6935 -1.9807 -26.0011 110.0000 0.0000 0.0000 34.8477 0.0000 0.0000 15.0421 -5.1227 -23.8649 110.0000 0.0000 0.0000 38.0216 0.0000 0.0000 0.0000 0.0000 0.0000 82.9789 -10.7252 12.1173 20.3764 57.3902 78.0582 55.4754 44.9540 21.8705 -96.0478 -10.9612 39.6300 41.0376 0.0000 0.0000 23.6573 0.0000 0.0000 -87.3337 -6.3271 -0.2305 6.0118 0.0000 0.0000 45.5014 0.0000 0.0000 -86.9547 9.1803 14.4513 27.9888 0.0000 0.0000 38.8637 0.0000 0.0000 -81.4874 8.5489 20.9328 49.2477 0.0000 0.0000 15.1318 0.0000 0.0000 -72.0532 4.1714 27.1185 65.8997 0.0000 0.0000 12.5528 0.0000 0.0000 0.0000 0.0000 0.0000 0.0000 0.0000 0.0000 0.0000 0.0000 0.0000 0.0000 0.0000 0.0000 0.0000 0.0000 0.0000 0.0000 0.0000 0.0000
0.0000 95.0000 0.0000 0.0000 0.0000 0.0000 0.0000 0.0000 0.0000 0.0000 0.0000 0.0000 0.0000 0.0000 0.0000 0.0000 0.0000 0.0000 0.0000 0.0000 0.0000 0.0000 0.0000 0.0000 -73.6810 0.8154 1.0883 -27.7816 10.9799 335.1572 109.2297 81.1688 122.2642 46.5739 -11.9824 -7.3809 13.0033 0.0000 0.0000 10.9282 0.0000 0.0000 6.3120 5.0580 -22.2642 110.0000 0.0000 0.0000 35.0805 0.0000 0.0000 12.6284 2.1517 -24.0366 110.0000 0.0000 0.0000 35.1798 0.0000 0.0000 18.6011 -0.4796 -24.1039 110.0000 0.0000 0.0000 38.4403 0.0000 0.0000 24.8937 -3.5957 -22.1386 94.5552 0.0000 0.0000 46.6414 0.0000 0.0000 0.0000 0.0000 0.0000 83.9854 -7.1567 7.9480 15.9270 36.5212 51.3752 28.2184 67.2543 1.2511 -67.6958 -15.5157 33.7298 36.4537 0.0000 0.0000 17.3601 0.0000 0.0000 2.2169 4.0001 23.9783 110.0000 0.0000 0.0000 28.1550 0.0000 0.0000 -14.6269 3.6992 33.0187 110.0000 0.0000 0.0000 34.1499 0.0000 0.0000 -22.6959 0.8480 35.3123 110.0000 0.0000 0.0000 35.8945 0.0000 0.0000 -36.5891 -1.8358 35.7109 110.0000 0.0000 0.0000 35.6625 0.0000 0.0000 0.0000 0.0000 0.0000 0.0000 0.0000 0.0000 0.0000 0.0000 0.0000 0.0000 0.0000 0.0000 0.0000 0.0000 0.0000 0.0000 0.0000 0.0000
0.0000 95.0000 0.0000 0.0000 0.0000 0.0000 0.0000 0.0000 0.0000 0.0000 0.0000 0.0000 0.0000 0.0000 0.0000 0.0000 0.0000 0.0000 0.0000 0.0000 0.0000 0.0000 0.0000 0.0000 -75.4744 2.7207 3.5150 -19.5983 8.8704 344.8748 159.3190 76.7705 162.5140 46.5739 -11.9824 -7.3809 13.0033 0.0000 0.0000 10.9282 0.0000 0.0000 6.3120 5.0580 -22.2642 110.0000 0.0000 0.0000 35.0805 0.0000 0.0000 12.6284 2.1517 -24.0366 110.0000 0.0000 0.0000 35.1798 0.0000 0.0000 18.6011 -0.4796 -24.1039 110.0000 0.0000 0.0000 38.4403 0.0000 0.0000 24.8937 -3.5957 -22.1386 94.5552 0.0000 0.0000 46.6414 0.0000 0.0000 0.0000 0.0000 0.0000 84.9823 -4.8044 5.2442 10.4918 24.0137 31.4835 147.7499 83.7203 127.0370 -56.7583 -13.8406 12.4909 15.4110 0.0000 0.0000 10.4342 0.0000 0.0000 -3.8394 3.4506 16.7296 99.9115 0.0000 0.0000 44.2779 0.0000 0.0000 -15.5377 1.9282 18.8355 96.1743 0.0000 0.0000 48.2983 0.0000 0.0000 -21.8497 -0.3070 17.6475 96.8632 0.0000 0.0000 48.0328 0.0000 0.0000 -30.5644 -2.7152 16.2992 81.0980 0.0000 0.0000 59.9600 0.0000 0.0000 0.0000 0.0000 0.0000 0.0000 0.0000 0.0000 0.0000 0.0000 0.0000 0.0000 0.0000 0.0000 0.0000 0.0000 0.0000 0.0000 0.0000 0.0000
0.0000 95.0000 0.0000 0.0000 0.0000 0.0000 0.0000 0.0000 0.0000 0.0000 0.0000 0.0000 0.0000 0.0000 0.0000 0.0000 0.0000 0.0000 0.0000 0.0000 0.0000 0.0000 0.0000 0.0000 -76.9365 4.0002 5.0334 -14.3549 6.5231 350.8003 174.7899 71.7650 171.5585 46.5739 -11.9824 -7.3809 13.0033 0.0000 0.0000 10.9282 0.0000 0.0000 6.3120 5.0580 -22.2642 110.0000 0.0000 0.0000 35.0805 0.0000 0.0000 12.6284 2.1517 -24.0366 110.0000 0.0000 0.0000 35.1798 0.0000 0.0000 18.6011 -0.4796 -24.1039 110.0000 0.0000 0.0000 38.4403 0.0000 0.0000 24.8937 -3.5957 -22.1386 94.5552 0.0000 0.0000 46.6414 0.0000 0.0000 0.0000 0.0000 0.0000 86.7108 -3.3318 3.5286 4.6081 16.1533 18.5991 178.4281 73.4423 169.2075 -56.7583 -13.8406 12.4909 15.4110 0.0000 0.0000 10.4342 0.0000 0.0000 -3.8394 3.4506 16.7296 99.9115 0.0000 0.0000 44.2779 0.0000 0.0000 -15.5377 1.9282 18.8355 96.1743 0.0000 0.0000 48.2983 0.0000 0.0000 -21.8497 -0.3070 17.6475 96.8632 0.0000 0.0000 48.0328 0.0000 0.0000 -30.5644 -2.7152 16.2992 81.0980 0.0000 0.0000 59.9600 0.0000 0.0000 0.0000 0.0000 0.0000 0.0000 0.0000 0.0000 0.0000 0.0000 0.0000 0.0000 0.0000 0.0000 0.0000 0.0000 0.0000 0.0000 0.0000 0.0000
0.0000 95.0000 0.0000 0.0000 0.0000 0.0000 0.0000 0.0000 0.0000 0.0000 0.0000 0.0000 0.0000 0.0000 0.0000 0.0000 0.0000 0.0000 0.0000 0.0000 0.0000 0.0000 0.0000 0.0000 -78.2443 4.6969 5.7733 -10.7235 4.0066 355.2623 181.7141 67.7427 173.7242 46.5739 -11.9824 -7.3809 13.0033 0.0000 0.0000 10.9282 0.0000 0.0000 6.3120 5.0580 -22.2642 110.0000 0.0000 0.0000 35.0805 0.0000 0.0000 12.6284 2.1517 -24.0366 110.0000 0.0000 0.0000 35.1798 0.0000 0.0000 18.6011 -0.4796 -24.1039 110.0000 0.0000 0.0000 38.4403 0.0000 0.0000 24.8937 -3.5957 -22.1386 94.5552 0.0000 0.0000 46.6414 0.0000 0.0000 0.0000 0.0000 0.0000 87.5511 -2.5708 2.6831 1.5515 12.2912 13.1655 177.7163 68.1937 174.1812 -56.7583 -13.8406 12.4909 15.4110 0.0000 0.0000 10.4342 0.0000 0.0000 -3.8394 3.4506 16.7296 99.9115 0.0000 0.0000 44.2779 0.0000 0.0000 -15.5377 1.9282 18.8355 96.1743 0.0000 0.0000 48.2983 0.0000 0.0000 -21.8497 -0.3070 17.6475 96.8632 0.0000 0.0000 48.0328 0.0000 0.0000 -30.5644 -2.7152 16.2992 81.0980 0.0000 0.0000 59.9600 0.0000 0.0000 0.0000 0.0000 0.0000 0.0000 0.0000 0.0000 0.0000 0.0000 0.0000 0.0000 0.0000 0.0000 0.0000 0.0000 0.0000 0.0000 0.0000 0.0000
0.0000 95.0000 0.0000 0.0000 0.0000 0.0000 0.0000 0.0000 0.0000 0.0000 0.0000 0.0000 0.0000 0.0000 0.0000 0.0000 0.0000 0.0000 0.0000 0.0000 0.0000 0.0000 0.0000 0.0000 -79.3053 5.1903 6.2604 -7.6017 1.7009 358.5737 187.0533 64.6138 175.2639 46.5739 -11.9824 -7.3809 13.0033 0.0000 0.0000 10.9282 0.0000 0.0000 6.3120 5.0580 -22.2642 110.0000 0.0000 0.0000 35.0805 0.0000 0.0000 12.6284 2.1517 -24.0366 110.0000 0.0000 0.0000 35.1798 0.0000 0.0000 18.6011 -0.4796 -24.1039 110.0000 0.0000 0.0000 38.4403 0.0000 0.0000 24.8937 -3.5957 -22.1386 94.5552 0.0000 0.0000 46.6414 0.0000 0.0000 0.0000 0.0000 0.0000 87.9819 -2.2817 2.3634 -0.8378 10.4655 10.5998 174.5249 65.8222 173.9721 -56.7583 -13.8406 12.4909 15.4110 0.0000 0.0000 10.4342 0.0000 0.0000 -3.8394 3.4506 16.7296 99.9115 0.0000 0.0000 44.2779 0.0000 0.0000 -15.5377 1.9282 18.8355 96.1743 0.0000 0.0000 48.2983 0.0000 0.0000 -21.8497 -0.3070 17.6475 96.8632 0.0000 0.0000 48.0328 0.0000 0.0000 -30.5644 -2.7152 16.2992 81.0980 0.0000 0.0000 59.9600 0.0000 0.0000 0.0000 0.0000 0.0000 0.0000 0.0000 0.0000 0.0000 0.0000 0.0000 0.0000 0.0000 0.0000 0.0000 0.0000 0.0000 0.0000 0.0000 0.0000
0.0000 95.0000 0.0000 0.0000 0.0000 0.0000 0.0000 0.0000 0.0000 0.0000 0.0000 0.0000 0.0000 0.0000 0.0000 0.0000 0.0000 0.0000 0.0000 0.0000 0.0000 0.0000 0.0000 0.0000 -79.7649 5.7390 6.8655 -6.0425 -0.1120 360.9321 189.7784 62.0604 174.9947 46.5739 -11.9824 -7.3809 13.0033 0.0000 0.0000 10.9282 0.0000 0.0000 6.3120 5.0580 -22.2642 110.0000 0.0000 0.0000 35.0805 0.0000 0.0000 12.6284 2.1517 -24.0366 110.0000 0.0000 0.0000 35.1798 0.0000 0.0000 18.6011 -0.4796 -24.1039 110.0000 0.0000 0.0000 38.4403 0.0000 0.0000 24.8937 -3.5957 -22.1386 94.5552 0.0000 0.0000 46.6414 0.0000 0.0000 0.0000 0.0000 0.0000 88.1029 -1.7899 1.8501 -2.0905 8.6163 8.4969 173.1602 63.4693 175.3710 -56.7583 -13.8406 12.4909 15.4110 0.0000 0.0000 10.4342 0.0000 0.0000 -3.8394 3.4506 16.7296 99.9115 0.0000 0.0000 44.2779 0.0000 0.0000 -15.5377 1.9282 18.8355 96.1743 0.0000 0.0000 48.2983 0.0000 0.0000 -21.8497 -0.3070 17.6475 96.8632 0.0000 0.0000 48.0328 0.0000 0.0000 -30.5644 -2.7152 16.2992 81.0980 0.0000 0.0000 59.9600 0.0000 0.0000 0.0000 0.0000 0.0000 0.0000 0.0000 0.0000 0.0000 0.0000 0.0000 0.0000 0.0000 0.0000 0.0000 0.0000 0.0000 0.0000 0.0000 0.0000
0.0000 95.0000 0.0000 0.0000 0.0000 0.0000 0.0000 0.0000 0.0000 0.0000 0.0000 0.0000 0.0000 0.0000 0.0000 0.0000 0.0000 0.0000 0.0000 0.0000 0.0000 0.0000 0.0000 0.0000 -80.1901 6.0040 7.1285 -4.4566 -1.3405 362.2972 192.4288 60.5830 175.7805 46.5739 -11.9824 -7.3809 13.0033 0.0000 0.0000 10.9282 0.0000 0.0000 6.3120 5.0580 -22.2642 110.0000 0.0000 0.0000 35.0805 0.0000 0.0000 12.6284 2.1517 -24.0366 110.0000 0.0000 0.0000 35.1798 0.0000 0.0000 18.6011 -0.4796 -24.1039 110.0000 0.0000 0.0000 38.4403 0.0000 0.0000 24.8937 -3.5957 -22.1386 94.5552 0.0000 0.0000 46.6414 0.0000 0.0000 0.0000 0.0000 0.0000 88.1063 -1.6368 1.6918 -2.9784 8.3863 8.1237 171.3888 63.0384 174.3345 -56.7583 -13.8406 12.4909 15.4110 0.0000 0.0000 10.4342 0.0000 0.0000 -3.8394 3.4506 16.7296 99.9115 0.0000 0.0000 44.2779 0.0000 0.0000 -15.5377 1.9282 18.8355 96.1743 0.0000 0.0000 48.2983 0.0000 0.0000 -21.8497 -0.3070 17.6475 96.8632 0.0000 0.0000 48.0328 0.0000 0.0000 -30.5644 -2.7152 16.2992 81.0980 0.0000 0.0000 59.9600 0.0000 0.0000 0.0000 0.0000 0.0000 0.0000 0.0000 0.0000 0.0000 0.0000 0.0000 0.0000 0.0000 0.0000 0.0000 0.0000 0.0000 0.0000 0.0000 0.0000
0.0000 95.0000 0.0000 0.0000 0.0000 0.0000 0.0000 0.0000 0.0000 0.0000 0.0000 0.0000 0.0000 0.0000 0.0000 0.0000 0.0000 0.0000 0.0000 0.0000 0.0000 0.0000 0.0000 0.0000 -80.2481 6.8731 8.1511 -3.4139 -3.2222 364.5163 194.7476 57.7313 174.7110 46.5739 -11.9824 -7.3809 13.0033 0.0000 0.0000 10.9282 0.0000 0.0000 6.3120 5.0580 -22.2642 110.0000 0.0000 0.0000 35.0805 0.0000 0.0000 12.6284 2.1517 -24.0366 110.0000 0.0000 0.0000 35.1798 0.0000 0.0000 18.6011 -0.4796 -24.1039 110.0000 0.0000 0.0000 38.4403 0.0000 0.0000 24.8937 -3.5957 -22.1386 94.5552 0.0000 0.0000 46.6414 0.0000 0.0000 0.0000 0.0000 0.0000 88.3150 -0.9528 0.9812 -3.3753 7.3850 7.1063 171.5408 61.4259 176.2547 -56.7583 -13.8406 12.4909 15.4110 0.0000 0.0000 10.4342 0.0000 0.0000 -3.8394 3.4506 16.7296 99.9115 0.0000 0.0000 44.2779 0.0000 0.0000 -15.5377 1.9282 18.8355 96.1743 0.0000 0.0000 48.2983 0.0000 0.0000 -21.8497 -0.3070 17.6475 96.8632 0.0000 0.0000 48.0328 0.0000 0.0000 -30.5644 -2.7152 16.2992 81.0980 0.0000 0.0000 59.9600 0.0000 0.0000 0.0000 0.0000 0.0000 0.0000 0.0000 0.0000 0.0000 0.0000 0.0000 0.0000 0.0000 0.0000 0.0000 0.0000 0.0000 0.0000 0.0000 0.0000
0.0000 95.0000 0.0000 0.0000 0.0000 0.0000 0.0000 0.0000 0.0000 0.0000 0.0000 0.0000 0.0000 0.0000 0.0000 0.0000 0.0000 0.0000 0.0000 0.0000 0.0000 0.0000 0.0000 0.0000 -80.4314 7.3852 8.7296 -2.5387 -4.1322 365.4298 196.2362 56.3576 174.5025 46.5739 -11.9824 -7.3809 13.0033 0.0000 0.0000 10.9282 0.0000 0.0000 6.3120 5.0580 -22.2642 110.0000 0.0000 0.0000 35.0805 0.0000 0.0000 12.6284 2.1517 -24.0366 110.0000 0.0000 0.0000 35.1798 0.0000 0.0000 18.6011 -0.4796 -24.1039 110.0000 0.0000 0.0000 38.4403 0.0000 0.0000 24.8937 -3.5957 -22.1386 94.5552 0.0000 0.0000 46.6414 0.0000 0.0000 0.0000 0.0000 0.0000 88.3585 -1.1323 1.1653 -3.7545 7.7272 7.3633 170.6887 61.8813 175.0266 -56.7583 -13.8406 12.4909 15.4110 0.0000 0.0000 10.4342 0.0000 0.0000 -3.8394 3.4506 16.7296 99.9115 0.0000 0.0000 44.2779 0.0000 0.0000 -15.5377 1.9282 18.8355 96.1743 0.0000 0.0000 48.2983 0.0000 0.0000 -21.8497 -0.3070 17.6475 96.8632 0.0000 0.0000 48.0328 0.0000 0.0000 -30.5644 -2.7152 16.2992 81.0980 0.0000 0.0000 59.9600 0.0000 0.0000 0.0000 0.0000 0.0000 0.0000 0.0000 0.0000 0.0000 0.0000 0.0000 0.0000 0.0000 0.0000 0.0000 0.0000 0.0000 0.0000 0.0000 0.0000
0.0000 95.0000 0.0000 0.0000 0.0000 0.0000 0.0000 0.0000 0.0000 0.0000 0.0000 0.0000 0.0000 0.0000 0.0000 0.0000 0.0000 0.0000 0.0000 0.0000 0.0000 0.0000 0.0000 0.0000 -80.6943 7.6212 8.9665 -1.8127 -4.4848 365.6486 197.1342 55.8669 174.7559 46.5739 -11.9824 -7.3809 13.0033 0.0000 0.0000 10.9282 0.0000 0.0000 6.3120 5.0580 -22.2642 110.0000 0.0000 0.0000 35.0805 0.0000 0.0000 12.6284 2.1517 -24.0366 110.0000 0.0000 0.0000 35.1798 0.0000 0.0000 18.6011 -0.4796 -24.1039 110.0000 0.0000 0.0000 38.4403 0.0000 0.0000 24.8937 -3.5957 -22.1386 94.5552 0.0000 0.0000 46.6414 0.0000 0.0000 0.0000 0.0000 0.0000 88.3455 -0.9250 0.9521 -4.0367 7.4093 7.0355 170.2443 61.3783 175.2118 -56.7583 -13.8406 12.4909 15.4110 0.0000 0.0000 10.4342 0.0000 0.0000 -3.8394 3.4506 16.7296 99.9115 0.0000 0.0000 44.2779 0.0000 0.0000 -15.5377 1.9282 18.8355 96.1743 0.0000 0.0000 48.2983 0.0000 0.0000 -21.8497 -0.3070 17.6475 96.8632 0.0000 0.0000 48.0328 0.0000 0.0000 -30.5644 -2.7152 16.2992 81.0980 0.0000 0.0000 59.9600 0.0000 0.0000 0.0000 0.0000 0.0000 0.0000 0.0000 0.0000 0.0000 0.0000 0.0000 0.0000 0.0000 0.0000 0.0000 0.0000 0.0000 0.0000 0.0000 0.0000
0.0000 95.0000 0.0000 0.0000 0.0000 0.0000 0.0000 0.0000 0.0000 0.0000 0.0000 0.0000 0.0000 0.0000 0.0000 0.0000 0.0000 0.0000 0.0000 0.0000 0.0000 0.0000 0.0000 0.0000 -80.9147 7.9082 9.2678 -1.4986 -4.6687 365.7656 197.3209 55.4561 174.4526 46.5739 -11.9824 -7.3809 13.0033 0.0000 0.0000 10.9282 0.0000 0.0000 6.3120 5.0580 -22.2642 110.0000 0.0000 0.0000 35.0805 0.0000 0.0000 12.6284 2.1517 -24.0366 110.0000 0.0000 0.0000 35.1798 0.0000 0.0000 18.6011 -0.4796 -24.1039 110.0000 0.0000 0.0000 38.4403 0.0000 0.0000 24.8937 -3.5957 -22.1386 94.5552 0.0000 0.0000 46.6414 0.0000 0.0000 0.0000 0.0000 0.0000 88.3348 -1.3310 1.3703 -4.2098 7.5895 7.1510 169.7288 61.9015 174.1824 -56.7583 -13.8406 12.4909 15.4110 0.0000 0.0000 10.4342 0.0000 0.0000 -3.8394 3.4506 16.7296 99.9115 0.0000 0.0000 44.2779 0.0000 0.0000 -15.5377 1.9282 18.8355 96.1743 0.0000 0.0000 48.2983 0.0000 0.0000 -21.8497 -0.3070 17.6475 96.8632 0.0000 0.0000 48.0328 0.0000 0.0000 -30.5644 -2.7152 16.2992 81.0980 0.0000 0.0000 59.9600 0.0000 0.0000 0.0000 0.0000 0.0000 0.0000 0.0000 0.0000 0.0000 0.0000 0.0000 0.0000 0.0000 0.0000 0.0000 0.0000 0.0000 0.0000 0.0000 0.0000
0.0000 95.0000 0.0000 0.0000 0.0000 0.0000 0.0000 0.0000 0.0000 0.0000 0.0000 0.0000 0.0000 0.0000 0.0000 0.0000 0.0000 0.0000 0.0000 0.0000 0.0000 0.0000 0.0000 0.0000 -81.0575 8.1280 9.5011 -1.5517 -4.9430 366.0885 197.0591 54.9735 173.6593 46.5739 -11.9824 -7.3809 13.0033 0.0000 0.0000 10.9282 0.0000 0.0000 6.3120 5.0580 -22.2642 110.0000 0.0000 0.0000 35.0805 0.0000 0.0000 12.6284 2.1517 -24.0366 110.0000 0.0000 0.0000 35.1798 0.0000 0.0000 18.6011 -0.4796 -24.1039 110.0000 0.0000 0.0000 38.4403 0.0000 0.0000 24.8937 -3.5957 -22.1386 94.5552 0.0000 0.0000 46.6414 0.0000 0.0000 0.0000 0.0000 0.0000 88.1881 -0.9702 1.0014 -4.1208 7.1439 6.7850 169.8477 61.1787 175.0988 -56.7583 -13.8406 12.4909 15.4110 0.0000 0.0000 10.4342 0.0000 0.0000 -3.8394 3.4506 16.7296 99.9115 0.0000 0.0000 44.2779 0.0000 0.0000 -15.5377 1.9282 18.8355 96.1743 0.0000 0.0000 48.2983 0.0000 0.0000 -21.8497 -0.3070 17.6475 96.8632 0.0000 0.0000 48.0328 0.0000 0.0000 -30.5644 -2.7152 16.2992 81.0980 0.0000 0.0000 59.9600 0.0000 0.0000 0.0000 0.0000 0.0000 0.0000 0.0000 0.0000 0.0000 0.0000 0.0000 0.0000 0.0000 0.0000 0.0000 0.0000 0.0000 0.0000 0.0000 0.0000
0.0000 95.0000 0.0000 0.0000 0.0000 0.0000 0.0000 0.0000 0.0000 0.0000 0.0000 0.0000 0.0000 0.0000 0.0000 0.0000 0.0000 0.0000 0.0000 0.0000 0.0000 0.0000 0.0000 0.0000 -81.3143 7.7294 8.9950 -1.6910 -4.5406 365.6235 196.2651 55.8088 173.9021 46.5739 -11.9824 -7.3809 13.0033 0.0000 0.0000 10.9282 0.0000 0.0000 6.3120 5.0580 -22.2642 110.0000 0.0000 0.0000 35.0805 0.0000 0.0000 12.6284 2.1517 -24.0366 110.0000 0.0000 0.0000 35.1798 0.0000 0.0000 18.6011 -0.4796 -24.1039 110.0000 0.0000 0.0000 38.4403 0.0000 0.0000 24.8937 -3.5957 -22.1386 94.5552 0.0000 0.0000 46.6414 0.0000 0.0000 0.0000 0.0000 0.0000 88.1999 -1.2562 1.2963 -4.2924 7.0321 6.6296 169.5314 61.3246 174.6644 -56.7583 -13.8406 12.4909 15.4110 0.0000 0.0000 10.4342 0.0000 0.0000 -3.8394 3.4506 16.7296 99.9115 0.0000 0.0000 44.2779 0.0000 0.0000 -15.5377 1.9282 18.8355 96.1743 0.0000 0.0000 48.2983 0.0000 0.0000 -21.8497 -0.3070 17.6475 96.8632 0.0000 0.0000 48.0328 0.0000 0.0000 -30.5644 -2.7152 16.2992 81.0980 0.0000 0.0000 59.9600 0.0000 0.0000 0.0000 0.0000 0.0000 0.0000 0.0000 0.0000 0.0000 0.0000 0.0000 0.0000 0.0000 0.0000 0.0000 0.0000 0.0000 0.0000 0.0000 0.0000
0.0000 95.0000 0.0000 0.0000 0.0000 0.0000 0.0000 0.0000 0.0000 0.0000 0.0000 0.0000 0.0000 0.0000 0.0000 0.0000 0.0000 0.0000 0.0000 0.0000 0.0000 0.0000 0.0000 0.0000 -81.3417 7.4959 8.7193 -1.3757 -4.4219 365.3999 196.7491 56.2022 174.7904 46.5739 -11.9824 -7.3809 13.0033 0.0000 0.0000 10.9282 0.0000 0.0000 6.3120 5.0580 -22.2642 110.0000 0.0000 0.0000 35.0805 0.0000 0.0000 12.6284 2.1517 -24.0366 110.0000 0.0000 0.0000 35.1798 0.0000 0.0000 18.6011 -0.4796 -24.1039 110.0000 0.0000 0.0000 38.4403 0.0000 0.0000 24.8937 -3.5957 -22.1386 94.5552 0.0000 0.0000 46.6414 0.0000 0.0000 0.0000 0.0000 0.0000 88.1357 -1.2492 1.2905 -4.2023 7.1389 6.7523 169.5363 61.4258 174.5543 -56.7583 -13.8406 12.4909 15.4110 0.0000 0.0000 10.4342 0.0000 0.0000 -3.8394 3.4506 16.7296 99.9115 0.0000 0.0000 44.2779 0.0000 0.0000 -15.5377 1.9282 18.8355 96.1743 0.0000 0.0000 48.2983 0.0000 0.0000 -21.8497 -0.3070 17.6475 96.8632 0.0000 0.0000 48.0328 0.0000 0.0000 -30.5644 -2.7152 16.2992 81.0980 0.0000 0.0000 59.9600 0.0000 0.0000 0.0000 0.0000 0.0000 0.0000 0.0000 0.0000 0.0000 0.0000 0.0000 0.0000 0.0000 0.0000 0.0000 0.0000 0.0000 0.0000 0.0000 0.0000
0.0000 95.0000 0.0000 0.0000 0.0000 0.0000 0.0000 0.0000 0.0000 0.0000 0.0000 0.0000 0.0000 0.0000 0.0000 0.0000 0.0000 0.0000 0.0000 0.0000 0.0000 0.0000 0.0000 0.0000 -81.3211 7.2623 8.4509 -1.0909 -4.1862 365.0567 197.2457 56.6972 175.8125 46.5739 -11.9824 -7.3809 13.0033 0.0000 0.0000 10.9282 0.0000 0.0000 6.3120 5.0580 -22.2642 110.0000 0.0000 0.0000 35.0805 0.0000 0.0000 12.6284 2.1517 -24.0366 110.0000 0.0000 0.0000 35.1798 0.0000 0.0000 18.6011 -0.4796 -24.1039 110.0000 0.0000 0.0000 38.4403 0.0000 0.0000 24.8937 -3.5957 -22.1386 94.5552 0.0000 0.0000 46.6414 0.0000 0.0000 0.0000 0.0000 0.0000 88.2364 -1.2423 1.2811 -4.2877 7.0530 6.6472 169.6106 61.3296 174.7265 -56.7583 -13.8406 12.4909 15.4110 0.0000 0.0000 10.4342 0.0000 0.0000 -3.8394 3.4506 16.7296 99.9115 0.0000 0.0000 44.2779 0.0000 0.0000 -15.5377 1.9282 18.8355 96.1743 0.0000 0.0000 48.2983 0.0000 0.0000 -21.8497 -0.3070 17.6475 96.8632 0.0000 0.0000 48.0328 0.0000 0.0000 -30.5644 -2.7152 16.2992 81.0980 0.0000 0.0000 59.9600 0.0000 0.0000 0.0000 0.0000 0.0000 0.0000 0.0000 0.0000 0.0000 0.0000 0.0000 0.0000 0.0000 0.0000 0.0000 0.0000 0.0000 0.0000 0.0000 0.0000
0.0000 95.0000 0.0000 0.0000 0.0000 0.0000 0.0000 0.0000 0.0000 0.0000 0.0000 0.0000 0.0000 0.0000 0.0000 0.0000 0.0000 0.0000 0.0000 0.0000 0.0000 0.0000 0.0000 0.0000 -81.1746 7.4470 8.6880 -1.7850 -4.0537 365.0834 196.2095 56.5624 174.7119 46.5739 -11.9824 -7.3809 13.0033 0.0000 0.0000 10.9282 0.0000 0.0000 6.3120 5.0580 -22.2642 110.0000 0.0000 0.0000 35.0805 0.0000 0.0000 12.6284 2.1517 -24.0366 110.0000 0.0000 0.0000 35.1798 0.0000 0.0000 18.6011 -0.4796 -24.1039 110.0000 0.0000 0.0000 38.4403 0.0000 0.0000 24.8937 -3.5957 -22.1386 94.5552 0.0000 0.0000 46.6414 0.0000 0.0000 0.0000 0.0000 0.0000 88.3837 -1.3412 1.3795 -4.3552 6.8080 6.3795 169.8687 61.1843 175.1104 -56.7583 -13.8406 12.4909 15.4110 0.0000 0.0000 10.4342 0.0000 0.0000 -3.8394 3.4506 16.7296 99.9115 0.0000 0.0000 44.2779 0.0000 0.0000 -15.5377 1.9282 18.8355 96.1743 0.0000 0.0000 48.2983 0.0000 0.0000 -21.8497 -0.3070 17.6475 96.8632 0.0000 0.0000 48.0328 0.0000 0.0000 -30.5644 -2.7152 16.2992 81.0980 0.0000 0.0000 59.9600 0.0000 0.0000 0.0000 0.0000 0.0000 0.0000 0.0000 0.0000 0.0000 0.0000 0.0000 0.0000 0.0000 0.0000 0.0000 0.0000 0.0000 0.0000 0.0000 0.0000
0.0000 95.0000 0.0000 0.0000 0.0000 0.0000 0.0000 0.0000 0.0000 0.0000 0.0000 0.0000 0.0000 0.0000 0.0000 0.0000 0.0000 0.0000 0.0000 0.0000 0.0000 0.0000 0.0000 0.0000 -80.9841 7.8309 9.1661 -1.6446 -4.1692 365.2087 196.7888 56.0394 174.6399 46.5739 -11.9824 -7.3809 13.0033 0.0000 0.0000 10.9282 0.0000 0.0000 6.3120 5.0580 -22.2642 110.0000 0.0000 0.0000 35.0805 0.0000 0.0000 12.6284 2.1517 -24.0366 110.0000 0.0000 0.0000 35.1798 0.0000 0.0000 18.6011 -0.4796 -24.1039 110.0000 0.0000 0.0000 38.4403 0.0000 0.0000 24.8937 -3.5957 -22.1386 94.5552 0.0000 0.0000 46.6414 0.0000 0.0000 0.0000 0.0000 0.0000 88.4949 -1.1086 1.1381 -4.5723 6.6822 6.2393 169.7345 60.8365 175.3881 -56.7583 -13.8406 12.4909 15.4110 0.0000 0.0000 10.4342 0.0000 0.0000 -3.8394 3.4506 16.7296 99.9115 0.0000 0.0000 44.2779 0.0000 0.0000 -15.5377 1.9282 18.8355 96.1743 0.0000 0.0000 48.2983 0.0000 0.0000 -21.8497 -0.3070 17.6475 96.8632 0.0000 0.0000 48.0328 0.0000 0.0000 -30.5644 -2.7152 16.2992 81.0980 0.0000 0.0000 59.9600 0.0000 0.0000 0.0000 0.0000 0.0000 0.0000 0.0000 0.0000 0.0000 0.0000 0.0000 0.0000 0.0000 0.0000 0.0000 0.0000 0.0000 0.0000 0.0000 0.0000
0.0000 95.0000 0.0000 0.0000 0.0000 0.0000 0.0000 0.0000 0.0000 0.0000 0.0000 0.0000 0.0000 0.0000 0.0000 0.0000 0.0000 0.0000 0.0000 0.0000 0.0000 0.0000 0.0000 0.0000 -80.6972 7.4417 8.7551 -1.5284 -3.7951 364.7574 197.4464 56.7799 176.0924 46.5739 -11.9824 -7.3809 13.0033 0.0000 0.0000 10.9282 0.0000 0.0000 6.3120 5.0580 -22.2642 110.0000 0.0000 0.0000 35.0805 0.0000 0.0000 12.6284 2.1517 -24.0366 110.0000 0.0000 0.0000 35.1798 0.0000 0.0000 18.6011 -0.4796 -24.1039 110.0000 0.0000 0.0000 38.4403 0.0000 0.0000 24.8937 -3.5957 -22.1386 94.5552 0.0000 0.0000 46.6414 0.0000 0.0000 0.0000 0.0000 0.0000 88.5283 -1.4071 1.4437 -4.5649 7.1224 6.6265 169.6051 61.5072 174.5213 -56.7583 -13.8406 12.4909 15.4110 0.0000 0.0000 10.4342 0.0000 0.0000 -3.8394 3.4506 16.7296 99.9115 0.0000 0.0000 44.2779 0.0000 0.0000 -15.5377 1.9282 18.8355 96.1743 0.0000 0.0000 48.2983 0.0000 0.0000 -21.8497 -0.3070 17.6475 96.8632 0.0000 0.0000 48.0328 0.0000 0.0000 -30.5644 -2.7152 16.2992 81.0980 0.0000 0.0000 59.9600 0.0000 0.0000 0.0000 0.0000 0.0000 0.0000 0.0000 0.0000 0.0000 0.0000 0.0000 0.0000 0.0000 0.0000 0.0000 0.0000 0.0000 0.0000 0.0000 0.0000
0.0000 95.0000 0.0000 0.0000 0.0000 0.0000 0.0000 0.0000 0.0000 0.0000 0.0000 0.0000 0.0000 0.0000 0.0000 0.0000 0.0000 0.0000 0.0000 0.0000 0.0000 0.0000 0.0000 0.0000 -80.4818 7.4790 8.8324 -1.4277 -3.5841 364.5018 197.9537 56.9282 176.7325 46.5739 -11.9824 -7.3809 13.0033 0.0000 0.0000 10.9282 0.0000 0.0000 6.3120 5.0580 -22.2642 110.0000 0.0000 0.0000 35.0805 0.0000 0.0000 12.6284 2.1517 -24.0366 110.0000 0.0000 0.0000 35.1798 0.0000 0.0000 18.6011 -0.4796 -24.1039 110.0000 0.0000 0.0000 38.4403 0.0000 0.0000 24.8937 -3.5957 -22.1386 94.5552 0.0000 0.0000 46.6414 0.0000 0.0000 0.0000 0.0000 0.0000 88.6716 -1.3431 1.3746 -4.5541 7.1789 6.6704 169.9137 61.4944 174.7997 -56.7583 -13.8406 12.4909 15.4110 0.0000 0.0000 10.4342 0.0000 0.0000 -3.8394 3.4506 16.7296 99.9115 0.0000 0.0000 44.2779 0.0000 0.0000 -15.5377 1.9282 18.8355 96.1743 0.0000 0.0000 48.2983 0.0000 0.0000 -21.8497 -0.3070 17.6475 96.8632 0.0000 0.0000 48.0328 0.0000 0.0000 -30.5644 -2.7152 16.2992 81.0980 0.0000 0.0000 59.9600 0.0000 0.0000 0.0000 0.0000 0.0000 0.0000 0.0000 0.0000 0.0000 0.0000 0.0000 0.0000 0.0000 0.0000 0.0000 0.0000 0.0000 0.0000 0.0000 0.0000
0.0000 95.0000 0.0000 0.0000 0.0000 0.0000 0.0000 0.0000 0.0000 0.0000 0.0000 0.0000 0.0000 0.0000 0.0000 0.0000 0.0000 0.0000 0.0000 0.0000 0.0000 0.0000 0.0000 0.0000 -80.1473 7.5622 8.9835 -1.6781 -3.6340 364.6491 198.1008 56.7181 176.6262 46.5739 -11.9824 -7.3809 13.0033 0.0000 0.0000 10.9282 0.0000 0.0000 6.3120 5.0580 -22.2642 110.0000 0.0000 0.0000 35.0805 0.0000 0.0000 12.6284 2.1517 -24.0366 110.0000 0.0000 0.0000 35.1798 0.0000 0.0000 18.6011 -0.4796 -24.1039 110.0000 0.0000 0.0000 38.4403 0.0000 0.0000 24.8937 -3.5957 -22.1386 94.5552 0.0000 0.0000 46.6414 0.0000 0.0000 0.0000 0.0000 0.0000 88.7448 -1.0009 1.0231 -4.7250 7.1892 6.6785 169.7576 61.1760 175.0250 -56.7583 -13.8406 12.4909 15.4110 0.0000 0.0000 10.4342 0.0000 0.0000 -3.8394 3.4506 16.7296 99.9115 0.0000 0.0000 44.2779 0.0000 0.0000 -15.5377 1.9282 18.8355 96.1743 0.0000 0.0000 48.2983 0.0000 0.0000 -21.8497 -0.3070 17.6475 96.8632 0.0000 0.0000 48.0328 0.0000 0.0000 -30.5644 -2.7152 16.2992 81.0980 0.0000 0.0000 59.9600 0.0000 0.0000 0.0000 0.0000 0.0000 0.0000 0.0000 0.0000 0.0000 0.0000 0.0000 0.0000 0.0000 0.0000 0.0000 0.0000 0.0000 0.0000 0.0000 0.0000
0.0000 95.0000 0.0000 0.0000 0.0000 0.0000 0.0000 0.0000 0.0000 0.0000 0.0000 0.0000 0.0000 0.0000 0.0000 0.0000 0.0000 0.0000 0.0000 0.0000 0.0000 0.0000 0.0000 0.0000 -80.4342 7.3854 8.7293 -1.1782 -3.5658 364.4244 198.5033 57.0467 177.3815 46.5739 -11.9824 -7.3809 13.0033 0.0000 0.0000 10.9282 0.0000 0.0000 6.3120 5.0580 -22.2642 110.0000 0.0000 0.0000 35.0805 0.0000 0.0000 12.6284 2.1517 -24.0366 110.0000 0.0000 0.0000 35.1798 0.0000 0.0000 18.6011 -0.4796 -24.1039 110.0000 0.0000 0.0000 38.4403 0.0000 0.0000 24.8937 -3.5957 -22.1386 94.5552 0.0000 0.0000 46.6414 0.0000 0.0000 0.0000 0.0000 0.0000 88.8457 -1.2518 1.2773 -5.0177 7.1926 6.6071 169.3366 61.3789 174.4361 -56.7583 -13.8406 12.4909 15.4110 0.0000 0.0000 10.4342 0.0000 0.0000 -3.8394 3.4506 16.7296 99.9115 0.0000 0.0000 44.2779 0.0000 0.0000 -15.5377 1.9282 18.8355 96.1743 0.0000 0.0000 48.2983 0.0000 0.0000 -21.8497 -0.3070 17.6475 96.8632 0.0000 0.0000 48.0328 0.0000 0.0000 -30.5644 -2.7152 16.2992 81.0980 0.0000 0.0000 59.9600 0.0000 0.0000 0.0000 0.0000 0.0000 0.0000 0.0000 0.0000 0.0000 0.0000 0.0000 0.0000 0.0000 0.0000 0.0000 0.0000 0.0000 0.0000 0.0000 0.0000
0.0000 95.0000 0.0000 0.0000 0.0000 0.0000 0.0000 0.0000 0.0000 0.0000 0.0000 0.0000 0.0000 0.0000 0.0000 0.0000 0.0000 0.0000 0.0000 0.0000 0.0000 0.0000 0.0000 0.0000 -80.5319 7.1093 8.3888 -1.3297 -3.6470 364.5444 198.1229 57.2514 177.2630 46.5739 -11.9824 -7.3809 13.0033 0.0000 0.0000 10.9282 0.0000 0.0000 6.3120 5.0580 -22.2642 110.0000 0.0000 0.0000 35.0805 0.0000 0.0000 12.6284 2.1517 -24.0366 110.0000 0.0000 0.0000 35.1798 0.0000 0.0000 18.6011 -0.4796 -24.1039 110.0000 0.0000 0.0000 38.4403 0.0000 0.0000 24.8937 -3.5957 -22.1386 94.5552 0.0000 0.0000 46.6414 0.0000 0.0000 0.0000 0.0000 0.0000 89.1237 -1.1934 1.2118 -5.2556 7.0517 6.4181 169.4995 61.1690 174.8128 -56.7583 -13.8406 12.4909 15.4110 0.0000 0.0000 10.4342 0.0000 0.0000 -3.8394 3.4506 16.7296 99.9115 0.0000 0.0000 44.2779 0.0000 0.0000 -15.5377 1.9282 18.8355 96.1743 0.0000 0.0000 48.2983 0.0000 0.0000 -21.8497 -0.3070 17.6475 96.8632 0.0000 0.0000 48.0328 0.0000 0.0000 -30.5644 -2.7152 16.2992 81.0980 0.0000 0.0000 59.9600 0.0000 0.0000 0.0000 0.0000 0.0000 0.0000 0.0000 0.0000 0.0000 0.0000 0.0000 0.0000 0.0000 0.0000 0.0000 0.0000 0.0000 0.0000 0.0000 0.0000
0.0000 95.0000 0.0000 0.0000 0.0000 0.0000 0.0000 0.0000 0.0000 0.0000 0.0000 0.0000 0.0000 0.0000 0.0000 0.0000 0.0000 0.0000 0.0000 0.0000 0.0000 0.0000 0.0000 0.0000 -80.5515 6.7696 7.9856 -1.5730 -3.4495 364.3567 197.6582 57.7885 177.4482 46.5739 -11.9824 -7.3809 13.0033 0.0000 0.0000 10.9282 0.0000 0.0000 6.3120 5.0580 -22.2642 110.0000 0.0000 0.0000 35.0805 0.0000 0.0000 12.6284 2.1517 -24.0366 110.0000 0.0000 0.0000 35.1798 0.0000 0.0000 18.6011 -0.4796 -24.1039 110.0000 0.0000 0.0000 38.4403 0.0000 0.0000 24.8937 -3.5957 -22.1386 94.5552 0.0000 0.0000 46.6414 0.0000 0.0000 0.0000 0.0000 0.0000 89.2072 -1.3197 1.3381 -5.4391 7.1027 6.4186 169.2623 61.3102 174.4501 -56.7583 -13.8406 12.4909 15.4110 0.0000 0.0000 10.4342 0.0000 0.0000 -3.8394 3.4506 16.7296 99.9115 0.0000 0.0000 44.2779 0.0000 0.0000 -15.5377 1.9282 18.8355 96.1743 0.0000 0.0000 48.2983 0.0000 0.0000 -21.8497 -0.3070 17.6475 96.8632 0.0000 0.0000 48.0328 0.0000 0.0000 -30.5644 -2.7152 16.2992 81.0980 0.0000 0.0000 59.9600 0.0000 0.0000 0.0000 0.0000 0.0000 0.0000 0.0000 0.0000 0.0000 0.0000 0.0000 0.0000 0.0000 0.0000 0.0000 0.0000 0.0000 0.0000 0.0000 0.0000
