HIERARCHY
ROOT Hips
{
  OFFSET 0.000000 95.000000 0.000000
  CHANNELS 6 Xposition Yposition Zposition Zrotation Xrotation Yrotation
  JOINT Spine
  {
    OFFSET 0.000000 10.000000 0.000000
    CHANNELS 3 Zrotation Xrotation Yrotation
    JOINT Spine1
    {
      OFFSET 0.000000 12.000000 0.000000
      CHANNELS 3 Zrotation Xrotation Yrotation
      JOINT Spine2
      {
        OFFSET 0.000000 12.000000 0.000000
        CHANNELS 3 Zrotation Xrotation Yrotation
        JOINT Neck
        {
          OFFSET 0.000000 10.000000 0.000000
          CHANNELS 3 Zrotation Xrotation Yrotation
          JOINT Head
          {
            OFFSET 0.000000 8.000000 0.000000
            CHANNELS 3 Zrotation Xrotation Yrotation
            End Site
            {
              OFFSET 0.000000 10.000000 0.000000
            }
          }
        }
        JOINT LeftShoulder
        {
          OFFSET 6.000000 8.000000 0.000000
          CHANNELS 3 Zrotation Xrotation Yrotation
          JOINT LeftArm
          {
            OFFSET 12.000000 0.000000 0.000000
            CHANNELS 3 Zrotation Xrotation Yrotation
            JOINT LeftForeArm
            {
              OFFSET 24.000000 0.000000 0.000000
              CHANNELS 3 Zrotation Xrotation Yrotation
              JOINT LeftHand
              {
                OFFSET 22.000000 0.000000 0.000000
                CHANNELS 3 Zrotation Xrotation Yrotation
                JOINT LeftHandThumb1
                {
                  OFFSET 1.800000 -1.400000 0.500000
                  CHANNELS 3 Zrotation Xrotation Yrotation
                  JOINT LeftHandThumb2
                  {
                    OFFSET 2.400000 0.000000 0.000000
                    CHANNELS 3 Zrotation Xrotation Yrotation
                    JOINT LeftHandThumb3
                    {
                      OFFSET 1.900000 0.000000 0.000000
                      CHANNELS 3 Zrotation Xrotation Yrotation
                      End Site
                      {
                        OFFSET 1.600000 0.000000 0.000000
                      }
                    }
                  }
                }
                JOINT LeftHandIndex1
                {
                  OFFSET 6.600000 1.200000 0.300000
                  CHANNELS 3 Zrotation Xrotation Yrotation
                  JOINT LeftHandIndex2
                  {
                    OFFSET 2.000000 0.000000 0.000000
                    CHANNELS 3 Zrotation Xrotation Yrotation
                    JOINT LeftHandIndex3
                    {
                      OFFSET 1.200000 0.000000 0.000000
                      CHANNELS 3 Zrotation Xrotation Yrotation
                      End Site
                      {
                        OFFSET 1.000000 0.000000 0.000000
                      }
                    }
                  }
                }
                JOINT LeftHandMiddle1
                {
                  OFFSET 7.200000 0.000000 0.300000
                  CHANNELS 3 Zrotation Xrotation Yrotation
                  JOINT LeftHandMiddle2
                  {
                    OFFSET 3.000000 0.000000 0.000000
                    CHANNELS 3 Zrotation Xrotation Yrotation
                    JOINT LeftHandMiddle3
                    {
                      OFFSET 2.000000 0.000000 0.000000
                      CHANNELS 3 Zrotation Xrotation Yrotation
                      End Site
                      {
                        OFFSET 1.600000 0.000000 0.000000
                      }
                    }
                  }
                }
                JOINT LeftHandRing1
                {
                  OFFSET 7.100000 -1.000000 0.400000
                  CHANNELS 3 Zrotation Xrotation Yrotation
                  JOINT LeftHandRing2
                  {
                    OFFSET 2.600000 0.000000 0.000000
                    CHANNELS 3 Zrotation Xrotation Yrotation
                    JOINT LeftHandRing3
                    {
                      OFFSET 1.600000 0.000000 0.000000
                      CHANNELS 3 Zrotation Xrotation Yrotation
                      End Site
                      {
                        OFFSET 1.300000 0.000000 0.000000
                      }
                    }
                  }
                }
                JOINT LeftHandPinky1
                {
                  OFFSET 6.500000 -2.000000 0.500000
                  CHANNELS 3 Zrotation Xrotation Yrotation
                  JOINT LeftHandPinky2
                  {
                    OFFSET 1.900000 0.000000 0.000000
                    CHANNELS 3 Zrotation Xrotation Yrotation
                    JOINT LeftHandPinky3
                    {
                      OFFSET 1.400000 0.000000 0.000000
                      CHANNELS 3 Zrotation Xrotation Yrotation
                      End Site
                      {
                        OFFSET 1.300000 0.000000 0.000000
                      }
                    }
                  }
                }
              }
            }
          }
        }
        JOINT RightShoulder
        {
          OFFSET -6.000000 8.000000 0.000000
          CHANNELS 3 Zrotation Xrotation Yrotation
          JOINT RightArm
          {
            OFFSET -12.000000 0.000000 0.000000
            CHANNELS 3 Zrotation Xrotation Yrotation
            JOINT RightForeArm
            {
              OFFSET -24.000000 0.000000 0.000000
              CHANNELS 3 Zrotation Xrotation Yrotation
              JOINT RightHand
              {
                OFFSET -22.000000 0.000000 0.000000
                CHANNELS 3 Zrotation Xrotation Yrotation
                JOINT RightHandThumb1
                {
                  OFFSET -1.800000 -1.400000 0.500000
                  CHANNELS 3 Zrotation Xrotation Yrotation
                  JOINT RightHandThumb2
                  {
                    OFFSET -2.400000 0.000000 0.000000
                    CHANNELS 3 Zrotation Xrotation Yrotation
                    JOINT RightHandThumb3
                    {
                      OFFSET -1.900000 0.000000 0.000000
                      CHANNELS 3 Zrotation Xrotation Yrotation
                      End Site
                      {
                        OFFSET -1.600000 0.000000 0.000000
                      }
                    }
                  }
                }
                JOINT RightHandIndex1
                {
                  OFFSET -6.600000 1.200000 0.300000
                  CHANNELS 3 Zrotation Xrotation Yrotation
                  JOINT RightHandIndex2
                  {
                    OFFSET -2.000000 0.000000 0.000000
                    CHANNELS 3 Zrotation Xrotation Yrotation
                    JOINT RightHandIndex3
                    {
                      OFFSET -1.200000 0.000000 0.000000
                      CHANNELS 3 Zrotation Xrotation Yrotation
                      End Site
                      {
                        OFFSET -1.000000 0.000000 0.000000
                      }
                    }
                  }
                }
                JOINT RightHandMiddle1
                {
                  OFFSET -7.200000 0.000000 0.300000
                  CHANNELS 3 Zrotation Xrotation Yrotation
                  JOINT RightHandMiddle2
                  {
                    OFFSET -3.000000 0.000000 0.000000
                    CHANNELS 3 Zrotation Xrotation Yrotation
                    JOINT RightHandMiddle3
                    {
                      OFFSET -2.000000 0.000000 0.000000
                      CHANNELS 3 Zrotation Xrotation Yrotation
                      End Site
                      {
                        OFFSET -1.600000 0.000000 0.000000
                      }
                    }
                  }
                }
                JOINT RightHandRing1
                {
                  OFFSET -7.100000 -1.000000 0.400000
                  CHANNELS 3 Zrotation Xrotation Yrotation
                  JOINT RightHandRing2
                  {
                    OFFSET -2.600000 0.000000 0.000000
                    CHANNELS 3 Zrotation Xrotation Yrotation
                    JOINT RightHandRing3
                    {
                      OFFSET -1.600000 0.000000 0.000000
                      CHANNELS 3 Zrotation Xrotation Yrotation
                      End Site
                      {
                        OFFSET -1.300000 0.000000 0.000000
                      }
                    }
                  }
                }
                JOINT RightHandPinky1
                {
                  OFFSET -6.500000 -2.000000 0.500000
                  CHANNELS 3 Zrotation Xrotation Yrotation
                  JOINT RightHandPinky2
                  {
                    OFFSET -1.900000 0.000000 0.000000
                    CHANNELS 3 Zrotation Xrotation Yrotation
                    JOINT RightHandPinky3
                    {
                      OFFSET -1.400000 0.000000 0.000000
                      CHANNELS 3 Zrotation Xrotation Yrotation
                      End Site
                      {
                        OFFSET -1.300000 0.000000 0.000000
                      }
                    }
                  }
                }
              }
            }
          }
        }
      }
    }
  }
  JOINT LeftUpLeg
  {
    OFFSET 10.000000 -5.000000 0.000000
    CHANNELS 3 Zrotation Xrotation Yrotation
    JOINT LeftLeg
    {
      OFFSET 0.000000 -42.000000 0.000000
      CHANNELS 3 Zrotation Xrotation Yrotation
      JOINT LeftFoot
      {
        OFFSET 0.000000 -42.000000 4.000000
        CHANNELS 3 Zrotation Xrotation Yrotation
        End Site
        {
          OFFSET 0.000000 0.000000 12.000000
        }
      }
    }
  }
  JOINT RightUpLeg
  {
    OFFSET -10.000000 -5.000000 0.000000
    CHANNELS 3 Zrotation Xrotation Yrotation
    JOINT RightLeg
    {
      OFFSET 0.000000 -42.000000 0.000000
      CHANNELS 3 Zrotation Xrotation Yrotation
      JOINT RightFoot
      {
        OFFSET 0.000000 -42.000000 4.000000
        CHANNELS 3 Zrotation Xrotation Yrotation
        End Site
        {
          OFFSET 0.000000 0.000000 12.000000
        }
      }
    }
  }
}
MOTION
Frames: 60
Frame Time: 0.033333
0.0000 95.0000 0.0000 0.0000 0.0000 0.0000 0.0000 0.0000 0.0000 0.0000 0.0000 0.0000 0.0000 0.0000 0.0000 0.0000 0.0000 0.0000 0.0000 0.0000 0.0000 0.0000 0.0000 0.0000 -78.5085 -0.5269 -0.6448 -9.6018 -3.1377 4.4504 8.5333 2.5621 -7.3650 58.9284 -11.5445 7.0775 14.4709 0.0000 0.0000 5.0896 0.0000 0.0000 -8.0725 0.8926 -4.8347 32.8440 0.0000 0.0000 7.1396 0.0000 0.0000 3.6807 -0.0608 -2.8800 49.1829 0.0000 0.0000 20.5405 0.0000 0.0000 9.4060 -0.7128 -3.2609 64.4978 0.0000 0.0000 25.5302 0.0000 0.0000 17.0986 -1.2860 -0.1304 55.1091 0.0000 0.0000 18.4654 0.0000 0.0000 0.0000 0.0000 0.0000 84.9965 -6.3188 6.8948 -4.0198 8.6715 8.2264 -168.9199 36.2472 -79.5704 -37.5812 -31.0900 71.0629 28.9001 0.0000 0.0000 5.5924 0.0000 0.0000 32.4769 -8.5851 82.0662 19.5631 0.0000 0.0000 10.1353 0.0000 0.0000 23.4620 -19.9168 85.2029 17.4632 0.0000 0.0000 31.1624 0.0000 0.0000 17.7364 -26.3871 80.0105 21.1437 0.0000 0.0000 9.7512 0.0000 0.0000 17.7597 -36.2115 72.7607 29.3964 0.0000 0.0000 46.3081 0.0000 0.0000 0.0000 0.0000 0.0000 0.0000 0.0000 0.0000 0.0000 0.0000 0.0000 0.0000 0.0000 0.0000 0.0000 0.0000 0.0000 0.0000 0.0000 0.0000
0.0000 95.0000 0.0000 0.0000 0.0000 0.0000 0.0000 0.0000 0.0000 0.0000 0.0000 0.0000 0.0000 0.0000 0.0000 0.0000 0.0000 0.0000 0.0000 0.0000 0.0000 0.0000 0.0000 0.0000 -78.5036 -0.3201 -0.3918 -9.6566 -3.3575 4.8234 8.4925 3.0865 -7.9125 58.9284 -11.5445 7.0775 14.4709 0.0000 0.0000 5.0896 0.0000 0.0000 -8.0725 0.8926 -4.8347 32.8440 0.0000 0.0000 7.1396 0.0000 0.0000 3.6807 -0.0608 -2.8800 49.1829 0.0000 0.0000 20.5405 0.0000 0.0000 9.4060 -0.7128 -3.2609 64.4978 0.0000 0.0000 25.5302 0.0000 0.0000 17.0986 -1.2860 -0.1304 55.1091 0.0000 0.0000 18.4654 0.0000 0.0000 0.0000 0.0000 0.0000 84.8960 -6.2496 6.8314 -3.7729 8.6376 8.2781 -169.0381 36.1253 -79.5954 -37.5812 -31.0900 71.0629 28.9001 0.0000 0.0000 5.5924 0.0000 0.0000 32.4769 -8.5851 82.0662 19.5631 0.0000 0.0000 10.1353 0.0000 0.0000 23.4620 -19.9168 85.2029 17.4632 0.0000 0.0000 31.1624 0.0000 0.0000 17.7364 -26.3871 80.0105 21.1437 0.0000 0.0000 9.7512 0.0000 0.0000 17.7597 -36.2115 72.7607 29.3964 0.0000 0.0000 46.3081 0.0000 0.0000 0.0000 0.0000 0.0000 0.0000 0.0000 0.0000 0.0000 0.0000 0.0000 0.0000 0.0000 0.0000 0.0000 0.0000 0.0000 0.0000 0.0000 0.0000
0.0000 95.0000 0.0000 0.0000 0.0000 0.0000 0.0000 0.0000 0.0000 0.0000 0.0000 0.0000 0.0000 0.0000 0.0000 0.0000 0.0000 0.0000 0.0000 0.0000 0.0000 0.0000 0.0000 0.0000 -78.4607 -0.1456 -0.1784 -10.0543 -3.2885 4.8014 8.8278 3.2740 -8.0622 58.9284 -11.5445 7.0775 14.4709 0.0000 0.0000 5.0896 0.0000 0.0000 -8.0725 0.8926 -4.8347 32.8440 0.0000 0.0000 7.1396 0.0000 0.0000 3.6807 -0.0608 -2.8800 49.1829 0.0000 0.0000 20.5405 0.0000 0.0000 9.4060 -0.7128 -3.2609 64.4978 0.0000 0.0000 25.5302 0.0000 0.0000 17.0986 -1.2860 -0.1304 55.1091 0.0000 0.0000 18.4654 0.0000 0.0000 0.0000 0.0000 0.0000 84.6567 -6.4957 7.1301 -3.1471 8.7521 8.5711 -168.6570 35.6850 -79.9299 -37.5812 -31.0900 71.0629 28.9001 0.0000 0.0000 5.5924 0.0000 0.0000 32.4769 -8.5851 82.0662 19.5631 0.0000 0.0000 10.1353 0.0000 0.0000 23.4620 -19.9168 85.2029 17.4632 0.0000 0.0000 31.1624 0.0000 0.0000 17.7364 -26.3871 80.0105 21.1437 0.0000 0.0000 9.7512 0.0000 0.0000 17.7597 -36.2115 72.7607 29.3964 0.0000 0.0000 46.3081 0.0000 0.0000 0.0000 0.0000 0.0000 0.0000 0.0000 0.0000 0.0000 0.0000 0.0000 0.0000 0.0000 0.0000 0.0000 0.0000 0.0000 0.0000 0.0000 0.0000
0.0000 95.0000 0.0000 0.0000 0.0000 0.0000 0.0000 0.0000 0.0000 0.0000 0.0000 0.0000 0.0000 0.0000 0.0000 0.0000 0.0000 0.0000 0.0000 0.0000 0.0000 0.0000 0.0000 0.0000 -78.4633 0.0339 0.0415 -10.0994 -3.3811 4.9851 8.8183 3.6139 -8.4129 58.9284 -11.5445 7.0775 14.4709 0.0000 0.0000 5.0896 0.0000 0.0000 -8.0725 0.8926 -4.8347 32.8440 0.0000 0.0000 7.1396 0.0000 0.0000 3.6807 -0.0608 -2.8800 49.1829 0.0000 0.0000 20.5405 0.0000 0.0000 9.4060 -0.7128 -3.2609 64.4978 0.0000 0.0000 25.5302 0.0000 0.0000 17.0986 -1.2860 -0.1304 55.1091 0.0000 0.0000 18.4654 0.0000 0.0000 0.0000 0.0000 0.0000 84.3173 -6.6679 7.3626 -2.5868 8.7034 8.7104 -168.4716 35.4190 -80.1192 -37.5812 -31.0900 71.0629 28.9001 0.0000 0.0000 5.5924 0.0000 0.0000 32.4769 -8.5851 82.0662 19.5631 0.0000 0.0000 10.1353 0.0000 0.0000 23.4620 -19.9168 85.2029 17.4632 0.0000 0.0000 31.1624 0.0000 0.0000 17.7364 -26.3871 80.0105 21.1437 0.0000 0.0000 9.7512 0.0000 0.0000 17.7597 -36.2115 72.7607 29.3964 0.0000 0.0000 46.3081 0.0000 0.0000 0.0000 0.0000 0.0000 0.0000 0.0000 0.0000 0.0000 0.0000 0.0000 0.0000 0.0000 0.0000 0.0000 0.0000 0.0000 0.0000 0.0000 0.0000
0.0000 95.0000 0.0000 0.0000 0.0000 0.0000 0.0000 0.0000 0.0000 0.0000 0.0000 0.0000 0.0000 0.0000 0.0000 0.0000 0.0000 0.0000 0.0000 0.0000 0.0000 0.0000 0.0000 0.0000 -78.3377 0.0894 0.1098 -10.2078 -3.3827 5.0232 8.7882 3.6947 -8.5003 58.9284 -11.5445 7.0775 14.4709 0.0000 0.0000 5.0896 0.0000 0.0000 -8.0725 0.8926 -4.8347 32.8440 0.0000 0.0000 7.1396 0.0000 0.0000 3.6807 -0.0608 -2.8800 49.1829 0.0000 0.0000 20.5405 0.0000 0.0000 9.4060 -0.7128 -3.2609 64.4978 0.0000 0.0000 25.5302 0.0000 0.0000 17.0986 -1.2860 -0.1304 55.1091 0.0000 0.0000 18.4654 0.0000 0.0000 0.0000 0.0000 0.0000 84.1682 -6.3647 7.0462 -2.0221 8.6968 8.9047 -168.8494 35.1050 -80.1556 -37.5812 -31.0900 71.0629 28.9001 0.0000 0.0000 5.5924 0.0000 0.0000 32.4769 -8.5851 82.0662 19.5631 0.0000 0.0000 10.1353 0.0000 0.0000 23.4620 -19.9168 85.2029 17.4632 0.0000 0.0000 31.1624 0.0000 0.0000 17.7364 -26.3871 80.0105 21.1437 0.0000 0.0000 9.7512 0.0000 0.0000 17.7597 -36.2115 72.7607 29.3964 0.0000 0.0000 46.3081 0.0000 0.0000 0.0000 0.0000 0.0000 0.0000 0.0000 0.0000 0.0000 0.0000 0.0000 0.0000 0.0000 0.0000 0.0000 0.0000 0.0000 0.0000 0.0000 0.0000
0.0000 95.0000 0.0000 0.0000 0.0000 0.0000 0.0000 0.0000 0.0000 0.0000 0.0000 0.0000 0.0000 0.0000 0.0000 0.0000 0.0000 0.0000 0.0000 0.0000 0.0000 0.0000 0.0000 0.0000 -77.9902 0.3984 0.4920 -10.6511 -3.1448 4.8237 8.8835 3.8397 -8.6358 58.9284 -11.5445 7.0775 14.4709 0.0000 0.0000 5.0896 0.0000 0.0000 -8.0725 0.8926 -4.8347 32.8440 0.0000 0.0000 7.1396 0.0000 0.0000 3.6807 -0.0608 -2.8800 49.1829 0.0000 0.0000 20.5405 0.0000 0.0000 9.4060 -0.7128 -3.2609 64.4978 0.0000 0.0000 25.5302 0.0000 0.0000 17.0986 -1.2860 -0.1304 55.1091 0.0000 0.0000 18.4654 0.0000 0.0000 0.0000 0.0000 0.0000 83.8887 -5.8471 6.5052 -0.8318 8.8252 9.4432 -169.3607 34.3750 -80.3454 -37.5812 -31.0900 71.0629 28.9001 0.0000 0.0000 5.5924 0.0000 0.0000 32.4769 -8.5851 82.0662 19.5631 0.0000 0.0000 10.1353 0.0000 0.0000 23.4620 -19.9168 85.2029 17.4632 0.0000 0.0000 31.1624 0.0000 0.0000 17.7364 -26.3871 80.0105 21.1437 0.0000 0.0000 9.7512 0.0000 0.0000 17.7597 -36.2115 72.7607 29.3964 0.0000 0.0000 46.3081 0.0000 0.0000 0.0000 0.0000 0.0000 0.0000 0.0000 0.0000 0.0000 0.0000 0.0000 0.0000 0.0000 0.0000 0.0000 0.0000 0.0000 0.0000 0.0000 0.0000
0.0000 95.0000 0.0000 0.0000 0.0000 0.0000 0.0000 0.0000 0.0000 0.0000 0.0000 0.0000 0.0000 0.0000 0.0000 0.0000 0.0000 0.0000 0.0000 0.0000 0.0000 0.0000 0.0000 0.0000 -78.0836 0.8638 1.0651 -10.2722 -2.8092 4.3954 8.6138 3.9450 -8.7827 58.9284 -11.5445 7.0775 14.4709 0.0000 0.0000 5.0896 0.0000 0.0000 -8.0725 0.8926 -4.8347 32.8440 0.0000 0.0000 7.1396 0.0000 0.0000 3.6807 -0.0608 -2.8800 49.1829 0.0000 0.0000 20.5405 0.0000 0.0000 9.4060 -0.7128 -3.2609 64.4978 0.0000 0.0000 25.5302 0.0000 0.0000 17.0986 -1.2860 -0.1304 55.1091 0.0000 0.0000 18.4654 0.0000 0.0000 0.0000 0.0000 0.0000 82.3840 -5.4924 6.2742 2.2493 11.7241 13.9357 -165.8646 33.0807 -82.1402 -37.5812 -31.0900 71.0629 28.9001 0.0000 0.0000 5.5924 0.0000 0.0000 32.4769 -8.5851 82.0662 19.5631 0.0000 0.0000 10.1353 0.0000 0.0000 23.4620 -19.9168 85.2029 17.4632 0.0000 0.0000 31.1624 0.0000 0.0000 17.7364 -26.3871 80.0105 21.1437 0.0000 0.0000 9.7512 0.0000 0.0000 17.7597 -36.2115 72.7607 29.3964 0.0000 0.0000 46.3081 0.0000 0.0000 0.0000 0.0000 0.0000 0.0000 0.0000 0.0000 0.0000 0.0000 0.0000 0.0000 0.0000 0.0000 0.0000 0.0000 0.0000 0.0000 0.0000 0.0000
0.0000 95.0000 0.0000 0.0000 0.0000 0.0000 0.0000 0.0000 0.0000 0.0000 0.0000 0.0000 0.0000 0.0000 0.0000 0.0000 0.0000 0.0000 0.0000 0.0000 0.0000 0.0000 0.0000 0.0000 -77.7603 1.8982 2.3540 -10.4380 -1.8752 3.3067 8.5267 4.0910 -8.9462 58.9284 -11.5445 7.0775 14.4709 0.0000 0.0000 5.0896 0.0000 0.0000 -8.0725 0.8926 -4.8347 32.8440 0.0000 0.0000 7.1396 0.0000 0.0000 3.6807 -0.0608 -2.8800 49.1829 0.0000 0.0000 20.5405 0.0000 0.0000 9.4060 -0.7128 -3.2609 64.4978 0.0000 0.0000 25.5302 0.0000 0.0000 17.0986 -1.2860 -0.1304 55.1091 0.0000 0.0000 18.4654 0.0000 0.0000 0.0000 0.0000 0.0000 80.4462 -5.8372 6.8994 7.3987 15.7620 21.5993 -159.3322 30.8355 -85.7093 -37.5812 -31.0900 71.0629 28.9001 0.0000 0.0000 5.5924 0.0000 0.0000 32.4769 -8.5851 82.0662 19.5631 0.0000 0.0000 10.1353 0.0000 0.0000 23.4620 -19.9168 85.2029 17.4632 0.0000 0.0000 31.1624 0.0000 0.0000 17.7364 -26.3871 80.0105 21.1437 0.0000 0.0000 9.7512 0.0000 0.0000 17.7597 -36.2115 72.7607 29.3964 0.0000 0.0000 46.3081 0.0000 0.0000 0.0000 0.0000 0.0000 0.0000 0.0000 0.0000 0.0000 0.0000 0.0000 0.0000 0.0000 0.0000 0.0000 0.0000 0.0000 0.0000 0.0000 0.0000
0.0000 95.0000 0.0000 0.0000 0.0000 0.0000 0.0000 0.0000 0.0000 0.0000 0.0000 0.0000 0.0000 0.0000 0.0000 0.0000 0.0000 0.0000 0.0000 0.0000 0.0000 0.0000 0.0000 0.0000 -77.4082 3.5504 4.4302 -9.7682 -0.6896 1.8928 7.5773 4.5438 -9.5624 58.9284 -11.5445 7.0775 14.4709 0.0000 0.0000 5.0896 0.0000 0.0000 -8.0725 0.8926 -4.8347 32.8440 0.0000 0.0000 7.1396 0.0000 0.0000 3.6807 -0.0608 -2.8800 49.1829 0.0000 0.0000 20.5405 0.0000 0.0000 9.4060 -0.7128 -3.2609 64.4978 0.0000 0.0000 25.5302 0.0000 0.0000 17.0986 -1.2860 -0.1304 55.1091 0.0000 0.0000 18.4654 0.0000 0.0000 0.0000 0.0000 0.0000 77.9385 -8.9401 11.0404 8.2529 23.8182 33.4022 -142.6240 34.8795 -89.5563 -37.5812 -31.0900 71.0629 28.9001 0.0000 0.0000 5.5924 0.0000 0.0000 32.4769 -8.5851 82.0662 19.5631 0.0000 0.0000 10.1353 0.0000 0.0000 23.4620 -19.9168 85.2029 17.4632 0.0000 0.0000 31.1624 0.0000 0.0000 17.7364 -26.3871 80.0105 21.1437 0.0000 0.0000 9.7512 0.0000 0.0000 17.7597 -36.2115 72.7607 29.3964 0.0000 0.0000 46.3081 0.0000 0.0000 0.0000 0.0000 0.0000 0.0000 0.0000 0.0000 0.0000 0.0000 0.0000 0.0000 0.0000 0.0000 0.0000 0.0000 0.0000 0.0000 0.0000 0.0000
0.0000 95.0000 0.0000 0.0000 0.0000 0.0000 0.0000 0.0000 0.0000 0.0000 0.0000 0.0000 0.0000 0.0000 0.0000 0.0000 0.0000 0.0000 0.0000 0.0000 0.0000 0.0000 0.0000 0.0000 -75.7342 8.0717 10.3696 -9.3068 0.9855 0.4482 5.4253 7.9030 -13.5575 58.9284 -11.5445 7.0775 14.4709 0.0000 0.0000 5.0896 0.0000 0.0000 -8.0725 0.8926 -4.8347 32.8440 0.0000 0.0000 7.1396 0.0000 0.0000 3.6807 -0.0608 -2.8800 49.1829 0.0000 0.0000 20.5405 0.0000 0.0000 9.4060 -0.7128 -3.2609 64.4978 0.0000 0.0000 25.5302 0.0000 0.0000 17.0986 -1.2860 -0.1304 55.1091 0.0000 0.0000 18.4654 0.0000 0.0000 0.0000 0.0000 0.0000 74.9982 -12.2714 15.9505 0.1212 39.5423 44.8931 -112.8770 49.2701 -82.0033 -37.5812 -31.0900 71.0629 28.9001 0.0000 0.0000 5.5924 0.0000 0.0000 32.4769 -8.5851 82.0662 19.5631 0.0000 0.0000 10.1353 0.0000 0.0000 23.4620 -19.9168 85.2029 17.4632 0.0000 0.0000 31.1624 0.0000 0.0000 17.7364 -26.3871 80.0105 21.1437 0.0000 0.0000 9.7512 0.0000 0.0000 17.7597 -36.2115 72.7607 29.3964 0.0000 0.0000 46.3081 0.0000 0.0000 0.0000 0.0000 0.0000 0.0000 0.0000 0.0000 0.0000 0.0000 0.0000 0.0000 0.0000 0.0000 0.0000 0.0000 0.0000 0.0000 0.0000 0.0000
0.0000 95.0000 0.0000 0.0000 0.0000 0.0000 0.0000 0.0000 0.0000 0.0000 0.0000 0.0000 0.0000 0.0000 0.0000 0.0000 0.0000 0.0000 0.0000 0.0000 0.0000 0.0000 0.0000 0.0000 -74.4942 10.4516 13.7184 -9.1906 2.4074 -1.1465 4.3066 9.0601 -15.0907 58.9284 -11.5445 7.0775 14.4709 0.0000 0.0000 5.0896 0.0000 0.0000 -8.0725 0.8926 -4.8347 32.8440 0.0000 0.0000 7.1396 0.0000 0.0000 3.6807 -0.0608 -2.8800 49.1829 0.0000 0.0000 20.5405 0.0000 0.0000 9.4060 -0.7128 -3.2609 64.4978 0.0000 0.0000 25.5302 0.0000 0.0000 17.0986 -1.2860 -0.1304 55.1091 0.0000 0.0000 18.4654 0.0000 0.0000 0.0000 0.0000 0.0000 71.6317 -14.2157 19.6072 -4.8504 48.3271 49.5249 -89.0774 55.9153 -69.2082 -37.5812 -31.0900 71.0629 28.9001 0.0000 0.0000 5.5924 0.0000 0.0000 32.4769 -8.5851 82.0662 19.5631 0.0000 0.0000 10.1353 0.0000 0.0000 23.4620 -19.9168 85.2029 17.4632 0.0000 0.0000 31.1624 0.0000 0.0000 17.7364 -26.3871 80.0105 21.1437 0.0000 0.0000 9.7512 0.0000 0.0000 17.7597 -36.2115 72.7607 29.3964 0.0000 0.0000 46.3081 0.0000 0.0000 0.0000 0.0000 0.0000 0.0000 0.0000 0.0000 0.0000 0.0000 0.0000 0.0000 0.0000 0.0000 0.0000 0.0000 0.0000 0.0000 0.0000 0.0000
0.0000 95.0000 0.0000 0.0000 0.0000 0.0000 0.0000 0.0000 0.0000 0.0000 0.0000 0.0000 0.0000 0.0000 0.0000 0.0000 0.0000 0.0000 0.0000 0.0000 0.0000 0.0000 0.0000 0.0000 -73.7279 12.6785 16.8550 -8.3131 3.0384 -1.8061 2.7860 10.7541 -17.3950 58.9284 -11.5445 7.0775 14.4709 0.0000 0.0000 5.0896 0.0000 0.0000 -8.0725 0.8926 -4.8347 32.8440 0.0000 0.0000 7.1396 0.0000 0.0000 3.6807 -0.0608 -2.8800 49.1829 0.0000 0.0000 20.5405 0.0000 0.0000 9.4060 -0.7128 -3.2609 64.4978 0.0000 0.0000 25.5302 0.0000 0.0000 17.0986 -1.2860 -0.1304 55.1091 0.0000 0.0000 18.4654 0.0000 0.0000 0.0000 0.0000 0.0000 68.7288 -15.7125 22.8168 -8.8969 59.6011 55.8059 -57.2169 58.3149 -49.6741 -37.5812 -31.0900 71.0629 28.9001 0.0000 0.0000 5.5924 0.0000 0.0000 32.4769 -8.5851 82.0662 19.5631 0.0000 0.0000 10.1353 0.0000 0.0000 23.4620 -19.9168 85.2029 17.4632 0.0000 0.0000 31.1624 0.0000 0.0000 17.7364 -26.3871 80.0105 21.1437 0.0000 0.0000 9.7512 0.0000 0.0000 17.7597 -36.2115 72.7607 29.3964 0.0000 0.0000 46.3081 0.0000 0.0000 0.0000 0.0000 0.0000 0.0000 0.0000 0.0000 0.0000 0.0000 0.0000 0.0000 0.0000 0.0000 0.0000 0.0000 0.0000 0.0000 0.0000 0.0000
0.0000 95.0000 0.0000 0.0000 0.0000 0.0000 0.0000 0.0000 0.0000 0.0000 0.0000 0.0000 0.0000 0.0000 0.0000 0.0000 0.0000 0.0000 0.0000 0.0000 0.0000 0.0000 0.0000 0.0000 -73.0336 14.4078 19.3756 -7.0081 3.5497 -2.6025 0.9501 11.7756 -19.1305 58.9284 -11.5445 7.0775 14.4709 0.0000 0.0000 5.0896 0.0000 0.0000 -8.0725 0.8926 -4.8347 32.8440 0.0000 0.0000 7.1396 0.0000 0.0000 3.6807 -0.0608 -2.8800 49.1829 0.0000 0.0000 20.5405 0.0000 0.0000 9.4060 -0.7128 -3.2609 64.4978 0.0000 0.0000 25.5302 0.0000 0.0000 17.0986 -1.2860 -0.1304 55.1091 0.0000 0.0000 18.4654 0.0000 0.0000 0.0000 0.0000 0.0000 65.1742 -16.9859 26.2981 -21.0578 72.5229 54.4200 -21.6746 53.4347 -25.2595 -37.5812 -31.0900 71.0629 28.9001 0.0000 0.0000 5.5924 0.0000 0.0000 32.4769 -8.5851 82.0662 19.5631 0.0000 0.0000 10.1353 0.0000 0.0000 23.4620 -19.9168 85.2029 17.4632 0.0000 0.0000 31.1624 0.0000 0.0000 17.7364 -26.3871 80.0105 21.1437 0.0000 0.0000 9.7512 0.0000 0.0000 17.7597 -36.2115 72.7607 29.3964 0.0000 0.0000 46.3081 0.0000 0.0000 0.0000 0.0000 0.0000 0.0000 0.0000 0.0000 0.0000 0.0000 0.0000 0.0000 0.0000 0.0000 0.0000 0.0000 0.0000 0.0000 0.0000 0.0000
0.0000 95.0000 0.0000 0.0000 0.0000 0.0000 0.0000 0.0000 0.0000 0.0000 0.0000 0.0000 0.0000 0.0000 0.0000 0.0000 0.0000 0.0000 0.0000 0.0000 0.0000 0.0000 0.0000 0.0000 -73.1312 15.3344 20.5740 -5.4208 3.6105 -3.0253 -0.4816 12.2064 -20.1136 58.9284 -11.5445 7.0775 14.4709 0.0000 0.0000 5.0896 0.0000 0.0000 -8.0725 0.8926 -4.8347 32.8440 0.0000 0.0000 7.1396 0.0000 0.0000 3.6807 -0.0608 -2.8800 49.1829 0.0000 0.0000 20.5405 0.0000 0.0000 9.4060 -0.7128 -3.2609 64.4978 0.0000 0.0000 25.5302 0.0000 0.0000 17.0986 -1.2860 -0.1304 55.1091 0.0000 0.0000 18.4654 0.0000 0.0000 0.0000 0.0000 0.0000 61.1763 -17.6362 29.4099 -46.9380 79.0901 35.0409 -0.2595 43.1439 -12.8404 -41.9180 -27.5054 65.7704 36.4123 0.0000 0.0000 6.5592 0.0000 0.0000 23.0014 -0.9219 79.1553 20.9455 0.0000 0.0000 10.5905 0.0000 0.0000 18.3393 -16.1158 87.2754 17.9948 0.0000 0.0000 43.7005 0.0000 0.0000 13.6879 -25.2267 84.8147 23.8857 0.0000 0.0000 29.5347 0.0000 0.0000 14.4001 -36.2378 76.8279 26.2608 0.0000 0.0000 22.2975 0.0000 0.0000 0.0000 0.0000 0.0000 0.0000 0.0000 0.0000 0.0000 0.0000 0.0000 0.0000 0.0000 0.0000 0.0000 0.0000 0.0000 0.0000 0.0000 0.0000
0.0000 95.0000 0.0000 0.0000 0.0000 0.0000 0.0000 0.0000 0.0000 0.0000 0.0000 0.0000 0.0000 0.0000 0.0000 0.0000 0.0000 0.0000 0.0000 0.0000 0.0000 0.0000 0.0000 0.0000 -72.7319 16.1764 21.8470 -4.7588 4.0233 -3.7233 -1.3853 12.4608 -20.7325 58.9284 -11.5445 7.0775 14.4709 0.0000 0.0000 5.0896 0.0000 0.0000 -8.0725 0.8926 -4.8347 32.8440 0.0000 0.0000 7.1396 0.0000 0.0000 3.6807 -0.0608 -2.8800 49.1829 0.0000 0.0000 20.5405 0.0000 0.0000 9.4060 -0.7128 -3.2609 64.4978 0.0000 0.0000 25.5302 0.0000 0.0000 17.0986 -1.2860 -0.1304 55.1091 0.0000 0.0000 18.4654 0.0000 0.0000 0.0000 0.0000 0.0000 57.1892 -18.1140 32.6014 -78.2942 79.9991 7.0420 -62.4648 34.4695 -56.0400 -61.3648 -13.4882 6.0489 7.0598 0.0000 0.0000 2.9774 0.0000 0.0000 -19.3738 43.5258 99.4449 17.8074 0.0000 0.0000 4.6669 0.0000 0.0000 -23.9854 35.1203 117.0279 54.5136 0.0000 0.0000 96.8596 0.0000 0.0000 -26.7955 17.4208 125.3683 61.3515 0.0000 0.0000 109.8155 0.0000 0.0000 -35.8606 0.8341 130.0441 53.1361 0.0000 0.0000 122.6673 0.0000 0.0000 0.0000 0.0000 0.0000 0.0000 0.0000 0.0000 0.0000 0.0000 0.0000 0.0000 0.0000 0.0000 0.0000 0.0000 0.0000 0.0000 0.0000 0.0000
0.0000 95.0000 0.0000 0.0000 0.0000 0.0000 0.0000 0.0000 0.0000 0.0000 0.0000 0.0000 0.0000 0.0000 0.0000 0.0000 0.0000 0.0000 0.0000 0.0000 0.0000 0.0000 0.0000 0.0000 -73.2529 15.9948 21.4046 -4.3129 3.4363 -3.0412 -1.4927 12.7259 -21.0905 58.9284 -11.5445 7.0775 14.4709 0.0000 0.0000 5.0896 0.0000 0.0000 -8.0725 0.8926 -4.8347 32.8440 0.0000 0.0000 7.1396 0.0000 0.0000 3.6807 -0.0608 -2.8800 49.1829 0.0000 0.0000 20.5405 0.0000 0.0000 9.4060 -0.7128 -3.2609 64.4978 0.0000 0.0000 25.5302 0.0000 0.0000 17.0986 -1.2860 -0.1304 55.1091 0.0000 0.0000 18.4654 0.0000 0.0000 0.0000 0.0000 0.0000 54.2671 -18.1451 34.6138 -53.1194 79.7387 31.0293 11.6519 33.1767 30.4786 -49.0871 -16.3981 27.3564 30.0841 0.0000 0.0000 10.6868 0.0000 0.0000 31.4892 -5.2108 63.4850 5.7088 0.0000 0.0000 4.0881 0.0000 0.0000 21.6459 -12.1613 63.0271 8.0583 0.0000 0.0000 1.5997 0.0000 0.0000 14.8915 -16.5492 59.3705 13.0400 0.0000 0.0000 0.6893 0.0000 0.0000 7.7753 -22.0385 57.0140 13.9889 0.0000 0.0000 1.9353 0.0000 0.0000 0.0000 0.0000 0.0000 0.0000 0.0000 0.0000 0.0000 0.0000 0.0000 0.0000 0.0000 0.0000 0.0000 0.0000 0.0000 0.0000 0.0000 0.0000
0.0000 95.0000 0.0000 0.0000 0.0000 0.0000 0.0000 0.0000 0.0000 0.0000 0.0000 0.0000 0.0000 0.0000 0.0000 0.0000 0.0000 0.0000 0.0000 0.0000 0.0000 0.0000 0.0000 0.0000 -73.5909 15.5142 20.6431 -4.4571 3.3484 -2.9202 -1.0465 12.3446 -20.4739 58.9284 -11.5445 7.0775 14.4709 0.0000 0.0000 5.0896 0.0000 0.0000 -8.0725 0.8926 -4.8347 32.8440 0.0000 0.0000 7.1396 0.0000 0.0000 3.6807 -0.0608 -2.8800 49.1829 0.0000 0.0000 20.5405 0.0000 0.0000 9.4060 -0.7128 -3.2609 64.4978 0.0000 0.0000 25.5302 0.0000 0.0000 17.0986 -1.2860 -0.1304 55.1091 0.0000 0.0000 18.4654 0.0000 0.0000 0.0000 0.0000 0.0000 53.0235 -17.9699 35.1737 -19.9209 76.1676 61.9899 -34.2601 44.0681 0.3066 -44.1670 -14.1751 17.1422 40.7780 0.0000 0.0000 23.1595 0.0000 0.0000 26.6598 -5.2135 95.3550 8.9216 0.0000 0.0000 3.1845 0.0000 0.0000 16.7106 -17.1894 96.4142 53.2744 0.0000 0.0000 99.3951 0.0000 0.0000 10.3477 -26.0979 93.9458 87.5505 0.0000 0.0000 84.1616 0.0000 0.0000 -1.8111 -31.6171 92.7301 73.1251 0.0000 0.0000 99.2388 0.0000 0.0000 0.0000 0.0000 0.0000 0.0000 0.0000 0.0000 0.0000 0.0000 0.0000 0.0000 0.0000 0.0000 0.0000 0.0000 0.0000 0.0000 0.0000 0.0000
0.0000 95.0000 0.0000 0.0000 0.0000 0.0000 0.0000 0.0000 0.0000 0.0000 0.0000 0.0000 0.0000 0.0000 0.0000 0.0000 0.0000 0.0000 0.0000 0.0000 0.0000 0.0000 0.0000 0.0000 -73.4019 15.4122 20.5779 -5.1860 3.4307 -2.8208 -0.4998 12.4113 -20.3631 58.9284 -11.5445 7.0775 14.4709 0.0000 0.0000 5.0896 0.0000 0.0000 -8.0725 0.8926 -4.8347 32.8440 0.0000 0.0000 7.1396 0.0000 0.0000 3.6807 -0.0608 -2.8800 49.1829 0.0000 0.0000 20.5405 0.0000 0.0000 9.4060 -0.7128 -3.2609 64.4978 0.0000 0.0000 25.5302 0.0000 0.0000 17.0986 -1.2860 -0.1304 55.1091 0.0000 0.0000 18.4654 0.0000 0.0000 0.0000 0.0000 0.0000 52.4154 -17.7239 35.1517 -3.8376 70.4841 75.7858 -6.3534 50.4061 28.6501 -38.1537 -15.0312 20.4633 30.1514 0.0000 0.0000 14.3053 0.0000 0.0000 36.6920 -9.9067 72.5124 9.5472 0.0000 0.0000 2.2341 0.0000 0.0000 30.0351 -20.7153 73.3031 107.4329 0.0000 0.0000 61.5646 0.0000 0.0000 22.8309 -26.0327 71.1774 126.7102 0.0000 0.0000 45.3847 0.0000 0.0000 11.0851 -30.2934 70.2524 126.7677 0.0000 0.0000 45.6895 0.0000 0.0000 0.0000 0.0000 0.0000 0.0000 0.0000 0.0000 0.0000 0.0000 0.0000 0.0000 0.0000 0.0000 0.0000 0.0000 0.0000 0.0000 0.0000 0.0000
0.0000 95.0000 0.0000 0.0000 0.0000 0.0000 0.0000 0.0000 0.0000 0.0000 0.0000 0.0000 0.0000 0.0000 0.0000 0.0000 0.0000 0.0000 0.0000 0.0000 0.0000 0.0000 0.0000 0.0000 -73.0649 15.5806 20.9258 -5.6934 4.0017 -3.4644 -0.1622 12.1640 -19.9544 58.9284 -11.5445 7.0775 14.4709 0.0000 0.0000 5.0896 0.0000 0.0000 -8.0725 0.8926 -4.8347 32.8440 0.0000 0.0000 7.1396 0.0000 0.0000 3.6807 -0.0608 -2.8800 49.1829 0.0000 0.0000 20.5405 0.0000 0.0000 9.4060 -0.7128 -3.2609 64.4978 0.0000 0.0000 25.5302 0.0000 0.0000 17.0986 -1.2860 -0.1304 55.1091 0.0000 0.0000 18.4654 0.0000 0.0000 0.0000 0.0000 0.0000 52.6184 -17.5871 34.7468 2.1775 67.5819 80.7618 -2.3146 56.9536 30.8908 -40.3443 -14.9046 20.0519 19.3063 0.0000 0.0000 7.2078 0.0000 0.0000 33.5205 -7.7204 72.2450 8.9847 0.0000 0.0000 2.8519 0.0000 0.0000 25.3435 -17.6010 73.8714 89.6285 0.0000 0.0000 68.6527 0.0000 0.0000 18.8270 -23.5442 71.6490 118.8317 0.0000 0.0000 50.1586 0.0000 0.0000 7.2141 -28.4398 71.6046 120.4259 0.0000 0.0000 53.9350 0.0000 0.0000 0.0000 0.0000 0.0000 0.0000 0.0000 0.0000 0.0000 0.0000 0.0000 0.0000 0.0000 0.0000 0.0000 0.0000 0.0000 0.0000 0.0000 0.0000
0.0000 95.0000 0.0000 0.0000 0.0000 0.0000 0.0000 0.0000 0.0000 0.0000 0.0000 0.0000 0.0000 0.0000 0.0000 0.0000 0.0000 0.0000 0.0000 0.0000 0.0000 0.0000 0.0000 0.0000 -72.6599 16.0608 21.7204 -5.8010 4.0191 -3.3871 -0.4474 12.7371 -20.7312 58.9284 -11.5445 7.0775 14.4709 0.0000 0.0000 5.0896 0.0000 0.0000 -8.0725 0.8926 -4.8347 32.8440 0.0000 0.0000 7.1396 0.0000 0.0000 3.6807 -0.0608 -2.8800 49.1829 0.0000 0.0000 20.5405 0.0000 0.0000 9.4060 -0.7128 -3.2609 64.4978 0.0000 0.0000 25.5302 0.0000 0.0000 17.0986 -1.2860 -0.1304 55.1091 0.0000 0.0000 18.4654 0.0000 0.0000 0.0000 0.0000 0.0000 52.9172 -17.5046 34.3786 4.9050 67.5376 83.9363 -10.3260 58.8904 20.7906 -40.2667 -14.6823 19.2717 29.9839 0.0000 0.0000 18.6831 0.0000 0.0000 31.7144 -7.5690 79.4666 8.8630 0.0000 0.0000 2.7119 0.0000 0.0000 23.2660 -18.5261 81.5455 106.0582 0.0000 0.0000 60.4391 0.0000 0.0000 16.7067 -25.1830 79.0626 127.5025 0.0000 0.0000 42.4990 0.0000 0.0000 4.9048 -30.1198 78.3627 125.8862 0.0000 0.0000 45.7162 0.0000 0.0000 0.0000 0.0000 0.0000 0.0000 0.0000 0.0000 0.0000 0.0000 0.0000 0.0000 0.0000 0.0000 0.0000 0.0000 0.0000 0.0000 0.0000 0.0000
0.0000 95.0000 0.0000 0.0000 0.0000 0.0000 0.0000 0.0000 0.0000 0.0000 0.0000 0.0000 0.0000 0.0000 0.0000 0.0000 0.0000 0.0000 0.0000 0.0000 0.0000 0.0000 0.0000 0.0000 -72.3364 16.3670 22.2581 -5.7560 4.2414 -3.6883 -0.7358 12.8245 -20.9373 58.9284 -11.5445 7.0775 14.4709 0.0000 0.0000 5.0896 0.0000 0.0000 -8.0725 0.8926 -4.8347 32.8440 0.0000 0.0000 7.1396 0.0000 0.0000 3.6807 -0.0608 -2.8800 49.1829 0.0000 0.0000 20.5405 0.0000 0.0000 9.4060 -0.7128 -3.2609 64.4978 0.0000 0.0000 25.5302 0.0000 0.0000 17.0986 -1.2860 -0.1304 55.1091 0.0000 0.0000 18.4654 0.0000 0.0000 0.0000 0.0000 0.0000 53.5170 -17.6233 34.1783 5.5932 70.1425 86.0259 -4.5714 39.2540 14.3591 -40.9374 -15.3825 21.7699 25.1884 0.0000 0.0000 16.6534 0.0000 0.0000 40.2017 -10.7826 66.2187 13.1477 0.0000 0.0000 8.3788 0.0000 0.0000 33.8085 -19.4480 63.6071 29.3377 0.0000 0.0000 48.6353 0.0000 0.0000 26.1500 -23.2969 60.8978 34.1573 0.0000 0.0000 63.3953 0.0000 0.0000 17.2716 -27.7267 58.5411 23.8257 0.0000 0.0000 120.0794 0.0000 0.0000 0.0000 0.0000 0.0000 0.0000 0.0000 0.0000 0.0000 0.0000 0.0000 0.0000 0.0000 0.0000 0.0000 0.0000 0.0000 0.0000 0.0000 0.0000
0.0000 95.0000 0.0000 0.0000 0.0000 0.0000 0.0000 0.0000 0.0000 0.0000 0.0000 0.0000 0.0000 0.0000 0.0000 0.0000 0.0000 0.0000 0.0000 0.0000 0.0000 0.0000 0.0000 0.0000 -71.8637 16.9166 23.1912 -5.3893 4.5319 -4.1703 -1.4541 12.9892 -21.3938 58.9284 -11.5445 7.0775 14.4709 0.0000 0.0000 5.0896 0.0000 0.0000 -8.0725 0.8926 -4.8347 32.8440 0.0000 0.0000 7.1396 0.0000 0.0000 3.6807 -0.0608 -2.8800 49.1829 0.0000 0.0000 20.5405 0.0000 0.0000 9.4060 -0.7128 -3.2609 64.4978 0.0000 0.0000 25.5302 0.0000 0.0000 17.0986 -1.2860 -0.1304 55.1091 0.0000 0.0000 18.4654 0.0000 0.0000 0.0000 0.0000 0.0000 53.7416 -17.9131 34.5570 0.6179 74.6620 82.7979 -45.9895 32.7570 -27.1918 -48.6966 -15.6765 23.7738 25.9745 0.0000 0.0000 21.2229 0.0000 0.0000 24.8726 -4.6349 109.4438 8.6647 0.0000 0.0000 2.2490 0.0000 0.0000 14.0225 -17.6362 107.9592 82.4524 0.0000 0.0000 87.7529 0.0000 0.0000 6.7772 -27.3784 105.4633 98.9079 0.0000 0.0000 72.2314 0.0000 0.0000 -5.4025 -34.1652 104.8997 105.3141 0.0000 0.0000 71.3512 0.0000 0.0000 0.0000 0.0000 0.0000 0.0000 0.0000 0.0000 0.0000 0.0000 0.0000 0.0000 0.0000 0.0000 0.0000 0.0000 0.0000 0.0000 0.0000 0.0000
0.0000 95.0000 0.0000 0.0000 0.0000 0.0000 0.0000 0.0000 0.0000 0.0000 0.0000 0.0000 0.0000 0.0000 0.0000 0.0000 0.0000 0.0000 0.0000 0.0000 0.0000 0.0000 0.0000 0.0000 -71.6383 17.5883 24.1966 -4.5250 4.9329 -4.9651 -2.3707 12.9754 -21.7148 58.9284 -11.5445 7.0775 14.4709 0.0000 0.0000 5.0896 0.0000 0.0000 -8.0725 0.8926 -4.8347 32.8440 0.0000 0.0000 7.1396 0.0000 0.0000 3.6807 -0.0608 -2.8800 49.1829 0.0000 0.0000 20.5405 0.0000 0.0000 9.4060 -0.7128 -3.2609 64.4978 0.0000 0.0000 25.5302 0.0000 0.0000 17.0986 -1.2860 -0.1304 55.1091 0.0000 0.0000 18.4654 0.0000 0.0000 0.0000 0.0000 0.0000 53.1574 -18.3288 35.7451 -11.2807 79.0067 72.4210 -49.5746 29.6411 -38.8401 -50.8580 -14.7130 19.0786 19.1663 0.0000 0.0000 7.4174 0.0000 0.0000 14.7594 9.5461 117.2725 9.1464 0.0000 0.0000 3.2334 0.0000 0.0000 2.1282 -3.3259 119.5521 56.0075 0.0000 0.0000 97.7063 0.0000 0.0000 -5.0392 -17.4408 119.7033 68.8837 0.0000 0.0000 95.2340 0.0000 0.0000 -17.4075 -27.1394 121.1048 52.8750 0.0000 0.0000 117.3273 0.0000 0.0000 0.0000 0.0000 0.0000 0.0000 0.0000 0.0000 0.0000 0.0000 0.0000 0.0000 0.0000 0.0000 0.0000 0.0000 0.0000 0.0000 0.0000 0.0000
0.0000 95.0000 0.0000 0.0000 0.0000 0.0000 0.0000 0.0000 0.0000 0.0000 0.0000 0.0000 0.0000 0.0000 0.0000 0.0000 0.0000 0.0000 0.0000 0.0000 0.0000 0.0000 0.0000 0.0000 -71.5544 17.7713 24.4814 -3.8385 4.8016 -5.0006 -3.1528 13.0418 -22.0904 58.9284 -11.5445 7.0775 14.4709 0.0000 0.0000 5.0896 0.0000 0.0000 -8.0725 0.8926 -4.8347 32.8440 0.0000 0.0000 7.1396 0.0000 0.0000 3.6807 -0.0608 -2.8800 49.1829 0.0000 0.0000 20.5405 0.0000 0.0000 9.4060 -0.7128 -3.2609 64.4978 0.0000 0.0000 25.5302 0.0000 0.0000 17.0986 -1.2860 -0.1304 55.1091 0.0000 0.0000 18.4654 0.0000 0.0000 0.0000 0.0000 0.0000 52.7690 -18.6363 36.6047 -21.5494 80.1577 62.1479 -50.0616 30.1885 -40.9032 -52.1700 -14.6706 18.7833 21.4955 0.0000 0.0000 10.1635 0.0000 0.0000 10.1168 16.5463 117.8035 13.5878 0.0000 0.0000 5.9280 0.0000 0.0000 -0.9555 1.5890 122.7360 35.6616 0.0000 0.0000 58.1374 0.0000 0.0000 -9.0979 -11.9852 122.8534 36.9295 0.0000 0.0000 104.1170 0.0000 0.0000 -19.6909 -25.7035 125.6220 26.8061 0.0000 0.0000 133.3192 0.0000 0.0000 0.0000 0.0000 0.0000 0.0000 0.0000 0.0000 0.0000 0.0000 0.0000 0.0000 0.0000 0.0000 0.0000 0.0000 0.0000 0.0000 0.0000 0.0000
0.0000 95.0000 0.0000 0.0000 0.0000 0.0000 0.0000 0.0000 0.0000 0.0000 0.0000 0.0000 0.0000 0.0000 0.0000 0.0000 0.0000 0.0000 0.0000 0.0000 0.0000 0.0000 0.0000 0.0000 -71.9229 17.6160 24.1115 -3.5794 5.1261 -5.5466 -2.9573 12.4312 -21.2617 58.9284 -11.5445 7.0775 14.4709 0.0000 0.0000 5.0896 0.0000 0.0000 -8.0725 0.8926 -4.8347 32.8440 0.0000 0.0000 7.1396 0.0000 0.0000 3.6807 -0.0608 -2.8800 49.1829 0.0000 0.0000 20.5405 0.0000 0.0000 9.4060 -0.7128 -3.2609 64.4978 0.0000 0.0000 25.5302 0.0000 0.0000 17.0986 -1.2860 -0.1304 55.1091 0.0000 0.0000 18.4654 0.0000 0.0000 0.0000 0.0000 0.0000 53.1071 -18.5848 36.2574 -21.1480 80.5521 62.8367 -17.1425 25.5500 14.2357 -38.4462 -14.3967 18.3661 40.7769 0.0000 0.0000 22.5679 0.0000 0.0000 42.1005 -14.4443 75.6176 12.3500 0.0000 0.0000 7.4454 0.0000 0.0000 33.4476 -23.6486 74.5064 21.7645 0.0000 0.0000 9.0330 0.0000 0.0000 29.2565 -29.5847 69.6221 24.6852 0.0000 0.0000 12.8565 0.0000 0.0000 21.7976 -34.2719 65.2209 15.9549 0.0000 0.0000 14.5857 0.0000 0.0000 0.0000 0.0000 0.0000 0.0000 0.0000 0.0000 0.0000 0.0000 0.0000 0.0000 0.0000 0.0000 0.0000 0.0000 0.0000 0.0000 0.0000 0.0000
0.0000 95.0000 0.0000 0.0000 0.0000 0.0000 0.0000 0.0000 0.0000 0.0000 0.0000 0.0000 0.0000 0.0000 0.0000 0.0000 0.0000 0.0000 0.0000 0.0000 0.0000 0.0000 0.0000 0.0000 -71.7700 17.2818 23.7249 -3.7472 4.9932 -5.3589 -2.9939 12.2546 -21.0565 58.9284 -11.5445 7.0775 14.4709 0.0000 0.0000 5.0896 0.0000 0.0000 -8.0725 0.8926 -4.8347 32.8440 0.0000 0.0000 7.1396 0.0000 0.0000 3.6807 -0.0608 -2.8800 49.1829 0.0000 0.0000 20.5405 0.0000 0.0000 9.4060 -0.7128 -3.2609 64.4978 0.0000 0.0000 25.5302 0.0000 0.0000 17.0986 -1.2860 -0.1304 55.1091 0.0000 0.0000 18.4654 0.0000 0.0000 0.0000 0.0000 0.0000 53.2466 -18.4282 35.8643 -8.5907 77.8117 74.2435 -12.8517 39.3166 17.8485 -41.0556 -14.7050 19.3348 31.3522 0.0000 0.0000 20.3749 0.0000 0.0000 38.1601 -11.7543 76.2675 9.9326 0.0000 0.0000 3.6976 0.0000 0.0000 30.8838 -22.4189 76.0850 128.7317 0.0000 0.0000 43.2172 0.0000 0.0000 24.7402 -28.7650 74.0740 148.5325 0.0000 0.0000 27.5479 0.0000 0.0000 14.8072 -33.8691 72.2461 152.7054 0.0000 0.0000 22.3172 0.0000 0.0000 0.0000 0.0000 0.0000 0.0000 0.0000 0.0000 0.0000 0.0000 0.0000 0.0000 0.0000 0.0000 0.0000 0.0000 0.0000 0.0000 0.0000 0.0000
0.0000 95.0000 0.0000 0.0000 0.0000 0.0000 0.0000 0.0000 0.0000 0.0000 0.0000 0.0000 0.0000 0.0000 0.0000 0.0000 0.0000 0.0000 0.0000 0.0000 0.0000 0.0000 0.0000 0.0000 -71.7744 16.8852 23.1857 -3.9061 4.7967 -5.0789 -2.9053 12.0762 -20.8038 58.9284 -11.5445 7.0775 14.4709 0.0000 0.0000 5.0896 0.0000 0.0000 -8.0725 0.8926 -4.8347 32.8440 0.0000 0.0000 7.1396 0.0000 0.0000 3.6807 -0.0608 -2.8800 49.1829 0.0000 0.0000 20.5405 0.0000 0.0000 9.4060 -0.7128 -3.2609 64.4978 0.0000 0.0000 25.5302 0.0000 0.0000 17.0986 -1.2860 -0.1304 55.1091 0.0000 0.0000 18.4654 0.0000 0.0000 0.0000 0.0000 0.0000 53.5571 -18.2808 35.3666 -1.6845 74.7561 79.7769 -11.0017 39.2215 22.3879 -36.9746 -15.0058 20.3663 22.6545 0.0000 0.0000 8.7918 0.0000 0.0000 44.0568 -14.8182 72.1479 10.2343 0.0000 0.0000 1.9779 0.0000 0.0000 35.4637 -23.7464 71.4235 125.1565 0.0000 0.0000 48.1579 0.0000 0.0000 28.6484 -28.1325 67.6318 132.9460 0.0000 0.0000 39.4503 0.0000 0.0000 16.2296 -31.9861 67.2914 127.1919 0.0000 0.0000 47.3299 0.0000 0.0000 0.0000 0.0000 0.0000 0.0000 0.0000 0.0000 0.0000 0.0000 0.0000 0.0000 0.0000 0.0000 0.0000 0.0000 0.0000 0.0000 0.0000 0.0000
0.0000 95.0000 0.0000 0.0000 0.0000 0.0000 0.0000 0.0000 0.0000 0.0000 0.0000 0.0000 0.0000 0.0000 0.0000 0.0000 0.0000 0.0000 0.0000 0.0000 0.0000 0.0000 0.0000 0.0000 -71.8685 16.6029 22.7645 -3.9925 4.6231 -4.8332 -2.7879 11.9778 -20.6405 58.9284 -11.5445 7.0775 14.4709 0.0000 0.0000 5.0896 0.0000 0.0000 -8.0725 0.8926 -4.8347 32.8440 0.0000 0.0000 7.1396 0.0000 0.0000 3.6807 -0.0608 -2.8800 49.1829 0.0000 0.0000 20.5405 0.0000 0.0000 9.4060 -0.7128 -3.2609 64.4978 0.0000 0.0000 25.5302 0.0000 0.0000 17.0986 -1.2860 -0.1304 55.1091 0.0000 0.0000 18.4654 0.0000 0.0000 0.0000 0.0000 0.0000 53.9364 -18.0994 34.7625 2.1435 72.3748 82.5966 -12.0617 49.8549 16.3367 -41.7957 -15.3411 21.6681 23.0959 0.0000 0.0000 10.6807 0.0000 0.0000 35.8572 -10.1156 76.4299 9.6209 0.0000 0.0000 3.1697 0.0000 0.0000 25.9296 -19.5465 78.3788 92.7347 0.0000 0.0000 70.6262 0.0000 0.0000 18.8412 -25.0197 75.0592 118.8926 0.0000 0.0000 48.6346 0.0000 0.0000 5.4704 -29.2516 75.7371 112.9500 0.0000 0.0000 58.2535 0.0000 0.0000 0.0000 0.0000 0.0000 0.0000 0.0000 0.0000 0.0000 0.0000 0.0000 0.0000 0.0000 0.0000 0.0000 0.0000 0.0000 0.0000 0.0000 0.0000
0.0000 95.0000 0.0000 0.0000 0.0000 0.0000 0.0000 0.0000 0.0000 0.0000 0.0000 0.0000 0.0000 0.0000 0.0000 0.0000 0.0000 0.0000 0.0000 0.0000 0.0000 0.0000 0.0000 0.0000 -71.5362 16.5425 22.8181 -4.0731 4.6010 -4.8078 -3.0414 11.9521 -20.6986 58.9284 -11.5445 7.0775 14.4709 0.0000 0.0000 5.0896 0.0000 0.0000 -8.0725 0.8926 -4.8347 32.8440 0.0000 0.0000 7.1396 0.0000 0.0000 3.6807 -0.0608 -2.8800 49.1829 0.0000 0.0000 20.5405 0.0000 0.0000 9.4060 -0.7128 -3.2609 64.4978 0.0000 0.0000 25.5302 0.0000 0.0000 17.0986 -1.2860 -0.1304 55.1091 0.0000 0.0000 18.4654 0.0000 0.0000 0.0000 0.0000 0.0000 54.3853 -17.9967 34.2610 3.7278 72.3657 84.3564 -23.3998 46.5181 4.8976 -43.3314 -14.7849 19.5936 30.1306 0.0000 0.0000 17.4877 0.0000 0.0000 35.3066 -11.1724 83.5660 8.3994 0.0000 0.0000 4.4325 0.0000 0.0000 25.0298 -20.4937 83.0915 62.7907 0.0000 0.0000 90.8463 0.0000 0.0000 18.7645 -27.3402 80.3530 88.5004 0.0000 0.0000 75.1798 0.0000 0.0000 6.6727 -31.8925 79.2989 93.0959 0.0000 0.0000 76.1668 0.0000 0.0000 0.0000 0.0000 0.0000 0.0000 0.0000 0.0000 0.0000 0.0000 0.0000 0.0000 0.0000 0.0000 0.0000 0.0000 0.0000 0.0000 0.0000 0.0000
0.0000 95.0000 0.0000 0.0000 0.0000 0.0000 0.0000 0.0000 0.0000 0.0000 0.0000 0.0000 0.0000 0.0000 0.0000 0.0000 0.0000 0.0000 0.0000 0.0000 0.0000 0.0000 0.0000 0.0000 -71.4095 16.6896 23.0708 -3.9218 4.7084 -5.0026 -3.2770 11.9417 -20.7697 58.9284 -11.5445 7.0775 14.4709 0.0000 0.0000 5.0896 0.0000 0.0000 -8.0725 0.8926 -4.8347 32.8440 0.0000 0.0000 7.1396 0.0000 0.0000 3.6807 -0.0608 -2.8800 49.1829 0.0000 0.0000 20.5405 0.0000 0.0000 9.4060 -0.7128 -3.2609 64.4978 0.0000 0.0000 25.5302 0.0000 0.0000 17.0986 -1.2860 -0.1304 55.1091 0.0000 0.0000 18.4654 0.0000 0.0000 0.0000 0.0000 0.0000 54.6361 -18.0885 34.2545 2.4194 73.6448 83.4705 -51.1095 46.9619 -22.8428 -47.5700 -15.4852 22.7262 35.5222 0.0000 0.0000 26.6509 0.0000 0.0000 17.4659 4.2767 99.6500 12.5043 0.0000 0.0000 6.3102 0.0000 0.0000 6.9237 -7.7757 101.4250 27.8631 0.0000 0.0000 10.4278 0.0000 0.0000 -0.0686 -18.3948 101.9907 31.6821 0.0000 0.0000 24.9140 0.0000 0.0000 -11.8307 -25.7411 101.3848 26.8406 0.0000 0.0000 70.5553 0.0000 0.0000 0.0000 0.0000 0.0000 0.0000 0.0000 0.0000 0.0000 0.0000 0.0000 0.0000 0.0000 0.0000 0.0000 0.0000 0.0000 0.0000 0.0000 0.0000
0.0000 95.0000 0.0000 0.0000 0.0000 0.0000 0.0000 0.0000 0.0000 0.0000 0.0000 0.0000 0.0000 0.0000 0.0000 0.0000 0.0000 0.0000 0.0000 0.0000 0.0000 0.0000 0.0000 0.0000 -71.2467 16.9113 23.4414 -3.8329 4.9372 -5.3457 -3.4497 11.9089 -20.7906 58.9284 -11.5445 7.0775 14.4709 0.0000 0.0000 5.0896 0.0000 0.0000 -8.0725 0.8926 -4.8347 32.8440 0.0000 0.0000 7.1396 0.0000 0.0000 3.6807 -0.0608 -2.8800 49.1829 0.0000 0.0000 20.5405 0.0000 0.0000 9.4060 -0.7128 -3.2609 64.4978 0.0000 0.0000 25.5302 0.0000 0.0000 17.0986 -1.2860 -0.1304 55.1091 0.0000 0.0000 18.4654 0.0000 0.0000 0.0000 0.0000 0.0000 54.3527 -18.1850 34.6265 -2.5111 75.9399 79.5204 -58.2367 31.4666 -40.6962 -49.3325 -14.0246 15.7648 15.6852 0.0000 0.0000 8.9171 0.0000 0.0000 14.1403 10.0733 115.0356 11.7072 0.0000 0.0000 5.3820 0.0000 0.0000 1.3203 -1.9431 116.3852 45.4918 0.0000 0.0000 57.9872 0.0000 0.0000 -6.3047 -14.7531 116.7198 50.1855 0.0000 0.0000 91.3169 0.0000 0.0000 -19.4253 -23.0576 118.1099 38.9212 0.0000 0.0000 124.7555 0.0000 0.0000 0.0000 0.0000 0.0000 0.0000 0.0000 0.0000 0.0000 0.0000 0.0000 0.0000 0.0000 0.0000 0.0000 0.0000 0.0000 0.0000 0.0000 0.0000
0.0000 95.0000 0.0000 0.0000 0.0000 0.0000 0.0000 0.0000 0.0000 0.0000 0.0000 0.0000 0.0000 0.0000 0.0000 0.0000 0.0000 0.0000 0.0000 0.0000 0.0000 0.0000 0.0000 0.0000 -71.2659 16.9435 23.4773 -3.7750 5.0281 -5.4907 -3.4612 11.8268 -20.6921 58.9284 -11.5445 7.0775 14.4709 0.0000 0.0000 5.0896 0.0000 0.0000 -8.0725 0.8926 -4.8347 32.8440 0.0000 0.0000 7.1396 0.0000 0.0000 3.6807 -0.0608 -2.8800 49.1829 0.0000 0.0000 20.5405 0.0000 0.0000 9.4060 -0.7128 -3.2609 64.4978 0.0000 0.0000 25.5302 0.0000 0.0000 17.0986 -1.2860 -0.1304 55.1091 0.0000 0.0000 18.4654 0.0000 0.0000 0.0000 0.0000 0.0000 54.1971 -18.3150 34.9729 -8.2329 77.7646 74.4540 -61.2903 29.9688 -49.3009 -53.4994 -14.1735 15.7325 15.5926 0.0000 0.0000 8.7128 0.0000 0.0000 5.6699 24.1014 120.1894 11.8694 0.0000 0.0000 4.9022 0.0000 0.0000 -5.1317 9.2744 126.9325 61.5749 0.0000 0.0000 104.5560 0.0000 0.0000 -13.6601 -4.9287 126.5283 78.1670 0.0000 0.0000 93.4806 0.0000 0.0000 -25.4348 -17.0380 127.4649 58.6262 0.0000 0.0000 113.4319 0.0000 0.0000 0.0000 0.0000 0.0000 0.0000 0.0000 0.0000 0.0000 0.0000 0.0000 0.0000 0.0000 0.0000 0.0000 0.0000 0.0000 0.0000 0.0000 0.0000
0.0000 95.0000 0.0000 0.0000 0.0000 0.0000 0.0000 0.0000 0.0000 0.0000 0.0000 0.0000 0.0000 0.0000 0.0000 0.0000 0.0000 0.0000 0.0000 0.0000 0.0000 0.0000 0.0000 0.0000 -71.5970 16.8334 23.1889 -3.6808 5.1587 -5.6966 -3.2015 11.5390 -20.2417 58.9284 -11.5445 7.0775 14.4709 0.0000 0.0000 5.0896 0.0000 0.0000 -8.0725 0.8926 -4.8347 32.8440 0.0000 0.0000 7.1396 0.0000 0.0000 3.6807 -0.0608 -2.8800 49.1829 0.0000 0.0000 20.5405 0.0000 0.0000 9.4060 -0.7128 -3.2609 64.4978 0.0000 0.0000 25.5302 0.0000 0.0000 17.0986 -1.2860 -0.1304 55.1091 0.0000 0.0000 18.4654 0.0000 0.0000 0.0000 0.0000 0.0000 54.1902 -18.3001 34.9505 -7.8148 77.3453 74.6361 -44.1489 40.4345 -23.8599 -51.0446 -15.9184 25.4755 35.0254 0.0000 0.0000 22.0813 0.0000 0.0000 20.4124 1.1081 106.8282 8.3329 0.0000 0.0000 4.5971 0.0000 0.0000 11.1765 -13.6258 106.1388 16.9655 0.0000 0.0000 4.4875 0.0000 0.0000 5.1886 -24.5366 102.9982 19.4004 0.0000 0.0000 3.9224 0.0000 0.0000 -4.3451 -32.9329 100.3291 16.7303 0.0000 0.0000 7.8553 0.0000 0.0000 0.0000 0.0000 0.0000 0.0000 0.0000 0.0000 0.0000 0.0000 0.0000 0.0000 0.0000 0.0000 0.0000 0.0000 0.0000 0.0000 0.0000 0.0000
0.0000 95.0000 0.0000 0.0000 0.0000 0.0000 0.0000 0.0000 0.0000 0.0000 0.0000 0.0000 0.0000 0.0000 0.0000 0.0000 0.0000 0.0000 0.0000 0.0000 0.0000 0.0000 0.0000 0.0000 -71.6823 16.4332 22.6099 -4.0282 4.8334 -5.1638 -2.8818 11.5667 -20.1650 58.9284 -11.5445 7.0775 14.4709 0.0000 0.0000 5.0896 0.0000 0.0000 -8.0725 0.8926 -4.8347 32.8440 0.0000 0.0000 7.1396 0.0000 0.0000 3.6807 -0.0608 -2.8800 49.1829 0.0000 0.0000 20.5405 0.0000 0.0000 9.4060 -0.7128 -3.2609 64.4978 0.0000 0.0000 25.5302 0.0000 0.0000 17.0986 -1.2860 -0.1304 55.1091 0.0000 0.0000 18.4654 0.0000 0.0000 0.0000 0.0000 0.0000 54.3467 -18.0517 34.3880 -0.9887 74.5002 80.4362 -12.9366 39.3595 14.1040 -40.2843 -15.0606 20.6000 37.2996 0.0000 0.0000 19.6744 0.0000 0.0000 40.8393 -13.9724 77.2580 10.4760 0.0000 0.0000 4.3094 0.0000 0.0000 31.3115 -23.2823 77.4123 82.0303 0.0000 0.0000 80.0428 0.0000 0.0000 24.1855 -28.8163 74.9700 115.7195 0.0000 0.0000 49.1640 0.0000 0.0000 12.6757 -33.6212 74.4223 119.6969 0.0000 0.0000 46.7813 0.0000 0.0000 0.0000 0.0000 0.0000 0.0000 0.0000 0.0000 0.0000 0.0000 0.0000 0.0000 0.0000 0.0000 0.0000 0.0000 0.0000 0.0000 0.0000 0.0000
0.0000 95.0000 0.0000 0.0000 0.0000 0.0000 0.0000 0.0000 0.0000 0.0000 0.0000 0.0000 0.0000 0.0000 0.0000 0.0000 0.0000 0.0000 0.0000 0.0000 0.0000 0.0000 0.0000 0.0000 -71.9105 15.9147 21.8154 -4.1892 4.4936 -4.6777 -2.6108 11.4107 -19.8790 58.9284 -11.5445 7.0775 14.4709 0.0000 0.0000 5.0896 0.0000 0.0000 -8.0725 0.8926 -4.8347 32.8440 0.0000 0.0000 7.1396 0.0000 0.0000 3.6807 -0.0608 -2.8800 49.1829 0.0000 0.0000 20.5405 0.0000 0.0000 9.4060 -0.7128 -3.2609 64.4978 0.0000 0.0000 25.5302 0.0000 0.0000 17.0986 -1.2860 -0.1304 55.1091 0.0000 0.0000 18.4654 0.0000 0.0000 0.0000 0.0000 0.0000 54.7983 -17.8305 33.6759 3.4541 71.9668 83.8603 -11.0998 48.7819 20.2450 -42.7823 -14.9210 20.1205 25.6764 0.0000 0.0000 11.9563 0.0000 0.0000 35.4633 -9.5361 74.9276 12.2295 0.0000 0.0000 4.2029 0.0000 0.0000 26.9181 -19.9295 77.3384 91.9471 0.0000 0.0000 73.3678 0.0000 0.0000 19.8999 -25.7828 75.0741 125.7707 0.0000 0.0000 41.1332 0.0000 0.0000 8.3269 -30.9002 75.0305 131.7722 0.0000 0.0000 36.4210 0.0000 0.0000 0.0000 0.0000 0.0000 0.0000 0.0000 0.0000 0.0000 0.0000 0.0000 0.0000 0.0000 0.0000 0.0000 0.0000 0.0000 0.0000 0.0000 0.0000
0.0000 95.0000 0.0000 0.0000 0.0000 0.0000 0.0000 0.0000 0.0000 0.0000 0.0000 0.0000 0.0000 0.0000 0.0000 0.0000 0.0000 0.0000 0.0000 0.0000 0.0000 0.0000 0.0000 0.0000 -72.1715 15.7447 21.4843 -4.2484 4.2762 -4.3514 -2.3623 11.4826 -19.8826 58.9284 -11.5445 7.0775 14.4709 0.0000 0.0000 5.0896 0.0000 0.0000 -8.0725 0.8926 -4.8347 32.8440 0.0000 0.0000 7.1396 0.0000 0.0000 3.6807 -0.0608 -2.8800 49.1829 0.0000 0.0000 20.5405 0.0000 0.0000 9.4060 -0.7128 -3.2609 64.4978 0.0000 0.0000 25.5302 0.0000 0.0000 17.0986 -1.2860 -0.1304 55.1091 0.0000 0.0000 18.4654 0.0000 0.0000 0.0000 0.0000 0.0000 55.4143 -17.6814 32.9946 6.7350 69.8041 86.1187 -1.2348 40.4754 27.3852 -37.0132 -14.9898 20.3157 18.9793 0.0000 0.0000 11.5982 0.0000 0.0000 48.6941 -14.1485 60.5994 9.7716 0.0000 0.0000 3.1172 0.0000 0.0000 39.4128 -20.3031 57.8935 116.1194 0.0000 0.0000 52.6580 0.0000 0.0000 32.3586 -23.9348 55.3240 133.0350 0.0000 0.0000 38.4271 0.0000 0.0000 21.1684 -27.8422 55.0884 142.8151 0.0000 0.0000 31.2591 0.0000 0.0000 0.0000 0.0000 0.0000 0.0000 0.0000 0.0000 0.0000 0.0000 0.0000 0.0000 0.0000 0.0000 0.0000 0.0000 0.0000 0.0000 0.0000 0.0000
0.0000 95.0000 0.0000 0.0000 0.0000 0.0000 0.0000 0.0000 0.0000 0.0000 0.0000 0.0000 0.0000 0.0000 0.0000 0.0000 0.0000 0.0000 0.0000 0.0000 0.0000 0.0000 0.0000 0.0000 -72.3353 15.6025 21.2300 -4.3343 4.2517 -4.2985 -2.1280 11.3850 -19.6835 58.9284 -11.5445 7.0775 14.4709 0.0000 0.0000 5.0896 0.0000 0.0000 -8.0725 0.8926 -4.8347 32.8440 0.0000 0.0000 7.1396 0.0000 0.0000 3.6807 -0.0608 -2.8800 49.1829 0.0000 0.0000 20.5405 0.0000 0.0000 9.4060 -0.7128 -3.2609 64.4978 0.0000 0.0000 25.5302 0.0000 0.0000 17.0986 -1.2860 -0.1304 55.1091 0.0000 0.0000 18.4654 0.0000 0.0000 0.0000 0.0000 0.0000 56.0441 -17.6038 32.4441 7.7221 68.5075 86.1931 -12.1623 41.6933 18.6656 -39.0914 -14.7697 19.5930 20.0568 0.0000 0.0000 21.8614 0.0000 0.0000 49.0468 -16.0370 65.7748 10.2659 0.0000 0.0000 4.0440 0.0000 0.0000 40.3233 -23.5144 63.8658 81.3172 0.0000 0.0000 81.6091 0.0000 0.0000 33.2268 -26.9518 60.1187 115.6417 0.0000 0.0000 52.7217 0.0000 0.0000 21.7614 -31.0198 59.9251 130.3895 0.0000 0.0000 42.1167 0.0000 0.0000 0.0000 0.0000 0.0000 0.0000 0.0000 0.0000 0.0000 0.0000 0.0000 0.0000 0.0000 0.0000 0.0000 0.0000 0.0000 0.0000 0.0000 0.0000
0.0000 95.0000 0.0000 0.0000 0.0000 0.0000 0.0000 0.0000 0.0000 0.0000 0.0000 0.0000 0.0000 0.0000 0.0000 0.0000 0.0000 0.0000 0.0000 0.0000 0.0000 0.0000 0.0000 0.0000 -72.4897 15.5497 21.1006 -4.0178 3.9658 -3.9862 -2.3666 11.5209 -19.9311 58.9284 -11.5445 7.0775 14.4709 0.0000 0.0000 5.0896 0.0000 0.0000 -8.0725 0.8926 -4.8347 32.8440 0.0000 0.0000 7.1396 0.0000 0.0000 3.6807 -0.0608 -2.8800 49.1829 0.0000 0.0000 20.5405 0.0000 0.0000 9.4060 -0.7128 -3.2609 64.4978 0.0000 0.0000 25.5302 0.0000 0.0000 17.0986 -1.2860 -0.1304 55.1091 0.0000 0.0000 18.4654 0.0000 0.0000 0.0000 0.0000 0.0000 56.6570 -17.5505 31.9579 8.1741 68.3451 86.3659 -14.6576 37.6192 17.5276 -38.0828 -14.5408 18.8553 18.8468 0.0000 0.0000 19.7288 0.0000 0.0000 52.7182 -17.0881 62.5229 11.1173 0.0000 0.0000 4.4029 0.0000 0.0000 44.0558 -24.1450 60.4963 86.4883 0.0000 0.0000 80.1912 0.0000 0.0000 37.3240 -27.5216 56.9840 114.1404 0.0000 0.0000 54.8232 0.0000 0.0000 25.7952 -31.3454 56.7841 129.8664 0.0000 0.0000 41.9888 0.0000 0.0000 0.0000 0.0000 0.0000 0.0000 0.0000 0.0000 0.0000 0.0000 0.0000 0.0000 0.0000 0.0000 0.0000 0.0000 0.0000 0.0000 0.0000 0.0000
0.0000 95.0000 0.0000 0.0000 0.0000 0.0000 0.0000 0.0000 0.0000 0.0000 0.0000 0.0000 0.0000 0.0000 0.0000 0.0000 0.0000 0.0000 0.0000 0.0000 0.0000 0.0000 0.0000 0.0000 -72.3496 15.4819 21.0622 -4.3771 4.0263 -3.9770 -2.1378 11.5067 -19.8357 58.9284 -11.5445 7.0775 14.4709 0.0000 0.0000 5.0896 0.0000 0.0000 -8.0725 0.8926 -4.8347 32.8440 0.0000 0.0000 7.1396 0.0000 0.0000 3.6807 -0.0608 -2.8800 49.1829 0.0000 0.0000 20.5405 0.0000 0.0000 9.4060 -0.7128 -3.2609 64.4978 0.0000 0.0000 25.5302 0.0000 0.0000 17.0986 -1.2860 -0.1304 55.1091 0.0000 0.0000 18.4654 0.0000 0.0000 0.0000 0.0000 0.0000 57.1466 -17.5784 31.6983 7.8919 68.3348 85.7199 -19.9373 32.4876 17.2434 -34.6336 -13.7494 16.6260 21.4836 0.0000 0.0000 11.3781 0.0000 0.0000 58.0543 -19.2521 60.2295 12.5959 0.0000 0.0000 3.2678 0.0000 0.0000 51.8079 -26.3370 56.2171 117.4401 0.0000 0.0000 57.1397 0.0000 0.0000 45.3554 -29.3924 52.8634 133.4721 0.0000 0.0000 41.3461 0.0000 0.0000 34.3167 -32.7951 52.0690 139.9452 0.0000 0.0000 33.5912 0.0000 0.0000 0.0000 0.0000 0.0000 0.0000 0.0000 0.0000 0.0000 0.0000 0.0000 0.0000 0.0000 0.0000 0.0000 0.0000 0.0000 0.0000 0.0000 0.0000
0.0000 95.0000 0.0000 0.0000 0.0000 0.0000 0.0000 0.0000 0.0000 0.0000 0.0000 0.0000 0.0000 0.0000 0.0000 0.0000 0.0000 0.0000 0.0000 0.0000 0.0000 0.0000 0.0000 0.0000 -72.5565 15.2318 20.6487 -4.3442 3.8620 -3.7747 -2.0167 11.3949 -19.6582 58.9284 -11.5445 7.0775 14.4709 0.0000 0.0000 5.0896 0.0000 0.0000 -8.0725 0.8926 -4.8347 32.8440 0.0000 0.0000 7.1396 0.0000 0.0000 3.6807 -0.0608 -2.8800 49.1829 0.0000 0.0000 20.5405 0.0000 0.0000 9.4060 -0.7128 -3.2609 64.4978 0.0000 0.0000 25.5302 0.0000 0.0000 17.0986 -1.2860 -0.1304 55.1091 0.0000 0.0000 18.4654 0.0000 0.0000 0.0000 0.0000 0.0000 57.3327 -17.5165 31.4749 7.9849 67.0202 84.9054 -24.1615 34.1546 14.3945 -33.8620 -13.8573 17.0085 23.4466 0.0000 0.0000 9.0271 0.0000 0.0000 57.6126 -20.4621 63.6910 10.7000 0.0000 0.0000 2.7243 0.0000 0.0000 52.5941 -28.4724 59.1250 116.4139 0.0000 0.0000 56.0073 0.0000 0.0000 46.2332 -31.3434 55.0695 130.0284 0.0000 0.0000 43.3769 0.0000 0.0000 34.7561 -34.1986 53.6790 137.8053 0.0000 0.0000 35.7917 0.0000 0.0000 0.0000 0.0000 0.0000 0.0000 0.0000 0.0000 0.0000 0.0000 0.0000 0.0000 0.0000 0.0000 0.0000 0.0000 0.0000 0.0000 0.0000 0.0000
0.0000 95.0000 0.0000 0.0000 0.0000 0.0000 0.0000 0.0000 0.0000 0.0000 0.0000 0.0000 0.0000 0.0000 0.0000 0.0000 0.0000 0.0000 0.0000 0.0000 0.0000 0.0000 0.0000 0.0000 -72.2073 15.4546 21.0791 -4.4002 3.8889 -3.7839 -2.2949 11.6267 -20.0363 58.9284 -11.5445 7.0775 14.4709 0.0000 0.0000 5.0896 0.0000 0.0000 -8.0725 0.8926 -4.8347 32.8440 0.0000 0.0000 7.1396 0.0000 0.0000 3.6807 -0.0608 -2.8800 49.1829 0.0000 0.0000 20.5405 0.0000 0.0000 9.4060 -0.7128 -3.2609 64.4978 0.0000 0.0000 25.5302 0.0000 0.0000 17.0986 -1.2860 -0.1304 55.1091 0.0000 0.0000 18.4654 0.0000 0.0000 0.0000 0.0000 0.0000 57.8230 -17.6144 31.3413 8.3725 64.7257 83.3212 14.0832 29.7730 37.8214 -30.8972 -11.9100 12.0743 30.8709 0.0000 0.0000 12.9584 0.0000 0.0000 52.4175 -7.7046 34.6010 6.4824 0.0000 0.0000 5.4410 0.0000 0.0000 46.3553 -12.7126 33.9404 23.1265 0.0000 0.0000 33.4318 0.0000 0.0000 38.2950 -14.5645 32.7070 31.2084 0.0000 0.0000 59.1799 0.0000 0.0000 25.6869 -17.0162 33.2753 33.4175 0.0000 0.0000 84.6963 0.0000 0.0000 0.0000 0.0000 0.0000 0.0000 0.0000 0.0000 0.0000 0.0000 0.0000 0.0000 0.0000 0.0000 0.0000 0.0000 0.0000 0.0000 0.0000 0.0000
0.0000 95.0000 0.0000 0.0000 0.0000 0.0000 0.0000 0.0000 0.0000 0.0000 0.0000 0.0000 0.0000 0.0000 0.0000 0.0000 0.0000 0.0000 0.0000 0.0000 0.0000 0.0000 0.0000 0.0000 -71.9845 15.9725 21.8648 -4.3681 4.3119 -4.3436 -2.4138 11.7416 -20.2184 58.9284 -11.5445 7.0775 14.4709 0.0000 0.0000 5.0896 0.0000 0.0000 -8.0725 0.8926 -4.8347 32.8440 0.0000 0.0000 7.1396 0.0000 0.0000 3.6807 -0.0608 -2.8800 49.1829 0.0000 0.0000 20.5405 0.0000 0.0000 9.4060 -0.7128 -3.2609 64.4978 0.0000 0.0000 25.5302 0.0000 0.0000 17.0986 -1.2860 -0.1304 55.1091 0.0000 0.0000 18.4654 0.0000 0.0000 0.0000 0.0000 0.0000 58.8782 -17.5865 30.6554 9.7276 61.7743 82.2054 -2.0140 26.9401 25.7219 -43.6204 -12.6707 11.3381 34.0922 0.0000 0.0000 31.4086 0.0000 0.0000 58.4234 -9.1676 33.8576 11.7700 0.0000 0.0000 2.1228 0.0000 0.0000 57.4651 -13.6477 29.3985 126.3441 0.0000 0.0000 46.2338 0.0000 0.0000 48.9317 -15.7282 29.5145 138.6406 0.0000 0.0000 34.6713 0.0000 0.0000 35.7952 -18.3849 30.8539 150.1884 0.0000 0.0000 24.0210 0.0000 0.0000 0.0000 0.0000 0.0000 0.0000 0.0000 0.0000 0.0000 0.0000 0.0000 0.0000 0.0000 0.0000 0.0000 0.0000 0.0000 0.0000 0.0000 0.0000
0.0000 95.0000 0.0000 0.0000 0.0000 0.0000 0.0000 0.0000 0.0000 0.0000 0.0000 0.0000 0.0000 0.0000 0.0000 0.0000 0.0000 0.0000 0.0000 0.0000 0.0000 0.0000 0.0000 0.0000 -71.5069 16.0395 22.1442 -5.1229 4.7983 -4.8335 -2.0071 11.5572 -19.8529 58.9284 -11.5445 7.0775 14.4709 0.0000 0.0000 5.0896 0.0000 0.0000 -8.0725 0.8926 -4.8347 32.8440 0.0000 0.0000 7.1396 0.0000 0.0000 3.6807 -0.0608 -2.8800 49.1829 0.0000 0.0000 20.5405 0.0000 0.0000 9.4060 -0.7128 -3.2609 64.4978 0.0000 0.0000 25.5302 0.0000 0.0000 17.0986 -1.2860 -0.1304 55.1091 0.0000 0.0000 18.4654 0.0000 0.0000 0.0000 0.0000 0.0000 59.7956 -17.4766 29.9333 6.3266 58.3117 74.9773 -2.6098 32.5977 28.9613 -43.6204 -12.6707 11.3381 34.0922 0.0000 0.0000 31.4086 0.0000 0.0000 58.4234 -9.1676 33.8576 11.7700 0.0000 0.0000 2.1228 0.0000 0.0000 57.4651 -13.6477 29.3985 126.3441 0.0000 0.0000 46.2338 0.0000 0.0000 48.9317 -15.7282 29.5145 138.6406 0.0000 0.0000 34.6713 0.0000 0.0000 35.7952 -18.3849 30.8539 150.1884 0.0000 0.0000 24.0210 0.0000 0.0000 0.0000 0.0000 0.0000 0.0000 0.0000 0.0000 0.0000 0.0000 0.0000 0.0000 0.0000 0.0000 0.0000 0.0000 0.0000 0.0000 0.0000 0.0000
0.0000 95.0000 0.0000 0.0000 0.0000 0.0000 0.0000 0.0000 0.0000 0.0000 0.0000 0.0000 0.0000 0.0000 0.0000 0.0000 0.0000 0.0000 0.0000 0.0000 0.0000 0.0000 0.0000 0.0000 -71.8795 15.1650 20.8102 -5.8748 4.8795 -4.8535 -0.9147 10.7255 -18.4884 58.9284 -11.5445 7.0775 14.4709 0.0000 0.0000 5.0896 0.0000 0.0000 -8.0725 0.8926 -4.8347 32.8440 0.0000 0.0000 7.1396 0.0000 0.0000 3.6807 -0.0608 -2.8800 49.1829 0.0000 0.0000 20.5405 0.0000 0.0000 9.4060 -0.7128 -3.2609 64.4978 0.0000 0.0000 25.5302 0.0000 0.0000 17.0986 -1.2860 -0.1304 55.1091 0.0000 0.0000 18.4654 0.0000 0.0000 0.0000 0.0000 0.0000 61.3023 -17.1989 28.6315 8.1406 51.0236 70.3998 -3.3915 43.3654 30.9791 -43.6204 -12.6707 11.3381 34.0922 0.0000 0.0000 31.4086 0.0000 0.0000 58.4234 -9.1676 33.8576 11.7700 0.0000 0.0000 2.1228 0.0000 0.0000 57.4651 -13.6477 29.3985 126.3441 0.0000 0.0000 46.2338 0.0000 0.0000 48.9317 -15.7282 29.5145 138.6406 0.0000 0.0000 34.6713 0.0000 0.0000 35.7952 -18.3849 30.8539 150.1884 0.0000 0.0000 24.0210 0.0000 0.0000 0.0000 0.0000 0.0000 0.0000 0.0000 0.0000 0.0000 0.0000 0.0000 0.0000 0.0000 0.0000 0.0000 0.0000 0.0000 0.0000 0.0000 0.0000
0.0000 95.0000 0.0000 0.0000 0.0000 0.0000 0.0000 0.0000 0.0000 0.0000 0.0000 0.0000 0.0000 0.0000 0.0000 0.0000 0.0000 0.0000 0.0000 0.0000 0.0000 0.0000 0.0000 0.0000 -74.1374 12.4931 16.4887 -5.8226 4.4021 -4.4874 1.0722 8.1916 -14.9257 58.9284 -11.5445 7.0775 14.4709 0.0000 0.0000 5.0896 0.0000 0.0000 -8.0725 0.8926 -4.8347 32.8440 0.0000 0.0000 7.1396 0.0000 0.0000 3.6807 -0.0608 -2.8800 49.1829 0.0000 0.0000 20.5405 0.0000 0.0000 9.4060 -0.7128 -3.2609 64.4978 0.0000 0.0000 25.5302 0.0000 0.0000 17.0986 -1.2860 -0.1304 55.1091 0.0000 0.0000 18.4654 0.0000 0.0000 0.0000 0.0000 0.0000 62.8594 -16.9134 27.3478 10.4987 42.9940 65.0349 -3.6464 55.4138 33.7452 -43.6204 -12.6707 11.3381 34.0922 0.0000 0.0000 31.4086 0.0000 0.0000 58.4234 -9.1676 33.8576 11.7700 0.0000 0.0000 2.1228 0.0000 0.0000 57.4651 -13.6477 29.3985 126.3441 0.0000 0.0000 46.2338 0.0000 0.0000 48.9317 -15.7282 29.5145 138.6406 0.0000 0.0000 34.6713 0.0000 0.0000 35.7952 -18.3849 30.8539 150.1884 0.0000 0.0000 24.0210 0.0000 0.0000 0.0000 0.0000 0.0000 0.0000 0.0000 0.0000 0.0000 0.0000 0.0000 0.0000 0.0000 0.0000 0.0000 0.0000 0.0000 0.0000 0.0000 0.0000
0.0000 95.0000 0.0000 0.0000 0.0000 0.0000 0.0000 0.0000 0.0000 0.0000 0.0000 0.0000 0.0000 0.0000 0.0000 0.0000 0.0000 0.0000 0.0000 0.0000 0.0000 0.0000 0.0000 0.0000 -76.3693 7.7639 9.8624 -6.5020 2.3189 -2.0516 3.6035 5.3314 -11.0987 58.9284 -11.5445 7.0775 14.4709 0.0000 0.0000 5.0896 0.0000 0.0000 -8.0725 0.8926 -4.8347 32.8440 0.0000 0.0000 7.1396 0.0000 0.0000 3.6807 -0.0608 -2.8800 49.1829 0.0000 0.0000 20.5405 0.0000 0.0000 9.4060 -0.7128 -3.2609 64.4978 0.0000 0.0000 25.5302 0.0000 0.0000 17.0986 -1.2860 -0.1304 55.1091 0.0000 0.0000 18.4654 0.0000 0.0000 0.0000 0.0000 0.0000 67.4262 -14.8324 22.0770 17.7281 27.5553 54.2218 13.0201 81.7235 57.7048 -43.6204 -12.6707 11.3381 34.0922 0.0000 0.0000 31.4086 0.0000 0.0000 58.4234 -9.1676 33.8576 11.7700 0.0000 0.0000 2.1228 0.0000 0.0000 57.4651 -13.6477 29.3985 126.3441 0.0000 0.0000 46.2338 0.0000 0.0000 48.9317 -15.7282 29.5145 138.6406 0.0000 0.0000 34.6713 0.0000 0.0000 35.7952 -18.3849 30.8539 150.1884 0.0000 0.0000 24.0210 0.0000 0.0000 0.0000 0.0000 0.0000 0.0000 0.0000 0.0000 0.0000 0.0000 0.0000 0.0000 0.0000 0.0000 0.0000 0.0000 0.0000 0.0000 0.0000 0.0000
0.0000 95.0000 0.0000 0.0000 0.0000 0.0000 0.0000 0.0000 0.0000 0.0000 0.0000 0.0000 0.0000 0.0000 0.0000 0.0000 0.0000 0.0000 0.0000 0.0000 0.0000 0.0000 0.0000 0.0000 -77.5055 4.4410 5.5314 -7.4459 0.2957 0.3807 5.4988 4.0273 -9.3353 58.9284 -11.5445 7.0775 14.4709 0.0000 0.0000 5.0896 0.0000 0.0000 -8.0725 0.8926 -4.8347 32.8440 0.0000 0.0000 7.1396 0.0000 0.0000 3.6807 -0.0608 -2.8800 49.1829 0.0000 0.0000 20.5405 0.0000 0.0000 9.4060 -0.7128 -3.2609 64.4978 0.0000 0.0000 25.5302 0.0000 0.0000 17.0986 -1.2860 -0.1304 55.1091 0.0000 0.0000 18.4654 0.0000 0.0000 0.0000 0.0000 0.0000 71.7656 -12.5633 17.3036 19.1047 18.4061 39.4499 133.0138 75.1129 188.8566 -43.6204 -12.6707 11.3381 34.0922 0.0000 0.0000 31.4086 0.0000 0.0000 58.4234 -9.1676 33.8576 11.7700 0.0000 0.0000 2.1228 0.0000 0.0000 57.4651 -13.6477 29.3985 126.3441 0.0000 0.0000 46.2338 0.0000 0.0000 48.9317 -15.7282 29.5145 138.6406 0.0000 0.0000 34.6713 0.0000 0.0000 35.7952 -18.3849 30.8539 150.1884 0.0000 0.0000 24.0210 0.0000 0.0000 0.0000 0.0000 0.0000 0.0000 0.0000 0.0000 0.0000 0.0000 0.0000 0.0000 0.0000 0.0000 0.0000 0.0000 0.0000 0.0000 0.0000 0.0000
0.0000 95.0000 0.0000 0.0000 0.0000 0.0000 0.0000 0.0000 0.0000 0.0000 0.0000 0.0000 0.0000 0.0000 0.0000 0.0000 0.0000 0.0000 0.0000 0.0000 0.0000 0.0000 0.0000 0.0000 -77.9379 2.5945 3.2072 -8.4745 -1.4186 2.5759 6.7849 4.0551 -9.1685 58.9284 -11.5445 7.0775 14.4709 0.0000 0.0000 5.0896 0.0000 0.0000 -8.0725 0.8926 -4.8347 32.8440 0.0000 0.0000 7.1396 0.0000 0.0000 3.6807 -0.0608 -2.8800 49.1829 0.0000 0.0000 20.5405 0.0000 0.0000 9.4060 -0.7128 -3.2609 64.4978 0.0000 0.0000 25.5302 0.0000 0.0000 17.0986 -1.2860 -0.1304 55.1091 0.0000 0.0000 18.4654 0.0000 0.0000 0.0000 0.0000 0.0000 75.5791 -10.7881 13.8860 16.3410 12.2607 24.8412 131.1884 60.2928 199.7117 -43.6204 -12.6707 11.3381 34.0922 0.0000 0.0000 31.4086 0.0000 0.0000 58.4234 -9.1676 33.8576 11.7700 0.0000 0.0000 2.1228 0.0000 0.0000 57.4651 -13.6477 29.3985 126.3441 0.0000 0.0000 46.2338 0.0000 0.0000 48.9317 -15.7282 29.5145 138.6406 0.0000 0.0000 34.6713 0.0000 0.0000 35.7952 -18.3849 30.8539 150.1884 0.0000 0.0000 24.0210 0.0000 0.0000 0.0000 0.0000 0.0000 0.0000 0.0000 0.0000 0.0000 0.0000 0.0000 0.0000 0.0000 0.0000 0.0000 0.0000 0.0000 0.0000 0.0000 0.0000
0.0000 95.0000 0.0000 0.0000 0.0000 0.0000 0.0000 0.0000 0.0000 0.0000 0.0000 0.0000 0.0000 0.0000 0.0000 0.0000 0.0000 0.0000 0.0000 0.0000 0.0000 0.0000 0.0000 0.0000 -78.5347 1.7912 2.1909 -8.7227 -1.8712 3.0534 7.6303 3.7071 -8.6765 58.9284 -11.5445 7.0775 14.4709 0.0000 0.0000 5.0896 0.0000 0.0000 -8.0725 0.8926 -4.8347 32.8440 0.0000 0.0000 7.1396 0.0000 0.0000 3.6807 -0.0608 -2.8800 49.1829 0.0000 0.0000 20.5405 0.0000 0.0000 9.4060 -0.7128 -3.2609 64.4978 0.0000 0.0000 25.5302 0.0000 0.0000 17.0986 -1.2860 -0.1304 55.1091 0.0000 0.0000 18.4654 0.0000 0.0000 0.0000 0.0000 0.0000 78.3194 -9.2133 11.3005 12.4979 9.4071 16.7688 125.0621 53.1257 202.6172 -43.6204 -12.6707 11.3381 34.0922 0.0000 0.0000 31.4086 0.0000 0.0000 58.4234 -9.1676 33.8576 11.7700 0.0000 0.0000 2.1228 0.0000 0.0000 57.4651 -13.6477 29.3985 126.3441 0.0000 0.0000 46.2338 0.0000 0.0000 48.9317 -15.7282 29.5145 138.6406 0.0000 0.0000 34.6713 0.0000 0.0000 35.7952 -18.3849 30.8539 150.1884 0.0000 0.0000 24.0210 0.0000 0.0000 0.0000 0.0000 0.0000 0.0000 0.0000 0.0000 0.0000 0.0000 0.0000 0.0000 0.0000 0.0000 0.0000 0.0000 0.0000 0.0000 0.0000 0.0000
0.0000 95.0000 0.0000 0.0000 0.0000 0.0000 0.0000 0.0000 0.0000 0.0000 0.0000 0.0000 0.0000 0.0000 0.0000 0.0000 0.0000 0.0000 0.0000 0.0000 0.0000 0.0000 0.0000 0.0000 -78.6700 1.3289 1.6215 -9.0345 -2.5429 3.9405 7.9793 4.0104 -8.9431 58.9284 -11.5445 7.0775 14.4709 0.0000 0.0000 5.0896 0.0000 0.0000 -8.0725 0.8926 -4.8347 32.8440 0.0000 0.0000 7.1396 0.0000 0.0000 3.6807 -0.0608 -2.8800 49.1829 0.0000 0.0000 20.5405 0.0000 0.0000 9.4060 -0.7128 -3.2609 64.4978 0.0000 0.0000 25.5302 0.0000 0.0000 17.0986 -1.2860 -0.1304 55.1091 0.0000 0.0000 18.4654 0.0000 0.0000 0.0000 0.0000 0.0000 80.5761 -8.6640 10.2129 7.5437 8.7884 12.9471 119.5817 51.4955 202.0745 -43.6204 -12.6707 11.3381 34.0922 0.0000 0.0000 31.4086 0.0000 0.0000 58.4234 -9.1676 33.8576 11.7700 0.0000 0.0000 2.1228 0.0000 0.0000 57.4651 -13.6477 29.3985 126.3441 0.0000 0.0000 46.2338 0.0000 0.0000 48.9317 -15.7282 29.5145 138.6406 0.0000 0.0000 34.6713 0.0000 0.0000 35.7952 -18.3849 30.8539 150.1884 0.0000 0.0000 24.0210 0.0000 0.0000 0.0000 0.0000 0.0000 0.0000 0.0000 0.0000 0.0000 0.0000 0.0000 0.0000 0.0000 0.0000 0.0000 0.0000 0.0000 0.0000 0.0000 0.0000
0.0000 95.0000 0.0000 0.0000 0.0000 0.0000 0.0000 0.0000 0.0000 0.0000 0.0000 0.0000 0.0000 0.0000 0.0000 0.0000 0.0000 0.0000 0.0000 0.0000 0.0000 0.0000 0.0000 0.0000 -78.6448 1.2882 1.5726 -9.1491 -2.8661 4.4101 7.9889 4.3641 -9.3103 58.9284 -11.5445 7.0775 14.4709 0.0000 0.0000 5.0896 0.0000 0.0000 -8.0725 0.8926 -4.8347 32.8440 0.0000 0.0000 7.1396 0.0000 0.0000 3.6807 -0.0608 -2.8800 49.1829 0.0000 0.0000 20.5405 0.0000 0.0000 9.4060 -0.7128 -3.2609 64.4978 0.0000 0.0000 25.5302 0.0000 0.0000 17.0986 -1.2860 -0.1304 55.1091 0.0000 0.0000 18.4654 0.0000 0.0000 0.0000 0.0000 0.0000 82.2211 -8.2165 9.4102 4.0733 8.6175 11.0294 116.1313 50.8394 201.5015 -43.6204 -12.6707 11.3381 34.0922 0.0000 0.0000 31.4086 0.0000 0.0000 58.4234 -9.1676 33.8576 11.7700 0.0000 0.0000 2.1228 0.0000 0.0000 57.4651 -13.6477 29.3985 126.3441 0.0000 0.0000 46.2338 0.0000 0.0000 48.9317 -15.7282 29.5145 138.6406 0.0000 0.0000 34.6713 0.0000 0.0000 35.7952 -18.3849 30.8539 150.1884 0.0000 0.0000 24.0210 0.0000 0.0000 0.0000 0.0000 0.0000 0.0000 0.0000 0.0000 0.0000 0.0000 0.0000 0.0000 0.0000 0.0000 0.0000 0.0000 0.0000 0.0000 0.0000 0.0000
0.0000 95.0000 0.0000 0.0000 0.0000 0.0000 0.0000 0.0000 0.0000 0.0000 0.0000 0.0000 0.0000 0.0000 0.0000 0.0000 0.0000 0.0000 0.0000 0.0000 0.0000 0.0000 0.0000 0.0000 -78.4034 1.5298 1.8755 -9.4311 -3.2316 5.0463 7.8778 5.1294 -10.1259 58.9284 -11.5445 7.0775 14.4709 0.0000 0.0000 5.0896 0.0000 0.0000 -8.0725 0.8926 -4.8347 32.8440 0.0000 0.0000 7.1396 0.0000 0.0000 3.6807 -0.0608 -2.8800 49.1829 0.0000 0.0000 20.5405 0.0000 0.0000 9.4060 -0.7128 -3.2609 64.4978 0.0000 0.0000 25.5302 0.0000 0.0000 17.0986 -1.2860 -0.1304 55.1091 0.0000 0.0000 18.4654 0.0000 0.0000 0.0000 0.0000 0.0000 83.3150 -7.5998 8.5392 2.1352 8.2848 9.7834 114.1158 49.8740 201.7025 -43.6204 -12.6707 11.3381 34.0922 0.0000 0.0000 31.4086 0.0000 0.0000 58.4234 -9.1676 33.8576 11.7700 0.0000 0.0000 2.1228 0.0000 0.0000 57.4651 -13.6477 29.3985 126.3441 0.0000 0.0000 46.2338 0.0000 0.0000 48.9317 -15.7282 29.5145 138.6406 0.0000 0.0000 34.6713 0.0000 0.0000 35.7952 -18.3849 30.8539 150.1884 0.0000 0.0000 24.0210 0.0000 0.0000 0.0000 0.0000 0.0000 0.0000 0.0000 0.0000 0.0000 0.0000 0.0000 0.0000 0.0000 0.0000 0.0000 0.0000 0.0000 0.0000 0.0000 0.0000
0.0000 95.0000 0.0000 0.0000 0.0000 0.0000 0.0000 0.0000 0.0000 0.0000 0.0000 0.0000 0.0000 0.0000 0.0000 0.0000 0.0000 0.0000 0.0000 0.0000 0.0000 0.0000 0.0000 0.0000 -78.1801 1.2592 1.5500 -10.1003 -3.5414 5.5468 8.2615 5.2931 -10.2314 58.9284 -11.5445 7.0775 14.4709 0.0000 0.0000 5.0896 0.0000 0.0000 -8.0725 0.8926 -4.8347 32.8440 0.0000 0.0000 7.1396 0.0000 0.0000 3.6807 -0.0608 -2.8800 49.1829 0.0000 0.0000 20.5405 0.0000 0.0000 9.4060 -0.7128 -3.2609 64.4978 0.0000 0.0000 25.5302 0.0000 0.0000 17.0986 -1.2860 -0.1304 55.1091 0.0000 0.0000 18.4654 0.0000 0.0000 0.0000 0.0000 0.0000 83.8441 -7.0448 7.8431 0.9615 7.7500 8.7508 112.5205 48.9283 202.0562 -43.6204 -12.6707 11.3381 34.0922 0.0000 0.0000 31.4086 0.0000 0.0000 58.4234 -9.1676 33.8576 11.7700 0.0000 0.0000 2.1228 0.0000 0.0000 57.4651 -13.6477 29.3985 126.3441 0.0000 0.0000 46.2338 0.0000 0.0000 48.9317 -15.7282 29.5145 138.6406 0.0000 0.0000 34.6713 0.0000 0.0000 35.7952 -18.3849 30.8539 150.1884 0.0000 0.0000 24.0210 0.0000 0.0000 0.0000 0.0000 0.0000 0.0000 0.0000 0.0000 0.0000 0.0000 0.0000 0.0000 0.0000 0.0000 0.0000 0.0000 0.0000 0.0000 0.0000 0.0000
0.0000 95.0000 0.0000 0.0000 0.0000 0.0000 0.0000 0.0000 0.0000 0.0000 0.0000 0.0000 0.0000 0.0000 0.0000 0.0000 0.0000 0.0000 0.0000 0.0000 0.0000 0.0000 0.0000 0.0000 -78.0125 1.4025 1.7315 -10.5067 -3.6428 5.8066 8.4289 5.6664 -10.5884 58.9284 -11.5445 7.0775 14.4709 0.0000 0.0000 5.0896 0.0000 0.0000 -8.0725 0.8926 -4.8347 32.8440 0.0000 0.0000 7.1396 0.0000 0.0000 3.6807 -0.0608 -2.8800 49.1829 0.0000 0.0000 20.5405 0.0000 0.0000 9.4060 -0.7128 -3.2609 64.4978 0.0000 0.0000 25.5302 0.0000 0.0000 17.0986 -1.2860 -0.1304 55.1091 0.0000 0.0000 18.4654 0.0000 0.0000 0.0000 0.0000 0.0000 84.2625 -6.4225 7.0985 0.4766 7.6699 8.4763 111.8775 48.2329 202.4948 -43.6204 -12.6707 11.3381 34.0922 0.0000 0.0000 31.4086 0.0000 0.0000 58.4234 -9.1676 33.8576 11.7700 0.0000 0.0000 2.1228 0.0000 0.0000 57.4651 -13.6477 29.3985 126.3441 0.0000 0.0000 46.2338 0.0000 0.0000 48.9317 -15.7282 29.5145 138.6406 0.0000 0.0000 34.6713 0.0000 0.0000 35.7952 -18.3849 30.8539 150.1884 0.0000 0.0000 24.0210 0.0000 0.0000 0.0000 0.0000 0.0000 0.0000 0.0000 0.0000 0.0000 0.0000 0.0000 0.0000 0.0000 0.0000 0.0000 0.0000 0.0000 0.0000 0.0000 0.0000
0.0000 95.0000 0.0000 0.0000 0.0000 0.0000 0.0000 0.0000 0.0000 0.0000 0.0000 0.0000 0.0000 0.0000 0.0000 0.0000 0.0000 0.0000 0.0000 0.0000 0.0000 0.0000 0.0000 0.0000 -77.9249 1.0185 1.2594 -10.7463 -3.8457 6.0548 8.5834 5.4845 -10.3741 58.9284 -11.5445 7.0775 14.4709 0.0000 0.0000 5.0896 0.0000 0.0000 -8.0725 0.8926 -4.8347 32.8440 0.0000 0.0000 7.1396 0.0000 0.0000 3.6807 -0.0608 -2.8800 49.1829 0.0000 0.0000 20.5405 0.0000 0.0000 9.4060 -0.7128 -3.2609 64.4978 0.0000 0.0000 25.5302 0.0000 0.0000 17.0986 -1.2860 -0.1304 55.1091 0.0000 0.0000 18.4654 0.0000 0.0000 0.0000 0.0000 0.0000 84.2562 -5.9990 6.6314 0.5099 7.8641 8.7061 111.6819 48.0550 202.5992 -43.6204 -12.6707 11.3381 34.0922 0.0000 0.0000 31.4086 0.0000 0.0000 58.4234 -9.1676 33.8576 11.7700 0.0000 0.0000 2.1228 0.0000 0.0000 57.4651 -13.6477 29.3985 126.3441 0.0000 0.0000 46.2338 0.0000 0.0000 48.9317 -15.7282 29.5145 138.6406 0.0000 0.0000 34.6713 0.0000 0.0000 35.7952 -18.3849 30.8539 150.1884 0.0000 0.0000 24.0210 0.0000 0.0000 0.0000 0.0000 0.0000 0.0000 0.0000 0.0000 0.0000 0.0000 0.0000 0.0000 0.0000 0.0000 0.0000 0.0000 0.0000 0.0000 0.0000 0.0000
0.0000 95.0000 0.0000 0.0000 0.0000 0.0000 0.0000 0.0000 0.0000 0.0000 0.0000 0.0000 0.0000 0.0000 0.0000 0.0000 0.0000 0.0000 0.0000 0.0000 0.0000 0.0000 0.0000 0.0000 -77.5648 1.1799 1.4684 -10.9653 -3.6155 5.8216 8.4760 5.4305 -10.3369 58.9284 -11.5445 7.0775 14.4709 0.0000 0.0000 5.0896 0.0000 0.0000 -8.0725 0.8926 -4.8347 32.8440 0.0000 0.0000 7.1396 0.0000 0.0000 3.6807 -0.0608 -2.8800 49.1829 0.0000 0.0000 20.5405 0.0000 0.0000 9.4060 -0.7128 -3.2609 64.4978 0.0000 0.0000 25.5302 0.0000 0.0000 17.0986 -1.2860 -0.1304 55.1091 0.0000 0.0000 18.4654 0.0000 0.0000 0.0000 0.0000 0.0000 84.0370 -5.7693 6.4020 0.5795 7.7971 8.6882 111.3241 47.9008 202.6353 -43.6204 -12.6707 11.3381 34.0922 0.0000 0.0000 31.4086 0.0000 0.0000 58.4234 -9.1676 33.8576 11.7700 0.0000 0.0000 2.1228 0.0000 0.0000 57.4651 -13.6477 29.3985 126.3441 0.0000 0.0000 46.2338 0.0000 0.0000 48.9317 -15.7282 29.5145 138.6406 0.0000 0.0000 34.6713 0.0000 0.0000 35.7952 -18.3849 30.8539 150.1884 0.0000 0.0000 24.0210 0.0000 0.0000 0.0000 0.0000 0.0000 0.0000 0.0000 0.0000 0.0000 0.0000 0.0000 0.0000 0.0000 0.0000 0.0000 0.0000 0.0000 0.0000 0.0000 0.0000
0.0000 95.0000 0.0000 0.0000 0.0000 0.0000 0.0000 0.0000 0.0000 0.0000 0.0000 0.0000 0.0000 0.0000 0.0000 0.0000 0.0000 0.0000 0.0000 0.0000 0.0000 0.0000 0.0000 0.0000 -77.4497 1.4714 1.8349 -10.8348 -3.3823 5.5407 8.2510 5.4750 -10.4215 58.9284 -11.5445 7.0775 14.4709 0.0000 0.0000 5.0896 0.0000 0.0000 -8.0725 0.8926 -4.8347 32.8440 0.0000 0.0000 7.1396 0.0000 0.0000 3.6807 -0.0608 -2.8800 49.1829 0.0000 0.0000 20.5405 0.0000 0.0000 9.4060 -0.7128 -3.2609 64.4978 0.0000 0.0000 25.5302 0.0000 0.0000 17.0986 -1.2860 -0.1304 55.1091 0.0000 0.0000 18.4654 0.0000 0.0000 0.0000 0.0000 0.0000 83.9271 -5.4107 6.0158 0.5147 7.9244 8.8340 110.9011 47.8095 202.5956 -43.6204 -12.6707 11.3381 34.0922 0.0000 0.0000 31.4086 0.0000 0.0000 58.4234 -9.1676 33.8576 11.7700 0.0000 0.0000 2.1228 0.0000 0.0000 57.4651 -13.6477 29.3985 126.3441 0.0000 0.0000 46.2338 0.0000 0.0000 48.9317 -15.7282 29.5145 138.6406 0.0000 0.0000 34.6713 0.0000 0.0000 35.7952 -18.3849 30.8539 150.1884 0.0000 0.0000 24.0210 0.0000 0.0000 0.0000 0.0000 0.0000 0.0000 0.0000 0.0000 0.0000 0.0000 0.0000 0.0000 0.0000 0.0000 0.0000 0.0000 0.0000 0.0000 0.0000 0.0000
0.0000 95.0000 0.0000 0.0000 0.0000 0.0000 0.0000 0.0000 0.0000 0.0000 0.0000 0.0000 0.0000 0.0000 0.0000 0.0000 0.0000 0.0000 0.0000 0.0000 0.0000 0.0000 0.0000 0.0000 -77.3909 1.5496 1.9344 -10.7725 -3.5205 5.7683 8.0712 5.7262 -10.7136 58.9284 -11.5445 7.0775 14.4709 0.0000 0.0000 5.0896 0.0000 0.0000 -8.0725 0.8926 -4.8347 32.8440 0.0000 0.0000 7.1396 0.0000 0.0000 3.6807 -0.0608 -2.8800 49.1829 0.0000 0.0000 20.5405 0.0000 0.0000 9.4060 -0.7128 -3.2609 64.4978 0.0000 0.0000 25.5302 0.0000 0.0000 17.0986 -1.2860 -0.1304 55.1091 0.0000 0.0000 18.4654 0.0000 0.0000 0.0000 0.0000 0.0000 83.9485 -5.1513 5.7254 0.3861 8.1172 9.0144 110.6461 47.8110 202.5196 -43.6204 -12.6707 11.3381 34.0922 0.0000 0.0000 31.4086 0.0000 0.0000 58.4234 -9.1676 33.8576 11.7700 0.0000 0.0000 2.1228 0.0000 0.0000 57.4651 -13.6477 29.3985 126.3441 0.0000 0.0000 46.2338 0.0000 0.0000 48.9317 -15.7282 29.5145 138.6406 0.0000 0.0000 34.6713 0.0000 0.0000 35.7952 -18.3849 30.8539 150.1884 0.0000 0.0000 24.0210 0.0000 0.0000 0.0000 0.0000 0.0000 0.0000 0.0000 0.0000 0.0000 0.0000 0.0000 0.0000 0.0000 0.0000 0.0000 0.0000 0.0000 0.0000 0.0000 0.0000
0.0000 95.0000 0.0000 0.0000 0.0000 0.0000 0.0000 0.0000 0.0000 0.0000 0.0000 0.0000 0.0000 0.0000 0.0000 0.0000 0.0000 0.0000 0.0000 0.0000 0.0000 0.0000 0.0000 0.0000 -77.6460 1.5321 1.9039 -10.6260 -3.0475 5.0029 8.3372 5.1065 -10.0255 58.9284 -11.5445 7.0775 14.4709 0.0000 0.0000 5.0896 0.0000 0.0000 -8.0725 0.8926 -4.8347 32.8440 0.0000 0.0000 7.1396 0.0000 0.0000 3.6807 -0.0608 -2.8800 49.1829 0.0000 0.0000 20.5405 0.0000 0.0000 9.4060 -0.7128 -3.2609 64.4978 0.0000 0.0000 25.5302 0.0000 0.0000 17.0986 -1.2860 -0.1304 55.1091 0.0000 0.0000 18.4654 0.0000 0.0000 0.0000 0.0000 0.0000 84.0289 -4.6835 5.1982 0.6205 8.3253 9.2986 110.8055 47.4768 202.8745 -43.6204 -12.6707 11.3381 34.0922 0.0000 0.0000 31.4086 0.0000 0.0000 58.4234 -9.1676 33.8576 11.7700 0.0000 0.0000 2.1228 0.0000 0.0000 57.4651 -13.6477 29.3985 126.3441 0.0000 0.0000 46.2338 0.0000 0.0000 48.9317 -15.7282 29.5145 138.6406 0.0000 0.0000 34.6713 0.0000 0.0000 35.7952 -18.3849 30.8539 150.1884 0.0000 0.0000 24.0210 0.0000 0.0000 0.0000 0.0000 0.0000 0.0000 0.0000 0.0000 0.0000 0.0000 0.0000 0.0000 0.0000 0.0000 0.0000 0.0000 0.0000 0.0000 0.0000 0.0000
0.0000 95.0000 0.0000 0.0000 0.0000 0.0000 0.0000 0.0000 0.0000 0.0000 0.0000 0.0000 0.0000 0.0000 0.0000 0.0000 0.0000 0.0000 0.0000 0.0000 0.0000 0.0000 0.0000 0.0000 -77.8031 1.2930 1.6024 -10.9006 -2.9048 4.7443 8.8484 4.6932 -9.5171 58.9284 -11.5445 7.0775 14.4709 0.0000 0.0000 5.0896 0.0000 0.0000 -8.0725 0.8926 -4.8347 32.8440 0.0000 0.0000 7.1396 0.0000 0.0000 3.6807 -0.0608 -2.8800 49.1829 0.0000 0.0000 20.5405 0.0000 0.0000 9.4060 -0.7128 -3.2609 64.4978 0.0000 0.0000 25.5302 0.0000 0.0000 17.0986 -1.2860 -0.1304 55.1091 0.0000 0.0000 18.4654 0.0000 0.0000 0.0000 0.0000 0.0000 83.9931 -4.7695 5.2970 0.8270 8.6244 9.6861 111.2019 47.7955 202.6961 -43.6204 -12.6707 11.3381 34.0922 0.0000 0.0000 31.4086 0.0000 0.0000 58.4234 -9.1676 33.8576 11.7700 0.0000 0.0000 2.1228 0.0000 0.0000 57.4651 -13.6477 29.3985 126.3441 0.0000 0.0000 46.2338 0.0000 0.0000 48.9317 -15.7282 29.5145 138.6406 0.0000 0.0000 34.6713 0.0000 0.0000 35.7952 -18.3849 30.8539 150.1884 0.0000 0.0000 24.0210 0.0000 0.0000 0.0000 0.0000 0.0000 0.0000 0.0000 0.0000 0.0000 0.0000 0.0000 0.0000 0.0000 0.0000 0.0000 0.0000 0.0000 0.0000 0.0000 0.0000
