HIERARCHY
ROOT Hips
{
  OFFSET 0.000000 95.000000 0.000000
  CHANNELS 6 Xposition Yposition Zposition Zrotation Xrotation Yrotation
  JOINT Spine
  {
    OFFSET 0.000000 10.000000 0.000000
    CHANNELS 3 Zrotation Xrotation Yrotation
    JOINT Spine1
    {
      OFFSET 0.000000 12.000000 0.000000
      CHANNELS 3 Zrotation Xrotation Yrotation
      JOINT Spine2
      {
        OFFSET 0.000000 12.000000 0.000000
        CHANNELS 3 Zrotation Xrotation Yrotation
        JOINT Neck
        {
          OFFSET 0.000000 10.000000 0.000000
          CHANNELS 3 Zrotation Xrotation Yrotation
          JOINT Head
          {
            OFFSET 0.000000 8.000000 0.000000
            CHANNELS 3 Zrotation Xrotation Yrotation
            End Site
            {
              OFFSET 0.000000 10.000000 0.000000
            }
          }
        }
        JOINT LeftShoulder
        {
          OFFSET 6.000000 8.000000 0.000000
          CHANNELS 3 Zrotation Xrotation Yrotation
          JOINT LeftArm
          {
            OFFSET 12.000000 0.000000 0.000000
            CHANNELS 3 Zrotation Xrotation Yrotation
            JOINT LeftForeArm
            {
              OFFSET 24.000000 0.000000 0.000000
              CHANNELS 3 Zrotation Xrotation Yrotation
              JOINT LeftHand
              {
                OFFSET 22.000000 0.000000 0.000000
                CHANNELS 3 Zrotation Xrotation Yrotation
                JOINT LeftHandThumb1
                {
                  OFFSET 1.800000 -1.400000 0.500000
                  CHANNELS 3 Zrotation Xrotation Yrotation
                  JOINT LeftHandThumb2
                  {
                    OFFSET 2.400000 0.000000 0.000000
                    CHANNELS 3 Zrotation Xrotation Yrotation
                    JOINT LeftHandThumb3
                    {
                      OFFSET 1.900000 0.000000 0.000000
                      CHANNELS 3 Zrotation Xrotation Yrotation
                      End Site
                      {
                        OFFSET 1.600000 0.000000 0.000000
                      }
                    }
                  }
                }
                JOINT LeftHandIndex1
                {
                  OFFSET 6.600000 1.200000 0.300000
                  CHANNELS 3 Zrotation Xrotation Yrotation
                  JOINT LeftHandIndex2
                  {
                    OFFSET 2.000000 0.000000 0.000000
                    CHANNELS 3 Zrotation Xrotation Yrotation
                    JOINT LeftHandIndex3
                    {
                      OFFSET 1.200000 0.000000 0.000000
                      CHANNELS 3 Zrotation Xrotation Yrotation
                      End Site
                      {
                        OFFSET 1.000000 0.000000 0.000000
                      }
                    }
                  }
                }
                JOINT LeftHandMiddle1
                {
                  OFFSET 7.200000 0.000000 0.300000
                  CHANNELS 3 Zrotation Xrotation Yrotation
                  JOINT LeftHandMiddle2
                  {
                    OFFSET 3.000000 0.000000 0.000000
                    CHANNELS 3 Zrotation Xrotation Yrotation
                    JOINT LeftHandMiddle3
                    {
                      OFFSET 2.000000 0.000000 0.000000
                      CHANNELS 3 Zrotation Xrotation Yrotation
                      End Site
                      {
                        OFFSET 1.600000 0.000000 0.000000
                      }
                    }
                  }
                }
                JOINT LeftHandRing1
                {
                  OFFSET 7.100000 -1.000000 0.400000
                  CHANNELS 3 Zrotation Xrotation Yrotation
                  JOINT LeftHandRing2
                  {
                    OFFSET 2.600000 0.000000 0.000000
                    CHANNELS 3 Zrotation Xrotation Yrotation
                    JOINT LeftHandRing3
                    {
                      OFFSET 1.600000 0.000000 0.000000
                      CHANNELS 3 Zrotation Xrotation Yrotation
                      End Site
                      {
                        OFFSET 1.300000 0.000000 0.000000
                      }
                    }
                  }
                }
                JOINT LeftHandPinky1
                {
                  OFFSET 6.500000 -2.000000 0.500000
                  CHANNELS 3 Zrotation Xrotation Yrotation
                  JOINT LeftHandPinky2
                  {
                    OFFSET 1.900000 0.000000 0.000000
                    CHANNELS 3 Zrotation Xrotation Yrotation
                    JOINT LeftHandPinky3
                    {
                      OFFSET 1.400000 0.000000 0.000000
                      CHANNELS 3 Zrotation Xrotation Yrotation
                      End Site
                      {
                        OFFSET 1.300000 0.000000 0.000000
                      }
                    }
                  }
                }
              }
            }
          }
        }
        JOINT RightShoulder
        {
          OFFSET -6.000000 8.000000 0.000000
          CHANNELS 3 Zrotation Xrotation Yrotation
          JOINT RightArm
          {
            OFFSET -12.000000 0.000000 0.000000
            CHANNELS 3 Zrotation Xrotation Yrotation
            JOINT RightForeArm
            {
              OFFSET -24.000000 0.000000 0.000000
              CHANNELS 3 Zrotation Xrotation Yrotation
              JOINT RightHand
              {
                OFFSET -22.000000 0.000000 0.000000
                CHANNELS 3 Zrotation Xrotation Yrotation
                JOINT RightHandThumb1
                {
                  OFFSET -1.800000 -1.400000 0.500000
                  CHANNELS 3 Zrotation Xrotation Yrotation
                  JOINT RightHandThumb2
                  {
                    OFFSET -2.400000 0.000000 0.000000
                    CHANNELS 3 Zrotation Xrotation Yrotation
                    JOINT RightHandThumb3
                    {
                      OFFSET -1.900000 0.000000 0.000000
                      CHANNELS 3 Zrotation Xrotation Yrotation
                      End Site
                      {
                        OFFSET -1.600000 0.000000 0.000000
                      }
                    }
                  }
                }
                JOINT RightHandIndex1
                {
                  OFFSET -6.600000 1.200000 0.300000
                  CHANNELS 3 Zrotation Xrotation Yrotation
                  JOINT RightHandIndex2
                  {
                    OFFSET -2.000000 0.000000 0.000000
                    CHANNELS 3 Zrotation Xrotation Yrotation
                    JOINT RightHandIndex3
                    {
                      OFFSET -1.200000 0.000000 0.000000
                      CHANNELS 3 Zrotation Xrotation Yrotation
                      End Site
                      {
                        OFFSET -1.000000 0.000000 0.000000
                      }
                    }
                  }
                }
                JOINT RightHandMiddle1
                {
                  OFFSET -7.200000 0.000000 0.300000
                  CHANNELS 3 Zrotation Xrotation Yrotation
                  JOINT RightHandMiddle2
                  {
                    OFFSET -3.000000 0.000000 0.000000
                    CHANNELS 3 Zrotation Xrotation Yrotation
                    JOINT RightHandMiddle3
                    {
                      OFFSET -2.000000 0.000000 0.000000
                      CHANNELS 3 Zrotation Xrotation Yrotation
                      End Site
                      {
                        OFFSET -1.600000 0.000000 0.000000
                      }
                    }
                  }
                }
                JOINT RightHandRing1
                {
                  OFFSET -7.100000 -1.000000 0.400000
                  CHANNELS 3 Zrotation Xrotation Yrotation
                  JOINT RightHandRing2
                  {
                    OFFSET -2.600000 0.000000 0.000000
                    CHANNELS 3 Zrotation Xrotation Yrotation
                    JOINT RightHandRing3
                    {
                      OFFSET -1.600000 0.000000 0.000000
                      CHANNELS 3 Zrotation Xrotation Yrotation
                      End Site
                      {
                        OFFSET -1.300000 0.000000 0.000000
                      }
                    }
                  }
                }
                JOINT RightHandPinky1
                {
                  OFFSET -6.500000 -2.000000 0.500000
                  CHANNELS 3 Zrotation Xrotation Yrotation
                  JOINT RightHandPinky2
                  {
                    OFFSET -1.900000 0.000000 0.000000
                    CHANNELS 3 Zrotation Xrotation Yrotation
                    JOINT RightHandPinky3
                    {
                      OFFSET -1.400000 0.000000 0.000000
                      CHANNELS 3 Zrotation Xrotation Yrotation
                      End Site
                      {
                        OFFSET -1.300000 0.000000 0.000000
                      }
                    }
                  }
                }
              }
            }
          }
        }
      }
    }
  }
  JOINT LeftUpLeg
  {
    OFFSET 10.000000 -5.000000 0.000000
    CHANNELS 3 Zrotation Xrotation Yrotation
    JOINT LeftLeg
    {
      OFFSET 0.000000 -42.000000 0.000000
      CHANNELS 3 Zrotation Xrotation Yrotation
      JOINT LeftFoot
      {
        OFFSET 0.000000 -42.000000 4.000000
        CHANNELS 3 Zrotation Xrotation Yrotation
        End Site
        {
          OFFSET 0.000000 0.000000 12.000000
        }
      }
    }
  }
  JOINT RightUpLeg
  {
    OFFSET -10.000000 -5.000000 0.000000
    CHANNELS 3 Zrotation Xrotation Yrotation
    JOINT RightLeg
    {
      OFFSET 0.000000 -42.000000 0.000000
      CHANNELS 3 Zrotation Xrotation Yrotation
      JOINT RightFoot
      {
        OFFSET 0.000000 -42.000000 4.000000
        CHANNELS 3 Zrotation Xrotation Yrotation
        End Site
        {
          OFFSET 0.000000 0.000000 12.000000
        }
      }
    }
  }
}
MOTION
Frames: 60
Frame Time: 0.033333
0.0000 95.0000 0.0000 0.0000 0.0000 0.0000 0.0000 0.0000 0.0000 0.0000 0.0000 0.0000 0.0000 0.0000 0.0000 0.0000 0.0000 0.0000 0.0000 0.0000 0.0000 0.0000 0.0000 0.0000 -78.6282 0.4399 0.5372 -10.3205 -2.7576 4.1736 143.0771 20.6545 2.0808 61.7455 -12.4130 5.1634 20.9193 0.0000 0.0000 2.3519 0.0000 0.0000 -9.0274 0.8822 -4.7149 56.1458 0.0000 0.0000 65.0933 0.0000 0.0000 -4.2683 -3.8456 -88.8019 62.5354 0.0000 0.0000 14.3824 0.0000 0.0000 21.9401 4.7388 -93.0433 68.0343 0.0000 0.0000 12.6938 0.0000 0.0000 36.4220 -0.2074 -94.7883 64.9496 0.0000 0.0000 16.0940 0.0000 0.0000 0.0000 0.0000 0.0000 84.3472 -6.4294 7.0956 -2.0879 8.0136 8.1455 179.6927 7.8806 -31.3299 -63.6501 -13.9350 8.1745 17.0507 0.0000 0.0000 18.6450 0.0000 0.0000 10.4756 0.3227 -1.6597 3.5788 0.0000 0.0000 3.7835 0.0000 0.0000 -23.3766 11.8431 58.0266 86.0701 0.0000 0.0000 7.4234 0.0000 0.0000 -37.4903 16.7222 84.6058 66.4297 0.0000 0.0000 17.9216 0.0000 0.0000 -49.3035 11.9858 94.5866 54.9778 0.0000 0.0000 20.2078 0.0000 0.0000 0.0000 0.0000 0.0000 0.0000 0.0000 0.0000 0.0000 0.0000 0.0000 0.0000 0.0000 0.0000 0.0000 0.0000 0.0000 0.0000 0.0000 0.0000
0.0000 95.0000 0.0000 0.0000 0.0000 0.0000 0.0000 0.0000 0.0000 0.0000 0.0000 0.0000 0.0000 0.0000 0.0000 0.0000 0.0000 0.0000 0.0000 0.0000 0.0000 0.0000 0.0000 0.0000 -78.7763 0.5140 0.6261 -10.2496 -2.6578 4.0277 143.1663 20.6054 2.1532 61.7455 -12.4130 5.1634 20.9193 0.0000 0.0000 2.3519 0.0000 0.0000 -9.0274 0.8822 -4.7149 56.1458 0.0000 0.0000 65.0933 0.0000 0.0000 -4.2683 -3.8456 -88.8019 62.5354 0.0000 0.0000 14.3824 0.0000 0.0000 21.9401 4.7388 -93.0433 68.0343 0.0000 0.0000 12.6938 0.0000 0.0000 36.4220 -0.2074 -94.7883 64.9496 0.0000 0.0000 16.0940 0.0000 0.0000 0.0000 0.0000 0.0000 84.3672 -6.3973 7.0577 -2.1687 8.2916 8.4120 179.9040 7.7354 -31.5401 -63.6501 -13.9350 8.1745 17.0507 0.0000 0.0000 18.6450 0.0000 0.0000 10.4756 0.3227 -1.6597 3.5788 0.0000 0.0000 3.7835 0.0000 0.0000 -23.3766 11.8431 58.0266 86.0701 0.0000 0.0000 7.4234 0.0000 0.0000 -37.4903 16.7222 84.6058 66.4297 0.0000 0.0000 17.9216 0.0000 0.0000 -49.3035 11.9858 94.5866 54.9778 0.0000 0.0000 20.2078 0.0000 0.0000 0.0000 0.0000 0.0000 0.0000 0.0000 0.0000 0.0000 0.0000 0.0000 0.0000 0.0000 0.0000 0.0000 0.0000 0.0000 0.0000 0.0000 0.0000
0.0000 95.0000 0.0000 0.0000 0.0000 0.0000 0.0000 0.0000 0.0000 0.0000 0.0000 0.0000 0.0000 0.0000 0.0000 0.0000 0.0000 0.0000 0.0000 0.0000 0.0000 0.0000 0.0000 0.0000 -78.8311 0.6477 0.7881 -10.1759 -2.6501 4.0385 143.1549 20.7562 1.9971 61.7455 -12.4130 5.1634 20.9193 0.0000 0.0000 2.3519 0.0000 0.0000 -9.0274 0.8822 -4.7149 56.1458 0.0000 0.0000 65.0933 0.0000 0.0000 -4.2683 -3.8456 -88.8019 62.5354 0.0000 0.0000 14.3824 0.0000 0.0000 21.9401 4.7388 -93.0433 68.0343 0.0000 0.0000 12.6938 0.0000 0.0000 36.4220 -0.2074 -94.7883 64.9496 0.0000 0.0000 16.0940 0.0000 0.0000 0.0000 0.0000 0.0000 84.3846 -6.3783 7.0346 -2.1843 8.2780 8.3926 179.8841 7.7644 -31.5029 -63.6501 -13.9350 8.1745 17.0507 0.0000 0.0000 18.6450 0.0000 0.0000 10.4756 0.3227 -1.6597 3.5788 0.0000 0.0000 3.7835 0.0000 0.0000 -23.3766 11.8431 58.0266 86.0701 0.0000 0.0000 7.4234 0.0000 0.0000 -37.4903 16.7222 84.6058 66.4297 0.0000 0.0000 17.9216 0.0000 0.0000 -49.3035 11.9858 94.5866 54.9778 0.0000 0.0000 20.2078 0.0000 0.0000 0.0000 0.0000 0.0000 0.0000 0.0000 0.0000 0.0000 0.0000 0.0000 0.0000 0.0000 0.0000 0.0000 0.0000 0.0000 0.0000 0.0000 0.0000
0.0000 95.0000 0.0000 0.0000 0.0000 0.0000 0.0000 0.0000 0.0000 0.0000 0.0000 0.0000 0.0000 0.0000 0.0000 0.0000 0.0000 0.0000 0.0000 0.0000 0.0000 0.0000 0.0000 0.0000 -78.8177 0.6873 0.8364 -10.2159 -2.5690 3.9342 143.1877 20.7052 2.0573 61.7455 -12.4130 5.1634 20.9193 0.0000 0.0000 2.3519 0.0000 0.0000 -9.0274 0.8822 -4.7149 56.1458 0.0000 0.0000 65.0933 0.0000 0.0000 -4.2683 -3.8456 -88.8019 62.5354 0.0000 0.0000 14.3824 0.0000 0.0000 21.9401 4.7388 -93.0433 68.0343 0.0000 0.0000 12.6938 0.0000 0.0000 36.4220 -0.2074 -94.7883 64.9496 0.0000 0.0000 16.0940 0.0000 0.0000 0.0000 0.0000 0.0000 84.2757 -6.2883 6.9486 -1.8966 8.3522 8.5686 179.7630 7.6741 -31.5783 -63.6501 -13.9350 8.1745 17.0507 0.0000 0.0000 18.6450 0.0000 0.0000 10.4756 0.3227 -1.6597 3.5788 0.0000 0.0000 3.7835 0.0000 0.0000 -23.3766 11.8431 58.0266 86.0701 0.0000 0.0000 7.4234 0.0000 0.0000 -37.4903 16.7222 84.6058 66.4297 0.0000 0.0000 17.9216 0.0000 0.0000 -49.3035 11.9858 94.5866 54.9778 0.0000 0.0000 20.2078 0.0000 0.0000 0.0000 0.0000 0.0000 0.0000 0.0000 0.0000 0.0000 0.0000 0.0000 0.0000 0.0000 0.0000 0.0000 0.0000 0.0000 0.0000 0.0000 0.0000
0.0000 95.0000 0.0000 0.0000 0.0000 0.0000 0.0000 0.0000 0.0000 0.0000 0.0000 0.0000 0.0000 0.0000 0.0000 0.0000 0.0000 0.0000 0.0000 0.0000 0.0000 0.0000 0.0000 0.0000 -78.7930 0.6623 0.8064 -10.2818 -2.5645 3.9291 143.2301 20.6702 2.1034 61.7455 -12.4130 5.1634 20.9193 0.0000 0.0000 2.3519 0.0000 0.0000 -9.0274 0.8822 -4.7149 56.1458 0.0000 0.0000 65.0933 0.0000 0.0000 -4.2683 -3.8456 -88.8019 62.5354 0.0000 0.0000 14.3824 0.0000 0.0000 21.9401 4.7388 -93.0433 68.0343 0.0000 0.0000 12.6938 0.0000 0.0000 36.4220 -0.2074 -94.7883 64.9496 0.0000 0.0000 16.0940 0.0000 0.0000 0.0000 0.0000 0.0000 83.9091 -6.2577 6.9594 -1.0610 8.3104 8.8068 179.3889 7.4182 -31.7828 -63.6501 -13.9350 8.1745 17.0507 0.0000 0.0000 18.6450 0.0000 0.0000 10.4756 0.3227 -1.6597 3.5788 0.0000 0.0000 3.7835 0.0000 0.0000 -23.3766 11.8431 58.0266 86.0701 0.0000 0.0000 7.4234 0.0000 0.0000 -37.4903 16.7222 84.6058 66.4297 0.0000 0.0000 17.9216 0.0000 0.0000 -49.3035 11.9858 94.5866 54.9778 0.0000 0.0000 20.2078 0.0000 0.0000 0.0000 0.0000 0.0000 0.0000 0.0000 0.0000 0.0000 0.0000 0.0000 0.0000 0.0000 0.0000 0.0000 0.0000 0.0000 0.0000 0.0000 0.0000
0.0000 95.0000 0.0000 0.0000 0.0000 0.0000 0.0000 0.0000 0.0000 0.0000 0.0000 0.0000 0.0000 0.0000 0.0000 0.0000 0.0000 0.0000 0.0000 0.0000 0.0000 0.0000 0.0000 0.0000 -78.8251 0.7414 0.9022 -10.7262 -2.5490 3.9640 143.7432 20.7363 2.1653 61.7455 -12.4130 5.1634 20.9193 0.0000 0.0000 2.3519 0.0000 0.0000 -9.0274 0.8822 -4.7149 56.1458 0.0000 0.0000 65.0933 0.0000 0.0000 -4.2683 -3.8456 -88.8019 62.5354 0.0000 0.0000 14.3824 0.0000 0.0000 21.9401 4.7388 -93.0433 68.0343 0.0000 0.0000 12.6938 0.0000 0.0000 36.4220 -0.2074 -94.7883 64.9496 0.0000 0.0000 16.0940 0.0000 0.0000 0.0000 0.0000 0.0000 83.7159 -5.6549 6.3106 -0.4685 8.3205 9.0340 178.8490 7.6909 -31.3598 -63.6501 -13.9350 8.1745 17.0507 0.0000 0.0000 18.6450 0.0000 0.0000 10.4756 0.3227 -1.6597 3.5788 0.0000 0.0000 3.7835 0.0000 0.0000 -23.3766 11.8431 58.0266 86.0701 0.0000 0.0000 7.4234 0.0000 0.0000 -37.4903 16.7222 84.6058 66.4297 0.0000 0.0000 17.9216 0.0000 0.0000 -49.3035 11.9858 94.5866 54.9778 0.0000 0.0000 20.2078 0.0000 0.0000 0.0000 0.0000 0.0000 0.0000 0.0000 0.0000 0.0000 0.0000 0.0000 0.0000 0.0000 0.0000 0.0000 0.0000 0.0000 0.0000 0.0000 0.0000
0.0000 95.0000 0.0000 0.0000 0.0000 0.0000 0.0000 0.0000 0.0000 0.0000 0.0000 0.0000 0.0000 0.0000 0.0000 0.0000 0.0000 0.0000 0.0000 0.0000 0.0000 0.0000 0.0000 0.0000 -78.6190 0.8688 1.0611 -10.9260 -2.4368 3.8648 143.7480 20.7769 2.1257 61.7455 -12.4130 5.1634 20.9193 0.0000 0.0000 2.3519 0.0000 0.0000 -9.0274 0.8822 -4.7149 56.1458 0.0000 0.0000 65.0933 0.0000 0.0000 -4.2683 -3.8456 -88.8019 62.5354 0.0000 0.0000 14.3824 0.0000 0.0000 21.9401 4.7388 -93.0433 68.0343 0.0000 0.0000 12.6938 0.0000 0.0000 36.4220 -0.2074 -94.7883 64.9496 0.0000 0.0000 16.0940 0.0000 0.0000 0.0000 0.0000 0.0000 83.3469 -4.8127 5.4059 0.5847 8.3366 9.4102 177.9931 7.9993 -30.8380 -63.6501 -13.9350 8.1745 17.0507 0.0000 0.0000 18.6450 0.0000 0.0000 10.4756 0.3227 -1.6597 3.5788 0.0000 0.0000 3.7835 0.0000 0.0000 -23.3766 11.8431 58.0266 86.0701 0.0000 0.0000 7.4234 0.0000 0.0000 -37.4903 16.7222 84.6058 66.4297 0.0000 0.0000 17.9216 0.0000 0.0000 -49.3035 11.9858 94.5866 54.9778 0.0000 0.0000 20.2078 0.0000 0.0000 0.0000 0.0000 0.0000 0.0000 0.0000 0.0000 0.0000 0.0000 0.0000 0.0000 0.0000 0.0000 0.0000 0.0000 0.0000 0.0000 0.0000 0.0000
0.0000 95.0000 0.0000 0.0000 0.0000 0.0000 0.0000 0.0000 0.0000 0.0000 0.0000 0.0000 0.0000 0.0000 0.0000 0.0000 0.0000 0.0000 0.0000 0.0000 0.0000 0.0000 0.0000 0.0000 -78.5952 0.6691 0.8176 -10.7049 -2.7095 4.1987 143.4669 20.8774 1.9534 61.7455 -12.4130 5.1634 20.9193 0.0000 0.0000 2.3519 0.0000 0.0000 -9.0274 0.8822 -4.7149 56.1458 0.0000 0.0000 65.0933 0.0000 0.0000 -4.2683 -3.8456 -88.8019 62.5354 0.0000 0.0000 14.3824 0.0000 0.0000 21.9401 4.7388 -93.0433 68.0343 0.0000 0.0000 12.6938 0.0000 0.0000 36.4220 -0.2074 -94.7883 64.9496 0.0000 0.0000 16.0940 0.0000 0.0000 0.0000 0.0000 0.0000 82.6966 -4.7017 5.3419 1.9286 8.4037 9.9487 177.5142 7.5562 -31.2206 -63.6501 -13.9350 8.1745 17.0507 0.0000 0.0000 18.6450 0.0000 0.0000 10.4756 0.3227 -1.6597 3.5788 0.0000 0.0000 3.7835 0.0000 0.0000 -23.3766 11.8431 58.0266 86.0701 0.0000 0.0000 7.4234 0.0000 0.0000 -37.4903 16.7222 84.6058 66.4297 0.0000 0.0000 17.9216 0.0000 0.0000 -49.3035 11.9858 94.5866 54.9778 0.0000 0.0000 20.2078 0.0000 0.0000 0.0000 0.0000 0.0000 0.0000 0.0000 0.0000 0.0000 0.0000 0.0000 0.0000 0.0000 0.0000 0.0000 0.0000 0.0000 0.0000 0.0000 0.0000
0.0000 95.0000 0.0000 0.0000 0.0000 0.0000 0.0000 0.0000 0.0000 0.0000 0.0000 0.0000 0.0000 0.0000 0.0000 0.0000 0.0000 0.0000 0.0000 0.0000 0.0000 0.0000 0.0000 0.0000 -78.0956 1.1904 1.4675 -11.2447 -2.6103 4.2856 143.5477 21.4682 1.3773 61.7455 -12.4130 5.1634 20.9193 0.0000 0.0000 2.3519 0.0000 0.0000 -9.0274 0.8822 -4.7149 56.1458 0.0000 0.0000 65.0933 0.0000 0.0000 -4.2683 -3.8456 -88.8019 62.5354 0.0000 0.0000 14.3824 0.0000 0.0000 21.9401 4.7388 -93.0433 68.0343 0.0000 0.0000 12.6938 0.0000 0.0000 36.4220 -0.2074 -94.7883 64.9496 0.0000 0.0000 16.0940 0.0000 0.0000 0.0000 0.0000 0.0000 81.4674 -2.9269 3.3986 4.7349 10.7058 13.6937 177.3128 6.2297 -32.6059 -63.6501 -13.9350 8.1745 17.0507 0.0000 0.0000 18.6450 0.0000 0.0000 10.4756 0.3227 -1.6597 3.5788 0.0000 0.0000 3.7835 0.0000 0.0000 -23.3766 11.8431 58.0266 86.0701 0.0000 0.0000 7.4234 0.0000 0.0000 -37.4903 16.7222 84.6058 66.4297 0.0000 0.0000 17.9216 0.0000 0.0000 -49.3035 11.9858 94.5866 54.9778 0.0000 0.0000 20.2078 0.0000 0.0000 0.0000 0.0000 0.0000 0.0000 0.0000 0.0000 0.0000 0.0000 0.0000 0.0000 0.0000 0.0000 0.0000 0.0000 0.0000 0.0000 0.0000 0.0000
0.0000 95.0000 0.0000 0.0000 0.0000 0.0000 0.0000 0.0000 0.0000 0.0000 0.0000 0.0000 0.0000 0.0000 0.0000 0.0000 0.0000 0.0000 0.0000 0.0000 0.0000 0.0000 0.0000 0.0000 -77.9425 2.2651 2.7998 -10.7227 -1.8737 3.4198 142.9320 21.9084 0.7645 61.7455 -12.4130 5.1634 20.9193 0.0000 0.0000 2.3519 0.0000 0.0000 -9.0274 0.8822 -4.7149 56.1458 0.0000 0.0000 65.0933 0.0000 0.0000 -4.2683 -3.8456 -88.8019 62.5354 0.0000 0.0000 14.3824 0.0000 0.0000 21.9401 4.7388 -93.0433 68.0343 0.0000 0.0000 12.6938 0.0000 0.0000 36.4220 -0.2074 -94.7883 64.9496 0.0000 0.0000 16.0940 0.0000 0.0000 0.0000 0.0000 0.0000 79.4604 -4.2866 5.1566 8.4543 13.2456 19.0333 179.6244 1.4462 -38.4232 -63.6501 -13.9350 8.1745 17.0507 0.0000 0.0000 18.6450 0.0000 0.0000 10.4756 0.3227 -1.6597 3.5788 0.0000 0.0000 3.7835 0.0000 0.0000 -23.3766 11.8431 58.0266 86.0701 0.0000 0.0000 7.4234 0.0000 0.0000 -37.4903 16.7222 84.6058 66.4297 0.0000 0.0000 17.9216 0.0000 0.0000 -49.3035 11.9858 94.5866 54.9778 0.0000 0.0000 20.2078 0.0000 0.0000 0.0000 0.0000 0.0000 0.0000 0.0000 0.0000 0.0000 0.0000 0.0000 0.0000 0.0000 0.0000 0.0000 0.0000 0.0000 0.0000 0.0000 0.0000
0.0000 95.0000 0.0000 0.0000 0.0000 0.0000 0.0000 0.0000 0.0000 0.0000 0.0000 0.0000 0.0000 0.0000 0.0000 0.0000 0.0000 0.0000 0.0000 0.0000 0.0000 0.0000 0.0000 0.0000 -77.5474 5.0688 6.3080 -9.5464 -0.2306 1.5405 141.5689 23.3559 -1.1282 61.7455 -12.4130 5.1634 20.9193 0.0000 0.0000 2.3519 0.0000 0.0000 -9.0274 0.8822 -4.7149 56.1458 0.0000 0.0000 65.0933 0.0000 0.0000 -4.2683 -3.8456 -88.8019 62.5354 0.0000 0.0000 14.3824 0.0000 0.0000 21.9401 4.7388 -93.0433 68.0343 0.0000 0.0000 12.6938 0.0000 0.0000 36.4220 -0.2074 -94.7883 64.9496 0.0000 0.0000 16.0940 0.0000 0.0000 0.0000 0.0000 0.0000 75.8941 -8.3167 10.6532 7.2771 24.6250 34.8869 199.4450 -5.2431 -56.5015 -63.6501 -13.9350 8.1745 17.0507 0.0000 0.0000 18.6450 0.0000 0.0000 10.4756 0.3227 -1.6597 3.5788 0.0000 0.0000 3.7835 0.0000 0.0000 -23.3766 11.8431 58.0266 86.0701 0.0000 0.0000 7.4234 0.0000 0.0000 -37.4903 16.7222 84.6058 66.4297 0.0000 0.0000 17.9216 0.0000 0.0000 -49.3035 11.9858 94.5866 54.9778 0.0000 0.0000 20.2078 0.0000 0.0000 0.0000 0.0000 0.0000 0.0000 0.0000 0.0000 0.0000 0.0000 0.0000 0.0000 0.0000 0.0000 0.0000 0.0000 0.0000 0.0000 0.0000 0.0000
0.0000 95.0000 0.0000 0.0000 0.0000 0.0000 0.0000 0.0000 0.0000 0.0000 0.0000 0.0000 0.0000 0.0000 0.0000 0.0000 0.0000 0.0000 0.0000 0.0000 0.0000 0.0000 0.0000 0.0000 -76.1023 9.6244 12.2778 -8.7592 2.1162 -0.9930 139.8805 26.1545 -4.6745 61.7455 -12.4130 5.1634 20.9193 0.0000 0.0000 2.3519 0.0000 0.0000 -9.0274 0.8822 -4.7149 56.1458 0.0000 0.0000 65.0933 0.0000 0.0000 -4.2683 -3.8456 -88.8019 62.5354 0.0000 0.0000 14.3824 0.0000 0.0000 21.9401 4.7388 -93.0433 68.0343 0.0000 0.0000 12.6938 0.0000 0.0000 36.4220 -0.2074 -94.7883 64.9496 0.0000 0.0000 16.0940 0.0000 0.0000 0.0000 0.0000 0.0000 72.4082 -11.4342 15.5759 6.9398 38.6701 52.6805 222.9732 -3.3122 -75.3764 -63.6501 -13.9350 8.1745 17.0507 0.0000 0.0000 18.6450 0.0000 0.0000 10.4756 0.3227 -1.6597 3.5788 0.0000 0.0000 3.7835 0.0000 0.0000 -23.3766 11.8431 58.0266 86.0701 0.0000 0.0000 7.4234 0.0000 0.0000 -37.4903 16.7222 84.6058 66.4297 0.0000 0.0000 17.9216 0.0000 0.0000 -49.3035 11.9858 94.5866 54.9778 0.0000 0.0000 20.2078 0.0000 0.0000 0.0000 0.0000 0.0000 0.0000 0.0000 0.0000 0.0000 0.0000 0.0000 0.0000 0.0000 0.0000 0.0000 0.0000 0.0000 0.0000 0.0000 0.0000
0.0000 95.0000 0.0000 0.0000 0.0000 0.0000 0.0000 0.0000 0.0000 0.0000 0.0000 0.0000 0.0000 0.0000 0.0000 0.0000 0.0000 0.0000 0.0000 0.0000 0.0000 0.0000 0.0000 0.0000 -74.4278 12.6343 16.5876 -13.0496 16.7165 -23.6871 138.7019 11.6127 10.7654 61.7455 -12.4130 5.1634 20.9193 0.0000 0.0000 2.3519 0.0000 0.0000 -9.0274 0.8822 -4.7149 56.1458 0.0000 0.0000 65.0933 0.0000 0.0000 -4.2683 -3.8456 -88.8019 62.5354 0.0000 0.0000 14.3824 0.0000 0.0000 21.9401 4.7388 -93.0433 68.0343 0.0000 0.0000 12.6938 0.0000 0.0000 36.4220 -0.2074 -94.7883 64.9496 0.0000 0.0000 16.0940 0.0000 0.0000 0.0000 0.0000 0.0000 67.7037 -13.5979 20.1578 3.7729 48.5086 61.6614 240.3805 4.8368 -83.5299 -63.6501 -13.9350 8.1745 17.0507 0.0000 0.0000 18.6450 0.0000 0.0000 10.4756 0.3227 -1.6597 3.5788 0.0000 0.0000 3.7835 0.0000 0.0000 -23.3766 11.8431 58.0266 86.0701 0.0000 0.0000 7.4234 0.0000 0.0000 -37.4903 16.7222 84.6058 66.4297 0.0000 0.0000 17.9216 0.0000 0.0000 -49.3035 11.9858 94.5866 54.9778 0.0000 0.0000 20.2078 0.0000 0.0000 0.0000 0.0000 0.0000 0.0000 0.0000 0.0000 0.0000 0.0000 0.0000 0.0000 0.0000 0.0000 0.0000 0.0000 0.0000 0.0000 0.0000 0.0000
0.0000 95.0000 0.0000 0.0000 0.0000 0.0000 0.0000 0.0000 0.0000 0.0000 0.0000 0.0000 0.0000 0.0000 0.0000 0.0000 0.0000 0.0000 0.0000 0.0000 0.0000 0.0000 0.0000 0.0000 -77.8742 4.8684 6.0235 -8.4301 9.4476 -12.6740 138.4933 11.6116 10.7451 61.7455 -12.4130 5.1634 20.9193 0.0000 0.0000 2.3519 0.0000 0.0000 -9.0274 0.8822 -4.7149 56.1458 0.0000 0.0000 65.0933 0.0000 0.0000 -4.2683 -3.8456 -88.8019 62.5354 0.0000 0.0000 14.3824 0.0000 0.0000 21.9401 4.7388 -93.0433 68.0343 0.0000 0.0000 12.6938 0.0000 0.0000 36.4220 -0.2074 -94.7883 64.9496 0.0000 0.0000 16.0940 0.0000 0.0000 0.0000 0.0000 0.0000 63.7677 -14.6342 23.3267 1.9035 55.5952 68.0691 252.3567 12.0890 -87.1788 -63.6501 -13.9350 8.1745 17.0507 0.0000 0.0000 18.6450 0.0000 0.0000 10.4756 0.3227 -1.6597 3.5788 0.0000 0.0000 3.7835 0.0000 0.0000 -23.3766 11.8431 58.0266 86.0701 0.0000 0.0000 7.4234 0.0000 0.0000 -37.4903 16.7222 84.6058 66.4297 0.0000 0.0000 17.9216 0.0000 0.0000 -49.3035 11.9858 94.5866 54.9778 0.0000 0.0000 20.2078 0.0000 0.0000 0.0000 0.0000 0.0000 0.0000 0.0000 0.0000 0.0000 0.0000 0.0000 0.0000 0.0000 0.0000 0.0000 0.0000 0.0000 0.0000 0.0000 0.0000
0.0000 95.0000 0.0000 0.0000 0.0000 0.0000 0.0000 0.0000 0.0000 0.0000 0.0000 0.0000 0.0000 0.0000 0.0000 0.0000 0.0000 0.0000 0.0000 0.0000 0.0000 0.0000 0.0000 0.0000 -77.8857 4.8719 6.0266 -7.5612 9.4623 -12.5855 137.6479 11.7695 10.4838 61.7455 -12.4130 5.1634 20.9193 0.0000 0.0000 2.3519 0.0000 0.0000 -9.0274 0.8822 -4.7149 56.1458 0.0000 0.0000 65.0933 0.0000 0.0000 -4.2683 -3.8456 -88.8019 62.5354 0.0000 0.0000 14.3824 0.0000 0.0000 21.9401 4.7388 -93.0433 68.0343 0.0000 0.0000 12.6938 0.0000 0.0000 36.4220 -0.2074 -94.7883 64.9496 0.0000 0.0000 16.0940 0.0000 0.0000 0.0000 0.0000 0.0000 61.3029 -14.9337 24.9420 0.8280 60.2943 72.2867 259.9239 17.0416 -88.2771 -63.6501 -13.9350 8.1745 17.0507 0.0000 0.0000 18.6450 0.0000 0.0000 10.4756 0.3227 -1.6597 3.5788 0.0000 0.0000 3.7835 0.0000 0.0000 -23.3766 11.8431 58.0266 86.0701 0.0000 0.0000 7.4234 0.0000 0.0000 -37.4903 16.7222 84.6058 66.4297 0.0000 0.0000 17.9216 0.0000 0.0000 -49.3035 11.9858 94.5866 54.9778 0.0000 0.0000 20.2078 0.0000 0.0000 0.0000 0.0000 0.0000 0.0000 0.0000 0.0000 0.0000 0.0000 0.0000 0.0000 0.0000 0.0000 0.0000 0.0000 0.0000 0.0000 0.0000 0.0000
0.0000 95.0000 0.0000 0.0000 0.0000 0.0000 0.0000 0.0000 0.0000 0.0000 0.0000 0.0000 0.0000 0.0000 0.0000 0.0000 0.0000 0.0000 0.0000 0.0000 0.0000 0.0000 0.0000 0.0000 -77.7056 4.8689 6.0423 -7.7472 9.4343 -12.6096 137.6554 11.7734 10.4803 61.7455 -12.4130 5.1634 20.9193 0.0000 0.0000 2.3519 0.0000 0.0000 -9.0274 0.8822 -4.7149 56.1458 0.0000 0.0000 65.0933 0.0000 0.0000 -4.2683 -3.8456 -88.8019 62.5354 0.0000 0.0000 14.3824 0.0000 0.0000 21.9401 4.7388 -93.0433 68.0343 0.0000 0.0000 12.6938 0.0000 0.0000 36.4220 -0.2074 -94.7883 64.9496 0.0000 0.0000 16.0940 0.0000 0.0000 0.0000 0.0000 0.0000 58.6425 -15.1786 26.6903 0.5394 61.8296 74.6525 265.2368 20.8193 -90.0523 -72.0127 -14.8438 15.5431 23.5339 0.0000 0.0000 25.8089 0.0000 0.0000 8.0681 0.1166 -2.2403 7.1446 0.0000 0.0000 5.8218 0.0000 0.0000 -30.4589 19.9083 70.3872 73.0106 0.0000 0.0000 16.8577 0.0000 0.0000 -36.3843 20.8080 99.7733 52.9595 0.0000 0.0000 29.5002 0.0000 0.0000 -48.9014 14.9603 106.8941 46.8798 0.0000 0.0000 41.6083 0.0000 0.0000 0.0000 0.0000 0.0000 0.0000 0.0000 0.0000 0.0000 0.0000 0.0000 0.0000 0.0000 0.0000 0.0000 0.0000 0.0000 0.0000 0.0000 0.0000
0.0000 95.0000 0.0000 0.0000 0.0000 0.0000 0.0000 0.0000 0.0000 0.0000 0.0000 0.0000 0.0000 0.0000 0.0000 0.0000 0.0000 0.0000 0.0000 0.0000 0.0000 0.0000 0.0000 0.0000 -77.5749 4.8810 6.0715 -7.5726 9.4522 -12.6420 137.3444 11.8096 10.4066 61.7455 -12.4130 5.1634 20.9193 0.0000 0.0000 2.3519 0.0000 0.0000 -9.0274 0.8822 -4.7149 56.1458 0.0000 0.0000 65.0933 0.0000 0.0000 -4.2683 -3.8456 -88.8019 62.5354 0.0000 0.0000 14.3824 0.0000 0.0000 21.9401 4.7388 -93.0433 68.0343 0.0000 0.0000 12.6938 0.0000 0.0000 36.4220 -0.2074 -94.7883 64.9496 0.0000 0.0000 16.0940 0.0000 0.0000 0.0000 0.0000 0.0000 56.0300 -15.4085 28.5321 1.5155 60.4299 75.9556 255.4716 33.0138 -92.6483 -67.3199 -15.3932 30.3580 17.1977 0.0000 0.0000 43.2070 0.0000 0.0000 12.6377 0.3965 -2.4289 4.3535 0.0000 0.0000 10.0303 0.0000 0.0000 -20.1131 25.4252 108.4277 35.9286 0.0000 0.0000 38.0528 0.0000 0.0000 -26.3068 15.4477 121.8568 37.8199 0.0000 0.0000 90.0000 0.0000 0.0000 -34.9750 -0.7206 131.2757 35.0543 0.0000 0.0000 90.0000 0.0000 0.0000 0.0000 0.0000 0.0000 0.0000 0.0000 0.0000 0.0000 0.0000 0.0000 0.0000 0.0000 0.0000 0.0000 0.0000 0.0000 0.0000 0.0000 0.0000
0.0000 95.0000 0.0000 0.0000 0.0000 0.0000 0.0000 0.0000 0.0000 0.0000 0.0000 0.0000 0.0000 0.0000 0.0000 0.0000 0.0000 0.0000 0.0000 0.0000 0.0000 0.0000 0.0000 0.0000 -77.6004 4.8663 6.0504 -8.0891 9.4301 -12.6701 137.8829 11.7156 10.5680 61.7455 -12.4130 5.1634 20.9193 0.0000 0.0000 2.3519 0.0000 0.0000 -9.0274 0.8822 -4.7149 56.1458 0.0000 0.0000 65.0933 0.0000 0.0000 -4.2683 -3.8456 -88.8019 62.5354 0.0000 0.0000 14.3824 0.0000 0.0000 21.9401 4.7388 -93.0433 68.0343 0.0000 0.0000 12.6938 0.0000 0.0000 36.4220 -0.2074 -94.7883 64.9496 0.0000 0.0000 16.0940 0.0000 0.0000 0.0000 0.0000 0.0000 53.1316 -15.2331 29.9451 4.2808 55.5318 77.3241 263.2755 88.0534 -77.2792 -50.0454 -19.9990 45.7964 16.1089 0.0000 0.0000 14.6457 0.0000 0.0000 7.5187 4.6688 37.0323 9.3846 0.0000 0.0000 17.9424 0.0000 0.0000 4.3416 -3.1734 77.0878 34.8509 0.0000 0.0000 90.0000 0.0000 0.0000 -3.9854 -9.8756 79.9693 74.6845 0.0000 0.0000 90.0000 0.0000 0.0000 -16.2798 -15.9400 82.5872 88.5520 0.0000 0.0000 77.1833 0.0000 0.0000 0.0000 0.0000 0.0000 0.0000 0.0000 0.0000 0.0000 0.0000 0.0000 0.0000 0.0000 0.0000 0.0000 0.0000 0.0000 0.0000 0.0000 0.0000
0.0000 95.0000 0.0000 0.0000 0.0000 0.0000 0.0000 0.0000 0.0000 0.0000 0.0000 0.0000 0.0000 0.0000 0.0000 0.0000 0.0000 0.0000 0.0000 0.0000 0.0000 0.0000 0.0000 0.0000 -78.0362 4.8888 6.0314 -7.2963 9.5082 -12.5816 137.5287 11.7785 10.4609 61.7455 -12.4130 5.1634 20.9193 0.0000 0.0000 2.3519 0.0000 0.0000 -9.0274 0.8822 -4.7149 56.1458 0.0000 0.0000 65.0933 0.0000 0.0000 -4.2683 -3.8456 -88.8019 62.5354 0.0000 0.0000 14.3824 0.0000 0.0000 21.9401 4.7388 -93.0433 68.0343 0.0000 0.0000 12.6938 0.0000 0.0000 36.4220 -0.2074 -94.7883 64.9496 0.0000 0.0000 16.0940 0.0000 0.0000 0.0000 0.0000 0.0000 50.4050 -14.8214 30.8989 7.3502 49.5499 78.5959 439.3485 31.9499 76.7292 -38.6203 -11.0654 7.4098 10.4742 0.0000 0.0000 1.6547 0.0000 0.0000 15.2940 1.4487 16.5885 3.8583 0.0000 0.0000 2.0691 0.0000 0.0000 14.2751 -1.9078 19.9196 85.8782 0.0000 0.0000 78.7728 0.0000 0.0000 8.0986 -4.1483 21.5268 110.0000 0.0000 0.0000 23.6694 0.0000 0.0000 -3.8646 -6.9660 24.6773 110.0000 0.0000 0.0000 21.0187 0.0000 0.0000 0.0000 0.0000 0.0000 0.0000 0.0000 0.0000 0.0000 0.0000 0.0000 0.0000 0.0000 0.0000 0.0000 0.0000 0.0000 0.0000 0.0000 0.0000
0.0000 95.0000 0.0000 0.0000 0.0000 0.0000 0.0000 0.0000 0.0000 0.0000 0.0000 0.0000 0.0000 0.0000 0.0000 0.0000 0.0000 0.0000 0.0000 0.0000 0.0000 0.0000 0.0000 0.0000 -78.1932 4.8985 6.0265 -7.1831 9.5372 -12.5715 137.5706 11.7686 10.4764 61.7455 -12.4130 5.1634 20.9193 0.0000 0.0000 2.3519 0.0000 0.0000 -9.0274 0.8822 -4.7149 56.1458 0.0000 0.0000 65.0933 0.0000 0.0000 -4.2683 -3.8456 -88.8019 62.5354 0.0000 0.0000 14.3824 0.0000 0.0000 21.9401 4.7388 -93.0433 68.0343 0.0000 0.0000 12.6938 0.0000 0.0000 36.4220 -0.2074 -94.7883 64.9496 0.0000 0.0000 16.0940 0.0000 0.0000 0.0000 0.0000 0.0000 48.8311 -14.6267 31.5733 8.6223 47.2170 79.7060 437.1062 24.6474 75.0038 -40.8858 -9.4147 0.8024 14.8396 0.0000 0.0000 3.7981 0.0000 0.0000 19.4790 0.9730 11.1306 1.8410 0.0000 0.0000 1.9399 0.0000 0.0000 17.4085 -1.1169 12.0578 110.0000 0.0000 0.0000 35.6575 0.0000 0.0000 8.6649 -2.4144 13.3002 110.0000 0.0000 0.0000 21.2798 0.0000 0.0000 -5.2876 -4.3363 15.3482 110.0000 0.0000 0.0000 15.6873 0.0000 0.0000 0.0000 0.0000 0.0000 0.0000 0.0000 0.0000 0.0000 0.0000 0.0000 0.0000 0.0000 0.0000 0.0000 0.0000 0.0000 0.0000 0.0000 0.0000
0.0000 95.0000 0.0000 0.0000 0.0000 0.0000 0.0000 0.0000 0.0000 0.0000 0.0000 0.0000 0.0000 0.0000 0.0000 0.0000 0.0000 0.0000 0.0000 0.0000 0.0000 0.0000 0.0000 0.0000 -78.5090 4.9313 6.0328 -6.4948 9.6187 -12.5263 137.1963 11.8258 10.3725 61.7455 -12.4130 5.1634 20.9193 0.0000 0.0000 2.3519 0.0000 0.0000 -9.0274 0.8822 -4.7149 56.1458 0.0000 0.0000 65.0933 0.0000 0.0000 -4.2683 -3.8456 -88.8019 62.5354 0.0000 0.0000 14.3824 0.0000 0.0000 21.9401 4.7388 -93.0433 68.0343 0.0000 0.0000 12.6938 0.0000 0.0000 36.4220 -0.2074 -94.7883 64.9496 0.0000 0.0000 16.0940 0.0000 0.0000 0.0000 0.0000 0.0000 48.4150 -14.8653 32.3632 7.3239 48.9991 79.4096 410.8483 18.9352 61.3752 -35.1441 -7.6762 -1.1279 22.6521 0.0000 0.0000 8.5355 0.0000 0.0000 31.7995 0.5143 9.1126 5.8715 0.0000 0.0000 1.3745 0.0000 0.0000 32.7932 -1.2975 9.1793 110.0000 0.0000 0.0000 39.1395 0.0000 0.0000 25.1863 -2.3311 10.1642 110.0000 0.0000 0.0000 26.3222 0.0000 0.0000 12.9376 -4.6385 13.0511 110.0000 0.0000 0.0000 20.0927 0.0000 0.0000 0.0000 0.0000 0.0000 0.0000 0.0000 0.0000 0.0000 0.0000 0.0000 0.0000 0.0000 0.0000 0.0000 0.0000 0.0000 0.0000 0.0000 0.0000
0.0000 95.0000 0.0000 0.0000 0.0000 0.0000 0.0000 0.0000 0.0000 0.0000 0.0000 0.0000 0.0000 0.0000 0.0000 0.0000 0.0000 0.0000 0.0000 0.0000 0.0000 0.0000 0.0000 0.0000 -78.7078 4.9661 6.0539 -6.0333 9.6976 -12.5306 136.9253 11.8522 10.3133 61.7455 -12.4130 5.1634 20.9193 0.0000 0.0000 2.3519 0.0000 0.0000 -9.0274 0.8822 -4.7149 56.1458 0.0000 0.0000 65.0933 0.0000 0.0000 -4.2683 -3.8456 -88.8019 62.5354 0.0000 0.0000 14.3824 0.0000 0.0000 21.9401 4.7388 -93.0433 68.0343 0.0000 0.0000 12.6938 0.0000 0.0000 36.4220 -0.2074 -94.7883 64.9496 0.0000 0.0000 16.0940 0.0000 0.0000 0.0000 0.0000 0.0000 47.3484 -15.1338 33.7125 4.5555 52.7682 79.1121 384.2415 6.4795 56.8585 -38.9343 -7.1586 -5.1886 38.4273 0.0000 0.0000 16.3650 0.0000 0.0000 42.2480 1.0315 4.4304 13.0528 0.0000 0.0000 4.5254 0.0000 0.0000 46.3486 -0.0227 4.8248 110.0000 0.0000 0.0000 43.5157 0.0000 0.0000 38.9685 -0.5157 5.6067 110.0000 0.0000 0.0000 36.3202 0.0000 0.0000 27.3851 -3.3916 9.6047 110.0000 0.0000 0.0000 26.6397 0.0000 0.0000 0.0000 0.0000 0.0000 0.0000 0.0000 0.0000 0.0000 0.0000 0.0000 0.0000 0.0000 0.0000 0.0000 0.0000 0.0000 0.0000 0.0000 0.0000
0.0000 95.0000 0.0000 0.0000 0.0000 0.0000 0.0000 0.0000 0.0000 0.0000 0.0000 0.0000 0.0000 0.0000 0.0000 0.0000 0.0000 0.0000 0.0000 0.0000 0.0000 0.0000 0.0000 0.0000 -79.1752 5.0189 6.0677 -5.5482 9.7941 -12.4927 136.9077 11.8650 10.2970 61.7455 -12.4130 5.1634 20.9193 0.0000 0.0000 2.3519 0.0000 0.0000 -9.0274 0.8822 -4.7149 56.1458 0.0000 0.0000 65.0933 0.0000 0.0000 -4.2683 -3.8456 -88.8019 62.5354 0.0000 0.0000 14.3824 0.0000 0.0000 21.9401 4.7388 -93.0433 68.0343 0.0000 0.0000 12.6938 0.0000 0.0000 36.4220 -0.2074 -94.7883 64.9496 0.0000 0.0000 16.0940 0.0000 0.0000 0.0000 0.0000 0.0000 47.4344 -15.5211 34.4684 0.0252 58.0916 76.8759 358.0697 -1.0353 62.4217 -50.3985 -9.2404 -8.1623 55.8792 0.0000 0.0000 26.8082 0.0000 0.0000 53.2466 1.3842 3.4381 74.3244 0.0000 0.0000 57.5230 0.0000 0.0000 50.3441 -2.1937 9.4377 98.0808 0.0000 0.0000 44.1317 0.0000 0.0000 43.4854 -3.8820 11.5646 107.0028 0.0000 0.0000 41.0124 0.0000 0.0000 33.9088 -7.8101 15.9924 107.3257 0.0000 0.0000 31.6117 0.0000 0.0000 0.0000 0.0000 0.0000 0.0000 0.0000 0.0000 0.0000 0.0000 0.0000 0.0000 0.0000 0.0000 0.0000 0.0000 0.0000 0.0000 0.0000 0.0000
0.0000 95.0000 0.0000 0.0000 0.0000 0.0000 0.0000 0.0000 0.0000 0.0000 0.0000 0.0000 0.0000 0.0000 0.0000 0.0000 0.0000 0.0000 0.0000 0.0000 0.0000 0.0000 0.0000 0.0000 -79.7378 5.0561 6.0520 -4.7849 9.8851 -12.3961 136.7123 11.9112 10.2236 61.7455 -12.4130 5.1634 20.9193 0.0000 0.0000 2.3519 0.0000 0.0000 -9.0274 0.8822 -4.7149 56.1458 0.0000 0.0000 65.0933 0.0000 0.0000 -4.2683 -3.8456 -88.8019 62.5354 0.0000 0.0000 14.3824 0.0000 0.0000 21.9401 4.7388 -93.0433 68.0343 0.0000 0.0000 12.6938 0.0000 0.0000 36.4220 -0.2074 -94.7883 64.9496 0.0000 0.0000 16.0940 0.0000 0.0000 0.0000 0.0000 0.0000 47.0904 -15.8900 35.5185 -7.0529 63.9044 72.3793 331.7643 -9.8312 58.6447 -61.5099 -11.6522 -11.8576 39.1491 0.0000 0.0000 46.2357 0.0000 0.0000 90.4274 4.1967 0.3384 76.6666 0.0000 0.0000 49.0701 0.0000 0.0000 91.7684 -0.6357 5.3883 84.2446 0.0000 0.0000 39.3705 0.0000 0.0000 89.8603 -2.0789 7.2238 83.1232 0.0000 0.0000 37.2656 0.0000 0.0000 85.4933 -5.0540 9.5549 84.7830 0.0000 0.0000 28.2195 0.0000 0.0000 0.0000 0.0000 0.0000 0.0000 0.0000 0.0000 0.0000 0.0000 0.0000 0.0000 0.0000 0.0000 0.0000 0.0000 0.0000 0.0000 0.0000 0.0000
0.0000 95.0000 0.0000 0.0000 0.0000 0.0000 0.0000 0.0000 0.0000 0.0000 0.0000 0.0000 0.0000 0.0000 0.0000 0.0000 0.0000 0.0000 0.0000 0.0000 0.0000 0.0000 0.0000 0.0000 -80.1341 5.0578 6.0118 -4.4609 9.9111 -12.3058 136.7932 11.9176 10.2257 61.7455 -12.4130 5.1634 20.9193 0.0000 0.0000 2.3519 0.0000 0.0000 -9.0274 0.8822 -4.7149 56.1458 0.0000 0.0000 65.0933 0.0000 0.0000 -4.2683 -3.8456 -88.8019 62.5354 0.0000 0.0000 14.3824 0.0000 0.0000 21.9401 4.7388 -93.0433 68.0343 0.0000 0.0000 12.6938 0.0000 0.0000 36.4220 -0.2074 -94.7883 64.9496 0.0000 0.0000 16.0940 0.0000 0.0000 0.0000 0.0000 0.0000 47.2374 -15.9925 35.6189 -12.8273 67.2109 68.1053 308.5050 -14.3776 62.1710 -48.0762 -8.1061 -10.4207 55.7340 0.0000 0.0000 52.2279 0.0000 0.0000 34.1482 1.9001 -3.2241 110.0000 0.0000 0.0000 27.8039 0.0000 0.0000 33.0113 -1.0826 8.4242 110.0000 0.0000 0.0000 13.3823 0.0000 0.0000 23.5421 -3.1088 12.5001 110.0000 0.0000 0.0000 16.3553 0.0000 0.0000 -5.0116 -10.4141 38.2103 110.0000 0.0000 0.0000 7.8642 0.0000 0.0000 0.0000 0.0000 0.0000 0.0000 0.0000 0.0000 0.0000 0.0000 0.0000 0.0000 0.0000 0.0000 0.0000 0.0000 0.0000 0.0000 0.0000 0.0000
0.0000 95.0000 0.0000 0.0000 0.0000 0.0000 0.0000 0.0000 0.0000 0.0000 0.0000 0.0000 0.0000 0.0000 0.0000 0.0000 0.0000 0.0000 0.0000 0.0000 0.0000 0.0000 0.0000 0.0000 -80.3267 5.0748 6.0115 -4.1322 9.9420 -12.2650 136.6614 11.9497 10.1749 61.7455 -12.4130 5.1634 20.9193 0.0000 0.0000 2.3519 0.0000 0.0000 -9.0274 0.8822 -4.7149 56.1458 0.0000 0.0000 65.0933 0.0000 0.0000 -4.2683 -3.8456 -88.8019 62.5354 0.0000 0.0000 14.3824 0.0000 0.0000 21.9401 4.7388 -93.0433 68.0343 0.0000 0.0000 12.6938 0.0000 0.0000 36.4220 -0.2074 -94.7883 64.9496 0.0000 0.0000 16.0940 0.0000 0.0000 0.0000 0.0000 0.0000 47.6186 -16.3116 35.9872 -18.7442 70.5917 63.5418 291.6708 -24.3794 63.1663 -48.6498 -8.5956 -8.9997 47.4164 0.0000 0.0000 60.2370 0.0000 0.0000 2.3337 -0.3724 -2.9686 2.9939 0.0000 0.0000 6.0345 0.0000 0.0000 -18.4869 -1.6170 -5.1401 110.0000 0.0000 0.0000 50.9516 0.0000 0.0000 -33.8961 -3.0400 -7.2690 99.5354 0.0000 0.0000 55.8921 0.0000 0.0000 -47.9149 -3.9897 -4.4494 89.8011 0.0000 0.0000 58.4315 0.0000 0.0000 0.0000 0.0000 0.0000 0.0000 0.0000 0.0000 0.0000 0.0000 0.0000 0.0000 0.0000 0.0000 0.0000 0.0000 0.0000 0.0000 0.0000 0.0000
0.0000 95.0000 0.0000 0.0000 0.0000 0.0000 0.0000 0.0000 0.0000 0.0000 0.0000 0.0000 0.0000 0.0000 0.0000 0.0000 0.0000 0.0000 0.0000 0.0000 0.0000 0.0000 0.0000 0.0000 -76.2870 14.1620 17.9767 -9.5179 18.5063 -24.8365 136.8952 11.9174 10.2373 61.7455 -12.4130 5.1634 20.9193 0.0000 0.0000 2.3519 0.0000 0.0000 -9.0274 0.8822 -4.7149 56.1458 0.0000 0.0000 65.0933 0.0000 0.0000 -4.2683 -3.8456 -88.8019 62.5354 0.0000 0.0000 14.3824 0.0000 0.0000 21.9401 4.7388 -93.0433 68.0343 0.0000 0.0000 12.6938 0.0000 0.0000 36.4220 -0.2074 -94.7883 64.9496 0.0000 0.0000 16.0940 0.0000 0.0000 0.0000 0.0000 0.0000 47.9541 -16.1689 35.4249 -20.5452 71.5449 62.5180 300.2277 -25.9761 64.1039 -54.4776 -10.2030 -8.6327 43.4889 0.0000 0.0000 53.0833 0.0000 0.0000 -1.5361 -1.1236 -5.3677 1.6213 0.0000 0.0000 8.0361 0.0000 0.0000 -23.9068 -2.5969 -7.4502 92.3450 0.0000 0.0000 68.0171 0.0000 0.0000 -38.7120 -4.1846 -9.9778 86.9604 0.0000 0.0000 70.2870 0.0000 0.0000 -54.4396 -5.0457 -6.2492 77.8784 0.0000 0.0000 71.0975 0.0000 0.0000 0.0000 0.0000 0.0000 0.0000 0.0000 0.0000 0.0000 0.0000 0.0000 0.0000 0.0000 0.0000 0.0000 0.0000 0.0000 0.0000 0.0000 0.0000
0.0000 95.0000 0.0000 0.0000 0.0000 0.0000 0.0000 0.0000 0.0000 0.0000 0.0000 0.0000 0.0000 0.0000 0.0000 0.0000 0.0000 0.0000 0.0000 0.0000 0.0000 0.0000 0.0000 0.0000 -80.1569 5.0764 6.0314 -4.6467 9.9216 -12.3336 136.7480 10.1973 11.8450 60.5858 -12.0356 6.2402 23.9833 0.0000 0.0000 3.4372 0.0000 0.0000 -11.2384 0.8939 -4.7817 57.7015 0.0000 0.0000 59.4668 0.0000 0.0000 -9.9516 -7.5166 -78.8405 73.2197 0.0000 0.0000 13.6374 0.0000 0.0000 18.0304 0.8231 -86.1750 77.1493 0.0000 0.0000 12.5414 0.0000 0.0000 35.8921 -0.9580 -86.0960 73.2517 0.0000 0.0000 16.0356 0.0000 0.0000 0.0000 0.0000 0.0000 48.5391 -16.3650 35.3762 -15.9907 68.5497 64.5691 316.1267 -24.0984 64.0825 -63.7351 -12.7331 -6.5485 38.3765 0.0000 0.0000 45.4366 0.0000 0.0000 -4.4500 -2.4727 -10.1389 3.2446 0.0000 0.0000 11.5115 0.0000 0.0000 -33.0852 -4.1402 -9.1049 78.5547 0.0000 0.0000 76.8434 0.0000 0.0000 -47.4928 -5.9914 -11.6413 79.0915 0.0000 0.0000 79.5448 0.0000 0.0000 -65.1244 -6.5763 -6.6965 68.8417 0.0000 0.0000 80.4733 0.0000 0.0000 0.0000 0.0000 0.0000 0.0000 0.0000 0.0000 0.0000 0.0000 0.0000 0.0000 0.0000 0.0000 0.0000 0.0000 0.0000 0.0000 0.0000 0.0000
0.0000 95.0000 0.0000 0.0000 0.0000 0.0000 0.0000 0.0000 0.0000 0.0000 0.0000 0.0000 0.0000 0.0000 0.0000 0.0000 0.0000 0.0000 0.0000 0.0000 0.0000 0.0000 0.0000 0.0000 -80.0872 5.0912 6.0565 -4.5249 9.9414 -12.3596 136.2340 8.5247 13.4258 59.1793 -11.5872 7.2149 27.4279 0.0000 0.0000 5.0746 0.0000 0.0000 -13.5613 0.9149 -5.0390 58.9908 0.0000 0.0000 53.6199 0.0000 0.0000 -15.5832 -9.5838 -67.7585 84.2240 0.0000 0.0000 12.8664 0.0000 0.0000 13.4814 -2.6903 -77.8090 87.3799 0.0000 0.0000 12.4179 0.0000 0.0000 34.7052 -2.0088 -76.3425 82.6940 0.0000 0.0000 15.9884 0.0000 0.0000 0.0000 0.0000 0.0000 49.2605 -16.2053 34.5018 -9.5564 65.0396 68.9995 336.4738 -32.5477 66.4129 -76.1443 -15.2221 6.8486 31.5277 0.0000 0.0000 37.6334 0.0000 0.0000 -0.2256 -3.8256 -20.3727 16.0862 0.0000 0.0000 16.9980 0.0000 0.0000 -48.0794 -2.9255 -1.7809 71.5906 0.0000 0.0000 75.7965 0.0000 0.0000 -62.9254 -4.6708 -2.3778 75.5077 0.0000 0.0000 83.2537 0.0000 0.0000 -81.1549 -3.3557 5.9981 63.1846 0.0000 0.0000 85.6315 0.0000 0.0000 0.0000 0.0000 0.0000 0.0000 0.0000 0.0000 0.0000 0.0000 0.0000 0.0000 0.0000 0.0000 0.0000 0.0000 0.0000 0.0000 0.0000 0.0000
0.0000 95.0000 0.0000 0.0000 0.0000 0.0000 0.0000 0.0000 0.0000 0.0000 0.0000 0.0000 0.0000 0.0000 0.0000 0.0000 0.0000 0.0000 0.0000 0.0000 0.0000 0.0000 0.0000 0.0000 -79.8958 5.0976 6.0847 -4.1759 9.9420 -12.3624 135.3182 6.9440 14.9978 57.4847 -11.0602 8.0399 31.2037 0.0000 0.0000 7.3338 0.0000 0.0000 -15.9722 0.9337 -5.5054 59.7506 0.0000 0.0000 48.0559 0.0000 0.0000 -20.3496 -10.0453 -56.9532 94.4837 0.0000 0.0000 12.0751 0.0000 0.0000 8.6546 -5.3102 -68.5080 98.0338 0.0000 0.0000 12.3267 0.0000 0.0000 32.8547 -3.1168 -66.0282 92.7504 0.0000 0.0000 15.9539 0.0000 0.0000 0.0000 0.0000 0.0000 49.8757 -16.2732 34.1828 -5.6920 61.7383 70.4746 364.2447 -0.3229 59.0987 -87.2522 -19.9410 -20.9017 22.2105 0.0000 0.0000 30.0837 0.0000 0.0000 39.3633 5.8745 -24.3129 31.5974 0.0000 0.0000 18.3464 0.0000 0.0000 -51.4027 -17.2117 -30.1388 69.7394 0.0000 0.0000 65.9206 0.0000 0.0000 -63.5985 -19.9985 -35.5466 75.0545 0.0000 0.0000 81.2750 0.0000 0.0000 -85.3264 -23.5875 -34.7499 60.5561 0.0000 0.0000 86.1451 0.0000 0.0000 0.0000 0.0000 0.0000 0.0000 0.0000 0.0000 0.0000 0.0000 0.0000 0.0000 0.0000 0.0000 0.0000 0.0000 0.0000 0.0000 0.0000 0.0000
0.0000 95.0000 0.0000 0.0000 0.0000 0.0000 0.0000 0.0000 0.0000 0.0000 0.0000 0.0000 0.0000 0.0000 0.0000 0.0000 0.0000 0.0000 0.0000 0.0000 0.0000 0.0000 0.0000 0.0000 -79.4299 5.0858 6.1208 -4.0221 9.9088 -12.4059 133.7163 3.7244 18.5056 53.0135 -9.7594 8.9782 39.1791 0.0000 0.0000 13.2826 0.0000 0.0000 -20.9267 0.9084 -7.1225 59.3230 0.0000 0.0000 38.6090 0.0000 0.0000 -25.9760 -8.3554 -39.9169 110.0000 0.0000 0.0000 10.4674 0.0000 0.0000 0.2632 -7.3371 -50.7551 110.0000 0.0000 0.0000 12.2565 0.0000 0.0000 28.0864 -4.5403 -46.5565 110.0000 0.0000 0.0000 15.9295 0.0000 0.0000 0.0000 0.0000 0.0000 50.4773 -16.3100 33.8181 -2.9588 59.5525 71.6244 326.2962 -54.0666 54.9335 -59.7214 -16.7605 36.4715 44.3460 0.0000 0.0000 60.4862 0.0000 0.0000 51.9182 10.2109 -27.3207 11.3996 0.0000 0.0000 11.1722 0.0000 0.0000 -7.4730 1.7758 31.4723 53.5300 0.0000 0.0000 65.9686 0.0000 0.0000 -27.3749 2.2135 36.6999 66.6342 0.0000 0.0000 82.8984 0.0000 0.0000 -40.6051 -0.4913 41.4458 49.0746 0.0000 0.0000 90.0000 0.0000 0.0000 0.0000 0.0000 0.0000 0.0000 0.0000 0.0000 0.0000 0.0000 0.0000 0.0000 0.0000 0.0000 0.0000 0.0000 0.0000 0.0000 0.0000 0.0000
0.0000 95.0000 0.0000 0.0000 0.0000 0.0000 0.0000 0.0000 0.0000 0.0000 0.0000 0.0000 0.0000 0.0000 0.0000 0.0000 0.0000 0.0000 0.0000 0.0000 0.0000 0.0000 0.0000 0.0000 -79.0455 5.0848 6.1615 -3.8980 9.8932 -12.4568 132.6074 2.2095 20.3835 50.0967 -9.0012 8.9138 42.8630 0.0000 0.0000 16.2890 0.0000 0.0000 -23.3865 0.8350 -8.2886 58.2148 0.0000 0.0000 34.7632 0.0000 0.0000 -27.1596 -7.2107 -34.0113 110.0000 0.0000 0.0000 9.6771 0.0000 0.0000 -2.6416 -7.2200 -43.6305 110.0000 0.0000 0.0000 12.2847 0.0000 0.0000 25.8049 -4.7036 -38.4897 110.0000 0.0000 0.0000 15.9430 0.0000 0.0000 0.0000 0.0000 0.0000 51.0464 -16.3304 33.4515 -1.3285 58.6040 72.5112 317.0828 -54.7599 51.0511 -51.9645 -17.3344 33.5745 46.1164 0.0000 0.0000 54.8855 0.0000 0.0000 52.6714 10.5589 -27.6898 10.5797 0.0000 0.0000 10.7384 0.0000 0.0000 -0.0701 0.0179 33.4820 51.5037 0.0000 0.0000 75.9352 0.0000 0.0000 -19.1755 0.0197 38.1090 73.1867 0.0000 0.0000 82.3720 0.0000 0.0000 -34.7209 -2.2604 41.1695 50.1135 0.0000 0.0000 90.0000 0.0000 0.0000 0.0000 0.0000 0.0000 0.0000 0.0000 0.0000 0.0000 0.0000 0.0000 0.0000 0.0000 0.0000 0.0000 0.0000 0.0000 0.0000 0.0000 0.0000
0.0000 95.0000 0.0000 0.0000 0.0000 0.0000 0.0000 0.0000 0.0000 0.0000 0.0000 0.0000 0.0000 0.0000 0.0000 0.0000 0.0000 0.0000 0.0000 0.0000 0.0000 0.0000 0.0000 0.0000 -78.7193 5.0512 6.1563 -3.9575 9.8209 -12.4439 131.6599 0.6757 22.3685 46.6105 -8.2101 8.3393 45.8661 0.0000 0.0000 18.7455 0.0000 0.0000 -25.7678 0.7036 -9.6926 56.6374 0.0000 0.0000 31.4238 0.0000 0.0000 -27.6438 -6.1797 -29.5219 110.0000 0.0000 0.0000 8.9214 0.0000 0.0000 -4.6601 -6.7768 -37.8864 110.0000 0.0000 0.0000 12.3597 0.0000 0.0000 23.8716 -4.6005 -31.7626 110.0000 0.0000 0.0000 15.9761 0.0000 0.0000 0.0000 0.0000 0.0000 51.7526 -16.3685 33.0302 -0.8979 58.6567 72.6580 331.4218 -54.5348 40.4894 -58.5501 -17.1475 38.2473 49.2244 0.0000 0.0000 50.4833 0.0000 0.0000 46.9306 7.9401 -24.3665 13.9107 0.0000 0.0000 10.8940 0.0000 0.0000 -8.2124 2.5000 38.5853 43.4696 0.0000 0.0000 62.1425 0.0000 0.0000 -24.6146 1.9676 42.8876 72.7240 0.0000 0.0000 83.3591 0.0000 0.0000 -42.7609 0.5834 46.4775 46.5959 0.0000 0.0000 90.0000 0.0000 0.0000 0.0000 0.0000 0.0000 0.0000 0.0000 0.0000 0.0000 0.0000 0.0000 0.0000 0.0000 0.0000 0.0000 0.0000 0.0000 0.0000 0.0000 0.0000
0.0000 95.0000 0.0000 0.0000 0.0000 0.0000 0.0000 0.0000 0.0000 0.0000 0.0000 0.0000 0.0000 0.0000 0.0000 0.0000 0.0000 0.0000 0.0000 0.0000 0.0000 0.0000 0.0000 0.0000 -78.7102 5.0585 6.1662 -3.4698 9.8384 -12.4132 130.4064 -0.7379 24.4596 42.4605 -7.4548 7.1157 47.7930 0.0000 0.0000 20.4071 0.0000 0.0000 -28.0146 0.5055 -11.3258 54.6959 0.0000 0.0000 28.5160 0.0000 0.0000 -27.6464 -5.3145 -26.1356 110.0000 0.0000 0.0000 8.2277 0.0000 0.0000 -5.9360 -6.2156 -33.3591 110.0000 0.0000 0.0000 12.4845 0.0000 0.0000 22.3421 -4.3421 -26.2550 110.0000 0.0000 0.0000 16.0310 0.0000 0.0000 0.0000 0.0000 0.0000 52.1100 -16.3480 32.7443 -0.2067 58.2166 72.9814 334.0572 -56.5774 45.2373 -60.3053 -17.0749 40.0686 47.2627 0.0000 0.0000 54.3945 0.0000 0.0000 38.5960 6.2769 -27.8819 14.1070 0.0000 0.0000 12.8897 0.0000 0.0000 -11.5587 3.4670 38.0678 55.2477 0.0000 0.0000 74.2002 0.0000 0.0000 -28.6075 3.3320 43.1639 75.2434 0.0000 0.0000 83.6991 0.0000 0.0000 -46.2700 1.9888 47.8909 47.8487 0.0000 0.0000 90.0000 0.0000 0.0000 0.0000 0.0000 0.0000 0.0000 0.0000 0.0000 0.0000 0.0000 0.0000 0.0000 0.0000 0.0000 0.0000 0.0000 0.0000 0.0000 0.0000 0.0000
0.0000 95.0000 0.0000 0.0000 0.0000 0.0000 0.0000 0.0000 0.0000 0.0000 0.0000 0.0000 0.0000 0.0000 0.0000 0.0000 0.0000 0.0000 0.0000 0.0000 0.0000 0.0000 0.0000 0.0000 -78.4168 5.0463 6.1835 -3.4905 9.8018 -12.4337 129.2644 -2.1876 26.6974 37.5709 -6.8539 5.1027 48.3002 0.0000 0.0000 21.2676 0.0000 0.0000 -30.0682 0.2381 -13.1726 52.4874 0.0000 0.0000 25.9715 0.0000 0.0000 -27.3097 -4.6098 -23.5864 110.0000 0.0000 0.0000 7.6313 0.0000 0.0000 -6.6233 -5.6456 -29.8172 110.0000 0.0000 0.0000 12.6617 0.0000 0.0000 21.1999 -4.0127 -21.7608 110.0000 0.0000 0.0000 16.1098 0.0000 0.0000 0.0000 0.0000 0.0000 52.5295 -16.4197 32.5953 -0.1968 58.5330 72.9231 313.5190 -39.2520 56.9450 -56.7393 -14.6775 18.4909 44.7841 0.0000 0.0000 54.6336 0.0000 0.0000 45.2222 9.0651 -31.1190 23.0180 0.0000 0.0000 15.3979 0.0000 0.0000 -4.8404 0.5796 18.4214 57.1807 0.0000 0.0000 90.0000 0.0000 0.0000 -20.3598 -0.4107 18.7944 97.8297 0.0000 0.0000 69.4762 0.0000 0.0000 -40.7689 -1.5697 23.1766 62.2768 0.0000 0.0000 90.0000 0.0000 0.0000 0.0000 0.0000 0.0000 0.0000 0.0000 0.0000 0.0000 0.0000 0.0000 0.0000 0.0000 0.0000 0.0000 0.0000 0.0000 0.0000 0.0000 0.0000
0.0000 95.0000 0.0000 0.0000 0.0000 0.0000 0.0000 0.0000 0.0000 0.0000 0.0000 0.0000 0.0000 0.0000 0.0000 0.0000 0.0000 0.0000 0.0000 0.0000 0.0000 0.0000 0.0000 0.0000 -78.3615 5.0575 6.2033 -3.2365 9.8116 -12.4295 127.9926 -3.5623 29.0670 31.9318 -6.5861 2.1994 47.1763 0.0000 0.0000 21.4783 0.0000 0.0000 -31.8701 -0.0941 -15.2117 50.0976 0.0000 0.0000 23.7320 0.0000 0.0000 -26.7217 -4.0400 -21.6653 110.0000 0.0000 0.0000 7.1746 0.0000 0.0000 -6.8495 -5.1135 -27.0388 110.0000 0.0000 0.0000 12.8935 0.0000 0.0000 20.3994 -3.6645 -18.0658 110.0000 0.0000 0.0000 16.2148 0.0000 0.0000 0.0000 0.0000 0.0000 52.6482 -16.6213 32.8980 -0.9019 59.0400 72.1270 335.3362 -70.5694 54.3450 -53.5693 -19.1804 45.6249 47.4877 0.0000 0.0000 46.1500 0.0000 0.0000 14.1523 -1.1291 -30.2609 14.4923 0.0000 0.0000 13.9604 0.0000 0.0000 -15.3808 6.1167 47.9460 60.0109 0.0000 0.0000 85.6018 0.0000 0.0000 -28.6638 4.6129 53.0748 80.5025 0.0000 0.0000 83.5633 0.0000 0.0000 -43.9602 2.2839 59.0454 56.2060 0.0000 0.0000 90.0000 0.0000 0.0000 0.0000 0.0000 0.0000 0.0000 0.0000 0.0000 0.0000 0.0000 0.0000 0.0000 0.0000 0.0000 0.0000 0.0000 0.0000 0.0000 0.0000 0.0000
0.0000 95.0000 0.0000 0.0000 0.0000 0.0000 0.0000 0.0000 0.0000 0.0000 0.0000 0.0000 0.0000 0.0000 0.0000 0.0000 0.0000 0.0000 0.0000 0.0000 0.0000 0.0000 0.0000 0.0000 -77.9891 5.0425 6.2261 -3.6671 9.7679 -12.5047 126.9214 -5.0674 31.6139 25.6726 -6.8747 -1.5935 44.4238 0.0000 0.0000 21.2386 0.0000 0.0000 -33.3642 -0.4783 -17.4169 47.5998 0.0000 0.0000 21.7492 0.0000 0.0000 -25.9355 -3.5759 -20.2118 110.0000 0.0000 0.0000 6.9027 0.0000 0.0000 -6.7098 -4.6329 -24.8366 110.0000 0.0000 0.0000 13.1816 0.0000 0.0000 19.8893 -3.3257 -14.9806 110.0000 0.0000 0.0000 16.3483 0.0000 0.0000 0.0000 0.0000 0.0000 52.7644 -16.6144 32.8056 -0.0370 57.9443 72.2290 317.9419 -19.0362 66.3576 -62.6263 -13.1930 1.1503 41.5651 0.0000 0.0000 48.3759 0.0000 0.0000 35.2245 4.4307 -21.8242 69.8060 0.0000 0.0000 15.5949 0.0000 0.0000 -20.5570 -0.0564 4.4607 102.8176 0.0000 0.0000 57.3052 0.0000 0.0000 -37.2385 -1.1917 4.7099 110.0000 0.0000 0.0000 56.0550 0.0000 0.0000 -55.9603 -2.7844 6.3931 82.1944 0.0000 0.0000 73.8619 0.0000 0.0000 0.0000 0.0000 0.0000 0.0000 0.0000 0.0000 0.0000 0.0000 0.0000 0.0000 0.0000 0.0000 0.0000 0.0000 0.0000 0.0000 0.0000 0.0000
0.0000 95.0000 0.0000 0.0000 0.0000 0.0000 0.0000 0.0000 0.0000 0.0000 0.0000 0.0000 0.0000 0.0000 0.0000 0.0000 0.0000 0.0000 0.0000 0.0000 0.0000 0.0000 0.0000 0.0000 -77.7700 5.0053 6.2043 -4.1312 9.7018 -12.5217 127.1325 -5.1925 31.6164 25.6726 -6.8747 -1.5935 44.4238 0.0000 0.0000 21.2386 0.0000 0.0000 -33.3642 -0.4783 -17.4169 47.5998 0.0000 0.0000 21.7492 0.0000 0.0000 -25.9355 -3.5759 -20.2118 110.0000 0.0000 0.0000 6.9027 0.0000 0.0000 -6.7098 -4.6329 -24.8366 110.0000 0.0000 0.0000 13.1816 0.0000 0.0000 19.8893 -3.3257 -14.9806 110.0000 0.0000 0.0000 16.3483 0.0000 0.0000 0.0000 0.0000 0.0000 53.4772 -16.7344 32.5504 0.8261 56.2872 71.3590 306.6249 -2.0155 75.9888 -49.9690 -8.4950 -11.0844 33.2785 0.0000 0.0000 47.3357 0.0000 0.0000 25.8533 1.3588 -4.5585 110.0000 0.0000 0.0000 4.0649 0.0000 0.0000 0.6894 0.0432 -2.3971 110.0000 0.0000 0.0000 2.5588 0.0000 0.0000 -15.9808 -0.8885 -2.7452 110.0000 0.0000 0.0000 14.8633 0.0000 0.0000 -37.5857 -2.7354 -0.6616 110.0000 0.0000 0.0000 23.4816 0.0000 0.0000 0.0000 0.0000 0.0000 0.0000 0.0000 0.0000 0.0000 0.0000 0.0000 0.0000 0.0000 0.0000 0.0000 0.0000 0.0000 0.0000 0.0000 0.0000
0.0000 95.0000 0.0000 0.0000 0.0000 0.0000 0.0000 0.0000 0.0000 0.0000 0.0000 0.0000 0.0000 0.0000 0.0000 0.0000 0.0000 0.0000 0.0000 0.0000 0.0000 0.0000 0.0000 0.0000 -77.3923 4.9749 6.2084 -4.7705 9.6266 -12.5818 127.3547 -5.3271 31.6216 25.6726 -6.8747 -1.5935 44.4238 0.0000 0.0000 21.2386 0.0000 0.0000 -33.3642 -0.4783 -17.4169 47.5998 0.0000 0.0000 21.7492 0.0000 0.0000 -25.9355 -3.5759 -20.2118 110.0000 0.0000 0.0000 6.9027 0.0000 0.0000 -6.7098 -4.6329 -24.8366 110.0000 0.0000 0.0000 13.1816 0.0000 0.0000 19.8893 -3.3257 -14.9806 110.0000 0.0000 0.0000 16.3483 0.0000 0.0000 0.0000 0.0000 0.0000 54.6445 -16.9119 32.1073 1.5018 54.9514 70.1720 334.5401 -2.5025 64.1241 -69.0735 -14.0351 -4.5234 40.8790 0.0000 0.0000 39.3873 0.0000 0.0000 -30.7973 -2.5923 -2.2437 110.0000 0.0000 0.0000 40.8492 0.0000 0.0000 -51.1354 -0.2832 4.1800 87.2047 0.0000 0.0000 59.8081 0.0000 0.0000 -59.1854 -2.3831 2.5501 86.4579 0.0000 0.0000 59.3484 0.0000 0.0000 -68.7733 -4.5107 1.4991 82.8289 0.0000 0.0000 65.7412 0.0000 0.0000 0.0000 0.0000 0.0000 0.0000 0.0000 0.0000 0.0000 0.0000 0.0000 0.0000 0.0000 0.0000 0.0000 0.0000 0.0000 0.0000 0.0000 0.0000
0.0000 95.0000 0.0000 0.0000 0.0000 0.0000 0.0000 0.0000 0.0000 0.0000 0.0000 0.0000 0.0000 0.0000 0.0000 0.0000 0.0000 0.0000 0.0000 0.0000 0.0000 0.0000 0.0000 0.0000 -77.2639 4.9481 6.1892 -5.0424 9.5715 -12.5698 127.4876 -5.3915 31.6078 25.6726 -6.8747 -1.5935 44.4238 0.0000 0.0000 21.2386 0.0000 0.0000 -33.3642 -0.4783 -17.4169 47.5998 0.0000 0.0000 21.7492 0.0000 0.0000 -25.9355 -3.5759 -20.2118 110.0000 0.0000 0.0000 6.9027 0.0000 0.0000 -6.7098 -4.6329 -24.8366 110.0000 0.0000 0.0000 13.1816 0.0000 0.0000 19.8893 -3.3257 -14.9806 110.0000 0.0000 0.0000 16.3483 0.0000 0.0000 0.0000 0.0000 0.0000 56.6291 -16.5878 30.2800 2.2319 52.1199 67.8531 337.4972 2.3906 66.6228 -69.0735 -14.0351 -4.5234 40.8790 0.0000 0.0000 39.3873 0.0000 0.0000 -30.7973 -2.5923 -2.2437 110.0000 0.0000 0.0000 40.8492 0.0000 0.0000 -51.1354 -0.2832 4.1800 87.2047 0.0000 0.0000 59.8081 0.0000 0.0000 -59.1854 -2.3831 2.5501 86.4579 0.0000 0.0000 59.3484 0.0000 0.0000 -68.7733 -4.5107 1.4991 82.8289 0.0000 0.0000 65.7412 0.0000 0.0000 0.0000 0.0000 0.0000 0.0000 0.0000 0.0000 0.0000 0.0000 0.0000 0.0000 0.0000 0.0000 0.0000 0.0000 0.0000 0.0000 0.0000 0.0000
0.0000 95.0000 0.0000 0.0000 0.0000 0.0000 0.0000 0.0000 0.0000 0.0000 0.0000 0.0000 0.0000 0.0000 0.0000 0.0000 0.0000 0.0000 0.0000 0.0000 0.0000 0.0000 0.0000 0.0000 -77.0692 4.8937 6.1425 -5.5527 9.4584 -12.5230 127.7847 -5.5280 31.5686 25.6726 -6.8747 -1.5935 44.4238 0.0000 0.0000 21.2386 0.0000 0.0000 -33.3642 -0.4783 -17.4169 47.5998 0.0000 0.0000 21.7492 0.0000 0.0000 -25.9355 -3.5759 -20.2118 110.0000 0.0000 0.0000 6.9027 0.0000 0.0000 -6.7098 -4.6329 -24.8366 110.0000 0.0000 0.0000 13.1816 0.0000 0.0000 19.8893 -3.3257 -14.9806 110.0000 0.0000 0.0000 16.3483 0.0000 0.0000 0.0000 0.0000 0.0000 58.7804 -16.1374 28.2548 6.9887 47.0829 68.2356 342.0991 9.8316 67.7593 -69.0735 -14.0351 -4.5234 40.8790 0.0000 0.0000 39.3873 0.0000 0.0000 -30.7973 -2.5923 -2.2437 110.0000 0.0000 0.0000 40.8492 0.0000 0.0000 -51.1354 -0.2832 4.1800 87.2047 0.0000 0.0000 59.8081 0.0000 0.0000 -59.1854 -2.3831 2.5501 86.4579 0.0000 0.0000 59.3484 0.0000 0.0000 -68.7733 -4.5107 1.4991 82.8289 0.0000 0.0000 65.7412 0.0000 0.0000 0.0000 0.0000 0.0000 0.0000 0.0000 0.0000 0.0000 0.0000 0.0000 0.0000 0.0000 0.0000 0.0000 0.0000 0.0000 0.0000 0.0000 0.0000
0.0000 95.0000 0.0000 0.0000 0.0000 0.0000 0.0000 0.0000 0.0000 0.0000 0.0000 0.0000 0.0000 0.0000 0.0000 0.0000 0.0000 0.0000 0.0000 0.0000 0.0000 0.0000 0.0000 0.0000 -77.0927 4.8034 6.0266 -4.4597 -3.9012 5.7633 133.3533 8.0170 14.6243 25.6726 -6.8747 -1.5935 44.4238 0.0000 0.0000 21.2386 0.0000 0.0000 -33.3642 -0.4783 -17.4169 47.5998 0.0000 0.0000 21.7492 0.0000 0.0000 -25.9355 -3.5759 -20.2118 110.0000 0.0000 0.0000 6.9027 0.0000 0.0000 -6.7098 -4.6329 -24.8366 110.0000 0.0000 0.0000 13.1816 0.0000 0.0000 19.8893 -3.3257 -14.9806 110.0000 0.0000 0.0000 16.3483 0.0000 0.0000 0.0000 0.0000 0.0000 61.1232 -15.6876 26.2644 10.4778 40.3403 64.6469 348.9785 19.1635 72.0750 -69.0735 -14.0351 -4.5234 40.8790 0.0000 0.0000 39.3873 0.0000 0.0000 -30.7973 -2.5923 -2.2437 110.0000 0.0000 0.0000 40.8492 0.0000 0.0000 -51.1354 -0.2832 4.1800 87.2047 0.0000 0.0000 59.8081 0.0000 0.0000 -59.1854 -2.3831 2.5501 86.4579 0.0000 0.0000 59.3484 0.0000 0.0000 -68.7733 -4.5107 1.4991 82.8289 0.0000 0.0000 65.7412 0.0000 0.0000 0.0000 0.0000 0.0000 0.0000 0.0000 0.0000 0.0000 0.0000 0.0000 0.0000 0.0000 0.0000 0.0000 0.0000 0.0000 0.0000 0.0000 0.0000
0.0000 95.0000 0.0000 0.0000 0.0000 0.0000 0.0000 0.0000 0.0000 0.0000 0.0000 0.0000 0.0000 0.0000 0.0000 0.0000 0.0000 0.0000 0.0000 0.0000 0.0000 0.0000 0.0000 0.0000 -74.9331 11.2475 14.6428 -7.0492 4.6985 -4.8466 134.4100 5.5525 16.8364 25.6726 -6.8747 -1.5935 44.4238 0.0000 0.0000 21.2386 0.0000 0.0000 -33.3642 -0.4783 -17.4169 47.5998 0.0000 0.0000 21.7492 0.0000 0.0000 -25.9355 -3.5759 -20.2118 110.0000 0.0000 0.0000 6.9027 0.0000 0.0000 -6.7098 -4.6329 -24.8366 110.0000 0.0000 0.0000 13.1816 0.0000 0.0000 19.8893 -3.3257 -14.9806 110.0000 0.0000 0.0000 16.3483 0.0000 0.0000 0.0000 0.0000 0.0000 64.4171 -14.3244 22.5623 15.3772 30.7937 58.1533 362.2040 31.4837 83.0252 -69.0735 -14.0351 -4.5234 40.8790 0.0000 0.0000 39.3873 0.0000 0.0000 -30.7973 -2.5923 -2.2437 110.0000 0.0000 0.0000 40.8492 0.0000 0.0000 -51.1354 -0.2832 4.1800 87.2047 0.0000 0.0000 59.8081 0.0000 0.0000 -59.1854 -2.3831 2.5501 86.4579 0.0000 0.0000 59.3484 0.0000 0.0000 -68.7733 -4.5107 1.4991 82.8289 0.0000 0.0000 65.7412 0.0000 0.0000 0.0000 0.0000 0.0000 0.0000 0.0000 0.0000 0.0000 0.0000 0.0000 0.0000 0.0000 0.0000 0.0000 0.0000 0.0000 0.0000 0.0000 0.0000
0.0000 95.0000 0.0000 0.0000 0.0000 0.0000 0.0000 0.0000 0.0000 0.0000 0.0000 0.0000 0.0000 0.0000 0.0000 0.0000 0.0000 0.0000 0.0000 0.0000 0.0000 0.0000 0.0000 0.0000 -76.2970 8.7907 11.1781 -7.5819 2.6752 -2.2100 135.5630 4.4680 17.5018 25.6726 -6.8747 -1.5935 44.4238 0.0000 0.0000 21.2386 0.0000 0.0000 -33.3642 -0.4783 -17.4169 47.5998 0.0000 0.0000 21.7492 0.0000 0.0000 -25.9355 -3.5759 -20.2118 110.0000 0.0000 0.0000 6.9027 0.0000 0.0000 -6.7098 -4.6329 -24.8366 110.0000 0.0000 0.0000 13.1816 0.0000 0.0000 19.8893 -3.3257 -14.9806 110.0000 0.0000 0.0000 16.3483 0.0000 0.0000 0.0000 0.0000 0.0000 68.3986 -12.1792 17.8437 19.6435 20.9635 46.6805 385.0185 40.2960 105.9186 -69.0735 -14.0351 -4.5234 40.8790 0.0000 0.0000 39.3873 0.0000 0.0000 -30.7973 -2.5923 -2.2437 110.0000 0.0000 0.0000 40.8492 0.0000 0.0000 -51.1354 -0.2832 4.1800 87.2047 0.0000 0.0000 59.8081 0.0000 0.0000 -59.1854 -2.3831 2.5501 86.4579 0.0000 0.0000 59.3484 0.0000 0.0000 -68.7733 -4.5107 1.4991 82.8289 0.0000 0.0000 65.7412 0.0000 0.0000 0.0000 0.0000 0.0000 0.0000 0.0000 0.0000 0.0000 0.0000 0.0000 0.0000 0.0000 0.0000 0.0000 0.0000 0.0000 0.0000 0.0000 0.0000
0.0000 95.0000 0.0000 0.0000 0.0000 0.0000 0.0000 0.0000 0.0000 0.0000 0.0000 0.0000 0.0000 0.0000 0.0000 0.0000 0.0000 0.0000 0.0000 0.0000 0.0000 0.0000 0.0000 0.0000 -77.7063 5.4317 6.7401 -8.1101 0.7719 -0.0348 136.2868 2.2355 19.4183 25.6726 -6.8747 -1.5935 44.4238 0.0000 0.0000 21.2386 0.0000 0.0000 -33.3642 -0.4783 -17.4169 47.5998 0.0000 0.0000 21.7492 0.0000 0.0000 -25.9355 -3.5759 -20.2118 110.0000 0.0000 0.0000 6.9027 0.0000 0.0000 -6.7098 -4.6329 -24.8366 110.0000 0.0000 0.0000 13.1816 0.0000 0.0000 19.8893 -3.3257 -14.9806 110.0000 0.0000 0.0000 16.3483 0.0000 0.0000 0.0000 0.0000 0.0000 72.2513 -10.1633 13.8924 19.1677 13.6862 31.0739 407.2420 36.9392 132.9926 -69.0735 -14.0351 -4.5234 40.8790 0.0000 0.0000 39.3873 0.0000 0.0000 -30.7973 -2.5923 -2.2437 110.0000 0.0000 0.0000 40.8492 0.0000 0.0000 -51.1354 -0.2832 4.1800 87.2047 0.0000 0.0000 59.8081 0.0000 0.0000 -59.1854 -2.3831 2.5501 86.4579 0.0000 0.0000 59.3484 0.0000 0.0000 -68.7733 -4.5107 1.4991 82.8289 0.0000 0.0000 65.7412 0.0000 0.0000 0.0000 0.0000 0.0000 0.0000 0.0000 0.0000 0.0000 0.0000 0.0000 0.0000 0.0000 0.0000 0.0000 0.0000 0.0000 0.0000 0.0000 0.0000
0.0000 95.0000 0.0000 0.0000 0.0000 0.0000 0.0000 0.0000 0.0000 0.0000 0.0000 0.0000 0.0000 0.0000 0.0000 0.0000 0.0000 0.0000 0.0000 0.0000 0.0000 0.0000 0.0000 0.0000 -78.5294 3.5692 4.3655 -8.7823 -0.3669 1.2788 137.1757 0.9159 20.3127 25.6726 -6.8747 -1.5935 44.4238 0.0000 0.0000 21.2386 0.0000 0.0000 -33.3642 -0.4783 -17.4169 47.5998 0.0000 0.0000 21.7492 0.0000 0.0000 -25.9355 -3.5759 -20.2118 110.0000 0.0000 0.0000 6.9027 0.0000 0.0000 -6.7098 -4.6329 -24.8366 110.0000 0.0000 0.0000 13.1816 0.0000 0.0000 19.8893 -3.3257 -14.9806 110.0000 0.0000 0.0000 16.3483 0.0000 0.0000 0.0000 0.0000 0.0000 76.4763 -8.2561 10.4662 14.9273 9.3538 18.3654 417.2371 27.9524 150.0387 -69.0735 -14.0351 -4.5234 40.8790 0.0000 0.0000 39.3873 0.0000 0.0000 -30.7973 -2.5923 -2.2437 110.0000 0.0000 0.0000 40.8492 0.0000 0.0000 -51.1354 -0.2832 4.1800 87.2047 0.0000 0.0000 59.8081 0.0000 0.0000 -59.1854 -2.3831 2.5501 86.4579 0.0000 0.0000 59.3484 0.0000 0.0000 -68.7733 -4.5107 1.4991 82.8289 0.0000 0.0000 65.7412 0.0000 0.0000 0.0000 0.0000 0.0000 0.0000 0.0000 0.0000 0.0000 0.0000 0.0000 0.0000 0.0000 0.0000 0.0000 0.0000 0.0000 0.0000 0.0000 0.0000
0.0000 95.0000 0.0000 0.0000 0.0000 0.0000 0.0000 0.0000 0.0000 0.0000 0.0000 0.0000 0.0000 0.0000 0.0000 0.0000 0.0000 0.0000 0.0000 0.0000 0.0000 0.0000 0.0000 0.0000 -78.9643 3.3518 4.0680 -8.9686 -1.4190 2.7369 138.0439 1.6274 19.2749 25.6726 -6.8747 -1.5935 44.4238 0.0000 0.0000 21.2386 0.0000 0.0000 -33.3642 -0.4783 -17.4169 47.5998 0.0000 0.0000 21.7492 0.0000 0.0000 -25.9355 -3.5759 -20.2118 110.0000 0.0000 0.0000 6.9027 0.0000 0.0000 -6.7098 -4.6329 -24.8366 110.0000 0.0000 0.0000 13.1816 0.0000 0.0000 19.8893 -3.3257 -14.9806 110.0000 0.0000 0.0000 16.3483 0.0000 0.0000 0.0000 0.0000 0.0000 79.7231 -7.1403 8.5466 9.1949 7.6382 12.0705 417.8560 22.0662 156.6225 -69.0735 -14.0351 -4.5234 40.8790 0.0000 0.0000 39.3873 0.0000 0.0000 -30.7973 -2.5923 -2.2437 110.0000 0.0000 0.0000 40.8492 0.0000 0.0000 -51.1354 -0.2832 4.1800 87.2047 0.0000 0.0000 59.8081 0.0000 0.0000 -59.1854 -2.3831 2.5501 86.4579 0.0000 0.0000 59.3484 0.0000 0.0000 -68.7733 -4.5107 1.4991 82.8289 0.0000 0.0000 65.7412 0.0000 0.0000 0.0000 0.0000 0.0000 0.0000 0.0000 0.0000 0.0000 0.0000 0.0000 0.0000 0.0000 0.0000 0.0000 0.0000 0.0000 0.0000 0.0000 0.0000
0.0000 95.0000 0.0000 0.0000 0.0000 0.0000 0.0000 0.0000 0.0000 0.0000 0.0000 0.0000 0.0000 0.0000 0.0000 0.0000 0.0000 0.0000 0.0000 0.0000 0.0000 0.0000 0.0000 0.0000 -78.7927 2.9499 3.5913 -9.1214 -2.5697 4.3241 138.2445 2.5481 18.3247 25.6726 -6.8747 -1.5935 44.4238 0.0000 0.0000 21.2386 0.0000 0.0000 -33.3642 -0.4783 -17.4169 47.5998 0.0000 0.0000 21.7492 0.0000 0.0000 -25.9355 -3.5759 -20.2118 110.0000 0.0000 0.0000 6.9027 0.0000 0.0000 -6.7098 -4.6329 -24.8366 110.0000 0.0000 0.0000 13.1816 0.0000 0.0000 19.8893 -3.3257 -14.9806 110.0000 0.0000 0.0000 16.3483 0.0000 0.0000 0.0000 0.0000 0.0000 82.0533 -6.7469 7.7513 4.4760 7.6628 9.9884 416.1126 19.9012 158.1489 -69.0735 -14.0351 -4.5234 40.8790 0.0000 0.0000 39.3873 0.0000 0.0000 -30.7973 -2.5923 -2.2437 110.0000 0.0000 0.0000 40.8492 0.0000 0.0000 -51.1354 -0.2832 4.1800 87.2047 0.0000 0.0000 59.8081 0.0000 0.0000 -59.1854 -2.3831 2.5501 86.4579 0.0000 0.0000 59.3484 0.0000 0.0000 -68.7733 -4.5107 1.4991 82.8289 0.0000 0.0000 65.7412 0.0000 0.0000 0.0000 0.0000 0.0000 0.0000 0.0000 0.0000 0.0000 0.0000 0.0000 0.0000 0.0000 0.0000 0.0000 0.0000 0.0000 0.0000 0.0000 0.0000
0.0000 95.0000 0.0000 0.0000 0.0000 0.0000 0.0000 0.0000 0.0000 0.0000 0.0000 0.0000 0.0000 0.0000 0.0000 0.0000 0.0000 0.0000 0.0000 0.0000 0.0000 0.0000 0.0000 0.0000 -78.7678 3.2252 3.9281 -9.0425 -3.1292 5.1694 138.4385 3.5480 17.3016 25.6726 -6.8747 -1.5935 44.4238 0.0000 0.0000 21.2386 0.0000 0.0000 -33.3642 -0.4783 -17.4169 47.5998 0.0000 0.0000 21.7492 0.0000 0.0000 -25.9355 -3.5759 -20.2118 110.0000 0.0000 0.0000 6.9027 0.0000 0.0000 -6.7098 -4.6329 -24.8366 110.0000 0.0000 0.0000 13.1816 0.0000 0.0000 19.8893 -3.3257 -14.9806 110.0000 0.0000 0.0000 16.3483 0.0000 0.0000 0.0000 0.0000 0.0000 83.7051 -6.4172 7.1622 1.4194 7.9013 9.0758 414.9510 18.8112 158.8345 -69.0735 -14.0351 -4.5234 40.8790 0.0000 0.0000 39.3873 0.0000 0.0000 -30.7973 -2.5923 -2.2437 110.0000 0.0000 0.0000 40.8492 0.0000 0.0000 -51.1354 -0.2832 4.1800 87.2047 0.0000 0.0000 59.8081 0.0000 0.0000 -59.1854 -2.3831 2.5501 86.4579 0.0000 0.0000 59.3484 0.0000 0.0000 -68.7733 -4.5107 1.4991 82.8289 0.0000 0.0000 65.7412 0.0000 0.0000 0.0000 0.0000 0.0000 0.0000 0.0000 0.0000 0.0000 0.0000 0.0000 0.0000 0.0000 0.0000 0.0000 0.0000 0.0000 0.0000 0.0000 0.0000
0.0000 95.0000 0.0000 0.0000 0.0000 0.0000 0.0000 0.0000 0.0000 0.0000 0.0000 0.0000 0.0000 0.0000 0.0000 0.0000 0.0000 0.0000 0.0000 0.0000 0.0000 0.0000 0.0000 0.0000 -78.6740 3.2333 3.9446 -9.1746 -3.2698 5.4038 138.5239 3.7305 17.0958 25.6726 -6.8747 -1.5935 44.4238 0.0000 0.0000 21.2386 0.0000 0.0000 -33.3642 -0.4783 -17.4169 47.5998 0.0000 0.0000 21.7492 0.0000 0.0000 -25.9355 -3.5759 -20.2118 110.0000 0.0000 0.0000 6.9027 0.0000 0.0000 -6.7098 -4.6329 -24.8366 110.0000 0.0000 0.0000 13.1816 0.0000 0.0000 19.8893 -3.3257 -14.9806 110.0000 0.0000 0.0000 16.3483 0.0000 0.0000 0.0000 0.0000 0.0000 84.4167 -5.8647 6.4648 0.5565 7.7410 8.5628 415.1068 17.9042 159.9196 -69.0735 -14.0351 -4.5234 40.8790 0.0000 0.0000 39.3873 0.0000 0.0000 -30.7973 -2.5923 -2.2437 110.0000 0.0000 0.0000 40.8492 0.0000 0.0000 -51.1354 -0.2832 4.1800 87.2047 0.0000 0.0000 59.8081 0.0000 0.0000 -59.1854 -2.3831 2.5501 86.4579 0.0000 0.0000 59.3484 0.0000 0.0000 -68.7733 -4.5107 1.4991 82.8289 0.0000 0.0000 65.7412 0.0000 0.0000 0.0000 0.0000 0.0000 0.0000 0.0000 0.0000 0.0000 0.0000 0.0000 0.0000 0.0000 0.0000 0.0000 0.0000 0.0000 0.0000 0.0000 0.0000
0.0000 95.0000 0.0000 0.0000 0.0000 0.0000 0.0000 0.0000 0.0000 0.0000 0.0000 0.0000 0.0000 0.0000 0.0000 0.0000 0.0000 0.0000 0.0000 0.0000 0.0000 0.0000 0.0000 0.0000 -78.5103 3.0356 3.7143 -9.5018 -3.2047 5.3406 138.5854 3.4165 17.3704 25.6726 -6.8747 -1.5935 44.4238 0.0000 0.0000 21.2386 0.0000 0.0000 -33.3642 -0.4783 -17.4169 47.5998 0.0000 0.0000 21.7492 0.0000 0.0000 -25.9355 -3.5759 -20.2118 110.0000 0.0000 0.0000 6.9027 0.0000 0.0000 -6.7098 -4.6329 -24.8366 110.0000 0.0000 0.0000 13.1816 0.0000 0.0000 19.8893 -3.3257 -14.9806 110.0000 0.0000 0.0000 16.3483 0.0000 0.0000 0.0000 0.0000 0.0000 84.8780 -5.0564 5.5292 -0.1006 7.7854 8.3962 415.1374 17.0050 160.9411 -69.0735 -14.0351 -4.5234 40.8790 0.0000 0.0000 39.3873 0.0000 0.0000 -30.7973 -2.5923 -2.2437 110.0000 0.0000 0.0000 40.8492 0.0000 0.0000 -51.1354 -0.2832 4.1800 87.2047 0.0000 0.0000 59.8081 0.0000 0.0000 -59.1854 -2.3831 2.5501 86.4579 0.0000 0.0000 59.3484 0.0000 0.0000 -68.7733 -4.5107 1.4991 82.8289 0.0000 0.0000 65.7412 0.0000 0.0000 0.0000 0.0000 0.0000 0.0000 0.0000 0.0000 0.0000 0.0000 0.0000 0.0000 0.0000 0.0000 0.0000 0.0000 0.0000 0.0000 0.0000 0.0000
0.0000 95.0000 0.0000 0.0000 0.0000 0.0000 0.0000 0.0000 0.0000 0.0000 0.0000 0.0000 0.0000 0.0000 0.0000 0.0000 0.0000 0.0000 0.0000 0.0000 0.0000 0.0000 0.0000 0.0000 -78.2607 2.8929 3.5555 -9.7982 -3.3337 5.5721 138.6194 3.4420 17.3333 25.6726 -6.8747 -1.5935 44.4238 0.0000 0.0000 21.2386 0.0000 0.0000 -33.3642 -0.4783 -17.4169 47.5998 0.0000 0.0000 21.7492 0.0000 0.0000 -25.9355 -3.5759 -20.2118 110.0000 0.0000 0.0000 6.9027 0.0000 0.0000 -6.7098 -4.6329 -24.8366 110.0000 0.0000 0.0000 13.1816 0.0000 0.0000 19.8893 -3.3257 -14.9806 110.0000 0.0000 0.0000 16.3483 0.0000 0.0000 0.0000 0.0000 0.0000 85.0465 -4.7839 5.2159 -0.1380 7.8295 8.4172 415.3218 16.7905 161.2571 -69.0735 -14.0351 -4.5234 40.8790 0.0000 0.0000 39.3873 0.0000 0.0000 -30.7973 -2.5923 -2.2437 110.0000 0.0000 0.0000 40.8492 0.0000 0.0000 -51.1354 -0.2832 4.1800 87.2047 0.0000 0.0000 59.8081 0.0000 0.0000 -59.1854 -2.3831 2.5501 86.4579 0.0000 0.0000 59.3484 0.0000 0.0000 -68.7733 -4.5107 1.4991 82.8289 0.0000 0.0000 65.7412 0.0000 0.0000 0.0000 0.0000 0.0000 0.0000 0.0000 0.0000 0.0000 0.0000 0.0000 0.0000 0.0000 0.0000 0.0000 0.0000 0.0000 0.0000 0.0000 0.0000
0.0000 95.0000 0.0000 0.0000 0.0000 0.0000 0.0000 0.0000 0.0000 0.0000 0.0000 0.0000 0.0000 0.0000 0.0000 0.0000 0.0000 0.0000 0.0000 0.0000 0.0000 0.0000 0.0000 0.0000 -78.0295 3.1242 3.8555 -9.9449 -3.4043 5.7800 138.6725 3.8593 16.9178 25.6726 -6.8747 -1.5935 44.4238 0.0000 0.0000 21.2386 0.0000 0.0000 -33.3642 -0.4783 -17.4169 47.5998 0.0000 0.0000 21.7492 0.0000 0.0000 -25.9355 -3.5759 -20.2118 110.0000 0.0000 0.0000 6.9027 0.0000 0.0000 -6.7098 -4.6329 -24.8366 110.0000 0.0000 0.0000 13.1816 0.0000 0.0000 19.8893 -3.3257 -14.9806 110.0000 0.0000 0.0000 16.3483 0.0000 0.0000 0.0000 0.0000 0.0000 85.1289 -4.4499 4.8448 -0.2341 8.0359 8.6123 415.2973 16.6380 161.4180 -69.0735 -14.0351 -4.5234 40.8790 0.0000 0.0000 39.3873 0.0000 0.0000 -30.7973 -2.5923 -2.2437 110.0000 0.0000 0.0000 40.8492 0.0000 0.0000 -51.1354 -0.2832 4.1800 87.2047 0.0000 0.0000 59.8081 0.0000 0.0000 -59.1854 -2.3831 2.5501 86.4579 0.0000 0.0000 59.3484 0.0000 0.0000 -68.7733 -4.5107 1.4991 82.8289 0.0000 0.0000 65.7412 0.0000 0.0000 0.0000 0.0000 0.0000 0.0000 0.0000 0.0000 0.0000 0.0000 0.0000 0.0000 0.0000 0.0000 0.0000 0.0000 0.0000 0.0000 0.0000 0.0000
0.0000 95.0000 0.0000 0.0000 0.0000 0.0000 0.0000 0.0000 0.0000 0.0000 0.0000 0.0000 0.0000 0.0000 0.0000 0.0000 0.0000 0.0000 0.0000 0.0000 0.0000 0.0000 0.0000 0.0000 -77.8352 3.1035 3.8433 -10.1480 -3.3491 5.7521 138.6680 3.8049 16.9711 25.6726 -6.8747 -1.5935 44.4238 0.0000 0.0000 21.2386 0.0000 0.0000 -33.3642 -0.4783 -17.4169 47.5998 0.0000 0.0000 21.7492 0.0000 0.0000 -25.9355 -3.5759 -20.2118 110.0000 0.0000 0.0000 6.9027 0.0000 0.0000 -6.7098 -4.6329 -24.8366 110.0000 0.0000 0.0000 13.1816 0.0000 0.0000 19.8893 -3.3257 -14.9806 110.0000 0.0000 0.0000 16.3483 0.0000 0.0000 0.0000 0.0000 0.0000 85.0552 -4.1526 4.5270 -0.0332 8.3570 9.0223 415.3295 16.7002 161.3614 -69.0735 -14.0351 -4.5234 40.8790 0.0000 0.0000 39.3873 0.0000 0.0000 -30.7973 -2.5923 -2.2437 110.0000 0.0000 0.0000 40.8492 0.0000 0.0000 -51.1354 -0.2832 4.1800 87.2047 0.0000 0.0000 59.8081 0.0000 0.0000 -59.1854 -2.3831 2.5501 86.4579 0.0000 0.0000 59.3484 0.0000 0.0000 -68.7733 -4.5107 1.4991 82.8289 0.0000 0.0000 65.7412 0.0000 0.0000 0.0000 0.0000 0.0000 0.0000 0.0000 0.0000 0.0000 0.0000 0.0000 0.0000 0.0000 0.0000 0.0000 0.0000 0.0000 0.0000 0.0000 0.0000
0.0000 95.0000 0.0000 0.0000 0.0000 0.0000 0.0000 0.0000 0.0000 0.0000 0.0000 0.0000 0.0000 0.0000 0.0000 0.0000 0.0000 0.0000 0.0000 0.0000 0.0000 0.0000 0.0000 0.0000 -77.5426 3.2362 4.0286 -10.5492 -3.2562 5.7525 138.8222 3.8766 16.8455 25.6726 -6.8747 -1.5935 44.4238 0.0000 0.0000 21.2386 0.0000 0.0000 -33.3642 -0.4783 -17.4169 47.5998 0.0000 0.0000 21.7492 0.0000 0.0000 -25.9355 -3.5759 -20.2118 110.0000 0.0000 0.0000 6.9027 0.0000 0.0000 -6.7098 -4.6329 -24.8366 110.0000 0.0000 0.0000 13.1816 0.0000 0.0000 19.8893 -3.3257 -14.9806 110.0000 0.0000 0.0000 16.3483 0.0000 0.0000 0.0000 0.0000 0.0000 84.9272 -3.6134 3.9481 0.3705 8.1621 8.9356 415.8084 16.1220 162.1976 -69.0735 -14.0351 -4.5234 40.8790 0.0000 0.0000 39.3873 0.0000 0.0000 -30.7973 -2.5923 -2.2437 110.0000 0.0000 0.0000 40.8492 0.0000 0.0000 -51.1354 -0.2832 4.1800 87.2047 0.0000 0.0000 59.8081 0.0000 0.0000 -59.1854 -2.3831 2.5501 86.4579 0.0000 0.0000 59.3484 0.0000 0.0000 -68.7733 -4.5107 1.4991 82.8289 0.0000 0.0000 65.7412 0.0000 0.0000 0.0000 0.0000 0.0000 0.0000 0.0000 0.0000 0.0000 0.0000 0.0000 0.0000 0.0000 0.0000 0.0000 0.0000 0.0000 0.0000 0.0000 0.0000
0.0000 95.0000 0.0000 0.0000 0.0000 0.0000 0.0000 0.0000 0.0000 0.0000 0.0000 0.0000 0.0000 0.0000 0.0000 0.0000 0.0000 0.0000 0.0000 0.0000 0.0000 0.0000 0.0000 0.0000 -77.6393 2.9608 3.6795 -10.5772 -3.3165 5.7673 138.8312 3.5777 17.1248 25.6726 -6.8747 -1.5935 44.4238 0.0000 0.0000 21.2386 0.0000 0.0000 -33.3642 -0.4783 -17.4169 47.5998 0.0000 0.0000 21.7492 0.0000 0.0000 -25.9355 -3.5759 -20.2118 110.0000 0.0000 0.0000 6.9027 0.0000 0.0000 -6.7098 -4.6329 -24.8366 110.0000 0.0000 0.0000 13.1816 0.0000 0.0000 19.8893 -3.3257 -14.9806 110.0000 0.0000 0.0000 16.3483 0.0000 0.0000 0.0000 0.0000 0.0000 84.6461 -3.4064 3.7403 0.6192 8.6790 9.6042 415.5533 16.4444 161.7375 -69.0735 -14.0351 -4.5234 40.8790 0.0000 0.0000 39.3873 0.0000 0.0000 -30.7973 -2.5923 -2.2437 110.0000 0.0000 0.0000 40.8492 0.0000 0.0000 -51.1354 -0.2832 4.1800 87.2047 0.0000 0.0000 59.8081 0.0000 0.0000 -59.1854 -2.3831 2.5501 86.4579 0.0000 0.0000 59.3484 0.0000 0.0000 -68.7733 -4.5107 1.4991 82.8289 0.0000 0.0000 65.7412 0.0000 0.0000 0.0000 0.0000 0.0000 0.0000 0.0000 0.0000 0.0000 0.0000 0.0000 0.0000 0.0000 0.0000 0.0000 0.0000 0.0000 0.0000 0.0000 0.0000
0.0000 95.0000 0.0000 0.0000 0.0000 0.0000 0.0000 0.0000 0.0000 0.0000 0.0000 0.0000 0.0000 0.0000 0.0000 0.0000 0.0000 0.0000 0.0000 0.0000 0.0000 0.0000 0.0000 0.0000 -77.5611 3.4857 4.3377 -10.5889 -3.1962 5.7313 138.9706 4.0755 16.6024 25.6726 -6.8747 -1.5935 44.4238 0.0000 0.0000 21.2386 0.0000 0.0000 -33.3642 -0.4783 -17.4169 47.5998 0.0000 0.0000 21.7492 0.0000 0.0000 -25.9355 -3.5759 -20.2118 110.0000 0.0000 0.0000 6.9027 0.0000 0.0000 -6.7098 -4.6329 -24.8366 110.0000 0.0000 0.0000 13.1816 0.0000 0.0000 19.8893 -3.3257 -14.9806 110.0000 0.0000 0.0000 16.3483 0.0000 0.0000 0.0000 0.0000 0.0000 84.5964 -2.9288 3.2188 0.8215 8.4358 9.3955 415.9346 15.8198 162.5826 -69.0735 -14.0351 -4.5234 40.8790 0.0000 0.0000 39.3873 0.0000 0.0000 -30.7973 -2.5923 -2.2437 110.0000 0.0000 0.0000 40.8492 0.0000 0.0000 -51.1354 -0.2832 4.1800 87.2047 0.0000 0.0000 59.8081 0.0000 0.0000 -59.1854 -2.3831 2.5501 86.4579 0.0000 0.0000 59.3484 0.0000 0.0000 -68.7733 -4.5107 1.4991 82.8289 0.0000 0.0000 65.7412 0.0000 0.0000 0.0000 0.0000 0.0000 0.0000 0.0000 0.0000 0.0000 0.0000 0.0000 0.0000 0.0000 0.0000 0.0000 0.0000 0.0000 0.0000 0.0000 0.0000
0.0000 95.0000 0.0000 0.0000 0.0000 0.0000 0.0000 0.0000 0.0000 0.0000 0.0000 0.0000 0.0000 0.0000 0.0000 0.0000 0.0000 0.0000 0.0000 0.0000 0.0000 0.0000 0.0000 0.0000 -77.7733 3.4649 4.2955 -10.2315 -3.1960 5.6349 138.8083 4.0433 16.6927 25.6726 -6.8747 -1.5935 44.4238 0.0000 0.0000 21.2386 0.0000 0.0000 -33.3642 -0.4783 -17.4169 47.5998 0.0000 0.0000 21.7492 0.0000 0.0000 -25.9355 -3.5759 -20.2118 110.0000 0.0000 0.0000 6.9027 0.0000 0.0000 -6.7098 -4.6329 -24.8366 110.0000 0.0000 0.0000 13.1816 0.0000 0.0000 19.8893 -3.3257 -14.9806 110.0000 0.0000 0.0000 16.3483 0.0000 0.0000 0.0000 0.0000 0.0000 84.6094 -2.8314 3.1111 0.8481 8.8405 9.8462 415.8031 16.1068 162.2124 -69.0735 -14.0351 -4.5234 40.8790 0.0000 0.0000 39.3873 0.0000 0.0000 -30.7973 -2.5923 -2.2437 110.0000 0.0000 0.0000 40.8492 0.0000 0.0000 -51.1354 -0.2832 4.1800 87.2047 0.0000 0.0000 59.8081 0.0000 0.0000 -59.1854 -2.3831 2.5501 86.4579 0.0000 0.0000 59.3484 0.0000 0.0000 -68.7733 -4.5107 1.4991 82.8289 0.0000 0.0000 65.7412 0.0000 0.0000 0.0000 0.0000 0.0000 0.0000 0.0000 0.0000 0.0000 0.0000 0.0000 0.0000 0.0000 0.0000 0.0000 0.0000 0.0000 0.0000 0.0000 0.0000
0.0000 95.0000 0.0000 0.0000 0.0000 0.0000 0.0000 0.0000 0.0000 0.0000 0.0000 0.0000 0.0000 0.0000 0.0000 0.0000 0.0000 0.0000 0.0000 0.0000 0.0000 0.0000 0.0000 0.0000 -77.9726 3.5972 4.4436 -10.1561 -3.1595 5.5769 138.9630 4.0793 16.6016 25.6726 -6.8747 -1.5935 44.4238 0.0000 0.0000 21.2386 0.0000 0.0000 -33.3642 -0.4783 -17.4169 47.5998 0.0000 0.0000 21.7492 0.0000 0.0000 -25.9355 -3.5759 -20.2118 110.0000 0.0000 0.0000 6.9027 0.0000 0.0000 -6.7098 -4.6329 -24.8366 110.0000 0.0000 0.0000 13.1816 0.0000 0.0000 19.8893 -3.3257 -14.9806 110.0000 0.0000 0.0000 16.3483 0.0000 0.0000 0.0000 0.0000 0.0000 84.7680 -2.6965 2.9546 0.5867 8.9610 9.8941 415.6963 16.0242 162.2627 -69.0735 -14.0351 -4.5234 40.8790 0.0000 0.0000 39.3873 0.0000 0.0000 -30.7973 -2.5923 -2.2437 110.0000 0.0000 0.0000 40.8492 0.0000 0.0000 -51.1354 -0.2832 4.1800 87.2047 0.0000 0.0000 59.8081 0.0000 0.0000 -59.1854 -2.3831 2.5501 86.4579 0.0000 0.0000 59.3484 0.0000 0.0000 -68.7733 -4.5107 1.4991 82.8289 0.0000 0.0000 65.7412 0.0000 0.0000 0.0000 0.0000 0.0000 0.0000 0.0000 0.0000 0.0000 0.0000 0.0000 0.0000 0.0000 0.0000 0.0000 0.0000 0.0000 0.0000 0.0000 0.0000
0.0000 95.0000 0.0000 0.0000 0.0000 0.0000 0.0000 0.0000 0.0000 0.0000 0.0000 0.0000 0.0000 0.0000 0.0000 0.0000 0.0000 0.0000 0.0000 0.0000 0.0000 0.0000 0.0000 0.0000 -78.1889 3.4506 4.2461 -10.1800 -3.3280 5.7704 139.1622 4.0100 16.5936 25.6726 -6.8747 -1.5935 44.4238 0.0000 0.0000 21.2386 0.0000 0.0000 -33.3642 -0.4783 -17.4169 47.5998 0.0000 0.0000 21.7492 0.0000 0.0000 -25.9355 -3.5759 -20.2118 110.0000 0.0000 0.0000 6.9027 0.0000 0.0000 -6.7098 -4.6329 -24.8366 110.0000 0.0000 0.0000 13.1816 0.0000 0.0000 19.8893 -3.3257 -14.9806 110.0000 0.0000 0.0000 16.3483 0.0000 0.0000 0.0000 0.0000 0.0000 84.7372 -2.9462 3.2299 0.4928 8.8390 9.7415 415.5687 16.1207 162.1050 -69.0735 -14.0351 -4.5234 40.8790 0.0000 0.0000 39.3873 0.0000 0.0000 -30.7973 -2.5923 -2.2437 110.0000 0.0000 0.0000 40.8492 0.0000 0.0000 -51.1354 -0.2832 4.1800 87.2047 0.0000 0.0000 59.8081 0.0000 0.0000 -59.1854 -2.3831 2.5501 86.4579 0.0000 0.0000 59.3484 0.0000 0.0000 -68.7733 -4.5107 1.4991 82.8289 0.0000 0.0000 65.7412 0.0000 0.0000 0.0000 0.0000 0.0000 0.0000 0.0000 0.0000 0.0000 0.0000 0.0000 0.0000 0.0000 0.0000 0.0000 0.0000 0.0000 0.0000 0.0000 0.0000
