HIERARCHY
ROOT Hips
{
  OFFSET 0.000000 95.000000 0.000000
  CHANNELS 6 Xposition Yposition Zposition Zrotation Xrotation Yrotation
  JOINT Spine
  {
    OFFSET 0.000000 10.000000 0.000000
    CHANNELS 3 Zrotation Xrotation Yrotation
    JOINT Spine1
    {
      OFFSET 0.000000 12.000000 0.000000
      CHANNELS 3 Zrotation Xrotation Yrotation
      JOINT Spine2
      {
        OFFSET 0.000000 12.000000 0.000000
        CHANNELS 3 Zrotation Xrotation Yrotation
        JOINT Neck
        {
          OFFSET 0.000000 10.000000 0.000000
          CHANNELS 3 Zrotation Xrotation Yrotation
          JOINT Head
          {
            OFFSET 0.000000 8.000000 0.000000
            CHANNELS 3 Zrotation Xrotation Yrotation
            End Site
            {
              OFFSET 0.000000 10.000000 0.000000
            }
          }
        }
        JOINT LeftShoulder
        {
          OFFSET 6.000000 8.000000 0.000000
          CHANNELS 3 Zrotation Xrotation Yrotation
          JOINT LeftArm
          {
            OFFSET 12.000000 0.000000 0.000000
            CHANNELS 3 Zrotation Xrotation Yrotation
            JOINT LeftForeArm
            {
              OFFSET 24.000000 0.000000 0.000000
              CHANNELS 3 Zrotation Xrotation Yrotation
              JOINT LeftHand
              {
                OFFSET 22.000000 0.000000 0.000000
                CHANNELS 3 Zrotation Xrotation Yrotation
                JOINT LeftHandThumb1
                {
                  OFFSET 1.800000 -1.400000 0.500000
                  CHANNELS 3 Zrotation Xrotation Yrotation
                  JOINT LeftHandThumb2
                  {
                    OFFSET 2.400000 0.000000 0.000000
                    CHANNELS 3 Zrotation Xrotation Yrotation
                    JOINT LeftHandThumb3
                    {
                      OFFSET 1.900000 0.000000 0.000000
                      CHANNELS 3 Zrotation Xrotation Yrotation
                      End Site
                      {
                        OFFSET 1.600000 0.000000 0.000000
                      }
                    }
                  }
                }
                JOINT LeftHandIndex1
                {
                  OFFSET 6.600000 1.200000 0.300000
                  CHANNELS 3 Zrotation Xrotation Yrotation
                  JOINT LeftHandIndex2
                  {
                    OFFSET 2.000000 0.000000 0.000000
                    CHANNELS 3 Zrotation Xrotation Yrotation
                    JOINT LeftHandIndex3
                    {
                      OFFSET 1.200000 0.000000 0.000000
                      CHANNELS 3 Zrotation Xrotation Yrotation
                      End Site
                      {
                        OFFSET 1.000000 0.000000 0.000000
                      }
                    }
                  }
                }
                JOINT LeftHandMiddle1
                {
                  OFFSET 7.200000 0.000000 0.300000
                  CHANNELS 3 Zrotation Xrotation Yrotation
                  JOINT LeftHandMiddle2
                  {
                    OFFSET 3.000000 0.000000 0.000000
                    CHANNELS 3 Zrotation Xrotation Yrotation
                    JOINT LeftHandMiddle3
                    {
                      OFFSET 2.000000 0.000000 0.000000
                      CHANNELS 3 Zrotation Xrotation Yrotation
                      End Site
                      {
                        OFFSET 1.600000 0.000000 0.000000
                      }
                    }
                  }
                }
                JOINT LeftHandRing1
                {
                  OFFSET 7.100000 -1.000000 0.400000
                  CHANNELS 3 Zrotation Xrotation Yrotation
                  JOINT LeftHandRing2
                  {
                    OFFSET 2.600000 0.000000 0.000000
                    CHANNELS 3 Zrotation Xrotation Yrotation
                    JOINT LeftHandRing3
                    {
                      OFFSET 1.600000 0.000000 0.000000
                      CHANNELS 3 Zrotation Xrotation Yrotation
                      End Site
                      {
                        OFFSET 1.300000 0.000000 0.000000
                      }
                    }
                  }
                }
                JOINT LeftHandPinky1
                {
                  OFFSET 6.500000 -2.000000 0.500000
                  CHANNELS 3 Zrotation Xrotation Yrotation
                  JOINT LeftHandPinky2
                  {
                    OFFSET 1.900000 0.000000 0.000000
                    CHANNELS 3 Zrotation Xrotation Yrotation
                    JOINT LeftHandPinky3
                    {
                      OFFSET 1.400000 0.000000 0.000000
                      CHANNELS 3 Zrotation Xrotation Yrotation
                      End Site
                      {
                        OFFSET 1.300000 0.000000 0.000000
                      }
                    }
                  }
                }
              }
            }
          }
        }
        JOINT RightShoulder
        {
          OFFSET -6.000000 8.000000 0.000000
          CHANNELS 3 Zrotation Xrotation Yrotation
          JOINT RightArm
          {
            OFFSET -12.000000 0.000000 0.000000
            CHANNELS 3 Zrotation Xrotation Yrotation
            JOINT RightForeArm
            {
              OFFSET -24.000000 0.000000 0.000000
              CHANNELS 3 Zrotation Xrotation Yrotation
              JOINT RightHand
              {
                OFFSET -22.000000 0.000000 0.000000
                CHANNELS 3 Zrotation Xrotation Yrotation
                JOINT RightHandThumb1
                {
                  OFFSET -1.800000 -1.400000 0.500000
                  CHANNELS 3 Zrotation Xrotation Yrotation
                  JOINT RightHandThumb2
                  {
                    OFFSET -2.400000 0.000000 0.000000
                    CHANNELS 3 Zrotation Xrotation Yrotation
                    JOINT RightHandThumb3
                    {
                      OFFSET -1.900000 0.000000 0.000000
                      CHANNELS 3 Zrotation Xrotation Yrotation
                      End Site
                      {
                        OFFSET -1.600000 0.000000 0.000000
                      }
                    }
                  }
                }
                JOINT RightHandIndex1
                {
                  OFFSET -6.600000 1.200000 0.300000
                  CHANNELS 3 Zrotation Xrotation Yrotation
                  JOINT RightHandIndex2
                  {
                    OFFSET -2.000000 0.000000 0.000000
                    CHANNELS 3 Zrotation Xrotation Yrotation
                    JOINT RightHandIndex3
                    {
                      OFFSET -1.200000 0.000000 0.000000
                      CHANNELS 3 Zrotation Xrotation Yrotation
                      End Site
                      {
                        OFFSET -1.000000 0.000000 0.000000
                      }
                    }
                  }
                }
                JOINT RightHandMiddle1
                {
                  OFFSET -7.200000 0.000000 0.300000
                  CHANNELS 3 Zrotation Xrotation Yrotation
                  JOINT RightHandMiddle2
                  {
                    OFFSET -3.000000 0.000000 0.000000
                    CHANNELS 3 Zrotation Xrotation Yrotation
                    JOINT RightHandMiddle3
                    {
                      OFFSET -2.000000 0.000000 0.000000
                      CHANNELS 3 Zrotation Xrotation Yrotation
                      End Site
                      {
                        OFFSET -1.600000 0.000000 0.000000
                      }
                    }
                  }
                }
                JOINT RightHandRing1
                {
                  OFFSET -7.100000 -1.000000 0.400000
                  CHANNELS 3 Zrotation Xrotation Yrotation
                  JOINT RightHandRing2
                  {
                    OFFSET -2.600000 0.000000 0.000000
                    CHANNELS 3 Zrotation Xrotation Yrotation
                    JOINT RightHandRing3
                    {
                      OFFSET -1.600000 0.000000 0.000000
                      CHANNELS 3 Zrotation Xrotation Yrotation
                      End Site
                      {
                        OFFSET -1.300000 0.000000 0.000000
                      }
                    }
                  }
                }
                JOINT RightHandPinky1
                {
                  OFFSET -6.500000 -2.000000 0.500000
                  CHANNELS 3 Zrotation Xrotation Yrotation
                  JOINT RightHandPinky2
                  {
                    OFFSET -1.900000 0.000000 0.000000
                    CHANNELS 3 Zrotation Xrotation Yrotation
                    JOINT RightHandPinky3
                    {
                      OFFSET -1.400000 0.000000 0.000000
                      CHANNELS 3 Zrotation Xrotation Yrotation
                      End Site
                      {
                        OFFSET -1.300000 0.000000 0.000000
                      }
                    }
                  }
                }
              }
            }
          }
        }
      }
    }
  }
  JOINT LeftUpLeg
  {
    OFFSET 10.000000 -5.000000 0.000000
    CHANNELS 3 Zrotation Xrotation Yrotation
    JOINT LeftLeg
    {
      OFFSET 0.000000 -42.000000 0.000000
      CHANNELS 3 Zrotation Xrotation Yrotation
      JOINT LeftFoot
      {
        OFFSET 0.000000 -42.000000 4.000000
        CHANNELS 3 Zrotation Xrotation Yrotation
        End Site
        {
          OFFSET 0.000000 0.000000 12.000000
        }
      }
    }
  }
  JOINT RightUpLeg
  {
    OFFSET -10.000000 -5.000000 0.000000
    CHANNELS 3 Zrotation Xrotation Yrotation
    JOINT RightLeg
    {
      OFFSET 0.000000 -42.000000 0.000000
      CHANNELS 3 Zrotation Xrotation Yrotation
      JOINT RightFoot
      {
        OFFSET 0.000000 -42.000000 4.000000
        CHANNELS 3 Zrotation Xrotation Yrotation
        End Site
        {
          OFFSET 0.000000 0.000000 12.000000
        }
      }
    }
  }
}
MOTION
Frames: 60
Frame Time: 0.033333
0.0000 95.0000 0.0000 0.0000 0.0000 0.0000 0.0000 0.0000 0.0000 0.0000 0.0000 0.0000 0.0000 0.0000 0.0000 0.0000 0.0000 0.0000 0.0000 0.0000 0.0000 0.0000 0.0000 0.0000 -79.3853 2.9492 3.5529 -9.8562 -5.3509 8.3543 11.7554 -10.8600 -157.5189 68.0104 -14.0504 -0.8194 24.9504 0.0000 0.0000 10.4558 0.0000 0.0000 -20.0060 0.9667 -15.5347 3.5577 0.0000 0.0000 2.4356 0.0000 0.0000 -11.7792 -1.0341 -14.7712 2.6628 0.0000 0.0000 0.0997 0.0000 0.0000 -5.3895 -2.4281 -14.4696 5.0174 0.0000 0.0000 1.6345 0.0000 0.0000 -0.1563 -3.5044 -11.4258 4.7249 0.0000 0.0000 2.0788 0.0000 0.0000 0.0000 0.0000 0.0000 89.9299 -0.8739 0.8749 -1.8049 10.5113 10.1574 179.8908 6.2504 -24.7298 -58.3703 -11.8810 -3.5467 14.1352 0.0000 0.0000 3.2462 0.0000 0.0000 15.9669 0.6124 -2.4799 4.1316 0.0000 0.0000 3.6767 0.0000 0.0000 6.7263 0.5285 -4.2034 3.7032 0.0000 0.0000 1.9054 0.0000 0.0000 -0.1813 0.6248 -4.5486 0.8301 0.0000 0.0000 2.7607 0.0000 0.0000 -7.2664 0.5404 -4.5390 3.9932 0.0000 0.0000 3.2715 0.0000 0.0000 0.0000 0.0000 0.0000 0.0000 0.0000 0.0000 0.0000 0.0000 0.0000 0.0000 0.0000 0.0000 0.0000 0.0000 0.0000 0.0000 0.0000 0.0000
0.0000 95.0000 0.0000 0.0000 0.0000 0.0000 0.0000 0.0000 0.0000 0.0000 0.0000 0.0000 0.0000 0.0000 0.0000 0.0000 0.0000 0.0000 0.0000 0.0000 0.0000 0.0000 0.0000 0.0000 -79.3067 2.6897 3.2448 -10.0487 -4.9975 7.8455 11.9123 -10.1368 -156.8333 68.0104 -14.0504 -0.8194 24.9504 0.0000 0.0000 10.4558 0.0000 0.0000 -20.0060 0.9667 -15.5347 3.5577 0.0000 0.0000 2.4356 0.0000 0.0000 -11.7792 -1.0341 -14.7712 2.6628 0.0000 0.0000 0.0997 0.0000 0.0000 -5.3895 -2.4281 -14.4696 5.0174 0.0000 0.0000 1.6345 0.0000 0.0000 -0.1563 -3.5044 -11.4258 4.7249 0.0000 0.0000 2.0788 0.0000 0.0000 0.0000 0.0000 0.0000 89.8748 -0.9171 0.9191 -1.7722 10.7428 10.3956 180.0661 6.0269 -24.9881 -58.3703 -11.8810 -3.5467 14.1352 0.0000 0.0000 3.2462 0.0000 0.0000 15.9669 0.6124 -2.4799 4.1316 0.0000 0.0000 3.6767 0.0000 0.0000 6.7263 0.5285 -4.2034 3.7032 0.0000 0.0000 1.9054 0.0000 0.0000 -0.1813 0.6248 -4.5486 0.8301 0.0000 0.0000 2.7607 0.0000 0.0000 -7.2664 0.5404 -4.5390 3.9932 0.0000 0.0000 3.2715 0.0000 0.0000 0.0000 0.0000 0.0000 0.0000 0.0000 0.0000 0.0000 0.0000 0.0000 0.0000 0.0000 0.0000 0.0000 0.0000 0.0000 0.0000 0.0000 0.0000
0.0000 95.0000 0.0000 0.0000 0.0000 0.0000 0.0000 0.0000 0.0000 0.0000 0.0000 0.0000 0.0000 0.0000 0.0000 0.0000 0.0000 0.0000 0.0000 0.0000 0.0000 0.0000 0.0000 0.0000 -79.3733 2.0454 2.4648 -10.2919 -4.9528 7.6727 12.0025 -9.2512 -156.0341 68.0104 -14.0504 -0.8194 24.9504 0.0000 0.0000 10.4558 0.0000 0.0000 -20.0060 0.9667 -15.5347 3.5577 0.0000 0.0000 2.4356 0.0000 0.0000 -11.7792 -1.0341 -14.7712 2.6628 0.0000 0.0000 0.0997 0.0000 0.0000 -5.3895 -2.4281 -14.4696 5.0174 0.0000 0.0000 1.6345 0.0000 0.0000 -0.1563 -3.5044 -11.4258 4.7249 0.0000 0.0000 2.0788 0.0000 0.0000 0.0000 0.0000 0.0000 89.8428 -1.0357 1.0386 -1.6562 10.7801 10.4547 180.0636 5.8550 -25.1664 -58.3703 -11.8810 -3.5467 14.1352 0.0000 0.0000 3.2462 0.0000 0.0000 15.9669 0.6124 -2.4799 4.1316 0.0000 0.0000 3.6767 0.0000 0.0000 6.7263 0.5285 -4.2034 3.7032 0.0000 0.0000 1.9054 0.0000 0.0000 -0.1813 0.6248 -4.5486 0.8301 0.0000 0.0000 2.7607 0.0000 0.0000 -7.2664 0.5404 -4.5390 3.9932 0.0000 0.0000 3.2715 0.0000 0.0000 0.0000 0.0000 0.0000 0.0000 0.0000 0.0000 0.0000 0.0000 0.0000 0.0000 0.0000 0.0000 0.0000 0.0000 0.0000 0.0000 0.0000 0.0000
0.0000 95.0000 0.0000 0.0000 0.0000 0.0000 0.0000 0.0000 0.0000 0.0000 0.0000 0.0000 0.0000 0.0000 0.0000 0.0000 0.0000 0.0000 0.0000 0.0000 0.0000 0.0000 0.0000 0.0000 -79.3577 1.6598 2.0007 -10.4828 -4.9053 7.5504 12.0723 -8.7071 -155.5396 68.0104 -14.0504 -0.8194 24.9504 0.0000 0.0000 10.4558 0.0000 0.0000 -20.0060 0.9667 -15.5347 3.5577 0.0000 0.0000 2.4356 0.0000 0.0000 -11.7792 -1.0341 -14.7712 2.6628 0.0000 0.0000 0.0997 0.0000 0.0000 -5.3895 -2.4281 -14.4696 5.0174 0.0000 0.0000 1.6345 0.0000 0.0000 -0.1563 -3.5044 -11.4258 4.7249 0.0000 0.0000 2.0788 0.0000 0.0000 0.0000 0.0000 0.0000 89.8354 -1.2715 1.2752 -1.6400 10.7188 10.3883 180.1132 5.6946 -25.3409 -58.3703 -11.8810 -3.5467 14.1352 0.0000 0.0000 3.2462 0.0000 0.0000 15.9669 0.6124 -2.4799 4.1316 0.0000 0.0000 3.6767 0.0000 0.0000 6.7263 0.5285 -4.2034 3.7032 0.0000 0.0000 1.9054 0.0000 0.0000 -0.1813 0.6248 -4.5486 0.8301 0.0000 0.0000 2.7607 0.0000 0.0000 -7.2664 0.5404 -4.5390 3.9932 0.0000 0.0000 3.2715 0.0000 0.0000 0.0000 0.0000 0.0000 0.0000 0.0000 0.0000 0.0000 0.0000 0.0000 0.0000 0.0000 0.0000 0.0000 0.0000 0.0000 0.0000 0.0000 0.0000
0.0000 95.0000 0.0000 0.0000 0.0000 0.0000 0.0000 0.0000 0.0000 0.0000 0.0000 0.0000 0.0000 0.0000 0.0000 0.0000 0.0000 0.0000 0.0000 0.0000 0.0000 0.0000 0.0000 0.0000 -79.3600 1.7256 2.0799 -10.4651 -4.7253 7.3019 12.1239 -8.5720 -155.4036 68.0104 -14.0504 -0.8194 24.9504 0.0000 0.0000 10.4558 0.0000 0.0000 -20.0060 0.9667 -15.5347 3.5577 0.0000 0.0000 2.4356 0.0000 0.0000 -11.7792 -1.0341 -14.7712 2.6628 0.0000 0.0000 0.0997 0.0000 0.0000 -5.3895 -2.4281 -14.4696 5.0174 0.0000 0.0000 1.6345 0.0000 0.0000 -0.1563 -3.5044 -11.4258 4.7249 0.0000 0.0000 2.0788 0.0000 0.0000 0.0000 0.0000 0.0000 89.7917 -1.3058 1.3105 -1.6827 10.4387 10.1139 180.0453 5.9178 -25.0984 -58.3703 -11.8810 -3.5467 14.1352 0.0000 0.0000 3.2462 0.0000 0.0000 15.9669 0.6124 -2.4799 4.1316 0.0000 0.0000 3.6767 0.0000 0.0000 6.7263 0.5285 -4.2034 3.7032 0.0000 0.0000 1.9054 0.0000 0.0000 -0.1813 0.6248 -4.5486 0.8301 0.0000 0.0000 2.7607 0.0000 0.0000 -7.2664 0.5404 -4.5390 3.9932 0.0000 0.0000 3.2715 0.0000 0.0000 0.0000 0.0000 0.0000 0.0000 0.0000 0.0000 0.0000 0.0000 0.0000 0.0000 0.0000 0.0000 0.0000 0.0000 0.0000 0.0000 0.0000 0.0000
0.0000 95.0000 0.0000 0.0000 0.0000 0.0000 0.0000 0.0000 0.0000 0.0000 0.0000 0.0000 0.0000 0.0000 0.0000 0.0000 0.0000 0.0000 0.0000 0.0000 0.0000 0.0000 0.0000 0.0000 -79.3001 1.3712 1.6545 -10.6910 -4.7382 7.2815 12.1603 -8.1421 -155.0213 68.0104 -14.0504 -0.8194 24.9504 0.0000 0.0000 10.4558 0.0000 0.0000 -20.0060 0.9667 -15.5347 3.5577 0.0000 0.0000 2.4356 0.0000 0.0000 -11.7792 -1.0341 -14.7712 2.6628 0.0000 0.0000 0.0997 0.0000 0.0000 -5.3895 -2.4281 -14.4696 5.0174 0.0000 0.0000 1.6345 0.0000 0.0000 -0.1563 -3.5044 -11.4258 4.7249 0.0000 0.0000 2.0788 0.0000 0.0000 0.0000 0.0000 0.0000 89.7673 -1.5953 1.6017 -1.8270 10.3769 10.0149 180.2720 5.7800 -25.2767 -58.3703 -11.8810 -3.5467 14.1352 0.0000 0.0000 3.2462 0.0000 0.0000 15.9669 0.6124 -2.4799 4.1316 0.0000 0.0000 3.6767 0.0000 0.0000 6.7263 0.5285 -4.2034 3.7032 0.0000 0.0000 1.9054 0.0000 0.0000 -0.1813 0.6248 -4.5486 0.8301 0.0000 0.0000 2.7607 0.0000 0.0000 -7.2664 0.5404 -4.5390 3.9932 0.0000 0.0000 3.2715 0.0000 0.0000 0.0000 0.0000 0.0000 0.0000 0.0000 0.0000 0.0000 0.0000 0.0000 0.0000 0.0000 0.0000 0.0000 0.0000 0.0000 0.0000 0.0000 0.0000
0.0000 95.0000 0.0000 0.0000 0.0000 0.0000 0.0000 0.0000 0.0000 0.0000 0.0000 0.0000 0.0000 0.0000 0.0000 0.0000 0.0000 0.0000 0.0000 0.0000 0.0000 0.0000 0.0000 0.0000 -79.2251 1.5213 1.8380 -10.8688 -4.5517 7.0862 12.0554 -8.0611 -154.9942 68.0104 -14.0504 -0.8194 24.9504 0.0000 0.0000 10.4558 0.0000 0.0000 -20.0060 0.9667 -15.5347 3.5577 0.0000 0.0000 2.4356 0.0000 0.0000 -11.7792 -1.0341 -14.7712 2.6628 0.0000 0.0000 0.0997 0.0000 0.0000 -5.3895 -2.4281 -14.4696 5.0174 0.0000 0.0000 1.6345 0.0000 0.0000 -0.1563 -3.5044 -11.4258 4.7249 0.0000 0.0000 2.0788 0.0000 0.0000 0.0000 0.0000 0.0000 89.7783 -1.5610 1.5671 -1.8023 10.3389 9.9830 180.2046 5.8276 -25.2167 -58.3703 -11.8810 -3.5467 14.1352 0.0000 0.0000 3.2462 0.0000 0.0000 15.9669 0.6124 -2.4799 4.1316 0.0000 0.0000 3.6767 0.0000 0.0000 6.7263 0.5285 -4.2034 3.7032 0.0000 0.0000 1.9054 0.0000 0.0000 -0.1813 0.6248 -4.5486 0.8301 0.0000 0.0000 2.7607 0.0000 0.0000 -7.2664 0.5404 -4.5390 3.9932 0.0000 0.0000 3.2715 0.0000 0.0000 0.0000 0.0000 0.0000 0.0000 0.0000 0.0000 0.0000 0.0000 0.0000 0.0000 0.0000 0.0000 0.0000 0.0000 0.0000 0.0000 0.0000 0.0000
0.0000 95.0000 0.0000 0.0000 0.0000 0.0000 0.0000 0.0000 0.0000 0.0000 0.0000 0.0000 0.0000 0.0000 0.0000 0.0000 0.0000 0.0000 0.0000 0.0000 0.0000 0.0000 0.0000 0.0000 -79.3706 1.8309 2.2064 -10.5421 -4.6157 7.1805 12.0306 -8.5234 -155.3986 68.0104 -14.0504 -0.8194 24.9504 0.0000 0.0000 10.4558 0.0000 0.0000 -20.0060 0.9667 -15.5347 3.5577 0.0000 0.0000 2.4356 0.0000 0.0000 -11.7792 -1.0341 -14.7712 2.6628 0.0000 0.0000 0.0997 0.0000 0.0000 -5.3895 -2.4281 -14.4696 5.0174 0.0000 0.0000 1.6345 0.0000 0.0000 -0.1563 -3.5044 -11.4258 4.7249 0.0000 0.0000 2.0788 0.0000 0.0000 0.0000 0.0000 0.0000 89.6386 -1.2720 1.2801 -1.5516 10.1602 9.8966 179.9092 6.1567 -24.8297 -58.3703 -11.8810 -3.5467 14.1352 0.0000 0.0000 3.2462 0.0000 0.0000 15.9669 0.6124 -2.4799 4.1316 0.0000 0.0000 3.6767 0.0000 0.0000 6.7263 0.5285 -4.2034 3.7032 0.0000 0.0000 1.9054 0.0000 0.0000 -0.1813 0.6248 -4.5486 0.8301 0.0000 0.0000 2.7607 0.0000 0.0000 -7.2664 0.5404 -4.5390 3.9932 0.0000 0.0000 3.2715 0.0000 0.0000 0.0000 0.0000 0.0000 0.0000 0.0000 0.0000 0.0000 0.0000 0.0000 0.0000 0.0000 0.0000 0.0000 0.0000 0.0000 0.0000 0.0000 0.0000
0.0000 95.0000 0.0000 0.0000 0.0000 0.0000 0.0000 0.0000 0.0000 0.0000 0.0000 0.0000 0.0000 0.0000 0.0000 0.0000 0.0000 0.0000 0.0000 0.0000 0.0000 0.0000 0.0000 0.0000 -79.4737 2.1957 2.6411 -10.2664 -4.5209 7.0669 12.0320 -8.8585 -155.6852 68.0104 -14.0504 -0.8194 24.9504 0.0000 0.0000 10.4558 0.0000 0.0000 -20.0060 0.9667 -15.5347 3.5577 0.0000 0.0000 2.4356 0.0000 0.0000 -11.7792 -1.0341 -14.7712 2.6628 0.0000 0.0000 0.0997 0.0000 0.0000 -5.3895 -2.4281 -14.4696 5.0174 0.0000 0.0000 1.6345 0.0000 0.0000 -0.1563 -3.5044 -11.4258 4.7249 0.0000 0.0000 2.0788 0.0000 0.0000 0.0000 0.0000 0.0000 89.4133 -1.1188 1.1303 -1.3038 10.1855 10.0150 179.8689 6.2257 -24.7522 -58.3703 -11.8810 -3.5467 14.1352 0.0000 0.0000 3.2462 0.0000 0.0000 15.9669 0.6124 -2.4799 4.1316 0.0000 0.0000 3.6767 0.0000 0.0000 6.7263 0.5285 -4.2034 3.7032 0.0000 0.0000 1.9054 0.0000 0.0000 -0.1813 0.6248 -4.5486 0.8301 0.0000 0.0000 2.7607 0.0000 0.0000 -7.2664 0.5404 -4.5390 3.9932 0.0000 0.0000 3.2715 0.0000 0.0000 0.0000 0.0000 0.0000 0.0000 0.0000 0.0000 0.0000 0.0000 0.0000 0.0000 0.0000 0.0000 0.0000 0.0000 0.0000 0.0000 0.0000 0.0000
0.0000 95.0000 0.0000 0.0000 0.0000 0.0000 0.0000 0.0000 0.0000 0.0000 0.0000 0.0000 0.0000 0.0000 0.0000 0.0000 0.0000 0.0000 0.0000 0.0000 0.0000 0.0000 0.0000 0.0000 -79.2866 1.9117 2.3072 -10.5472 -4.4461 6.9659 12.1224 -8.4580 -155.3065 68.0104 -14.0504 -0.8194 24.9504 0.0000 0.0000 10.4558 0.0000 0.0000 -20.0060 0.9667 -15.5347 3.5577 0.0000 0.0000 2.4356 0.0000 0.0000 -11.7792 -1.0341 -14.7712 2.6628 0.0000 0.0000 0.0997 0.0000 0.0000 -5.3895 -2.4281 -14.4696 5.0174 0.0000 0.0000 1.6345 0.0000 0.0000 -0.1563 -3.5044 -11.4258 4.7249 0.0000 0.0000 2.0788 0.0000 0.0000 0.0000 0.0000 0.0000 89.4881 -1.2721 1.2835 -1.5351 10.2988 10.0614 180.1229 6.0741 -24.9475 -58.3703 -11.8810 -3.5467 14.1352 0.0000 0.0000 3.2462 0.0000 0.0000 15.9669 0.6124 -2.4799 4.1316 0.0000 0.0000 3.6767 0.0000 0.0000 6.7263 0.5285 -4.2034 3.7032 0.0000 0.0000 1.9054 0.0000 0.0000 -0.1813 0.6248 -4.5486 0.8301 0.0000 0.0000 2.7607 0.0000 0.0000 -7.2664 0.5404 -4.5390 3.9932 0.0000 0.0000 3.2715 0.0000 0.0000 0.0000 0.0000 0.0000 0.0000 0.0000 0.0000 0.0000 0.0000 0.0000 0.0000 0.0000 0.0000 0.0000 0.0000 0.0000 0.0000 0.0000 0.0000
0.0000 95.0000 0.0000 0.0000 0.0000 0.0000 0.0000 0.0000 0.0000 0.0000 0.0000 0.0000 0.0000 0.0000 0.0000 0.0000 0.0000 0.0000 0.0000 0.0000 0.0000 0.0000 0.0000 0.0000 -79.2515 1.2184 1.4715 -10.7561 -4.7233 7.2392 12.2339 -7.9567 -154.8336 68.0104 -14.0504 -0.8194 24.9504 0.0000 0.0000 10.4558 0.0000 0.0000 -20.0060 0.9667 -15.5347 3.5577 0.0000 0.0000 2.4356 0.0000 0.0000 -11.7792 -1.0341 -14.7712 2.6628 0.0000 0.0000 0.0997 0.0000 0.0000 -5.3895 -2.4281 -14.4696 5.0174 0.0000 0.0000 1.6345 0.0000 0.0000 -0.1563 -3.5044 -11.4258 4.7249 0.0000 0.0000 2.0788 0.0000 0.0000 0.0000 0.0000 0.0000 89.4025 -1.4267 1.4417 -1.4699 10.5835 10.3613 180.3748 5.7038 -25.3723 -58.3703 -11.8810 -3.5467 14.1352 0.0000 0.0000 3.2462 0.0000 0.0000 15.9669 0.6124 -2.4799 4.1316 0.0000 0.0000 3.6767 0.0000 0.0000 6.7263 0.5285 -4.2034 3.7032 0.0000 0.0000 1.9054 0.0000 0.0000 -0.1813 0.6248 -4.5486 0.8301 0.0000 0.0000 2.7607 0.0000 0.0000 -7.2664 0.5404 -4.5390 3.9932 0.0000 0.0000 3.2715 0.0000 0.0000 0.0000 0.0000 0.0000 0.0000 0.0000 0.0000 0.0000 0.0000 0.0000 0.0000 0.0000 0.0000 0.0000 0.0000 0.0000 0.0000 0.0000 0.0000
0.0000 95.0000 0.0000 0.0000 0.0000 0.0000 0.0000 0.0000 0.0000 0.0000 0.0000 0.0000 0.0000 0.0000 0.0000 0.0000 0.0000 0.0000 0.0000 0.0000 0.0000 0.0000 0.0000 0.0000 -79.2661 0.8808 1.0635 -10.7670 -5.0420 7.6207 12.2647 -7.9464 -154.8124 68.0104 -14.0504 -0.8194 24.9504 0.0000 0.0000 10.4558 0.0000 0.0000 -20.0060 0.9667 -15.5347 3.5577 0.0000 0.0000 2.4356 0.0000 0.0000 -11.7792 -1.0341 -14.7712 2.6628 0.0000 0.0000 0.0997 0.0000 0.0000 -5.3895 -2.4281 -14.4696 5.0174 0.0000 0.0000 1.6345 0.0000 0.0000 -0.1563 -3.5044 -11.4258 4.7249 0.0000 0.0000 2.0788 0.0000 0.0000 0.0000 0.0000 0.0000 89.3722 -1.5854 1.6029 -1.4660 10.7544 10.5277 180.5636 5.4344 -25.6841 -58.3703 -11.8810 -3.5467 14.1352 0.0000 0.0000 3.2462 0.0000 0.0000 15.9669 0.6124 -2.4799 4.1316 0.0000 0.0000 3.6767 0.0000 0.0000 6.7263 0.5285 -4.2034 3.7032 0.0000 0.0000 1.9054 0.0000 0.0000 -0.1813 0.6248 -4.5486 0.8301 0.0000 0.0000 2.7607 0.0000 0.0000 -7.2664 0.5404 -4.5390 3.9932 0.0000 0.0000 3.2715 0.0000 0.0000 0.0000 0.0000 0.0000 0.0000 0.0000 0.0000 0.0000 0.0000 0.0000 0.0000 0.0000 0.0000 0.0000 0.0000 0.0000 0.0000 0.0000 0.0000
0.0000 95.0000 0.0000 0.0000 0.0000 0.0000 0.0000 0.0000 0.0000 0.0000 0.0000 0.0000 0.0000 0.0000 0.0000 0.0000 0.0000 0.0000 0.0000 0.0000 0.0000 0.0000 0.0000 0.0000 -79.0299 0.7326 0.8882 -11.0259 -5.0411 7.6575 12.3103 -7.8117 -154.6791 68.0104 -14.0504 -0.8194 24.9504 0.0000 0.0000 10.4558 0.0000 0.0000 -20.0060 0.9667 -15.5347 3.5577 0.0000 0.0000 2.4356 0.0000 0.0000 -11.7792 -1.0341 -14.7712 2.6628 0.0000 0.0000 0.0997 0.0000 0.0000 -5.3895 -2.4281 -14.4696 5.0174 0.0000 0.0000 1.6345 0.0000 0.0000 -0.1563 -3.5044 -11.4258 4.7249 0.0000 0.0000 2.0788 0.0000 0.0000 0.0000 0.0000 0.0000 89.4748 -1.6766 1.6920 -1.8187 10.8320 10.5058 180.8505 5.4139 -25.7525 -58.3703 -11.8810 -3.5467 14.1352 0.0000 0.0000 3.2462 0.0000 0.0000 15.9669 0.6124 -2.4799 4.1316 0.0000 0.0000 3.6767 0.0000 0.0000 6.7263 0.5285 -4.2034 3.7032 0.0000 0.0000 1.9054 0.0000 0.0000 -0.1813 0.6248 -4.5486 0.8301 0.0000 0.0000 2.7607 0.0000 0.0000 -7.2664 0.5404 -4.5390 3.9932 0.0000 0.0000 3.2715 0.0000 0.0000 0.0000 0.0000 0.0000 0.0000 0.0000 0.0000 0.0000 0.0000 0.0000 0.0000 0.0000 0.0000 0.0000 0.0000 0.0000 0.0000 0.0000 0.0000
0.0000 95.0000 0.0000 0.0000 0.0000 0.0000 0.0000 0.0000 0.0000 0.0000 0.0000 0.0000 0.0000 0.0000 0.0000 0.0000 0.0000 0.0000 0.0000 0.0000 0.0000 0.0000 0.0000 0.0000 -78.9702 0.9074 1.1013 -10.7599 -5.0487 7.6786 12.5032 -8.1551 -154.8955 68.0104 -14.0504 -0.8194 24.9504 0.0000 0.0000 10.4558 0.0000 0.0000 -20.0060 0.9667 -15.5347 3.5577 0.0000 0.0000 2.4356 0.0000 0.0000 -11.7792 -1.0341 -14.7712 2.6628 0.0000 0.0000 0.0997 0.0000 0.0000 -5.3895 -2.4281 -14.4696 5.0174 0.0000 0.0000 1.6345 0.0000 0.0000 -0.1563 -3.5044 -11.4258 4.7249 0.0000 0.0000 2.0788 0.0000 0.0000 0.0000 0.0000 0.0000 89.4791 -1.7780 1.7942 -2.0603 10.8516 10.4673 181.1075 5.4093 -25.7996 -58.3703 -11.8810 -3.5467 14.1352 0.0000 0.0000 3.2462 0.0000 0.0000 15.9669 0.6124 -2.4799 4.1316 0.0000 0.0000 3.6767 0.0000 0.0000 6.7263 0.5285 -4.2034 3.7032 0.0000 0.0000 1.9054 0.0000 0.0000 -0.1813 0.6248 -4.5486 0.8301 0.0000 0.0000 2.7607 0.0000 0.0000 -7.2664 0.5404 -4.5390 3.9932 0.0000 0.0000 3.2715 0.0000 0.0000 0.0000 0.0000 0.0000 0.0000 0.0000 0.0000 0.0000 0.0000 0.0000 0.0000 0.0000 0.0000 0.0000 0.0000 0.0000 0.0000 0.0000 0.0000
0.0000 95.0000 0.0000 0.0000 0.0000 0.0000 0.0000 0.0000 0.0000 0.0000 0.0000 0.0000 0.0000 0.0000 0.0000 0.0000 0.0000 0.0000 0.0000 0.0000 0.0000 0.0000 0.0000 0.0000 -78.8086 0.8277 1.0075 -10.8258 -5.3276 8.1045 12.5075 -8.4660 -155.1611 68.0104 -14.0504 -0.8194 24.9504 0.0000 0.0000 10.4558 0.0000 0.0000 -20.0060 0.9667 -15.5347 3.5577 0.0000 0.0000 2.4356 0.0000 0.0000 -11.7792 -1.0341 -14.7712 2.6628 0.0000 0.0000 0.0997 0.0000 0.0000 -5.3895 -2.4281 -14.4696 5.0174 0.0000 0.0000 1.6345 0.0000 0.0000 -0.1563 -3.5044 -11.4258 4.7249 0.0000 0.0000 2.0788 0.0000 0.0000 0.0000 0.0000 0.0000 89.7788 -1.8298 1.8369 -2.6075 11.0625 10.4956 181.4305 5.3517 -25.9140 -58.3703 -11.8810 -3.5467 14.1352 0.0000 0.0000 3.2462 0.0000 0.0000 15.9669 0.6124 -2.4799 4.1316 0.0000 0.0000 3.6767 0.0000 0.0000 6.7263 0.5285 -4.2034 3.7032 0.0000 0.0000 1.9054 0.0000 0.0000 -0.1813 0.6248 -4.5486 0.8301 0.0000 0.0000 2.7607 0.0000 0.0000 -7.2664 0.5404 -4.5390 3.9932 0.0000 0.0000 3.2715 0.0000 0.0000 0.0000 0.0000 0.0000 0.0000 0.0000 0.0000 0.0000 0.0000 0.0000 0.0000 0.0000 0.0000 0.0000 0.0000 0.0000 0.0000 0.0000 0.0000
0.0000 95.0000 0.0000 0.0000 0.0000 0.0000 0.0000 0.0000 0.0000 0.0000 0.0000 0.0000 0.0000 0.0000 0.0000 0.0000 0.0000 0.0000 0.0000 0.0000 0.0000 0.0000 0.0000 0.0000 -78.7520 0.8288 1.0098 -10.7022 -5.3509 8.1266 12.6586 -8.5749 -155.1953 68.0104 -14.0504 -0.8194 24.9504 0.0000 0.0000 10.4558 0.0000 0.0000 -20.0060 0.9667 -15.5347 3.5577 0.0000 0.0000 2.4356 0.0000 0.0000 -11.7792 -1.0341 -14.7712 2.6628 0.0000 0.0000 0.0997 0.0000 0.0000 -5.3895 -2.4281 -14.4696 5.0174 0.0000 0.0000 1.6345 0.0000 0.0000 -0.1563 -3.5044 -11.4258 4.7249 0.0000 0.0000 2.0788 0.0000 0.0000 0.0000 0.0000 0.0000 89.7569 -2.0361 2.0448 -2.7902 10.9583 10.3470 181.6289 5.3378 -25.9620 -58.3703 -11.8810 -3.5467 14.1352 0.0000 0.0000 3.2462 0.0000 0.0000 15.9669 0.6124 -2.4799 4.1316 0.0000 0.0000 3.6767 0.0000 0.0000 6.7263 0.5285 -4.2034 3.7032 0.0000 0.0000 1.9054 0.0000 0.0000 -0.1813 0.6248 -4.5486 0.8301 0.0000 0.0000 2.7607 0.0000 0.0000 -7.2664 0.5404 -4.5390 3.9932 0.0000 0.0000 3.2715 0.0000 0.0000 0.0000 0.0000 0.0000 0.0000 0.0000 0.0000 0.0000 0.0000 0.0000 0.0000 0.0000 0.0000 0.0000 0.0000 0.0000 0.0000 0.0000 0.0000
0.0000 95.0000 0.0000 0.0000 0.0000 0.0000 0.0000 0.0000 0.0000 0.0000 0.0000 0.0000 0.0000 0.0000 0.0000 0.0000 0.0000 0.0000 0.0000 0.0000 0.0000 0.0000 0.0000 0.0000 -78.6997 0.8645 1.0543 -10.9119 -5.1421 7.8705 12.5769 -8.3137 -155.0024 68.0104 -14.0504 -0.8194 24.9504 0.0000 0.0000 10.4558 0.0000 0.0000 -20.0060 0.9667 -15.5347 3.5577 0.0000 0.0000 2.4356 0.0000 0.0000 -11.7792 -1.0341 -14.7712 2.6628 0.0000 0.0000 0.0997 0.0000 0.0000 -5.3895 -2.4281 -14.4696 5.0174 0.0000 0.0000 1.6345 0.0000 0.0000 -0.1563 -3.5044 -11.4258 4.7249 0.0000 0.0000 2.0788 0.0000 0.0000 0.0000 0.0000 0.0000 89.5017 -1.9642 1.9813 -2.3749 10.3794 9.9304 181.1574 5.7457 -25.4519 -58.3703 -11.8810 -3.5467 14.1352 0.0000 0.0000 3.2462 0.0000 0.0000 15.9669 0.6124 -2.4799 4.1316 0.0000 0.0000 3.6767 0.0000 0.0000 6.7263 0.5285 -4.2034 3.7032 0.0000 0.0000 1.9054 0.0000 0.0000 -0.1813 0.6248 -4.5486 0.8301 0.0000 0.0000 2.7607 0.0000 0.0000 -7.2664 0.5404 -4.5390 3.9932 0.0000 0.0000 3.2715 0.0000 0.0000 0.0000 0.0000 0.0000 0.0000 0.0000 0.0000 0.0000 0.0000 0.0000 0.0000 0.0000 0.0000 0.0000 0.0000 0.0000 0.0000 0.0000 0.0000
0.0000 95.0000 0.0000 0.0000 0.0000 0.0000 0.0000 0.0000 0.0000 0.0000 0.0000 0.0000 0.0000 0.0000 0.0000 0.0000 0.0000 0.0000 0.0000 0.0000 0.0000 0.0000 0.0000 0.0000 -79.1894 0.7612 0.9203 -10.1956 -4.9089 7.3186 12.9734 -7.9264 -154.5086 68.0104 -14.0504 -0.8194 24.9504 0.0000 0.0000 10.4558 0.0000 0.0000 -20.0060 0.9667 -15.5347 3.5577 0.0000 0.0000 2.4356 0.0000 0.0000 -11.7792 -1.0341 -14.7712 2.6628 0.0000 0.0000 0.0997 0.0000 0.0000 -5.3895 -2.4281 -14.4696 5.0174 0.0000 0.0000 1.6345 0.0000 0.0000 -0.1563 -3.5044 -11.4258 4.7249 0.0000 0.0000 2.0788 0.0000 0.0000 0.0000 0.0000 0.0000 88.5990 -1.9457 1.9938 -1.2117 10.5775 10.5313 181.1443 5.3424 -25.8763 -58.3703 -11.8810 -3.5467 14.1352 0.0000 0.0000 3.2462 0.0000 0.0000 15.9669 0.6124 -2.4799 4.1316 0.0000 0.0000 3.6767 0.0000 0.0000 6.7263 0.5285 -4.2034 3.7032 0.0000 0.0000 1.9054 0.0000 0.0000 -0.1813 0.6248 -4.5486 0.8301 0.0000 0.0000 2.7607 0.0000 0.0000 -7.2664 0.5404 -4.5390 3.9932 0.0000 0.0000 3.2715 0.0000 0.0000 0.0000 0.0000 0.0000 0.0000 0.0000 0.0000 0.0000 0.0000 0.0000 0.0000 0.0000 0.0000 0.0000 0.0000 0.0000 0.0000 0.0000 0.0000
0.0000 95.0000 0.0000 0.0000 0.0000 0.0000 0.0000 0.0000 0.0000 0.0000 0.0000 0.0000 0.0000 0.0000 0.0000 0.0000 0.0000 0.0000 0.0000 0.0000 0.0000 0.0000 0.0000 0.0000 -79.2634 0.8888 1.0732 -9.5672 -4.2850 6.3479 13.6832 -7.5571 -153.8965 68.0104 -14.0504 -0.8194 24.9504 0.0000 0.0000 10.4558 0.0000 0.0000 -20.0060 0.9667 -15.5347 3.5577 0.0000 0.0000 2.4356 0.0000 0.0000 -11.7792 -1.0341 -14.7712 2.6628 0.0000 0.0000 0.0997 0.0000 0.0000 -5.3895 -2.4281 -14.4696 5.0174 0.0000 0.0000 1.6345 0.0000 0.0000 -0.1563 -3.5044 -11.4258 4.7249 0.0000 0.0000 2.0788 0.0000 0.0000 0.0000 0.0000 0.0000 87.8070 -1.9547 2.0310 1.4127 12.3362 13.1230 180.8294 2.9796 -28.2939 -58.3703 -11.8810 -3.5467 14.1352 0.0000 0.0000 3.2462 0.0000 0.0000 15.9669 0.6124 -2.4799 4.1316 0.0000 0.0000 3.6767 0.0000 0.0000 6.7263 0.5285 -4.2034 3.7032 0.0000 0.0000 1.9054 0.0000 0.0000 -0.1813 0.6248 -4.5486 0.8301 0.0000 0.0000 2.7607 0.0000 0.0000 -7.2664 0.5404 -4.5390 3.9932 0.0000 0.0000 3.2715 0.0000 0.0000 0.0000 0.0000 0.0000 0.0000 0.0000 0.0000 0.0000 0.0000 0.0000 0.0000 0.0000 0.0000 0.0000 0.0000 0.0000 0.0000 0.0000 0.0000
0.0000 95.0000 0.0000 0.0000 0.0000 0.0000 0.0000 0.0000 0.0000 0.0000 0.0000 0.0000 0.0000 0.0000 0.0000 0.0000 0.0000 0.0000 0.0000 0.0000 0.0000 0.0000 0.0000 0.0000 -79.5318 1.7427 2.0941 -8.0041 -2.9681 4.4377 14.9925 -7.5015 -153.2968 68.0104 -14.0504 -0.8194 24.9504 0.0000 0.0000 10.4558 0.0000 0.0000 -20.0060 0.9667 -15.5347 3.5577 0.0000 0.0000 2.4356 0.0000 0.0000 -11.7792 -1.0341 -14.7712 2.6628 0.0000 0.0000 0.0997 0.0000 0.0000 -5.3895 -2.4281 -14.4696 5.0174 0.0000 0.0000 1.6345 0.0000 0.0000 -0.1563 -3.5044 -11.4258 4.7249 0.0000 0.0000 2.0788 0.0000 0.0000 0.0000 0.0000 0.0000 86.8219 -4.9943 5.2789 4.5809 20.2498 23.0681 187.7224 -6.4854 -40.6305 -58.3703 -11.8810 -3.5467 14.1352 0.0000 0.0000 3.2462 0.0000 0.0000 15.9669 0.6124 -2.4799 4.1316 0.0000 0.0000 3.6767 0.0000 0.0000 6.7263 0.5285 -4.2034 3.7032 0.0000 0.0000 1.9054 0.0000 0.0000 -0.1813 0.6248 -4.5486 0.8301 0.0000 0.0000 2.7607 0.0000 0.0000 -7.2664 0.5404 -4.5390 3.9932 0.0000 0.0000 3.2715 0.0000 0.0000 0.0000 0.0000 0.0000 0.0000 0.0000 0.0000 0.0000 0.0000 0.0000 0.0000 0.0000 0.0000 0.0000 0.0000 0.0000 0.0000 0.0000 0.0000
0.0000 95.0000 0.0000 0.0000 0.0000 0.0000 0.0000 0.0000 0.0000 0.0000 0.0000 0.0000 0.0000 0.0000 0.0000 0.0000 0.0000 0.0000 0.0000 0.0000 0.0000 0.0000 0.0000 0.0000 -78.0417 7.4485 9.1846 -6.4936 1.0159 -0.2554 16.1126 -10.4063 -155.4803 68.0104 -14.0504 -0.8194 24.9504 0.0000 0.0000 10.4558 0.0000 0.0000 -20.0060 0.9667 -15.5347 3.5577 0.0000 0.0000 2.4356 0.0000 0.0000 -11.7792 -1.0341 -14.7712 2.6628 0.0000 0.0000 0.0997 0.0000 0.0000 -5.3895 -2.4281 -14.4696 5.0174 0.0000 0.0000 1.6345 0.0000 0.0000 -0.1563 -3.5044 -11.4258 4.7249 0.0000 0.0000 2.0788 0.0000 0.0000 0.0000 0.0000 0.0000 84.8229 -10.0574 11.0042 5.4628 40.9683 45.6134 217.2416 -12.7593 -69.1833 -58.3703 -11.8810 -3.5467 14.1352 0.0000 0.0000 3.2462 0.0000 0.0000 15.9669 0.6124 -2.4799 4.1316 0.0000 0.0000 3.6767 0.0000 0.0000 6.7263 0.5285 -4.2034 3.7032 0.0000 0.0000 1.9054 0.0000 0.0000 -0.1813 0.6248 -4.5486 0.8301 0.0000 0.0000 2.7607 0.0000 0.0000 -7.2664 0.5404 -4.5390 3.9932 0.0000 0.0000 3.2715 0.0000 0.0000 0.0000 0.0000 0.0000 0.0000 0.0000 0.0000 0.0000 0.0000 0.0000 0.0000 0.0000 0.0000 0.0000 0.0000 0.0000 0.0000 0.0000 0.0000
0.0000 95.0000 0.0000 0.0000 0.0000 0.0000 0.0000 0.0000 0.0000 0.0000 0.0000 0.0000 0.0000 0.0000 0.0000 0.0000 0.0000 0.0000 0.0000 0.0000 0.0000 0.0000 0.0000 0.0000 -76.8041 11.4769 14.4507 -4.4711 2.0871 -1.5838 18.5563 -12.8769 -156.1047 67.5111 -13.9474 -0.3885 25.3109 0.0000 0.0000 11.3461 0.0000 0.0000 -21.1060 0.8563 -17.5235 4.6354 0.0000 0.0000 2.5990 0.0000 0.0000 -13.0999 -1.4096 -17.0024 3.5974 0.0000 0.0000 0.2129 0.0000 0.0000 -6.8076 -3.0089 -16.8179 6.0990 0.0000 0.0000 1.6685 0.0000 0.0000 -1.7852 -4.3677 -13.9354 5.6711 0.0000 0.0000 2.1048 0.0000 0.0000 0.0000 0.0000 0.0000 83.5868 -13.8707 15.4982 2.8401 68.3885 66.5643 250.6325 -1.9571 -84.8737 -54.0970 -10.5633 -6.0083 11.7639 0.0000 0.0000 3.6606 0.0000 0.0000 17.2189 0.7201 -1.6143 6.1099 0.0000 0.0000 3.2881 0.0000 0.0000 8.3633 0.6458 -4.0441 5.8456 0.0000 0.0000 0.6797 0.0000 0.0000 1.2415 0.7350 -4.3650 2.6059 0.0000 0.0000 2.0990 0.0000 0.0000 -6.9718 0.5431 -4.4094 2.2897 0.0000 0.0000 3.0617 0.0000 0.0000 0.0000 0.0000 0.0000 0.0000 0.0000 0.0000 0.0000 0.0000 0.0000 0.0000 0.0000 0.0000 0.0000 0.0000 0.0000 0.0000 0.0000 0.0000
0.0000 95.0000 0.0000 0.0000 0.0000 0.0000 0.0000 0.0000 0.0000 0.0000 0.0000 0.0000 0.0000 0.0000 0.0000 0.0000 0.0000 0.0000 0.0000 0.0000 0.0000 0.0000 0.0000 0.0000 -75.2079 13.4004 17.3443 -3.2564 1.3143 -0.7053 20.8712 -14.9171 -155.7753 66.7951 -13.8055 0.0013 25.6367 0.0000 0.0000 12.3333 0.0000 0.0000 -22.1905 0.7009 -20.0837 5.8309 0.0000 0.0000 2.7669 0.0000 0.0000 -14.3985 -1.9167 -19.8597 4.6136 0.0000 0.0000 0.3322 0.0000 0.0000 -8.1914 -3.7887 -19.8117 7.2412 0.0000 0.0000 1.7002 0.0000 0.0000 -3.3901 -5.5307 -17.0961 6.7244 0.0000 0.0000 2.1437 0.0000 0.0000 0.0000 0.0000 0.0000 81.8031 -16.9091 19.4726 -134.6723 86.4088 -54.3942 277.8091 13.3143 -88.4942 -53.2425 -10.4057 -5.7756 10.7801 0.0000 0.0000 2.4060 0.0000 0.0000 16.6581 0.7568 0.4094 7.2708 0.0000 0.0000 3.0011 0.0000 0.0000 6.0593 0.3597 -2.0166 6.3726 0.0000 0.0000 1.0543 0.0000 0.0000 -1.3118 0.1182 -1.4856 2.9247 0.0000 0.0000 2.3532 0.0000 0.0000 -8.4961 -0.3914 -1.0912 3.6313 0.0000 0.0000 3.2655 0.0000 0.0000 0.0000 0.0000 0.0000 0.0000 0.0000 0.0000 0.0000 0.0000 0.0000 0.0000 0.0000 0.0000 0.0000 0.0000 0.0000 0.0000 0.0000 0.0000
0.0000 95.0000 0.0000 0.0000 0.0000 0.0000 0.0000 0.0000 0.0000 0.0000 0.0000 0.0000 0.0000 0.0000 0.0000 0.0000 0.0000 0.0000 0.0000 0.0000 0.0000 0.0000 0.0000 0.0000 -74.6877 13.9685 18.2427 -2.1166 0.9172 -0.4970 23.3434 -14.5564 -152.1936 65.8630 -13.6265 0.2984 25.9150 0.0000 0.0000 13.4303 0.0000 0.0000 -23.1055 0.5050 -23.4024 7.1516 0.0000 0.0000 2.9390 0.0000 0.0000 -15.5007 -2.5789 -23.5537 5.7158 0.0000 0.0000 0.4580 0.0000 0.0000 -9.3525 -4.8140 -23.6703 8.4486 0.0000 0.0000 1.7308 0.0000 0.0000 -4.7774 -7.0813 -21.1327 7.8630 0.0000 0.0000 2.1953 0.0000 0.0000 0.0000 0.0000 0.0000 80.4928 -19.0288 22.3998 -158.8179 75.3265 -73.0862 289.6371 21.6922 -85.6449 -55.0310 -10.9315 -5.0939 9.8683 0.0000 0.0000 3.9195 0.0000 0.0000 15.3565 0.7086 0.5092 5.4733 0.0000 0.0000 3.0641 0.0000 0.0000 4.5228 0.2689 -2.0285 5.3504 0.0000 0.0000 1.2686 0.0000 0.0000 -2.4904 0.0254 -1.3918 3.2220 0.0000 0.0000 2.4760 0.0000 0.0000 -11.3673 -0.7432 -0.5362 3.4585 0.0000 0.0000 3.8230 0.0000 0.0000 0.0000 0.0000 0.0000 0.0000 0.0000 0.0000 0.0000 0.0000 0.0000 0.0000 0.0000 0.0000 0.0000 0.0000 0.0000 0.0000 0.0000 0.0000
0.0000 95.0000 0.0000 0.0000 0.0000 0.0000 0.0000 0.0000 0.0000 0.0000 0.0000 0.0000 0.0000 0.0000 0.0000 0.0000 0.0000 0.0000 0.0000 0.0000 0.0000 0.0000 0.0000 0.0000 -74.6001 13.8218 18.0806 -1.3456 0.3875 -0.0611 25.5670 -13.0721 -146.5646 64.7658 -13.4258 0.4215 26.1299 0.0000 0.0000 14.6521 0.0000 0.0000 -23.5571 0.3160 -27.7075 8.6143 0.0000 0.0000 3.1146 0.0000 0.0000 -16.0737 -3.3767 -28.3553 6.9134 0.0000 0.0000 0.5916 0.0000 0.0000 -9.9325 -6.0930 -28.6861 9.7273 0.0000 0.0000 1.7620 0.0000 0.0000 -5.5726 -9.0867 -26.3587 9.0761 0.0000 0.0000 2.2603 0.0000 0.0000 0.0000 0.0000 0.0000 79.3029 -20.3176 24.3995 -162.9071 69.2213 -74.4444 295.2467 25.7513 -82.0183 -55.7866 -11.1369 -4.8636 10.9668 0.0000 0.0000 2.8494 0.0000 0.0000 15.9131 0.6901 -0.4873 6.6042 0.0000 0.0000 2.9606 0.0000 0.0000 6.1172 0.4249 -3.1675 7.5468 0.0000 0.0000 2.1747 0.0000 0.0000 -1.4453 0.2155 -2.3164 5.2357 0.0000 0.0000 1.4918 0.0000 0.0000 -9.7876 -0.5046 -1.0682 1.1452 0.0000 0.0000 2.8648 0.0000 0.0000 0.0000 0.0000 0.0000 0.0000 0.0000 0.0000 0.0000 0.0000 0.0000 0.0000 0.0000 0.0000 0.0000 0.0000 0.0000 0.0000 0.0000 0.0000
0.0000 95.0000 0.0000 0.0000 0.0000 0.0000 0.0000 0.0000 0.0000 0.0000 0.0000 0.0000 0.0000 0.0000 0.0000 0.0000 0.0000 0.0000 0.0000 0.0000 0.0000 0.0000 0.0000 0.0000 -74.2659 14.2648 18.7672 -0.9328 0.3944 -0.1927 26.5390 -12.5319 -143.4765 64.1966 -13.3286 0.3820 26.2076 0.0000 0.0000 15.3152 0.0000 0.0000 -23.4606 0.2669 -30.3020 9.4065 0.0000 0.0000 3.2035 0.0000 0.0000 -15.9936 -3.7885 -31.2665 7.5520 0.0000 0.0000 0.6618 0.0000 0.0000 -9.8239 -6.7979 -31.7369 10.3957 0.0000 0.0000 1.7786 0.0000 0.0000 -5.5560 -10.2534 -29.5441 9.7088 0.0000 0.0000 2.2984 0.0000 0.0000 0.0000 0.0000 0.0000 78.2434 -21.4273 26.1915 -163.6965 65.3776 -74.1390 300.9141 27.0754 -79.2944 -55.1403 -10.9002 -5.4357 11.0856 0.0000 0.0000 2.7321 0.0000 0.0000 14.9846 0.6727 0.0761 6.1971 0.0000 0.0000 3.5178 0.0000 0.0000 5.5814 0.3578 -2.5587 7.4198 0.0000 0.0000 2.2536 0.0000 0.0000 -0.8703 0.2019 -1.8832 5.4176 0.0000 0.0000 1.5281 0.0000 0.0000 -10.3158 -0.7234 -0.2403 1.4013 0.0000 0.0000 2.6380 0.0000 0.0000 0.0000 0.0000 0.0000 0.0000 0.0000 0.0000 0.0000 0.0000 0.0000 0.0000 0.0000 0.0000 0.0000 0.0000 0.0000 0.0000 0.0000 0.0000
0.0000 95.0000 0.0000 0.0000 0.0000 0.0000 0.0000 0.0000 0.0000 0.0000 0.0000 0.0000 0.0000 0.0000 0.0000 0.0000 0.0000 0.0000 0.0000 0.0000 0.0000 0.0000 0.0000 0.0000 -73.7474 15.0025 19.9128 -0.3650 0.3070 -0.2630 27.9074 -10.7566 -135.8294 63.1802 -13.1820 0.0117 26.2899 0.0000 0.0000 16.7573 0.0000 0.0000 -22.1952 0.4577 -36.4535 11.1327 0.0000 0.0000 3.3833 0.0000 0.0000 -14.6170 -4.4199 -38.2635 8.9189 0.0000 0.0000 0.8105 0.0000 0.0000 -8.2895 -8.1260 -39.1310 11.7958 0.0000 0.0000 1.8162 0.0000 0.0000 -4.1245 -12.7499 -37.3478 11.0256 0.0000 0.0000 2.3873 0.0000 0.0000 0.0000 0.0000 0.0000 77.2497 -22.3750 27.8062 -162.1765 64.4692 -73.4019 302.7902 27.3786 -76.4707 -54.9316 -10.9112 -5.0819 11.6831 0.0000 0.0000 3.0894 0.0000 0.0000 15.5671 0.6991 0.1015 6.1818 0.0000 0.0000 3.7856 0.0000 0.0000 6.0443 0.3950 -2.6990 7.1695 0.0000 0.0000 2.2089 0.0000 0.0000 -0.7619 0.2370 -2.0858 5.0172 0.0000 0.0000 1.7223 0.0000 0.0000 -9.4178 -0.5557 -0.6947 1.5463 0.0000 0.0000 2.8895 0.0000 0.0000 0.0000 0.0000 0.0000 0.0000 0.0000 0.0000 0.0000 0.0000 0.0000 0.0000 0.0000 0.0000 0.0000 0.0000 0.0000 0.0000 0.0000 0.0000
0.0000 95.0000 0.0000 0.0000 0.0000 0.0000 0.0000 0.0000 0.0000 0.0000 0.0000 0.0000 0.0000 0.0000 0.0000 0.0000 0.0000 0.0000 0.0000 0.0000 0.0000 0.0000 0.0000 0.0000 -73.7839 14.4846 19.2185 -0.7439 1.0743 -1.1339 29.8742 -6.1700 -123.8059 62.6779 -13.1756 -0.8673 26.2530 0.0000 0.0000 18.3717 0.0000 0.0000 -18.8595 1.5148 -43.7064 13.0834 0.0000 0.0000 3.5651 0.0000 0.0000 -10.9060 -4.1975 -46.7749 10.4220 0.0000 0.0000 0.9721 0.0000 0.0000 -4.2356 -8.7079 -48.3090 13.2889 0.0000 0.0000 1.8635 0.0000 0.0000 0.0466 -14.8453 -47.3270 12.4117 0.0000 0.0000 2.4967 0.0000 0.0000 0.0000 0.0000 0.0000 76.4336 -22.7814 28.7040 -160.1984 65.3633 -72.5266 301.2900 30.4800 -80.9787 -56.4454 -11.3933 -4.1283 12.0437 0.0000 0.0000 5.5023 0.0000 0.0000 14.6497 0.6518 -0.0464 4.7230 0.0000 0.0000 3.4484 0.0000 0.0000 4.3591 0.2756 -2.4599 6.2742 0.0000 0.0000 1.7669 0.0000 0.0000 -2.3521 0.0731 -1.7102 3.9063 0.0000 0.0000 2.0672 0.0000 0.0000 -11.5130 -0.7813 -0.4027 1.8318 0.0000 0.0000 3.2582 0.0000 0.0000 0.0000 0.0000 0.0000 0.0000 0.0000 0.0000 0.0000 0.0000 0.0000 0.0000 0.0000 0.0000 0.0000 0.0000 0.0000 0.0000 0.0000 0.0000
0.0000 95.0000 0.0000 0.0000 0.0000 0.0000 0.0000 0.0000 0.0000 0.0000 0.0000 0.0000 0.0000 0.0000 0.0000 0.0000 0.0000 0.0000 0.0000 0.0000 0.0000 0.0000 0.0000 0.0000 -73.6306 14.3916 19.1484 -0.4923 0.9439 -1.0511 30.6986 -2.6177 -111.3104 63.2062 -13.3901 -2.3367 26.0674 0.0000 0.0000 20.1813 0.0000 0.0000 -13.0161 4.1358 -51.2028 15.3141 0.0000 0.0000 3.7480 0.0000 0.0000 -4.4331 -2.1282 -56.0437 12.0863 0.0000 0.0000 1.1497 0.0000 0.0000 2.7575 -7.4014 -58.6430 14.8872 0.0000 0.0000 1.9267 0.0000 0.0000 7.4857 -15.2628 -59.1533 13.8704 0.0000 0.0000 2.6322 0.0000 0.0000 0.0000 0.0000 0.0000 75.5127 -23.1827 29.6681 -159.7510 65.0373 -72.2903 301.6552 29.3976 -79.2795 -55.5048 -11.1561 -4.3512 11.6411 0.0000 0.0000 2.6156 0.0000 0.0000 15.7044 0.7052 0.1056 6.4867 0.0000 0.0000 2.8427 0.0000 0.0000 5.2371 0.3282 -2.3940 6.8399 0.0000 0.0000 1.6396 0.0000 0.0000 -1.4776 0.1355 -1.7104 3.9011 0.0000 0.0000 1.9793 0.0000 0.0000 -10.4608 -0.6566 -0.6110 1.5787 0.0000 0.0000 3.2698 0.0000 0.0000 0.0000 0.0000 0.0000 0.0000 0.0000 0.0000 0.0000 0.0000 0.0000 0.0000 0.0000 0.0000 0.0000 0.0000 0.0000 0.0000 0.0000 0.0000
0.0000 95.0000 0.0000 0.0000 0.0000 0.0000 0.0000 0.0000 0.0000 0.0000 0.0000 0.0000 0.0000 0.0000 0.0000 0.0000 0.0000 0.0000 0.0000 0.0000 0.0000 0.0000 0.0000 0.0000 -73.4424 14.7360 19.6687 0.4204 0.6691 -0.9988 30.1532 0.2826 -98.3533 65.1225 -13.8196 -4.3357 25.6990 0.0000 0.0000 22.2105 0.0000 0.0000 -5.1849 8.5172 -57.4780 17.9007 0.0000 0.0000 3.9313 0.0000 0.0000 4.0796 2.3425 -64.4865 13.9441 0.0000 0.0000 1.3469 0.0000 0.0000 11.7796 -3.4259 -68.5356 16.6058 0.0000 0.0000 2.0135 0.0000 0.0000 17.1031 -12.8858 -71.2876 15.4072 0.0000 0.0000 2.8006 0.0000 0.0000 0.0000 0.0000 0.0000 74.9184 -23.6264 30.5366 -158.4884 65.3371 -71.8665 302.5148 28.6339 -77.2334 -55.4439 -11.1438 -4.3456 10.3252 0.0000 0.0000 2.4744 0.0000 0.0000 15.7367 0.6909 -0.2676 6.5217 0.0000 0.0000 3.4308 0.0000 0.0000 5.3503 0.3554 -2.8234 6.7787 0.0000 0.0000 2.2351 0.0000 0.0000 -2.4095 0.0708 -1.7252 3.8385 0.0000 0.0000 1.9474 0.0000 0.0000 -10.4783 -0.6950 -0.4344 1.0907 0.0000 0.0000 2.8709 0.0000 0.0000 0.0000 0.0000 0.0000 0.0000 0.0000 0.0000 0.0000 0.0000 0.0000 0.0000 0.0000 0.0000 0.0000 0.0000 0.0000 0.0000 0.0000 0.0000
0.0000 95.0000 0.0000 0.0000 0.0000 0.0000 0.0000 0.0000 0.0000 0.0000 0.0000 0.0000 0.0000 0.0000 0.0000 0.0000 0.0000 0.0000 0.0000 0.0000 0.0000 0.0000 0.0000 0.0000 -73.1959 14.7765 19.8093 0.3343 0.7788 -1.1151 29.7041 1.9950 -91.6437 66.5786 -14.0789 -5.4768 25.4349 0.0000 0.0000 23.3154 0.0000 0.0000 -0.9643 11.1241 -59.7912 19.3586 0.0000 0.0000 4.0227 0.0000 0.0000 8.5867 5.2854 -67.9390 14.9584 0.0000 0.0000 1.4543 0.0000 0.0000 16.4491 -0.5848 -72.8058 17.5158 0.0000 0.0000 2.0684 0.0000 0.0000 21.9726 -10.7077 -76.8570 16.2074 0.0000 0.0000 2.8996 0.0000 0.0000 0.0000 0.0000 0.0000 74.7059 -23.8908 30.9849 -158.2601 65.0933 -71.8963 303.7060 29.7534 -77.9845 -56.2517 -11.1715 -5.3104 10.8191 0.0000 0.0000 2.7390 0.0000 0.0000 14.3493 0.6516 0.1939 5.1370 0.0000 0.0000 3.3476 0.0000 0.0000 3.8108 0.2360 -2.3132 5.0118 0.0000 0.0000 1.4052 0.0000 0.0000 -3.4664 -0.0000 -1.7660 2.7148 0.0000 0.0000 2.4567 0.0000 0.0000 -11.2312 -0.6717 -0.8364 3.7889 0.0000 0.0000 3.7841 0.0000 0.0000 0.0000 0.0000 0.0000 0.0000 0.0000 0.0000 0.0000 0.0000 0.0000 0.0000 0.0000 0.0000 0.0000 0.0000 0.0000 0.0000 0.0000 0.0000
0.0000 95.0000 0.0000 0.0000 0.0000 0.0000 0.0000 0.0000 0.0000 0.0000 0.0000 0.0000 0.0000 0.0000 0.0000 0.0000 0.0000 0.0000 0.0000 0.0000 0.0000 0.0000 0.0000 0.0000 -73.3528 14.7299 19.6922 0.2289 1.1498 -1.5535 28.6670 5.1257 -78.6637 70.1406 -14.5807 -7.9011 24.7222 0.0000 0.0000 25.7204 0.0000 0.0000 7.0226 16.2922 -62.7539 22.6857 0.0000 0.0000 4.2045 0.0000 0.0000 17.0349 11.6139 -73.1303 17.1900 0.0000 0.0000 1.6896 0.0000 0.0000 24.9499 5.8034 -79.7139 19.4510 0.0000 0.0000 2.2074 0.0000 0.0000 30.4348 -5.3939 -86.4529 17.8776 0.0000 0.0000 3.1327 0.0000 0.0000 0.0000 0.0000 0.0000 74.7174 -23.8370 30.9102 -158.4401 65.5895 -72.1950 304.2680 30.1677 -78.9929 -56.4077 -11.3303 -4.4922 9.8641 0.0000 0.0000 5.0581 0.0000 0.0000 13.9369 0.6224 -0.0060 4.4810 0.0000 0.0000 3.5246 0.0000 0.0000 3.4899 0.2091 -2.0832 5.3723 0.0000 0.0000 1.7345 0.0000 0.0000 -3.8179 -0.1051 -1.0193 3.2053 0.0000 0.0000 2.8775 0.0000 0.0000 -12.1790 -1.0063 0.4939 2.2121 0.0000 0.0000 4.1676 0.0000 0.0000 0.0000 0.0000 0.0000 0.0000 0.0000 0.0000 0.0000 0.0000 0.0000 0.0000 0.0000 0.0000 0.0000 0.0000 0.0000 0.0000 0.0000 0.0000
0.0000 95.0000 0.0000 0.0000 0.0000 0.0000 0.0000 0.0000 0.0000 0.0000 0.0000 0.0000 0.0000 0.0000 0.0000 0.0000 0.0000 0.0000 0.0000 0.0000 0.0000 0.0000 0.0000 0.0000 -73.1470 14.7065 19.7335 -0.2153 1.5478 -1.9320 26.9151 7.0913 -67.6457 73.9468 -14.9530 -10.3391 23.7324 0.0000 0.0000 28.4025 0.0000 0.0000 13.2412 20.4416 -64.2146 26.7058 0.0000 0.0000 4.3839 0.0000 0.0000 23.7485 17.3433 -76.6825 19.7482 0.0000 0.0000 1.9575 0.0000 0.0000 31.4183 11.8103 -85.0221 21.5626 0.0000 0.0000 2.3935 0.0000 0.0000 36.2854 -0.3528 -94.3510 19.6519 0.0000 0.0000 3.4199 0.0000 0.0000 0.0000 0.0000 0.0000 74.6062 -23.9560 31.1210 -158.1523 65.6426 -72.1257 302.0508 28.5603 -80.8299 -55.8882 -11.1184 -5.1258 10.6980 0.0000 0.0000 3.0602 0.0000 0.0000 14.7250 0.6611 0.0683 5.7913 0.0000 0.0000 3.2406 0.0000 0.0000 5.2095 0.3045 -1.9146 6.9380 0.0000 0.0000 1.7811 0.0000 0.0000 -1.9682 -0.0479 -0.5083 4.8844 0.0000 0.0000 2.5929 0.0000 0.0000 -11.4847 -1.1560 1.4799 1.2992 0.0000 0.0000 3.8578 0.0000 0.0000 0.0000 0.0000 0.0000 0.0000 0.0000 0.0000 0.0000 0.0000 0.0000 0.0000 0.0000 0.0000 0.0000 0.0000 0.0000 0.0000 0.0000 0.0000
0.0000 95.0000 0.0000 0.0000 0.0000 0.0000 0.0000 0.0000 0.0000 0.0000 0.0000 0.0000 0.0000 0.0000 0.0000 0.0000 0.0000 0.0000 0.0000 0.0000 0.0000 0.0000 0.0000 0.0000 -72.9503 14.9931 20.1855 -0.3541 1.9309 -2.3899 24.4419 8.0496 -59.0008 77.3699 -15.1501 -12.6094 22.4325 0.0000 0.0000 31.3734 0.0000 0.0000 16.8376 22.9719 -65.0563 31.6441 0.0000 0.0000 4.5597 0.0000 0.0000 28.1234 21.6764 -79.5577 22.7208 0.0000 0.0000 2.2646 0.0000 0.0000 35.4341 16.4922 -89.6574 23.8845 0.0000 0.0000 2.6359 0.0000 0.0000 39.3670 3.1907 -101.3246 21.5476 0.0000 0.0000 3.7702 0.0000 0.0000 0.0000 0.0000 0.0000 74.7914 -24.0100 31.0905 -159.3411 65.9434 -73.3816 304.2135 29.9327 -78.5660 -55.6680 -11.1673 -4.5047 9.7273 0.0000 0.0000 6.1684 0.0000 0.0000 14.3598 0.6553 0.2544 4.6696 0.0000 0.0000 3.5365 0.0000 0.0000 3.5388 0.2109 -2.0456 5.3811 0.0000 0.0000 2.0302 0.0000 0.0000 -3.2376 -0.0154 -1.4828 2.9696 0.0000 0.0000 2.7006 0.0000 0.0000 -11.4539 -0.8255 -0.1596 2.7035 0.0000 0.0000 3.9783 0.0000 0.0000 0.0000 0.0000 0.0000 0.0000 0.0000 0.0000 0.0000 0.0000 0.0000 0.0000 0.0000 0.0000 0.0000 0.0000 0.0000 0.0000 0.0000 0.0000
0.0000 95.0000 0.0000 0.0000 0.0000 0.0000 0.0000 0.0000 0.0000 0.0000 0.0000 0.0000 0.0000 0.0000 0.0000 0.0000 0.0000 0.0000 0.0000 0.0000 0.0000 0.0000 0.0000 0.0000 -72.5970 15.3816 20.8347 -0.5266 2.1441 -2.6194 21.6018 8.5223 -52.5453 80.0599 -15.2021 -14.5786 20.8028 0.0000 0.0000 34.6284 0.0000 0.0000 17.5587 23.6639 -65.6159 37.7883 0.0000 0.0000 4.7304 0.0000 0.0000 30.0542 24.3426 -82.3302 26.2283 0.0000 0.0000 2.6193 0.0000 0.0000 37.0887 19.5115 -94.1871 26.4609 0.0000 0.0000 2.9434 0.0000 0.0000 40.1025 4.7493 -107.8076 23.5876 0.0000 0.0000 4.1916 0.0000 0.0000 0.0000 0.0000 0.0000 74.8553 -24.0352 31.0883 -158.7161 67.5326 -73.6543 302.6357 30.3211 -79.8170 -56.5456 -11.2653 -5.1265 9.3985 0.0000 0.0000 2.0299 0.0000 0.0000 13.8757 0.5614 -1.0006 5.3162 0.0000 0.0000 3.0687 0.0000 0.0000 3.6444 0.2522 -3.1434 5.9085 0.0000 0.0000 1.1697 0.0000 0.0000 -2.7356 0.1406 -2.5220 3.4251 0.0000 0.0000 2.4935 0.0000 0.0000 -11.0504 -0.6200 -1.0173 1.7983 0.0000 0.0000 3.9594 0.0000 0.0000 0.0000 0.0000 0.0000 0.0000 0.0000 0.0000 0.0000 0.0000 0.0000 0.0000 0.0000 0.0000 0.0000 0.0000 0.0000 0.0000 0.0000 0.0000
0.0000 95.0000 0.0000 0.0000 0.0000 0.0000 0.0000 0.0000 0.0000 0.0000 0.0000 0.0000 0.0000 0.0000 0.0000 0.0000 0.0000 0.0000 0.0000 0.0000 0.0000 0.0000 0.0000 0.0000 -72.8326 15.2561 20.5795 -0.5423 2.2658 -2.7682 20.7022 8.4669 -49.2832 81.0905 -15.1921 -15.4253 19.8645 0.0000 0.0000 36.3541 0.0000 0.0000 16.8940 23.2926 -65.7150 41.4139 0.0000 0.0000 4.8134 0.0000 0.0000 30.1633 25.0244 -83.7158 28.2324 0.0000 0.0000 2.8173 0.0000 0.0000 37.1424 20.3752 -96.4595 27.8623 0.0000 0.0000 3.1240 0.0000 0.0000 39.7885 4.7595 -110.8766 24.6710 0.0000 0.0000 4.4314 0.0000 0.0000 0.0000 0.0000 0.0000 75.3687 -23.7984 30.5172 -159.4815 67.6707 -74.1792 302.2231 29.8055 -79.8120 -55.7586 -11.1137 -4.9717 8.8024 0.0000 0.0000 2.2967 0.0000 0.0000 13.7213 0.5673 -0.7662 5.3671 0.0000 0.0000 3.1906 0.0000 0.0000 3.5175 0.2393 -3.0096 6.0464 0.0000 0.0000 1.2257 0.0000 0.0000 -3.1174 0.0865 -2.3092 3.4849 0.0000 0.0000 2.5030 0.0000 0.0000 -11.1533 -0.6625 -0.8506 1.9254 0.0000 0.0000 3.8800 0.0000 0.0000 0.0000 0.0000 0.0000 0.0000 0.0000 0.0000 0.0000 0.0000 0.0000 0.0000 0.0000 0.0000 0.0000 0.0000 0.0000 0.0000 0.0000 0.0000
0.0000 95.0000 0.0000 0.0000 0.0000 0.0000 0.0000 0.0000 0.0000 0.0000 0.0000 0.0000 0.0000 0.0000 0.0000 0.0000 0.0000 0.0000 0.0000 0.0000 0.0000 0.0000 0.0000 0.0000 -72.5984 15.5244 21.0257 -0.7229 2.5419 -3.0779 18.3366 8.3036 -44.5177 82.5341 -15.1366 -16.8236 17.7624 0.0000 0.0000 39.9656 0.0000 0.0000 13.8088 21.1427 -65.1251 49.9532 0.0000 0.0000 4.9739 0.0000 0.0000 28.9020 25.0618 -86.3247 32.8728 0.0000 0.0000 3.2614 0.0000 0.0000 36.0082 20.8315 -100.9224 30.9366 0.0000 0.0000 3.5428 0.0000 0.0000 38.2008 3.3304 -116.5436 26.9893 0.0000 0.0000 4.9733 0.0000 0.0000 0.0000 0.0000 0.0000 75.3645 -23.8160 30.5415 -158.3176 68.4805 -73.6010 301.2137 29.4693 -79.9253 -56.1036 -11.1975 -4.9255 9.1309 0.0000 0.0000 2.4899 0.0000 0.0000 13.7914 0.5597 -0.9545 4.9528 0.0000 0.0000 3.1815 0.0000 0.0000 3.4407 0.2331 -2.9777 5.6878 0.0000 0.0000 1.3706 0.0000 0.0000 -3.1999 0.0844 -2.3464 3.0030 0.0000 0.0000 2.5444 0.0000 0.0000 -11.6042 -0.6951 -0.8696 2.1234 0.0000 0.0000 3.8297 0.0000 0.0000 0.0000 0.0000 0.0000 0.0000 0.0000 0.0000 0.0000 0.0000 0.0000 0.0000 0.0000 0.0000 0.0000 0.0000 0.0000 0.0000 0.0000 0.0000
0.0000 95.0000 0.0000 0.0000 0.0000 0.0000 0.0000 0.0000 0.0000 0.0000 0.0000 0.0000 0.0000 0.0000 0.0000 0.0000 0.0000 0.0000 0.0000 0.0000 0.0000 0.0000 0.0000 0.0000 -72.5454 15.6877 21.2646 -0.9131 2.8326 -3.3999 16.4493 7.8901 -40.4827 83.2298 -15.0688 -17.8340 15.4291 0.0000 0.0000 43.7074 0.0000 0.0000 8.9267 17.3958 -62.7922 60.2813 0.0000 0.0000 5.1257 0.0000 0.0000 26.0422 23.3229 -88.2676 38.5859 0.0000 0.0000 3.7794 0.0000 0.0000 33.6425 19.6649 -105.0025 34.4522 0.0000 0.0000 4.0436 0.0000 0.0000 35.7759 0.1849 -121.3525 29.5532 0.0000 0.0000 5.6030 0.0000 0.0000 0.0000 0.0000 0.0000 75.2549 -23.8237 30.6089 -156.6771 69.4957 -72.6536 299.6937 27.6685 -78.7051 -55.9505 -11.3171 -3.9355 10.1265 0.0000 0.0000 4.7163 0.0000 0.0000 15.2788 0.6181 -1.3789 4.8594 0.0000 0.0000 4.1546 0.0000 0.0000 5.4257 0.4177 -4.0267 6.4582 0.0000 0.0000 1.9989 0.0000 0.0000 -1.7093 0.3074 -3.2062 3.9466 0.0000 0.0000 1.9039 0.0000 0.0000 -9.9025 -0.4685 -1.2803 1.6459 0.0000 0.0000 3.0756 0.0000 0.0000 0.0000 0.0000 0.0000 0.0000 0.0000 0.0000 0.0000 0.0000 0.0000 0.0000 0.0000 0.0000 0.0000 0.0000 0.0000 0.0000 0.0000 0.0000
0.0000 95.0000 0.0000 0.0000 0.0000 0.0000 0.0000 0.0000 0.0000 0.0000 0.0000 0.0000 0.0000 0.0000 0.0000 0.0000 0.0000 0.0000 0.0000 0.0000 0.0000 0.0000 0.0000 0.0000 -72.5049 15.9737 21.6638 -1.2036 2.8788 -3.3549 14.7389 7.7155 -37.6940 83.2949 -15.0140 -18.4849 13.0196 0.0000 0.0000 47.4303 0.0000 0.0000 2.9948 12.8075 -58.1913 72.0340 0.0000 0.0000 5.2676 0.0000 0.0000 22.0083 19.8761 -88.8121 45.7163 0.0000 0.0000 4.3849 0.0000 0.0000 30.4876 17.0026 -108.2966 38.5346 0.0000 0.0000 4.6320 0.0000 0.0000 32.8657 -4.3650 -125.0365 32.4340 0.0000 0.0000 6.3254 0.0000 0.0000 0.0000 0.0000 0.0000 75.2284 -23.5537 30.2821 -153.1221 72.3159 -70.4756 297.9664 25.7262 -76.1134 -54.9646 -11.0929 -4.0216 8.5475 0.0000 0.0000 3.6313 0.0000 0.0000 15.7246 0.6737 -0.6585 5.4646 0.0000 0.0000 3.1326 0.0000 0.0000 5.4718 0.3666 -2.8882 5.6445 0.0000 0.0000 1.1506 0.0000 0.0000 -1.2004 0.2766 -2.6402 2.2659 0.0000 0.0000 3.8312 0.0000 0.0000 -6.8375 -0.1084 -1.6787 4.1380 0.0000 0.0000 4.3534 0.0000 0.0000 0.0000 0.0000 0.0000 0.0000 0.0000 0.0000 0.0000 0.0000 0.0000 0.0000 0.0000 0.0000 0.0000 0.0000 0.0000 0.0000 0.0000 0.0000
0.0000 95.0000 0.0000 0.0000 0.0000 0.0000 0.0000 0.0000 0.0000 0.0000 0.0000 0.0000 0.0000 0.0000 0.0000 0.0000 0.0000 0.0000 0.0000 0.0000 0.0000 0.0000 0.0000 0.0000 -73.1046 15.4470 20.7335 -1.5020 3.0604 -3.4984 14.1801 6.6678 -34.0088 82.8487 -14.9809 -18.8178 10.8032 0.0000 0.0000 50.9250 0.0000 0.0000 -3.1757 8.4402 -51.6166 84.1980 0.0000 0.0000 5.3987 0.0000 0.0000 17.0993 14.9809 -87.1167 54.6512 0.0000 0.0000 5.0933 0.0000 0.0000 26.8432 13.0198 -110.3764 43.3557 0.0000 0.0000 5.3132 0.0000 0.0000 29.6040 -9.9928 -127.3462 35.7349 0.0000 0.0000 7.1443 0.0000 0.0000 0.0000 0.0000 0.0000 75.4402 -22.8952 29.3431 -148.6188 77.2866 -67.8158 298.3725 21.7948 -70.2892 -52.9108 -10.5072 -4.8067 3.3835 0.0000 0.0000 1.7706 0.0000 0.0000 15.4451 0.6248 -1.4376 21.7097 0.0000 0.0000 21.0915 0.0000 0.0000 8.2298 0.6610 -4.3972 39.5382 0.0000 0.0000 51.7007 0.0000 0.0000 3.7620 1.1646 -5.4317 32.7906 0.0000 0.0000 35.3571 0.0000 0.0000 -0.2701 1.4839 -4.9128 24.5673 0.0000 0.0000 20.0968 0.0000 0.0000 0.0000 0.0000 0.0000 0.0000 0.0000 0.0000 0.0000 0.0000 0.0000 0.0000 0.0000 0.0000 0.0000 0.0000 0.0000 0.0000 0.0000 0.0000
0.0000 95.0000 0.0000 0.0000 0.0000 0.0000 0.0000 0.0000 0.0000 0.0000 0.0000 0.0000 0.0000 0.0000 0.0000 0.0000 0.0000 0.0000 0.0000 0.0000 0.0000 0.0000 0.0000 0.0000 -72.9690 15.5449 20.9142 -2.0435 3.8884 -4.4545 13.4955 5.4774 -30.9411 81.9994 -14.9681 -18.8776 9.1875 0.0000 0.0000 53.9256 0.0000 0.0000 -8.8113 5.1014 -44.1500 95.4587 0.0000 0.0000 5.5184 0.0000 0.0000 11.4626 9.2358 -82.4254 65.6667 0.0000 0.0000 5.9218 0.0000 0.0000 22.8314 7.9513 -110.7964 49.1493 0.0000 0.0000 6.0919 0.0000 0.0000 25.9148 -16.3776 -127.9895 39.6075 0.0000 0.0000 8.0622 0.0000 0.0000 0.0000 0.0000 0.0000 75.2695 -22.0296 28.3354 -117.4322 84.4473 -40.2389 296.1640 17.3749 -71.8929 -56.7907 -11.2407 -5.6628 4.2806 0.0000 0.0000 4.7889 0.0000 0.0000 10.1521 0.6445 2.0729 110.2396 0.0000 0.0000 36.8434 0.0000 0.0000 3.9643 -0.2391 11.6727 125.4097 0.0000 0.0000 16.1754 0.0000 0.0000 -3.6916 -2.4250 20.5203 118.7968 0.0000 0.0000 12.3352 0.0000 0.0000 -13.8826 -8.5167 41.2800 98.1804 0.0000 0.0000 12.0678 0.0000 0.0000 0.0000 0.0000 0.0000 0.0000 0.0000 0.0000 0.0000 0.0000 0.0000 0.0000 0.0000 0.0000 0.0000 0.0000 0.0000 0.0000 0.0000 0.0000
0.0000 95.0000 0.0000 0.0000 0.0000 0.0000 0.0000 0.0000 0.0000 0.0000 0.0000 0.0000 0.0000 0.0000 0.0000 0.0000 0.0000 0.0000 0.0000 0.0000 0.0000 0.0000 0.0000 0.0000 -72.5746 15.5852 21.1161 -3.1730 4.7098 -5.2864 13.8377 4.8026 -29.2086 81.4530 -14.9671 -18.8191 8.7485 0.0000 0.0000 55.1450 0.0000 0.0000 -11.2567 3.8937 -40.4662 100.4275 0.0000 0.0000 5.5741 0.0000 0.0000 8.4092 6.3491 -78.8361 71.9289 0.0000 0.0000 6.3870 0.0000 0.0000 20.6759 5.1071 -110.2311 52.5034 0.0000 0.0000 6.5192 0.0000 0.0000 23.8280 -19.7505 -127.5572 41.8254 0.0000 0.0000 8.5589 0.0000 0.0000 0.0000 0.0000 0.0000 75.5817 -21.1423 27.0644 -23.8892 81.7608 47.9337 283.1790 13.5432 -79.0847 -59.0433 -12.1275 -2.6956 8.3433 0.0000 0.0000 2.1193 0.0000 0.0000 4.5011 2.0128 12.8073 119.3638 0.0000 0.0000 20.0089 0.0000 0.0000 -7.7474 2.4344 39.6148 107.7899 0.0000 0.0000 8.5012 0.0000 0.0000 -12.4120 -1.9445 39.2419 112.2607 0.0000 0.0000 8.0586 0.0000 0.0000 -25.7620 -5.5422 48.8822 95.1865 0.0000 0.0000 11.7412 0.0000 0.0000 0.0000 0.0000 0.0000 0.0000 0.0000 0.0000 0.0000 0.0000 0.0000 0.0000 0.0000 0.0000 0.0000 0.0000 0.0000 0.0000 0.0000 0.0000
0.0000 95.0000 0.0000 0.0000 0.0000 0.0000 0.0000 0.0000 0.0000 0.0000 0.0000 0.0000 0.0000 0.0000 0.0000 0.0000 0.0000 0.0000 0.0000 0.0000 0.0000 0.0000 0.0000 0.0000 -74.4638 13.6250 17.8682 -2.9385 5.0179 -5.8140 14.6126 1.7243 -24.1443 80.1675 -14.9703 -18.5511 8.7475 0.0000 0.0000 56.8153 0.0000 0.0000 -15.2826 2.2668 -33.7165 108.7679 0.0000 0.0000 5.6780 0.0000 0.0000 2.0495 1.2976 -69.4455 85.4847 0.0000 0.0000 7.4322 0.0000 0.0000 15.9543 -0.9261 -107.1991 60.3458 0.0000 0.0000 7.4518 0.0000 0.0000 18.8710 -26.6100 -124.7819 47.0169 0.0000 0.0000 9.6275 0.0000 0.0000 0.0000 0.0000 0.0000 77.3634 -19.4148 24.1216 0.8742 67.9095 63.5816 265.4361 5.0683 -80.8819 -59.0433 -12.1275 -2.6956 8.3433 0.0000 0.0000 2.1193 0.0000 0.0000 4.5011 2.0128 12.8073 119.3638 0.0000 0.0000 20.0089 0.0000 0.0000 -7.7474 2.4344 39.6148 107.7899 0.0000 0.0000 8.5012 0.0000 0.0000 -12.4120 -1.9445 39.2419 112.2607 0.0000 0.0000 8.0586 0.0000 0.0000 -25.7620 -5.5422 48.8822 95.1865 0.0000 0.0000 11.7412 0.0000 0.0000 0.0000 0.0000 0.0000 0.0000 0.0000 0.0000 0.0000 0.0000 0.0000 0.0000 0.0000 0.0000 0.0000 0.0000 0.0000 0.0000 0.0000 0.0000
0.0000 95.0000 0.0000 0.0000 0.0000 0.0000 0.0000 0.0000 0.0000 0.0000 0.0000 0.0000 0.0000 0.0000 0.0000 0.0000 0.0000 0.0000 0.0000 0.0000 0.0000 0.0000 0.0000 0.0000 -77.6976 8.3626 10.3729 -3.0491 2.5139 -2.6823 17.8404 -0.6535 -20.4067 80.1675 -14.9703 -18.5511 8.7475 0.0000 0.0000 56.8153 0.0000 0.0000 -15.2826 2.2668 -33.7165 108.7679 0.0000 0.0000 5.6780 0.0000 0.0000 2.0495 1.2976 -69.4455 85.4847 0.0000 0.0000 7.4322 0.0000 0.0000 15.9543 -0.9261 -107.1991 60.3458 0.0000 0.0000 7.4518 0.0000 0.0000 18.8710 -26.6100 -124.7819 47.0169 0.0000 0.0000 9.6275 0.0000 0.0000 0.0000 0.0000 0.0000 80.2552 -15.8806 18.7917 8.9551 47.4997 55.7658 238.0075 -6.0069 -73.3129 -59.0433 -12.1275 -2.6956 8.3433 0.0000 0.0000 2.1193 0.0000 0.0000 4.5011 2.0128 12.8073 119.3638 0.0000 0.0000 20.0089 0.0000 0.0000 -7.7474 2.4344 39.6148 107.7899 0.0000 0.0000 8.5012 0.0000 0.0000 -12.4120 -1.9445 39.2419 112.2607 0.0000 0.0000 8.0586 0.0000 0.0000 -25.7620 -5.5422 48.8822 95.1865 0.0000 0.0000 11.7412 0.0000 0.0000 0.0000 0.0000 0.0000 0.0000 0.0000 0.0000 0.0000 0.0000 0.0000 0.0000 0.0000 0.0000 0.0000 0.0000 0.0000 0.0000 0.0000 0.0000
0.0000 95.0000 0.0000 0.0000 0.0000 0.0000 0.0000 0.0000 0.0000 0.0000 0.0000 0.0000 0.0000 0.0000 0.0000 0.0000 0.0000 0.0000 0.0000 0.0000 0.0000 0.0000 0.0000 0.0000 -79.0206 4.9588 6.0115 -4.4066 0.1390 0.3118 20.3487 -1.0684 -19.2889 80.1675 -14.9703 -18.5511 8.7475 0.0000 0.0000 56.8153 0.0000 0.0000 -15.2826 2.2668 -33.7165 108.7679 0.0000 0.0000 5.6780 0.0000 0.0000 2.0495 1.2976 -69.4455 85.4847 0.0000 0.0000 7.4322 0.0000 0.0000 15.9543 -0.9261 -107.1991 60.3458 0.0000 0.0000 7.4518 0.0000 0.0000 18.8710 -26.6100 -124.7819 47.0169 0.0000 0.0000 9.6275 0.0000 0.0000 0.0000 0.0000 0.0000 83.2117 -10.5690 11.8927 12.0991 26.1719 36.0892 204.0642 -6.3246 -51.2724 -59.0433 -12.1275 -2.6956 8.3433 0.0000 0.0000 2.1193 0.0000 0.0000 4.5011 2.0128 12.8073 119.3638 0.0000 0.0000 20.0089 0.0000 0.0000 -7.7474 2.4344 39.6148 107.7899 0.0000 0.0000 8.5012 0.0000 0.0000 -12.4120 -1.9445 39.2419 112.2607 0.0000 0.0000 8.0586 0.0000 0.0000 -25.7620 -5.5422 48.8822 95.1865 0.0000 0.0000 11.7412 0.0000 0.0000 0.0000 0.0000 0.0000 0.0000 0.0000 0.0000 0.0000 0.0000 0.0000 0.0000 0.0000 0.0000 0.0000 0.0000 0.0000 0.0000 0.0000 0.0000
0.0000 95.0000 0.0000 0.0000 0.0000 0.0000 0.0000 0.0000 0.0000 0.0000 0.0000 0.0000 0.0000 0.0000 0.0000 0.0000 0.0000 0.0000 0.0000 0.0000 0.0000 0.0000 0.0000 0.0000 -79.1044 4.4749 5.4171 -6.3511 -1.8126 3.1006 21.5841 1.1599 -21.3432 80.1675 -14.9703 -18.5511 8.7475 0.0000 0.0000 56.8153 0.0000 0.0000 -15.2826 2.2668 -33.7165 108.7679 0.0000 0.0000 5.6780 0.0000 0.0000 2.0495 1.2976 -69.4455 85.4847 0.0000 0.0000 7.4322 0.0000 0.0000 15.9543 -0.9261 -107.1991 60.3458 0.0000 0.0000 7.4518 0.0000 0.0000 18.8710 -26.6100 -124.7819 47.0169 0.0000 0.0000 9.6275 0.0000 0.0000 0.0000 0.0000 0.0000 84.9048 -6.9128 7.5549 8.5246 13.5653 17.9530 188.3581 6.2791 -33.1222 -59.0433 -12.1275 -2.6956 8.3433 0.0000 0.0000 2.1193 0.0000 0.0000 4.5011 2.0128 12.8073 119.3638 0.0000 0.0000 20.0089 0.0000 0.0000 -7.7474 2.4344 39.6148 107.7899 0.0000 0.0000 8.5012 0.0000 0.0000 -12.4120 -1.9445 39.2419 112.2607 0.0000 0.0000 8.0586 0.0000 0.0000 -25.7620 -5.5422 48.8822 95.1865 0.0000 0.0000 11.7412 0.0000 0.0000 0.0000 0.0000 0.0000 0.0000 0.0000 0.0000 0.0000 0.0000 0.0000 0.0000 0.0000 0.0000 0.0000 0.0000 0.0000 0.0000 0.0000 0.0000
0.0000 95.0000 0.0000 0.0000 0.0000 0.0000 0.0000 0.0000 0.0000 0.0000 0.0000 0.0000 0.0000 0.0000 0.0000 0.0000 0.0000 0.0000 0.0000 0.0000 0.0000 0.0000 0.0000 0.0000 -79.2713 4.0530 4.8921 -7.4096 -2.8426 4.5960 22.3613 2.2254 -22.2288 80.1675 -14.9703 -18.5511 8.7475 0.0000 0.0000 56.8153 0.0000 0.0000 -15.2826 2.2668 -33.7165 108.7679 0.0000 0.0000 5.6780 0.0000 0.0000 2.0495 1.2976 -69.4455 85.4847 0.0000 0.0000 7.4322 0.0000 0.0000 15.9543 -0.9261 -107.1991 60.3458 0.0000 0.0000 7.4518 0.0000 0.0000 18.8710 -26.6100 -124.7819 47.0169 0.0000 0.0000 9.6275 0.0000 0.0000 0.0000 0.0000 0.0000 85.7843 -4.6281 4.9813 4.8477 10.1328 12.1638 186.7162 13.1495 -26.0266 -59.0433 -12.1275 -2.6956 8.3433 0.0000 0.0000 2.1193 0.0000 0.0000 4.5011 2.0128 12.8073 119.3638 0.0000 0.0000 20.0089 0.0000 0.0000 -7.7474 2.4344 39.6148 107.7899 0.0000 0.0000 8.5012 0.0000 0.0000 -12.4120 -1.9445 39.2419 112.2607 0.0000 0.0000 8.0586 0.0000 0.0000 -25.7620 -5.5422 48.8822 95.1865 0.0000 0.0000 11.7412 0.0000 0.0000 0.0000 0.0000 0.0000 0.0000 0.0000 0.0000 0.0000 0.0000 0.0000 0.0000 0.0000 0.0000 0.0000 0.0000 0.0000 0.0000 0.0000 0.0000
0.0000 95.0000 0.0000 0.0000 0.0000 0.0000 0.0000 0.0000 0.0000 0.0000 0.0000 0.0000 0.0000 0.0000 0.0000 0.0000 0.0000 0.0000 0.0000 0.0000 0.0000 0.0000 0.0000 0.0000 -79.2036 3.7448 4.5256 -8.6181 -3.9831 6.3508 22.8877 3.5670 -23.4446 80.1675 -14.9703 -18.5511 8.7475 0.0000 0.0000 56.8153 0.0000 0.0000 -15.2826 2.2668 -33.7165 108.7679 0.0000 0.0000 5.6780 0.0000 0.0000 2.0495 1.2976 -69.4455 85.4847 0.0000 0.0000 7.4322 0.0000 0.0000 15.9543 -0.9261 -107.1991 60.3458 0.0000 0.0000 7.4518 0.0000 0.0000 18.8710 -26.6100 -124.7819 47.0169 0.0000 0.0000 9.6275 0.0000 0.0000 0.0000 0.0000 0.0000 86.4634 -2.8181 2.9976 2.2605 8.5352 9.5119 186.6885 17.2847 -21.7591 -59.0433 -12.1275 -2.6956 8.3433 0.0000 0.0000 2.1193 0.0000 0.0000 4.5011 2.0128 12.8073 119.3638 0.0000 0.0000 20.0089 0.0000 0.0000 -7.7474 2.4344 39.6148 107.7899 0.0000 0.0000 8.5012 0.0000 0.0000 -12.4120 -1.9445 39.2419 112.2607 0.0000 0.0000 8.0586 0.0000 0.0000 -25.7620 -5.5422 48.8822 95.1865 0.0000 0.0000 11.7412 0.0000 0.0000 0.0000 0.0000 0.0000 0.0000 0.0000 0.0000 0.0000 0.0000 0.0000 0.0000 0.0000 0.0000 0.0000 0.0000 0.0000 0.0000 0.0000 0.0000
0.0000 95.0000 0.0000 0.0000 0.0000 0.0000 0.0000 0.0000 0.0000 0.0000 0.0000 0.0000 0.0000 0.0000 0.0000 0.0000 0.0000 0.0000 0.0000 0.0000 0.0000 0.0000 0.0000 0.0000 -78.9501 3.6351 4.4129 -9.9334 -4.8558 7.8796 23.3274 4.8870 -24.6376 80.1675 -14.9703 -18.5511 8.7475 0.0000 0.0000 56.8153 0.0000 0.0000 -15.2826 2.2668 -33.7165 108.7679 0.0000 0.0000 5.6780 0.0000 0.0000 2.0495 1.2976 -69.4455 85.4847 0.0000 0.0000 7.4322 0.0000 0.0000 15.9543 -0.9261 -107.1991 60.3458 0.0000 0.0000 7.4518 0.0000 0.0000 18.8710 -26.6100 -124.7819 47.0169 0.0000 0.0000 9.6275 0.0000 0.0000 0.0000 0.0000 0.0000 87.1243 -1.9770 2.0788 0.6083 7.7717 8.2541 186.8873 19.2481 -19.6813 -59.0433 -12.1275 -2.6956 8.3433 0.0000 0.0000 2.1193 0.0000 0.0000 4.5011 2.0128 12.8073 119.3638 0.0000 0.0000 20.0089 0.0000 0.0000 -7.7474 2.4344 39.6148 107.7899 0.0000 0.0000 8.5012 0.0000 0.0000 -12.4120 -1.9445 39.2419 112.2607 0.0000 0.0000 8.0586 0.0000 0.0000 -25.7620 -5.5422 48.8822 95.1865 0.0000 0.0000 11.7412 0.0000 0.0000 0.0000 0.0000 0.0000 0.0000 0.0000 0.0000 0.0000 0.0000 0.0000 0.0000 0.0000 0.0000 0.0000 0.0000 0.0000 0.0000 0.0000 0.0000
0.0000 95.0000 0.0000 0.0000 0.0000 0.0000 0.0000 0.0000 0.0000 0.0000 0.0000 0.0000 0.0000 0.0000 0.0000 0.0000 0.0000 0.0000 0.0000 0.0000 0.0000 0.0000 0.0000 0.0000 -79.1394 3.4408 4.1631 -10.0995 -5.0128 8.0711 23.6454 4.9466 -24.5894 80.1675 -14.9703 -18.5511 8.7475 0.0000 0.0000 56.8153 0.0000 0.0000 -15.2826 2.2668 -33.7165 108.7679 0.0000 0.0000 5.6780 0.0000 0.0000 2.0495 1.2976 -69.4455 85.4847 0.0000 0.0000 7.4322 0.0000 0.0000 15.9543 -0.9261 -107.1991 60.3458 0.0000 0.0000 7.4518 0.0000 0.0000 18.8710 -26.6100 -124.7819 47.0169 0.0000 0.0000 9.6275 0.0000 0.0000 0.0000 0.0000 0.0000 87.7130 -1.8264 1.9008 -0.6680 8.9376 9.1425 188.0472 18.6790 -20.1070 -59.0433 -12.1275 -2.6956 8.3433 0.0000 0.0000 2.1193 0.0000 0.0000 4.5011 2.0128 12.8073 119.3638 0.0000 0.0000 20.0089 0.0000 0.0000 -7.7474 2.4344 39.6148 107.7899 0.0000 0.0000 8.5012 0.0000 0.0000 -12.4120 -1.9445 39.2419 112.2607 0.0000 0.0000 8.0586 0.0000 0.0000 -25.7620 -5.5422 48.8822 95.1865 0.0000 0.0000 11.7412 0.0000 0.0000 0.0000 0.0000 0.0000 0.0000 0.0000 0.0000 0.0000 0.0000 0.0000 0.0000 0.0000 0.0000 0.0000 0.0000 0.0000 0.0000 0.0000 0.0000
0.0000 95.0000 0.0000 0.0000 0.0000 0.0000 0.0000 0.0000 0.0000 0.0000 0.0000 0.0000 0.0000 0.0000 0.0000 0.0000 0.0000 0.0000 0.0000 0.0000 0.0000 0.0000 0.0000 0.0000 -79.1230 3.2503 3.9339 -10.6481 -5.0528 8.2117 24.1681 5.0113 -24.4771 80.1675 -14.9703 -18.5511 8.7475 0.0000 0.0000 56.8153 0.0000 0.0000 -15.2826 2.2668 -33.7165 108.7679 0.0000 0.0000 5.6780 0.0000 0.0000 2.0495 1.2976 -69.4455 85.4847 0.0000 0.0000 7.4322 0.0000 0.0000 15.9543 -0.9261 -107.1991 60.3458 0.0000 0.0000 7.4518 0.0000 0.0000 18.8710 -26.6100 -124.7819 47.0169 0.0000 0.0000 9.6275 0.0000 0.0000 0.0000 0.0000 0.0000 88.1997 -1.9921 2.0556 -1.5457 9.3320 9.2865 188.6334 18.3991 -20.3213 -59.0433 -12.1275 -2.6956 8.3433 0.0000 0.0000 2.1193 0.0000 0.0000 4.5011 2.0128 12.8073 119.3638 0.0000 0.0000 20.0089 0.0000 0.0000 -7.7474 2.4344 39.6148 107.7899 0.0000 0.0000 8.5012 0.0000 0.0000 -12.4120 -1.9445 39.2419 112.2607 0.0000 0.0000 8.0586 0.0000 0.0000 -25.7620 -5.5422 48.8822 95.1865 0.0000 0.0000 11.7412 0.0000 0.0000 0.0000 0.0000 0.0000 0.0000 0.0000 0.0000 0.0000 0.0000 0.0000 0.0000 0.0000 0.0000 0.0000 0.0000 0.0000 0.0000 0.0000 0.0000
0.0000 95.0000 0.0000 0.0000 0.0000 0.0000 0.0000 0.0000 0.0000 0.0000 0.0000 0.0000 0.0000 0.0000 0.0000 0.0000 0.0000 0.0000 0.0000 0.0000 0.0000 0.0000 0.0000 0.0000 -79.1240 2.8756 3.4803 -11.0718 -5.3175 8.6020 24.5369 5.0538 -24.3952 80.1675 -14.9703 -18.5511 8.7475 0.0000 0.0000 56.8153 0.0000 0.0000 -15.2826 2.2668 -33.7165 108.7679 0.0000 0.0000 5.6780 0.0000 0.0000 2.0495 1.2976 -69.4455 85.4847 0.0000 0.0000 7.4322 0.0000 0.0000 15.9543 -0.9261 -107.1991 60.3458 0.0000 0.0000 7.4518 0.0000 0.0000 18.8710 -26.6100 -124.7819 47.0169 0.0000 0.0000 9.6275 0.0000 0.0000 0.0000 0.0000 0.0000 88.6066 -2.2054 2.2597 -2.1005 9.8152 9.5756 189.0534 17.9165 -20.7839 -59.0433 -12.1275 -2.6956 8.3433 0.0000 0.0000 2.1193 0.0000 0.0000 4.5011 2.0128 12.8073 119.3638 0.0000 0.0000 20.0089 0.0000 0.0000 -7.7474 2.4344 39.6148 107.7899 0.0000 0.0000 8.5012 0.0000 0.0000 -12.4120 -1.9445 39.2419 112.2607 0.0000 0.0000 8.0586 0.0000 0.0000 -25.7620 -5.5422 48.8822 95.1865 0.0000 0.0000 11.7412 0.0000 0.0000 0.0000 0.0000 0.0000 0.0000 0.0000 0.0000 0.0000 0.0000 0.0000 0.0000 0.0000 0.0000 0.0000 0.0000 0.0000 0.0000 0.0000 0.0000
0.0000 95.0000 0.0000 0.0000 0.0000 0.0000 0.0000 0.0000 0.0000 0.0000 0.0000 0.0000 0.0000 0.0000 0.0000 0.0000 0.0000 0.0000 0.0000 0.0000 0.0000 0.0000 0.0000 0.0000 -79.1225 2.7787 3.3633 -11.3716 -5.2493 8.5447 24.8862 4.9985 -24.2240 80.1675 -14.9703 -18.5511 8.7475 0.0000 0.0000 56.8153 0.0000 0.0000 -15.2826 2.2668 -33.7165 108.7679 0.0000 0.0000 5.6780 0.0000 0.0000 2.0495 1.2976 -69.4455 85.4847 0.0000 0.0000 7.4322 0.0000 0.0000 15.9543 -0.9261 -107.1991 60.3458 0.0000 0.0000 7.4518 0.0000 0.0000 18.8710 -26.6100 -124.7819 47.0169 0.0000 0.0000 9.6275 0.0000 0.0000 0.0000 0.0000 0.0000 88.9971 -1.8986 1.9321 -2.7218 9.8060 9.3968 189.1350 18.3403 -20.3121 -59.0433 -12.1275 -2.6956 8.3433 0.0000 0.0000 2.1193 0.0000 0.0000 4.5011 2.0128 12.8073 119.3638 0.0000 0.0000 20.0089 0.0000 0.0000 -7.7474 2.4344 39.6148 107.7899 0.0000 0.0000 8.5012 0.0000 0.0000 -12.4120 -1.9445 39.2419 112.2607 0.0000 0.0000 8.0586 0.0000 0.0000 -25.7620 -5.5422 48.8822 95.1865 0.0000 0.0000 11.7412 0.0000 0.0000 0.0000 0.0000 0.0000 0.0000 0.0000 0.0000 0.0000 0.0000 0.0000 0.0000 0.0000 0.0000 0.0000 0.0000 0.0000 0.0000 0.0000 0.0000
0.0000 95.0000 0.0000 0.0000 0.0000 0.0000 0.0000 0.0000 0.0000 0.0000 0.0000 0.0000 0.0000 0.0000 0.0000 0.0000 0.0000 0.0000 0.0000 0.0000 0.0000 0.0000 0.0000 0.0000 -79.1183 3.1337 3.7930 -11.3531 -5.1019 8.4157 24.8020 5.2424 -24.4916 80.1675 -14.9703 -18.5511 8.7475 0.0000 0.0000 56.8153 0.0000 0.0000 -15.2826 2.2668 -33.7165 108.7679 0.0000 0.0000 5.6780 0.0000 0.0000 2.0495 1.2976 -69.4455 85.4847 0.0000 0.0000 7.4322 0.0000 0.0000 15.9543 -0.9261 -107.1991 60.3458 0.0000 0.0000 7.4518 0.0000 0.0000 18.8710 -26.6100 -124.7819 47.0169 0.0000 0.0000 9.6275 0.0000 0.0000 0.0000 0.0000 0.0000 89.3243 -1.5703 1.5889 -3.1447 10.3087 9.7643 189.3507 18.2964 -20.3285 -59.0433 -12.1275 -2.6956 8.3433 0.0000 0.0000 2.1193 0.0000 0.0000 4.5011 2.0128 12.8073 119.3638 0.0000 0.0000 20.0089 0.0000 0.0000 -7.7474 2.4344 39.6148 107.7899 0.0000 0.0000 8.5012 0.0000 0.0000 -12.4120 -1.9445 39.2419 112.2607 0.0000 0.0000 8.0586 0.0000 0.0000 -25.7620 -5.5422 48.8822 95.1865 0.0000 0.0000 11.7412 0.0000 0.0000 0.0000 0.0000 0.0000 0.0000 0.0000 0.0000 0.0000 0.0000 0.0000 0.0000 0.0000 0.0000 0.0000 0.0000 0.0000 0.0000 0.0000 0.0000
0.0000 95.0000 0.0000 0.0000 0.0000 0.0000 0.0000 0.0000 0.0000 0.0000 0.0000 0.0000 0.0000 0.0000 0.0000 0.0000 0.0000 0.0000 0.0000 0.0000 0.0000 0.0000 0.0000 0.0000 -79.2638 3.2691 3.9467 -11.2180 -4.7781 7.9221 24.9753 5.0141 -24.2097 80.1675 -14.9703 -18.5511 8.7475 0.0000 0.0000 56.8153 0.0000 0.0000 -15.2826 2.2668 -33.7165 108.7679 0.0000 0.0000 5.6780 0.0000 0.0000 2.0495 1.2976 -69.4455 85.4847 0.0000 0.0000 7.4322 0.0000 0.0000 15.9543 -0.9261 -107.1991 60.3458 0.0000 0.0000 7.4518 0.0000 0.0000 18.8710 -26.6100 -124.7819 47.0169 0.0000 0.0000 9.6275 0.0000 0.0000 0.0000 0.0000 0.0000 89.8385 -1.3379 1.3417 -3.6682 10.4567 9.7332 189.3129 18.4633 -20.1519 -59.0433 -12.1275 -2.6956 8.3433 0.0000 0.0000 2.1193 0.0000 0.0000 4.5011 2.0128 12.8073 119.3638 0.0000 0.0000 20.0089 0.0000 0.0000 -7.7474 2.4344 39.6148 107.7899 0.0000 0.0000 8.5012 0.0000 0.0000 -12.4120 -1.9445 39.2419 112.2607 0.0000 0.0000 8.0586 0.0000 0.0000 -25.7620 -5.5422 48.8822 95.1865 0.0000 0.0000 11.7412 0.0000 0.0000 0.0000 0.0000 0.0000 0.0000 0.0000 0.0000 0.0000 0.0000 0.0000 0.0000 0.0000 0.0000 0.0000 0.0000 0.0000 0.0000 0.0000 0.0000
0.0000 95.0000 0.0000 0.0000 0.0000 0.0000 0.0000 0.0000 0.0000 0.0000 0.0000 0.0000 0.0000 0.0000 0.0000 0.0000 0.0000 0.0000 0.0000 0.0000 0.0000 0.0000 0.0000 0.0000 -79.3516 3.3037 3.9822 -10.9812 -4.5609 7.5491 24.9742 4.7292 -23.9307 80.1675 -14.9703 -18.5511 8.7475 0.0000 0.0000 56.8153 0.0000 0.0000 -15.2826 2.2668 -33.7165 108.7679 0.0000 0.0000 5.6780 0.0000 0.0000 2.0495 1.2976 -69.4455 85.4847 0.0000 0.0000 7.4322 0.0000 0.0000 15.9543 -0.9261 -107.1991 60.3458 0.0000 0.0000 7.4518 0.0000 0.0000 18.8710 -26.6100 -124.7819 47.0169 0.0000 0.0000 9.6275 0.0000 0.0000 0.0000 0.0000 0.0000 89.9085 -1.3405 1.3426 -3.8340 10.7552 9.9681 189.5515 18.2583 -20.3411 -59.0433 -12.1275 -2.6956 8.3433 0.0000 0.0000 2.1193 0.0000 0.0000 4.5011 2.0128 12.8073 119.3638 0.0000 0.0000 20.0089 0.0000 0.0000 -7.7474 2.4344 39.6148 107.7899 0.0000 0.0000 8.5012 0.0000 0.0000 -12.4120 -1.9445 39.2419 112.2607 0.0000 0.0000 8.0586 0.0000 0.0000 -25.7620 -5.5422 48.8822 95.1865 0.0000 0.0000 11.7412 0.0000 0.0000 0.0000 0.0000 0.0000 0.0000 0.0000 0.0000 0.0000 0.0000 0.0000 0.0000 0.0000 0.0000 0.0000 0.0000 0.0000 0.0000 0.0000 0.0000
0.0000 95.0000 0.0000 0.0000 0.0000 0.0000 0.0000 0.0000 0.0000 0.0000 0.0000 0.0000 0.0000 0.0000 0.0000 0.0000 0.0000 0.0000 0.0000 0.0000 0.0000 0.0000 0.0000 0.0000 -79.1484 3.4885 4.2202 -11.1526 -4.6505 7.7937 24.7881 5.0776 -24.3344 80.1675 -14.9703 -18.5511 8.7475 0.0000 0.0000 56.8153 0.0000 0.0000 -15.2826 2.2668 -33.7165 108.7679 0.0000 0.0000 5.6780 0.0000 0.0000 2.0495 1.2976 -69.4455 85.4847 0.0000 0.0000 7.4322 0.0000 0.0000 15.9543 -0.9261 -107.1991 60.3458 0.0000 0.0000 7.4518 0.0000 0.0000 18.8710 -26.6100 -124.7819 47.0169 0.0000 0.0000 9.6275 0.0000 0.0000 0.0000 0.0000 0.0000 90.0155 -0.9962 0.9960 -3.8467 10.8563 10.0702 189.3942 18.4604 -20.1430 -59.0433 -12.1275 -2.6956 8.3433 0.0000 0.0000 2.1193 0.0000 0.0000 4.5011 2.0128 12.8073 119.3638 0.0000 0.0000 20.0089 0.0000 0.0000 -7.7474 2.4344 39.6148 107.7899 0.0000 0.0000 8.5012 0.0000 0.0000 -12.4120 -1.9445 39.2419 112.2607 0.0000 0.0000 8.0586 0.0000 0.0000 -25.7620 -5.5422 48.8822 95.1865 0.0000 0.0000 11.7412 0.0000 0.0000 0.0000 0.0000 0.0000 0.0000 0.0000 0.0000 0.0000 0.0000 0.0000 0.0000 0.0000 0.0000 0.0000 0.0000 0.0000 0.0000 0.0000 0.0000
0.0000 95.0000 0.0000 0.0000 0.0000 0.0000 0.0000 0.0000 0.0000 0.0000 0.0000 0.0000 0.0000 0.0000 0.0000 0.0000 0.0000 0.0000 0.0000 0.0000 0.0000 0.0000 0.0000 0.0000 -79.1460 3.3201 4.0167 -11.0220 -4.9230 8.1209 24.5715 5.1217 -24.4505 80.1675 -14.9703 -18.5511 8.7475 0.0000 0.0000 56.8153 0.0000 0.0000 -15.2826 2.2668 -33.7165 108.7679 0.0000 0.0000 5.6780 0.0000 0.0000 2.0495 1.2976 -69.4455 85.4847 0.0000 0.0000 7.4322 0.0000 0.0000 15.9543 -0.9261 -107.1991 60.3458 0.0000 0.0000 7.4518 0.0000 0.0000 18.8710 -26.6100 -124.7819 47.0169 0.0000 0.0000 9.6275 0.0000 0.0000 0.0000 0.0000 0.0000 90.0957 -0.8617 0.8602 -3.9440 10.9651 10.1501 189.4160 18.5059 -20.0900 -59.0433 -12.1275 -2.6956 8.3433 0.0000 0.0000 2.1193 0.0000 0.0000 4.5011 2.0128 12.8073 119.3638 0.0000 0.0000 20.0089 0.0000 0.0000 -7.7474 2.4344 39.6148 107.7899 0.0000 0.0000 8.5012 0.0000 0.0000 -12.4120 -1.9445 39.2419 112.2607 0.0000 0.0000 8.0586 0.0000 0.0000 -25.7620 -5.5422 48.8822 95.1865 0.0000 0.0000 11.7412 0.0000 0.0000 0.0000 0.0000 0.0000 0.0000 0.0000 0.0000 0.0000 0.0000 0.0000 0.0000 0.0000 0.0000 0.0000 0.0000 0.0000 0.0000 0.0000 0.0000
0.0000 95.0000 0.0000 0.0000 0.0000 0.0000 0.0000 0.0000 0.0000 0.0000 0.0000 0.0000 0.0000 0.0000 0.0000 0.0000 0.0000 0.0000 0.0000 0.0000 0.0000 0.0000 0.0000 0.0000 -79.1331 3.4013 4.1158 -10.6883 -4.9649 8.1278 24.2036 5.1103 -24.5635 80.1675 -14.9703 -18.5511 8.7475 0.0000 0.0000 56.8153 0.0000 0.0000 -15.2826 2.2668 -33.7165 108.7679 0.0000 0.0000 5.6780 0.0000 0.0000 2.0495 1.2976 -69.4455 85.4847 0.0000 0.0000 7.4322 0.0000 0.0000 15.9543 -0.9261 -107.1991 60.3458 0.0000 0.0000 7.4518 0.0000 0.0000 18.8710 -26.6100 -124.7819 47.0169 0.0000 0.0000 9.6275 0.0000 0.0000 0.0000 0.0000 0.0000 90.3079 -0.7478 0.7438 -4.1392 10.8973 10.0228 189.3084 18.6869 -19.9085 -59.0433 -12.1275 -2.6956 8.3433 0.0000 0.0000 2.1193 0.0000 0.0000 4.5011 2.0128 12.8073 119.3638 0.0000 0.0000 20.0089 0.0000 0.0000 -7.7474 2.4344 39.6148 107.7899 0.0000 0.0000 8.5012 0.0000 0.0000 -12.4120 -1.9445 39.2419 112.2607 0.0000 0.0000 8.0586 0.0000 0.0000 -25.7620 -5.5422 48.8822 95.1865 0.0000 0.0000 11.7412 0.0000 0.0000 0.0000 0.0000 0.0000 0.0000 0.0000 0.0000 0.0000 0.0000 0.0000 0.0000 0.0000 0.0000 0.0000 0.0000 0.0000 0.0000 0.0000 0.0000
0.0000 95.0000 0.0000 0.0000 0.0000 0.0000 0.0000 0.0000 0.0000 0.0000 0.0000 0.0000 0.0000 0.0000 0.0000 0.0000 0.0000 0.0000 0.0000 0.0000 0.0000 0.0000 0.0000 0.0000 -78.9347 3.4537 4.1939 -10.9394 -4.8066 7.9975 24.3047 5.0695 -24.4888 80.1675 -14.9703 -18.5511 8.7475 0.0000 0.0000 56.8153 0.0000 0.0000 -15.2826 2.2668 -33.7165 108.7679 0.0000 0.0000 5.6780 0.0000 0.0000 2.0495 1.2976 -69.4455 85.4847 0.0000 0.0000 7.4322 0.0000 0.0000 15.9543 -0.9261 -107.1991 60.3458 0.0000 0.0000 7.4518 0.0000 0.0000 18.8710 -26.6100 -124.7819 47.0169 0.0000 0.0000 9.6275 0.0000 0.0000 0.0000 0.0000 0.0000 90.3514 -0.7854 0.7806 -4.1486 11.1692 10.2612 189.4225 18.4288 -20.1734 -59.0433 -12.1275 -2.6956 8.3433 0.0000 0.0000 2.1193 0.0000 0.0000 4.5011 2.0128 12.8073 119.3638 0.0000 0.0000 20.0089 0.0000 0.0000 -7.7474 2.4344 39.6148 107.7899 0.0000 0.0000 8.5012 0.0000 0.0000 -12.4120 -1.9445 39.2419 112.2607 0.0000 0.0000 8.0586 0.0000 0.0000 -25.7620 -5.5422 48.8822 95.1865 0.0000 0.0000 11.7412 0.0000 0.0000 0.0000 0.0000 0.0000 0.0000 0.0000 0.0000 0.0000 0.0000 0.0000 0.0000 0.0000 0.0000 0.0000 0.0000 0.0000 0.0000 0.0000 0.0000
