HIERARCHY
ROOT Hips
{
  OFFSET 0.000000 95.000000 0.000000
  CHANNELS 6 Xposition Yposition Zposition Zrotation Xrotation Yrotation
  JOINT Spine
  {
    OFFSET 0.000000 10.000000 0.000000
    CHANNELS 3 Zrotation Xrotation Yrotation
    JOINT Spine1
    {
      OFFSET 0.000000 12.000000 0.000000
      CHANNELS 3 Zrotation Xrotation Yrotation
      JOINT Spine2
      {
        OFFSET 0.000000 12.000000 0.000000
        CHANNELS 3 Zrotation Xrotation Yrotation
        JOINT Neck
        {
          OFFSET 0.000000 10.000000 0.000000
          CHANNELS 3 Zrotation Xrotation Yrotation
          JOINT Head
          {
            OFFSET 0.000000 8.000000 0.000000
            CHANNELS 3 Zrotation Xrotation Yrotation
            End Site
            {
              OFFSET 0.000000 10.000000 0.000000
            }
          }
        }
        JOINT LeftShoulder
        {
          OFFSET 6.000000 8.000000 0.000000
          CHANNELS 3 Zrotation Xrotation Yrotation
          JOINT LeftArm
          {
            OFFSET 12.000000 0.000000 0.000000
            CHANNELS 3 Zrotation Xrotation Yrotation
            JOINT LeftForeArm
            {
              OFFSET 24.000000 0.000000 0.000000
              CHANNELS 3 Zrotation Xrotation Yrotation
              JOINT LeftHand
              {
                OFFSET 22.000000 0.000000 0.000000
                CHANNELS 3 Zrotation Xrotation Yrotation
                JOINT LeftHandThumb1
                {
                  OFFSET 1.800000 -1.400000 0.500000
                  CHANNELS 3 Zrotation Xrotation Yrotation
                  JOINT LeftHandThumb2
                  {
                    OFFSET 2.400000 0.000000 0.000000
                    CHANNELS 3 Zrotation Xrotation Yrotation
                    JOINT LeftHandThumb3
                    {
                      OFFSET 1.900000 0.000000 0.000000
                      CHANNELS 3 Zrotation Xrotation Yrotation
                      End Site
                      {
                        OFFSET 1.600000 0.000000 0.000000
                      }
                    }
                  }
                }
                JOINT LeftHandIndex1
                {
                  OFFSET 6.600000 1.200000 0.300000
                  CHANNELS 3 Zrotation Xrotation Yrotation
                  JOINT LeftHandIndex2
                  {
                    OFFSET 2.000000 0.000000 0.000000
                    CHANNELS 3 Zrotation Xrotation Yrotation
                    JOINT LeftHandIndex3
                    {
                      OFFSET 1.200000 0.000000 0.000000
                      CHANNELS 3 Zrotation Xrotation Yrotation
                      End Site
                      {
                        OFFSET 1.000000 0.000000 0.000000
                      }
                    }
                  }
                }
                JOINT LeftHandMiddle1
                {
                  OFFSET 7.200000 0.000000 0.300000
                  CHANNELS 3 Zrotation Xrotation Yrotation
                  JOINT LeftHandMiddle2
                  {
                    OFFSET 3.000000 0.000000 0.000000
                    CHANNELS 3 Zrotation Xrotation Yrotation
                    JOINT LeftHandMiddle3
                    {
                      OFFSET 2.000000 0.000000 0.000000
                      CHANNELS 3 Zrotation Xrotation Yrotation
                      End Site
                      {
                        OFFSET 1.600000 0.000000 0.000000
                      }
                    }
                  }
                }
                JOINT LeftHandRing1
                {
                  OFFSET 7.100000 -1.000000 0.400000
                  CHANNELS 3 Zrotation Xrotation Yrotation
                  JOINT LeftHandRing2
                  {
                    OFFSET 2.600000 0.000000 0.000000
                    CHANNELS 3 Zrotation Xrotation Yrotation
                    JOINT LeftHandRing3
                    {
                      OFFSET 1.600000 0.000000 0.000000
                      CHANNELS 3 Zrotation Xrotation Yrotation
                      End Site
                      {
                        OFFSET 1.300000 0.000000 0.000000
                      }
                    }
                  }
                }
                JOINT LeftHandPinky1
                {
                  OFFSET 6.500000 -2.000000 0.500000
                  CHANNELS 3 Zrotation Xrotation Yrotation
                  JOINT LeftHandPinky2
                  {
                    OFFSET 1.900000 0.000000 0.000000
                    CHANNELS 3 Zrotation Xrotation Yrotation
                    JOINT LeftHandPinky3
                    {
                      OFFSET 1.400000 0.000000 0.000000
                      CHANNELS 3 Zrotation Xrotation Yrotation
                      End Site
                      {
                        OFFSET 1.300000 0.000000 0.000000
                      }
                    }
                  }
                }
              }
            }
          }
        }
        JOINT RightShoulder
        {
          OFFSET -6.000000 8.000000 0.000000
          CHANNELS 3 Zrotation Xrotation Yrotation
          JOINT RightArm
          {
            OFFSET -12.000000 0.000000 0.000000
            CHANNELS 3 Zrotation Xrotation Yrotation
            JOINT RightForeArm
            {
              OFFSET -24.000000 0.000000 0.000000
              CHANNELS 3 Zrotation Xrotation Yrotation
              JOINT RightHand
              {
                OFFSET -22.000000 0.000000 0.000000
                CHANNELS 3 Zrotation Xrotation Yrotation
                JOINT RightHandThumb1
                {
                  OFFSET -1.800000 -1.400000 0.500000
                  CHANNELS 3 Zrotation Xrotation Yrotation
                  JOINT RightHandThumb2
                  {
                    OFFSET -2.400000 0.000000 0.000000
                    CHANNELS 3 Zrotation Xrotation Yrotation
                    JOINT RightHandThumb3
                    {
                      OFFSET -1.900000 0.000000 0.000000
                      CHANNELS 3 Zrotation Xrotation Yrotation
                      End Site
                      {
                        OFFSET -1.600000 0.000000 0.000000
                      }
                    }
                  }
                }
                JOINT RightHandIndex1
                {
                  OFFSET -6.600000 1.200000 0.300000
                  CHANNELS 3 Zrotation Xrotation Yrotation
                  JOINT RightHandIndex2
                  {
                    OFFSET -2.000000 0.000000 0.000000
                    CHANNELS 3 Zrotation Xrotation Yrotation
                    JOINT RightHandIndex3
                    {
                      OFFSET -1.200000 0.000000 0.000000
                      CHANNELS 3 Zrotation Xrotation Yrotation
                      End Site
                      {
                        OFFSET -1.000000 0.000000 0.000000
                      }
                    }
                  }
                }
                JOINT RightHandMiddle1
                {
                  OFFSET -7.200000 0.000000 0.300000
                  CHANNELS 3 Zrotation Xrotation Yrotation
                  JOINT RightHandMiddle2
                  {
                    OFFSET -3.000000 0.000000 0.000000
                    CHANNELS 3 Zrotation Xrotation Yrotation
                    JOINT RightHandMiddle3
                    {
                      OFFSET -2.000000 0.000000 0.000000
                      CHANNELS 3 Zrotation Xrotation Yrotation
                      End Site
                      {
                        OFFSET -1.600000 0.000000 0.000000
                      }
                    }
                  }
                }
                JOINT RightHandRing1
                {
                  OFFSET -7.100000 -1.000000 0.400000
                  CHANNELS 3 Zrotation Xrotation Yrotation
                  JOINT RightHandRing2
                  {
                    OFFSET -2.600000 0.000000 0.000000
                    CHANNELS 3 Zrotation Xrotation Yrotation
                    JOINT RightHandRing3
                    {
                      OFFSET -1.600000 0.000000 0.000000
                      CHANNELS 3 Zrotation Xrotation Yrotation
                      End Site
                      {
                        OFFSET -1.300000 0.000000 0.000000
                      }
                    }
                  }
                }
                JOINT RightHandPinky1
                {
                  OFFSET -6.500000 -2.000000 0.500000
                  CHANNELS 3 Zrotation Xrotation Yrotation
                  JOINT RightHandPinky2
                  {
                    OFFSET -1.900000 0.000000 0.000000
                    CHANNELS 3 Zrotation Xrotation Yrotation
                    JOINT RightHandPinky3
                    {
                      OFFSET -1.400000 0.000000 0.000000
                      CHANNELS 3 Zrotation Xrotation Yrotation
                      End Site
                      {
                        OFFSET -1.300000 0.000000 0.000000
                      }
                    }
                  }
                }
              }
            }
          }
        }
      }
    }
  }
  JOINT LeftUpLeg
  {
    OFFSET 10.000000 -5.000000 0.000000
    CHANNELS 3 Zrotation Xrotation Yrotation
    JOINT LeftLeg
    {
      OFFSET 0.000000 -42.000000 0.000000
      CHANNELS 3 Zrotation Xrotation Yrotation
      JOINT LeftFoot
      {
        OFFSET 0.000000 -42.000000 4.000000
        CHANNELS 3 Zrotation Xrotation Yrotation
        End Site
        {
          OFFSET 0.000000 0.000000 12.000000
        }
      }
    }
  }
  JOINT RightUpLeg
  {
    OFFSET -10.000000 -5.000000 0.000000
    CHANNELS 3 Zrotation Xrotation Yrotation
    JOINT RightLeg
    {
      OFFSET 0.000000 -42.000000 0.000000
      CHANNELS 3 Zrotation Xrotation Yrotation
      JOINT RightFoot
      {
        OFFSET 0.000000 -42.000000 4.000000
        CHANNELS 3 Zrotation Xrotation Yrotation
        End Site
        {
          OFFSET 0.000000 0.000000 12.000000
        }
      }
    }
  }
}
MOTION
Frames: 60
Frame Time: 0.033333
0.0000 95.0000 0.0000 0.0000 0.0000 0.0000 0.0000 0.0000 0.0000 0.0000 0.0000 0.0000 0.0000 0.0000 0.0000 0.0000 0.0000 0.0000 0.0000 0.0000 0.0000 0.0000 0.0000 0.0000 -75.7834 -1.1574 -1.4871 -12.6808 -7.6532 12.0616 14.1873 -44.2097 -28.6293 50.8956 -27.4671 -81.7830 49.5359 0.0000 0.0000 9.0623 0.0000 0.0000 12.0371 33.6515 -95.5566 34.4021 0.0000 0.0000 14.3600 0.0000 0.0000 26.3056 31.7064 -105.8709 31.0754 0.0000 0.0000 9.6989 0.0000 0.0000 30.3339 20.6187 -119.1052 24.3029 0.0000 0.0000 9.8236 0.0000 0.0000 41.8744 8.0337 -114.4273 32.1535 0.0000 0.0000 6.6005 0.0000 0.0000 0.0000 0.0000 0.0000 85.0694 -4.8860 5.3251 -0.9241 7.1330 7.4904 14.7576 34.2986 135.2433 -66.6571 -14.3223 9.7005 2.4967 0.0000 0.0000 5.8192 0.0000 0.0000 -12.9141 3.3334 13.0707 7.6280 0.0000 0.0000 1.7029 0.0000 0.0000 -16.6169 1.4117 14.4161 10.8654 0.0000 0.0000 5.1600 0.0000 0.0000 -0.7764 -2.0440 14.9628 19.4491 0.0000 0.0000 10.0610 0.0000 0.0000 -3.9733 -4.2113 14.5501 16.3137 0.0000 0.0000 11.5331 0.0000 0.0000 0.0000 0.0000 0.0000 0.0000 0.0000 0.0000 0.0000 0.0000 0.0000 0.0000 0.0000 0.0000 0.0000 0.0000 0.0000 0.0000 0.0000 0.0000
0.0000 95.0000 0.0000 0.0000 0.0000 0.0000 0.0000 0.0000 0.0000 0.0000 0.0000 0.0000 0.0000 0.0000 0.0000 0.0000 0.0000 0.0000 0.0000 0.0000 0.0000 0.0000 0.0000 0.0000 -75.8947 -0.9184 -1.1778 -12.5116 -7.7180 12.1817 13.8508 -43.9215 -28.7681 50.8956 -27.4671 -81.7830 49.5359 0.0000 0.0000 9.0623 0.0000 0.0000 12.0371 33.6515 -95.5566 34.4021 0.0000 0.0000 14.3600 0.0000 0.0000 26.3056 31.7064 -105.8709 31.0754 0.0000 0.0000 9.6989 0.0000 0.0000 30.3339 20.6187 -119.1052 24.3029 0.0000 0.0000 9.8236 0.0000 0.0000 41.8744 8.0337 -114.4273 32.1535 0.0000 0.0000 6.6005 0.0000 0.0000 0.0000 0.0000 0.0000 85.1363 -5.1211 5.5747 -0.8091 7.1245 7.4898 14.7569 34.5827 134.9723 -66.6571 -14.3223 9.7005 2.4967 0.0000 0.0000 5.8192 0.0000 0.0000 -12.9141 3.3334 13.0707 7.6280 0.0000 0.0000 1.7029 0.0000 0.0000 -16.6169 1.4117 14.4161 10.8654 0.0000 0.0000 5.1600 0.0000 0.0000 -0.7764 -2.0440 14.9628 19.4491 0.0000 0.0000 10.0610 0.0000 0.0000 -3.9733 -4.2113 14.5501 16.3137 0.0000 0.0000 11.5331 0.0000 0.0000 0.0000 0.0000 0.0000 0.0000 0.0000 0.0000 0.0000 0.0000 0.0000 0.0000 0.0000 0.0000 0.0000 0.0000 0.0000 0.0000 0.0000 0.0000
0.0000 95.0000 0.0000 0.0000 0.0000 0.0000 0.0000 0.0000 0.0000 0.0000 0.0000 0.0000 0.0000 0.0000 0.0000 0.0000 0.0000 0.0000 0.0000 0.0000 0.0000 0.0000 0.0000 0.0000 -75.9095 -0.7402 -0.9490 -12.4369 -7.6270 12.0719 13.7286 -43.8489 -28.7871 50.8956 -27.4671 -81.7830 49.5359 0.0000 0.0000 9.0623 0.0000 0.0000 12.0371 33.6515 -95.5566 34.4021 0.0000 0.0000 14.3600 0.0000 0.0000 26.3056 31.7064 -105.8709 31.0754 0.0000 0.0000 9.6989 0.0000 0.0000 30.3339 20.6187 -119.1052 24.3029 0.0000 0.0000 9.8236 0.0000 0.0000 41.8744 8.0337 -114.4273 32.1535 0.0000 0.0000 6.6005 0.0000 0.0000 0.0000 0.0000 0.0000 85.3124 -5.4160 5.8775 -0.8891 6.9741 7.2798 14.7975 34.7506 134.8568 -66.6571 -14.3223 9.7005 2.4967 0.0000 0.0000 5.8192 0.0000 0.0000 -12.9141 3.3334 13.0707 7.6280 0.0000 0.0000 1.7029 0.0000 0.0000 -16.6169 1.4117 14.4161 10.8654 0.0000 0.0000 5.1600 0.0000 0.0000 -0.7764 -2.0440 14.9628 19.4491 0.0000 0.0000 10.0610 0.0000 0.0000 -3.9733 -4.2113 14.5501 16.3137 0.0000 0.0000 11.5331 0.0000 0.0000 0.0000 0.0000 0.0000 0.0000 0.0000 0.0000 0.0000 0.0000 0.0000 0.0000 0.0000 0.0000 0.0000 0.0000 0.0000 0.0000 0.0000 0.0000
0.0000 95.0000 0.0000 0.0000 0.0000 0.0000 0.0000 0.0000 0.0000 0.0000 0.0000 0.0000 0.0000 0.0000 0.0000 0.0000 0.0000 0.0000 0.0000 0.0000 0.0000 0.0000 0.0000 0.0000 -75.9653 -0.8695 -1.1136 -12.2624 -7.6339 11.9925 13.7112 -44.0595 -28.5699 50.8956 -27.4671 -81.7830 49.5359 0.0000 0.0000 9.0623 0.0000 0.0000 12.0371 33.6515 -95.5566 34.4021 0.0000 0.0000 14.3600 0.0000 0.0000 26.3056 31.7064 -105.8709 31.0754 0.0000 0.0000 9.6989 0.0000 0.0000 30.3339 20.6187 -119.1052 24.3029 0.0000 0.0000 9.8236 0.0000 0.0000 41.8744 8.0337 -114.4273 32.1535 0.0000 0.0000 6.6005 0.0000 0.0000 0.0000 0.0000 0.0000 85.2429 -5.4427 5.9136 -0.8963 6.9632 7.2744 14.7103 34.7218 134.7901 -66.6571 -14.3223 9.7005 2.4967 0.0000 0.0000 5.8192 0.0000 0.0000 -12.9141 3.3334 13.0707 7.6280 0.0000 0.0000 1.7029 0.0000 0.0000 -16.6169 1.4117 14.4161 10.8654 0.0000 0.0000 5.1600 0.0000 0.0000 -0.7764 -2.0440 14.9628 19.4491 0.0000 0.0000 10.0610 0.0000 0.0000 -3.9733 -4.2113 14.5501 16.3137 0.0000 0.0000 11.5331 0.0000 0.0000 0.0000 0.0000 0.0000 0.0000 0.0000 0.0000 0.0000 0.0000 0.0000 0.0000 0.0000 0.0000 0.0000 0.0000 0.0000 0.0000 0.0000 0.0000
0.0000 95.0000 0.0000 0.0000 0.0000 0.0000 0.0000 0.0000 0.0000 0.0000 0.0000 0.0000 0.0000 0.0000 0.0000 0.0000 0.0000 0.0000 0.0000 0.0000 0.0000 0.0000 0.0000 0.0000 -76.1657 -0.9867 -1.2591 -11.9406 -7.7911 12.0941 13.5373 -44.1280 -28.4252 50.8956 -27.4671 -81.7830 49.5359 0.0000 0.0000 9.0623 0.0000 0.0000 12.0371 33.6515 -95.5566 34.4021 0.0000 0.0000 14.3600 0.0000 0.0000 26.3056 31.7064 -105.8709 31.0754 0.0000 0.0000 9.6989 0.0000 0.0000 30.3339 20.6187 -119.1052 24.3029 0.0000 0.0000 9.8236 0.0000 0.0000 41.8744 8.0337 -114.4273 32.1535 0.0000 0.0000 6.6005 0.0000 0.0000 0.0000 0.0000 0.0000 85.1719 -5.5086 5.9926 -0.9751 6.8699 7.1647 14.6115 34.6226 134.7777 -66.6571 -14.3223 9.7005 2.4967 0.0000 0.0000 5.8192 0.0000 0.0000 -12.9141 3.3334 13.0707 7.6280 0.0000 0.0000 1.7029 0.0000 0.0000 -16.6169 1.4117 14.4161 10.8654 0.0000 0.0000 5.1600 0.0000 0.0000 -0.7764 -2.0440 14.9628 19.4491 0.0000 0.0000 10.0610 0.0000 0.0000 -3.9733 -4.2113 14.5501 16.3137 0.0000 0.0000 11.5331 0.0000 0.0000 0.0000 0.0000 0.0000 0.0000 0.0000 0.0000 0.0000 0.0000 0.0000 0.0000 0.0000 0.0000 0.0000 0.0000 0.0000 0.0000 0.0000 0.0000
0.0000 95.0000 0.0000 0.0000 0.0000 0.0000 0.0000 0.0000 0.0000 0.0000 0.0000 0.0000 0.0000 0.0000 0.0000 0.0000 0.0000 0.0000 0.0000 0.0000 0.0000 0.0000 0.0000 0.0000 -76.2251 -1.0367 -1.3215 -11.7918 -7.8083 12.0619 13.4701 -44.2225 -28.3010 50.8956 -27.4671 -81.7830 49.5359 0.0000 0.0000 9.0623 0.0000 0.0000 12.0371 33.6515 -95.5566 34.4021 0.0000 0.0000 14.3600 0.0000 0.0000 26.3056 31.7064 -105.8709 31.0754 0.0000 0.0000 9.6989 0.0000 0.0000 30.3339 20.6187 -119.1052 24.3029 0.0000 0.0000 9.8236 0.0000 0.0000 41.8744 8.0337 -114.4273 32.1535 0.0000 0.0000 6.6005 0.0000 0.0000 0.0000 0.0000 0.0000 85.1008 -5.6236 6.1253 -0.9848 6.7800 7.0721 14.5310 34.6093 134.7034 -66.6571 -14.3223 9.7005 2.4967 0.0000 0.0000 5.8192 0.0000 0.0000 -12.9141 3.3334 13.0707 7.6280 0.0000 0.0000 1.7029 0.0000 0.0000 -16.6169 1.4117 14.4161 10.8654 0.0000 0.0000 5.1600 0.0000 0.0000 -0.7764 -2.0440 14.9628 19.4491 0.0000 0.0000 10.0610 0.0000 0.0000 -3.9733 -4.2113 14.5501 16.3137 0.0000 0.0000 11.5331 0.0000 0.0000 0.0000 0.0000 0.0000 0.0000 0.0000 0.0000 0.0000 0.0000 0.0000 0.0000 0.0000 0.0000 0.0000 0.0000 0.0000 0.0000 0.0000 0.0000
0.0000 95.0000 0.0000 0.0000 0.0000 0.0000 0.0000 0.0000 0.0000 0.0000 0.0000 0.0000 0.0000 0.0000 0.0000 0.0000 0.0000 0.0000 0.0000 0.0000 0.0000 0.0000 0.0000 0.0000 -76.3916 -1.0872 -1.3818 -11.8003 -7.5178 11.5522 14.0779 -44.5275 -28.2660 50.8956 -27.4671 -81.7830 49.5359 0.0000 0.0000 9.0623 0.0000 0.0000 12.0371 33.6515 -95.5566 34.4021 0.0000 0.0000 14.3600 0.0000 0.0000 26.3056 31.7064 -105.8709 31.0754 0.0000 0.0000 9.6989 0.0000 0.0000 30.3339 20.6187 -119.1052 24.3029 0.0000 0.0000 9.8236 0.0000 0.0000 41.8744 8.0337 -114.4273 32.1535 0.0000 0.0000 6.6005 0.0000 0.0000 0.0000 0.0000 0.0000 85.2344 -5.5438 6.0243 -0.7023 6.8981 7.2477 14.8514 34.8869 134.7857 -66.6571 -14.3223 9.7005 2.4967 0.0000 0.0000 5.8192 0.0000 0.0000 -12.9141 3.3334 13.0707 7.6280 0.0000 0.0000 1.7029 0.0000 0.0000 -16.6169 1.4117 14.4161 10.8654 0.0000 0.0000 5.1600 0.0000 0.0000 -0.7764 -2.0440 14.9628 19.4491 0.0000 0.0000 10.0610 0.0000 0.0000 -3.9733 -4.2113 14.5501 16.3137 0.0000 0.0000 11.5331 0.0000 0.0000 0.0000 0.0000 0.0000 0.0000 0.0000 0.0000 0.0000 0.0000 0.0000 0.0000 0.0000 0.0000 0.0000 0.0000 0.0000 0.0000 0.0000 0.0000
0.0000 95.0000 0.0000 0.0000 0.0000 0.0000 0.0000 0.0000 0.0000 0.0000 0.0000 0.0000 0.0000 0.0000 0.0000 0.0000 0.0000 0.0000 0.0000 0.0000 0.0000 0.0000 0.0000 0.0000 -76.4158 -0.7411 -0.9415 -11.8978 -6.9989 10.8491 14.4957 -44.6283 -28.3515 50.8956 -27.4671 -81.7830 49.5359 0.0000 0.0000 9.0623 0.0000 0.0000 12.0371 33.6515 -95.5566 34.4021 0.0000 0.0000 14.3600 0.0000 0.0000 26.3056 31.7064 -105.8709 31.0754 0.0000 0.0000 9.6989 0.0000 0.0000 30.3339 20.6187 -119.1052 24.3029 0.0000 0.0000 9.8236 0.0000 0.0000 41.8744 8.0337 -114.4273 32.1535 0.0000 0.0000 6.6005 0.0000 0.0000 0.0000 0.0000 0.0000 85.0778 -5.4832 5.9749 -0.5113 6.7009 7.1042 15.0834 34.7689 135.1468 -66.6571 -14.3223 9.7005 2.4967 0.0000 0.0000 5.8192 0.0000 0.0000 -12.9141 3.3334 13.0707 7.6280 0.0000 0.0000 1.7029 0.0000 0.0000 -16.6169 1.4117 14.4161 10.8654 0.0000 0.0000 5.1600 0.0000 0.0000 -0.7764 -2.0440 14.9628 19.4491 0.0000 0.0000 10.0610 0.0000 0.0000 -3.9733 -4.2113 14.5501 16.3137 0.0000 0.0000 11.5331 0.0000 0.0000 0.0000 0.0000 0.0000 0.0000 0.0000 0.0000 0.0000 0.0000 0.0000 0.0000 0.0000 0.0000 0.0000 0.0000 0.0000 0.0000 0.0000 0.0000
0.0000 95.0000 0.0000 0.0000 0.0000 0.0000 0.0000 0.0000 0.0000 0.0000 0.0000 0.0000 0.0000 0.0000 0.0000 0.0000 0.0000 0.0000 0.0000 0.0000 0.0000 0.0000 0.0000 0.0000 -76.3786 -0.7911 -1.0057 -11.8332 -7.0692 10.9406 14.3352 -44.6541 -28.2547 50.8956 -27.4671 -81.7830 49.5359 0.0000 0.0000 9.0623 0.0000 0.0000 12.0371 33.6515 -95.5566 34.4021 0.0000 0.0000 14.3600 0.0000 0.0000 26.3056 31.7064 -105.8709 31.0754 0.0000 0.0000 9.6989 0.0000 0.0000 30.3339 20.6187 -119.1052 24.3029 0.0000 0.0000 9.8236 0.0000 0.0000 41.8744 8.0337 -114.4273 32.1535 0.0000 0.0000 6.6005 0.0000 0.0000 0.0000 0.0000 0.0000 84.9977 -5.4849 5.9851 -0.5314 6.7100 7.1190 14.9736 34.7195 135.0756 -66.6571 -14.3223 9.7005 2.4967 0.0000 0.0000 5.8192 0.0000 0.0000 -12.9141 3.3334 13.0707 7.6280 0.0000 0.0000 1.7029 0.0000 0.0000 -16.6169 1.4117 14.4161 10.8654 0.0000 0.0000 5.1600 0.0000 0.0000 -0.7764 -2.0440 14.9628 19.4491 0.0000 0.0000 10.0610 0.0000 0.0000 -3.9733 -4.2113 14.5501 16.3137 0.0000 0.0000 11.5331 0.0000 0.0000 0.0000 0.0000 0.0000 0.0000 0.0000 0.0000 0.0000 0.0000 0.0000 0.0000 0.0000 0.0000 0.0000 0.0000 0.0000 0.0000 0.0000 0.0000
0.0000 95.0000 0.0000 0.0000 0.0000 0.0000 0.0000 0.0000 0.0000 0.0000 0.0000 0.0000 0.0000 0.0000 0.0000 0.0000 0.0000 0.0000 0.0000 0.0000 0.0000 0.0000 0.0000 0.0000 -76.3898 -0.8816 -1.1206 -11.7572 -7.1661 11.0500 14.2333 -44.6880 -28.1758 50.8956 -27.4671 -81.7830 49.5359 0.0000 0.0000 9.0623 0.0000 0.0000 12.0371 33.6515 -95.5566 34.4021 0.0000 0.0000 14.3600 0.0000 0.0000 26.3056 31.7064 -105.8709 31.0754 0.0000 0.0000 9.6989 0.0000 0.0000 30.3339 20.6187 -119.1052 24.3029 0.0000 0.0000 9.8236 0.0000 0.0000 41.8744 8.0337 -114.4273 32.1535 0.0000 0.0000 6.6005 0.0000 0.0000 0.0000 0.0000 0.0000 85.0416 -5.4837 5.9792 -0.5023 6.6405 7.0465 15.1109 34.7191 135.2233 -66.6571 -14.3223 9.7005 2.4967 0.0000 0.0000 5.8192 0.0000 0.0000 -12.9141 3.3334 13.0707 7.6280 0.0000 0.0000 1.7029 0.0000 0.0000 -16.6169 1.4117 14.4161 10.8654 0.0000 0.0000 5.1600 0.0000 0.0000 -0.7764 -2.0440 14.9628 19.4491 0.0000 0.0000 10.0610 0.0000 0.0000 -3.9733 -4.2113 14.5501 16.3137 0.0000 0.0000 11.5331 0.0000 0.0000 0.0000 0.0000 0.0000 0.0000 0.0000 0.0000 0.0000 0.0000 0.0000 0.0000 0.0000 0.0000 0.0000 0.0000 0.0000 0.0000 0.0000 0.0000
0.0000 95.0000 0.0000 0.0000 0.0000 0.0000 0.0000 0.0000 0.0000 0.0000 0.0000 0.0000 0.0000 0.0000 0.0000 0.0000 0.0000 0.0000 0.0000 0.0000 0.0000 0.0000 0.0000 0.0000 -76.4799 -1.1027 -1.3993 -11.8403 -7.1900 11.0191 14.6252 -44.8414 -28.1987 50.8956 -27.4671 -81.7830 49.5359 0.0000 0.0000 9.0623 0.0000 0.0000 12.0371 33.6515 -95.5566 34.4021 0.0000 0.0000 14.3600 0.0000 0.0000 26.3056 31.7064 -105.8709 31.0754 0.0000 0.0000 9.6989 0.0000 0.0000 30.3339 20.6187 -119.1052 24.3029 0.0000 0.0000 9.8236 0.0000 0.0000 41.8744 8.0337 -114.4273 32.1535 0.0000 0.0000 6.6005 0.0000 0.0000 0.0000 0.0000 0.0000 84.9676 -5.3903 5.8850 -0.3765 6.7809 7.2363 15.0748 34.7818 135.1252 -66.6571 -14.3223 9.7005 2.4967 0.0000 0.0000 5.8192 0.0000 0.0000 -12.9141 3.3334 13.0707 7.6280 0.0000 0.0000 1.7029 0.0000 0.0000 -16.6169 1.4117 14.4161 10.8654 0.0000 0.0000 5.1600 0.0000 0.0000 -0.7764 -2.0440 14.9628 19.4491 0.0000 0.0000 10.0610 0.0000 0.0000 -3.9733 -4.2113 14.5501 16.3137 0.0000 0.0000 11.5331 0.0000 0.0000 0.0000 0.0000 0.0000 0.0000 0.0000 0.0000 0.0000 0.0000 0.0000 0.0000 0.0000 0.0000 0.0000 0.0000 0.0000 0.0000 0.0000 0.0000
0.0000 95.0000 0.0000 0.0000 0.0000 0.0000 0.0000 0.0000 0.0000 0.0000 0.0000 0.0000 0.0000 0.0000 0.0000 0.0000 0.0000 0.0000 0.0000 0.0000 0.0000 0.0000 0.0000 0.0000 -76.6533 -1.1158 -1.4114 -11.6874 -7.1122 10.8288 14.7781 -44.9584 -28.1516 50.8956 -27.4671 -81.7830 49.5359 0.0000 0.0000 9.0623 0.0000 0.0000 12.0371 33.6515 -95.5566 34.4021 0.0000 0.0000 14.3600 0.0000 0.0000 26.3056 31.7064 -105.8709 31.0754 0.0000 0.0000 9.6989 0.0000 0.0000 30.3339 20.6187 -119.1052 24.3029 0.0000 0.0000 9.8236 0.0000 0.0000 41.8744 8.0337 -114.4273 32.1535 0.0000 0.0000 6.6005 0.0000 0.0000 0.0000 0.0000 0.0000 85.0009 -5.2829 5.7644 -0.3443 6.8879 7.3564 15.1135 34.8062 135.1436 -66.6571 -14.3223 9.7005 2.4967 0.0000 0.0000 5.8192 0.0000 0.0000 -12.9141 3.3334 13.0707 7.6280 0.0000 0.0000 1.7029 0.0000 0.0000 -16.6169 1.4117 14.4161 10.8654 0.0000 0.0000 5.1600 0.0000 0.0000 -0.7764 -2.0440 14.9628 19.4491 0.0000 0.0000 10.0610 0.0000 0.0000 -3.9733 -4.2113 14.5501 16.3137 0.0000 0.0000 11.5331 0.0000 0.0000 0.0000 0.0000 0.0000 0.0000 0.0000 0.0000 0.0000 0.0000 0.0000 0.0000 0.0000 0.0000 0.0000 0.0000 0.0000 0.0000 0.0000 0.0000
0.0000 95.0000 0.0000 0.0000 0.0000 0.0000 0.0000 0.0000 0.0000 0.0000 0.0000 0.0000 0.0000 0.0000 0.0000 0.0000 0.0000 0.0000 0.0000 0.0000 0.0000 0.0000 0.0000 0.0000 -76.5529 -1.1970 -1.5169 -12.0931 -7.0831 10.8527 15.2300 -44.9112 -28.3990 50.8956 -27.4671 -81.7830 49.5359 0.0000 0.0000 9.0623 0.0000 0.0000 12.0371 33.6515 -95.5566 34.4021 0.0000 0.0000 14.3600 0.0000 0.0000 26.3056 31.7064 -105.8709 31.0754 0.0000 0.0000 9.6989 0.0000 0.0000 30.3339 20.6187 -119.1052 24.3029 0.0000 0.0000 9.8236 0.0000 0.0000 41.8744 8.0337 -114.4273 32.1535 0.0000 0.0000 6.6005 0.0000 0.0000 0.0000 0.0000 0.0000 85.1331 -4.9943 5.4370 -0.2389 7.0766 7.5723 15.3737 34.8465 135.3842 -66.6571 -14.3223 9.7005 2.4967 0.0000 0.0000 5.8192 0.0000 0.0000 -12.9141 3.3334 13.0707 7.6280 0.0000 0.0000 1.7029 0.0000 0.0000 -16.6169 1.4117 14.4161 10.8654 0.0000 0.0000 5.1600 0.0000 0.0000 -0.7764 -2.0440 14.9628 19.4491 0.0000 0.0000 10.0610 0.0000 0.0000 -3.9733 -4.2113 14.5501 16.3137 0.0000 0.0000 11.5331 0.0000 0.0000 0.0000 0.0000 0.0000 0.0000 0.0000 0.0000 0.0000 0.0000 0.0000 0.0000 0.0000 0.0000 0.0000 0.0000 0.0000 0.0000 0.0000 0.0000
0.0000 95.0000 0.0000 0.0000 0.0000 0.0000 0.0000 0.0000 0.0000 0.0000 0.0000 0.0000 0.0000 0.0000 0.0000 0.0000 0.0000 0.0000 0.0000 0.0000 0.0000 0.0000 0.0000 0.0000 -76.4230 -1.4083 -1.7888 -12.2780 -6.8105 10.4125 15.7735 -45.3901 -28.1745 50.8956 -27.4671 -81.7830 49.5359 0.0000 0.0000 9.0623 0.0000 0.0000 12.0371 33.6515 -95.5566 34.4021 0.0000 0.0000 14.3600 0.0000 0.0000 26.3056 31.7064 -105.8709 31.0754 0.0000 0.0000 9.6989 0.0000 0.0000 30.3339 20.6187 -119.1052 24.3029 0.0000 0.0000 9.8236 0.0000 0.0000 41.8744 8.0337 -114.4273 32.1535 0.0000 0.0000 6.6005 0.0000 0.0000 0.0000 0.0000 0.0000 85.1133 -4.9755 5.4185 -0.3156 7.0364 7.5153 15.3410 34.7448 135.4454 -66.6571 -14.3223 9.7005 2.4967 0.0000 0.0000 5.8192 0.0000 0.0000 -12.9141 3.3334 13.0707 7.6280 0.0000 0.0000 1.7029 0.0000 0.0000 -16.6169 1.4117 14.4161 10.8654 0.0000 0.0000 5.1600 0.0000 0.0000 -0.7764 -2.0440 14.9628 19.4491 0.0000 0.0000 10.0610 0.0000 0.0000 -3.9733 -4.2113 14.5501 16.3137 0.0000 0.0000 11.5331 0.0000 0.0000 0.0000 0.0000 0.0000 0.0000 0.0000 0.0000 0.0000 0.0000 0.0000 0.0000 0.0000 0.0000 0.0000 0.0000 0.0000 0.0000 0.0000 0.0000
0.0000 95.0000 0.0000 0.0000 0.0000 0.0000 0.0000 0.0000 0.0000 0.0000 0.0000 0.0000 0.0000 0.0000 0.0000 0.0000 0.0000 0.0000 0.0000 0.0000 0.0000 0.0000 0.0000 0.0000 -76.3109 -1.4562 -1.8535 -12.4649 -6.6570 10.2046 16.0628 -45.5542 -28.1452 50.8956 -27.4671 -81.7830 49.5359 0.0000 0.0000 9.0623 0.0000 0.0000 12.0371 33.6515 -95.5566 34.4021 0.0000 0.0000 14.3600 0.0000 0.0000 26.3056 31.7064 -105.8709 31.0754 0.0000 0.0000 9.6989 0.0000 0.0000 30.3339 20.6187 -119.1052 24.3029 0.0000 0.0000 9.8236 0.0000 0.0000 41.8744 8.0337 -114.4273 32.1535 0.0000 0.0000 6.6005 0.0000 0.0000 0.0000 0.0000 0.0000 85.1802 -5.0804 5.5262 -0.3732 6.9217 7.3688 15.3939 34.7493 135.4976 -66.6571 -14.3223 9.7005 2.4967 0.0000 0.0000 5.8192 0.0000 0.0000 -12.9141 3.3334 13.0707 7.6280 0.0000 0.0000 1.7029 0.0000 0.0000 -16.6169 1.4117 14.4161 10.8654 0.0000 0.0000 5.1600 0.0000 0.0000 -0.7764 -2.0440 14.9628 19.4491 0.0000 0.0000 10.0610 0.0000 0.0000 -3.9733 -4.2113 14.5501 16.3137 0.0000 0.0000 11.5331 0.0000 0.0000 0.0000 0.0000 0.0000 0.0000 0.0000 0.0000 0.0000 0.0000 0.0000 0.0000 0.0000 0.0000 0.0000 0.0000 0.0000 0.0000 0.0000 0.0000
0.0000 95.0000 0.0000 0.0000 0.0000 0.0000 0.0000 0.0000 0.0000 0.0000 0.0000 0.0000 0.0000 0.0000 0.0000 0.0000 0.0000 0.0000 0.0000 0.0000 0.0000 0.0000 0.0000 0.0000 -76.3260 -1.5715 -1.9995 -12.4985 -6.5697 10.0298 16.3305 -45.7577 -28.0688 50.8956 -27.4671 -81.7830 49.5359 0.0000 0.0000 9.0623 0.0000 0.0000 12.0371 33.6515 -95.5566 34.4021 0.0000 0.0000 14.3600 0.0000 0.0000 26.3056 31.7064 -105.8709 31.0754 0.0000 0.0000 9.6989 0.0000 0.0000 30.3339 20.6187 -119.1052 24.3029 0.0000 0.0000 9.8236 0.0000 0.0000 41.8744 8.0337 -114.4273 32.1535 0.0000 0.0000 6.6005 0.0000 0.0000 0.0000 0.0000 0.0000 85.4254 -5.1020 5.5259 -0.8292 7.0034 7.3215 15.1692 34.6351 135.3654 -66.6571 -14.3223 9.7005 2.4967 0.0000 0.0000 5.8192 0.0000 0.0000 -12.9141 3.3334 13.0707 7.6280 0.0000 0.0000 1.7029 0.0000 0.0000 -16.6169 1.4117 14.4161 10.8654 0.0000 0.0000 5.1600 0.0000 0.0000 -0.7764 -2.0440 14.9628 19.4491 0.0000 0.0000 10.0610 0.0000 0.0000 -3.9733 -4.2113 14.5501 16.3137 0.0000 0.0000 11.5331 0.0000 0.0000 0.0000 0.0000 0.0000 0.0000 0.0000 0.0000 0.0000 0.0000 0.0000 0.0000 0.0000 0.0000 0.0000 0.0000 0.0000 0.0000 0.0000 0.0000
0.0000 95.0000 0.0000 0.0000 0.0000 0.0000 0.0000 0.0000 0.0000 0.0000 0.0000 0.0000 0.0000 0.0000 0.0000 0.0000 0.0000 0.0000 0.0000 0.0000 0.0000 0.0000 0.0000 0.0000 -76.2164 -1.4179 -1.8078 -12.3815 -6.2642 9.5915 16.2338 -46.0078 -27.7832 50.8956 -27.4671 -81.7830 49.5359 0.0000 0.0000 9.0623 0.0000 0.0000 12.0371 33.6515 -95.5566 34.4021 0.0000 0.0000 14.3600 0.0000 0.0000 26.3056 31.7064 -105.8709 31.0754 0.0000 0.0000 9.6989 0.0000 0.0000 30.3339 20.6187 -119.1052 24.3029 0.0000 0.0000 9.8236 0.0000 0.0000 41.8744 8.0337 -114.4273 32.1535 0.0000 0.0000 6.6005 0.0000 0.0000 0.0000 0.0000 0.0000 85.3873 -5.5273 5.9904 -0.9706 6.9561 7.2287 14.7416 34.8067 134.7433 -66.6571 -14.3223 9.7005 2.4967 0.0000 0.0000 5.8192 0.0000 0.0000 -12.9141 3.3334 13.0707 7.6280 0.0000 0.0000 1.7029 0.0000 0.0000 -16.6169 1.4117 14.4161 10.8654 0.0000 0.0000 5.1600 0.0000 0.0000 -0.7764 -2.0440 14.9628 19.4491 0.0000 0.0000 10.0610 0.0000 0.0000 -3.9733 -4.2113 14.5501 16.3137 0.0000 0.0000 11.5331 0.0000 0.0000 0.0000 0.0000 0.0000 0.0000 0.0000 0.0000 0.0000 0.0000 0.0000 0.0000 0.0000 0.0000 0.0000 0.0000 0.0000 0.0000 0.0000 0.0000
0.0000 95.0000 0.0000 0.0000 0.0000 0.0000 0.0000 0.0000 0.0000 0.0000 0.0000 0.0000 0.0000 0.0000 0.0000 0.0000 0.0000 0.0000 0.0000 0.0000 0.0000 0.0000 0.0000 0.0000 -76.1839 -1.0745 -1.3707 -12.0253 -6.1649 9.4920 15.5449 -45.9075 -27.5664 50.8956 -27.4671 -81.7830 49.5359 0.0000 0.0000 9.0623 0.0000 0.0000 12.0371 33.6515 -95.5566 34.4021 0.0000 0.0000 14.3600 0.0000 0.0000 26.3056 31.7064 -105.8709 31.0754 0.0000 0.0000 9.6989 0.0000 0.0000 30.3339 20.6187 -119.1052 24.3029 0.0000 0.0000 9.8236 0.0000 0.0000 41.8744 8.0337 -114.4273 32.1535 0.0000 0.0000 6.6005 0.0000 0.0000 0.0000 0.0000 0.0000 85.3723 -5.6273 6.1004 -1.2038 6.8081 7.0185 14.5985 34.6236 134.7627 -66.6571 -14.3223 9.7005 2.4967 0.0000 0.0000 5.8192 0.0000 0.0000 -12.9141 3.3334 13.0707 7.6280 0.0000 0.0000 1.7029 0.0000 0.0000 -16.6169 1.4117 14.4161 10.8654 0.0000 0.0000 5.1600 0.0000 0.0000 -0.7764 -2.0440 14.9628 19.4491 0.0000 0.0000 10.0610 0.0000 0.0000 -3.9733 -4.2113 14.5501 16.3137 0.0000 0.0000 11.5331 0.0000 0.0000 0.0000 0.0000 0.0000 0.0000 0.0000 0.0000 0.0000 0.0000 0.0000 0.0000 0.0000 0.0000 0.0000 0.0000 0.0000 0.0000 0.0000 0.0000
0.0000 95.0000 0.0000 0.0000 0.0000 0.0000 0.0000 0.0000 0.0000 0.0000 0.0000 0.0000 0.0000 0.0000 0.0000 0.0000 0.0000 0.0000 0.0000 0.0000 0.0000 0.0000 0.0000 0.0000 -76.1609 -0.9654 -1.2320 -11.8577 -6.3240 9.7557 15.0369 -45.7006 -27.5373 50.8956 -27.4671 -81.7830 49.5359 0.0000 0.0000 9.0623 0.0000 0.0000 12.0371 33.6515 -95.5566 34.4021 0.0000 0.0000 14.3600 0.0000 0.0000 26.3056 31.7064 -105.8709 31.0754 0.0000 0.0000 9.6989 0.0000 0.0000 30.3339 20.6187 -119.1052 24.3029 0.0000 0.0000 9.8236 0.0000 0.0000 41.8744 8.0337 -114.4273 32.1535 0.0000 0.0000 6.6005 0.0000 0.0000 0.0000 0.0000 0.0000 84.9818 -5.5539 6.0620 -0.6912 6.9658 7.3533 14.5259 34.8080 134.5093 -66.6571 -14.3223 9.7005 2.4967 0.0000 0.0000 5.8192 0.0000 0.0000 -12.9141 3.3334 13.0707 7.6280 0.0000 0.0000 1.7029 0.0000 0.0000 -16.6169 1.4117 14.4161 10.8654 0.0000 0.0000 5.1600 0.0000 0.0000 -0.7764 -2.0440 14.9628 19.4491 0.0000 0.0000 10.0610 0.0000 0.0000 -3.9733 -4.2113 14.5501 16.3137 0.0000 0.0000 11.5331 0.0000 0.0000 0.0000 0.0000 0.0000 0.0000 0.0000 0.0000 0.0000 0.0000 0.0000 0.0000 0.0000 0.0000 0.0000 0.0000 0.0000 0.0000 0.0000 0.0000
0.0000 95.0000 0.0000 0.0000 0.0000 0.0000 0.0000 0.0000 0.0000 0.0000 0.0000 0.0000 0.0000 0.0000 0.0000 0.0000 0.0000 0.0000 0.0000 0.0000 0.0000 0.0000 0.0000 0.0000 -75.4810 -0.9205 -1.1892 -13.6398 -5.6443 9.0740 16.9911 -45.7441 -28.3786 50.8956 -27.4671 -81.7830 49.5359 0.0000 0.0000 9.0623 0.0000 0.0000 12.0371 33.6515 -95.5566 34.4021 0.0000 0.0000 14.3600 0.0000 0.0000 26.3056 31.7064 -105.8709 31.0754 0.0000 0.0000 9.6989 0.0000 0.0000 30.3339 20.6187 -119.1052 24.3029 0.0000 0.0000 9.8236 0.0000 0.0000 41.8744 8.0337 -114.4273 32.1535 0.0000 0.0000 6.6005 0.0000 0.0000 0.0000 0.0000 0.0000 84.5519 -5.6452 6.2082 -0.5852 7.2420 7.7248 13.8306 34.8820 133.6836 -66.6571 -14.3223 9.7005 2.4967 0.0000 0.0000 5.8192 0.0000 0.0000 -12.9141 3.3334 13.0707 7.6280 0.0000 0.0000 1.7029 0.0000 0.0000 -16.6169 1.4117 14.4161 10.8654 0.0000 0.0000 5.1600 0.0000 0.0000 -0.7764 -2.0440 14.9628 19.4491 0.0000 0.0000 10.0610 0.0000 0.0000 -3.9733 -4.2113 14.5501 16.3137 0.0000 0.0000 11.5331 0.0000 0.0000 0.0000 0.0000 0.0000 0.0000 0.0000 0.0000 0.0000 0.0000 0.0000 0.0000 0.0000 0.0000 0.0000 0.0000 0.0000 0.0000 0.0000 0.0000
0.0000 95.0000 0.0000 0.0000 0.0000 0.0000 0.0000 0.0000 0.0000 0.0000 0.0000 0.0000 0.0000 0.0000 0.0000 0.0000 0.0000 0.0000 0.0000 0.0000 0.0000 0.0000 0.0000 0.0000 -74.0952 -1.3036 -1.7270 -17.7883 -3.8179 6.4268 22.7902 -46.7852 -29.9834 50.8956 -27.4671 -81.7830 49.5359 0.0000 0.0000 9.0623 0.0000 0.0000 12.0371 33.6515 -95.5566 34.4021 0.0000 0.0000 14.3600 0.0000 0.0000 26.3056 31.7064 -105.8709 31.0754 0.0000 0.0000 9.6989 0.0000 0.0000 30.3339 20.6187 -119.1052 24.3029 0.0000 0.0000 9.8236 0.0000 0.0000 41.8744 8.0337 -114.4273 32.1535 0.0000 0.0000 6.6005 0.0000 0.0000 0.0000 0.0000 0.0000 83.7271 -5.2269 5.8319 0.5662 8.4251 9.4339 13.0209 35.6173 132.0957 -66.6571 -14.3223 9.7005 2.4967 0.0000 0.0000 5.8192 0.0000 0.0000 -12.9141 3.3334 13.0707 7.6280 0.0000 0.0000 1.7029 0.0000 0.0000 -16.6169 1.4117 14.4161 10.8654 0.0000 0.0000 5.1600 0.0000 0.0000 -0.7764 -2.0440 14.9628 19.4491 0.0000 0.0000 10.0610 0.0000 0.0000 -3.9733 -4.2113 14.5501 16.3137 0.0000 0.0000 11.5331 0.0000 0.0000 0.0000 0.0000 0.0000 0.0000 0.0000 0.0000 0.0000 0.0000 0.0000 0.0000 0.0000 0.0000 0.0000 0.0000 0.0000 0.0000 0.0000 0.0000
0.0000 95.0000 0.0000 0.0000 0.0000 0.0000 0.0000 0.0000 0.0000 0.0000 0.0000 0.0000 0.0000 0.0000 0.0000 0.0000 0.0000 0.0000 0.0000 0.0000 0.0000 0.0000 0.0000 0.0000 -72.3115 -1.9418 -2.6571 -24.1602 -0.0046 -1.6768 34.8866 -50.6065 -32.2229 50.8956 -27.4671 -81.7830 49.5359 0.0000 0.0000 9.0623 0.0000 0.0000 12.0371 33.6515 -95.5566 34.4021 0.0000 0.0000 14.3600 0.0000 0.0000 26.3056 31.7064 -105.8709 31.0754 0.0000 0.0000 9.6989 0.0000 0.0000 30.3339 20.6187 -119.1052 24.3029 0.0000 0.0000 9.8236 0.0000 0.0000 41.8744 8.0337 -114.4273 32.1535 0.0000 0.0000 6.6005 0.0000 0.0000 0.0000 0.0000 0.0000 82.3389 -4.2371 4.8445 2.8951 13.4180 16.1507 8.2065 38.2165 124.1310 -66.6571 -14.3223 9.7005 2.4967 0.0000 0.0000 5.8192 0.0000 0.0000 -12.9141 3.3334 13.0707 7.6280 0.0000 0.0000 1.7029 0.0000 0.0000 -16.6169 1.4117 14.4161 10.8654 0.0000 0.0000 5.1600 0.0000 0.0000 -0.7764 -2.0440 14.9628 19.4491 0.0000 0.0000 10.0610 0.0000 0.0000 -3.9733 -4.2113 14.5501 16.3137 0.0000 0.0000 11.5331 0.0000 0.0000 0.0000 0.0000 0.0000 0.0000 0.0000 0.0000 0.0000 0.0000 0.0000 0.0000 0.0000 0.0000 0.0000 0.0000 0.0000 0.0000 0.0000 0.0000
0.0000 95.0000 0.0000 0.0000 0.0000 0.0000 0.0000 0.0000 0.0000 0.0000 0.0000 0.0000 0.0000 0.0000 0.0000 0.0000 0.0000 0.0000 0.0000 0.0000 0.0000 0.0000 0.0000 0.0000 -70.5087 -4.2948 -6.0731 -33.0622 7.4359 -27.4957 35.8380 54.7606 -70.4387 69.2477 -15.1429 -27.8816 4.6776 0.0000 0.0000 3.8248 0.0000 0.0000 24.2260 5.6614 -16.5332 8.7652 0.0000 0.0000 5.0455 0.0000 0.0000 34.7370 3.2286 -15.0692 13.1148 0.0000 0.0000 3.5928 0.0000 0.0000 40.1305 1.7109 -18.4334 8.1835 0.0000 0.0000 4.0430 0.0000 0.0000 35.1514 -2.3185 -22.9827 9.1996 0.0000 0.0000 4.4353 0.0000 0.0000 0.0000 0.0000 0.0000 81.3059 -6.1502 7.1597 4.1071 30.2861 36.4917 -18.5468 36.8339 87.5177 -66.6571 -14.3223 9.7005 2.4967 0.0000 0.0000 5.8192 0.0000 0.0000 -12.9141 3.3334 13.0707 7.6280 0.0000 0.0000 1.7029 0.0000 0.0000 -16.6169 1.4117 14.4161 10.8654 0.0000 0.0000 5.1600 0.0000 0.0000 -0.7764 -2.0440 14.9628 19.4491 0.0000 0.0000 10.0610 0.0000 0.0000 -3.9733 -4.2113 14.5501 16.3137 0.0000 0.0000 11.5331 0.0000 0.0000 0.0000 0.0000 0.0000 0.0000 0.0000 0.0000 0.0000 0.0000 0.0000 0.0000 0.0000 0.0000 0.0000 0.0000 0.0000 0.0000 0.0000 0.0000
0.0000 95.0000 0.0000 0.0000 0.0000 0.0000 0.0000 0.0000 0.0000 0.0000 0.0000 0.0000 0.0000 0.0000 0.0000 0.0000 0.0000 0.0000 0.0000 0.0000 0.0000 0.0000 0.0000 0.0000 -69.1403 -7.2384 -10.4890 -35.3754 25.9273 -76.7570 68.6396 30.4920 -28.1806 56.9897 -13.6440 -10.9612 2.5441 0.0000 0.0000 3.2463 0.0000 0.0000 11.7057 0.9753 -5.2477 6.4481 0.0000 0.0000 2.8459 0.0000 0.0000 20.5205 -0.6049 -1.4308 10.4183 0.0000 0.0000 1.2801 0.0000 0.0000 23.2506 -1.1067 -2.8934 6.5206 0.0000 0.0000 1.8600 0.0000 0.0000 14.9398 -2.3032 -7.0792 9.3101 0.0000 0.0000 5.3408 0.0000 0.0000 0.0000 0.0000 0.0000 80.2460 -9.0262 10.7012 1.3578 51.6898 56.1088 -39.3730 13.9744 60.3830 -66.6571 -14.3223 9.7005 2.4967 0.0000 0.0000 5.8192 0.0000 0.0000 -12.9141 3.3334 13.0707 7.6280 0.0000 0.0000 1.7029 0.0000 0.0000 -16.6169 1.4117 14.4161 10.8654 0.0000 0.0000 5.1600 0.0000 0.0000 -0.7764 -2.0440 14.9628 19.4491 0.0000 0.0000 10.0610 0.0000 0.0000 -3.9733 -4.2113 14.5501 16.3137 0.0000 0.0000 11.5331 0.0000 0.0000 0.0000 0.0000 0.0000 0.0000 0.0000 0.0000 0.0000 0.0000 0.0000 0.0000 0.0000 0.0000 0.0000 0.0000 0.0000 0.0000 0.0000 0.0000
0.0000 95.0000 0.0000 0.0000 0.0000 0.0000 0.0000 0.0000 0.0000 0.0000 0.0000 0.0000 0.0000 0.0000 0.0000 0.0000 0.0000 0.0000 0.0000 0.0000 0.0000 0.0000 0.0000 0.0000 -68.0820 -9.9565 -14.6944 -56.4696 70.9664 -149.9280 86.9993 -32.6879 -47.8288 57.6979 -12.5629 -2.4599 3.3046 0.0000 0.0000 4.7794 0.0000 0.0000 -0.2892 1.0226 -5.6410 2.2765 0.0000 0.0000 1.0480 0.0000 0.0000 6.6441 -0.1561 -2.0824 1.9219 0.0000 0.0000 2.2428 0.0000 0.0000 1.7504 -0.1183 -0.1584 2.6541 0.0000 0.0000 4.2995 0.0000 0.0000 -7.6744 3.4460 7.3746 1.0800 0.0000 0.0000 8.2044 0.0000 0.0000 0.0000 0.0000 0.0000 78.7985 -12.9407 15.7226 -34.3491 79.5572 43.6864 -73.2034 -11.3102 62.1507 -60.4521 -11.6162 -9.6076 1.2905 0.0000 0.0000 6.0151 0.0000 0.0000 -8.2476 -1.1833 -3.1136 4.0793 0.0000 0.0000 4.8159 0.0000 0.0000 -7.0303 -0.1580 2.2004 0.5907 0.0000 0.0000 1.7798 0.0000 0.0000 -1.9004 -0.4704 2.9376 3.3997 0.0000 0.0000 3.5446 0.0000 0.0000 -0.9420 -1.2497 3.9513 4.7125 0.0000 0.0000 5.2079 0.0000 0.0000 0.0000 0.0000 0.0000 0.0000 0.0000 0.0000 0.0000 0.0000 0.0000 0.0000 0.0000 0.0000 0.0000 0.0000 0.0000 0.0000 0.0000 0.0000
0.0000 95.0000 0.0000 0.0000 0.0000 0.0000 0.0000 0.0000 0.0000 0.0000 0.0000 0.0000 0.0000 0.0000 0.0000 0.0000 0.0000 0.0000 0.0000 0.0000 0.0000 0.0000 0.0000 0.0000 -67.4133 -11.3335 -16.9212 -164.9122 69.5992 -276.9021 121.1528 -62.1849 -81.7719 57.0728 -12.0462 0.5112 3.4264 0.0000 0.0000 3.0528 0.0000 0.0000 -1.1479 0.7529 -4.0923 2.6309 0.0000 0.0000 1.5123 0.0000 0.0000 2.6895 -0.0851 -1.1470 1.4851 0.0000 0.0000 1.8229 0.0000 0.0000 -2.3441 0.1807 0.2981 1.9318 0.0000 0.0000 3.2072 0.0000 0.0000 -12.9869 3.0969 4.6855 7.8236 0.0000 0.0000 6.3573 0.0000 0.0000 0.0000 0.0000 0.0000 77.9408 -15.5746 19.1913 -139.8838 73.9628 -50.0925 -90.9050 -34.5117 75.4711 -60.1144 -11.7213 -7.9812 1.4663 0.0000 0.0000 4.3538 0.0000 0.0000 -4.3110 -0.6259 -1.9370 2.6281 0.0000 0.0000 3.7809 0.0000 0.0000 -3.4284 -0.0909 1.7354 1.1917 0.0000 0.0000 0.4077 0.0000 0.0000 0.0511 -0.2565 1.8371 3.6183 0.0000 0.0000 3.9732 0.0000 0.0000 1.0456 -0.4320 1.6151 4.1254 0.0000 0.0000 5.4162 0.0000 0.0000 0.0000 0.0000 0.0000 0.0000 0.0000 0.0000 0.0000 0.0000 0.0000 0.0000 0.0000 0.0000 0.0000 0.0000 0.0000 0.0000 0.0000 0.0000
0.0000 95.0000 0.0000 0.0000 0.0000 0.0000 0.0000 0.0000 0.0000 0.0000 0.0000 0.0000 0.0000 0.0000 0.0000 0.0000 0.0000 0.0000 0.0000 0.0000 0.0000 0.0000 0.0000 0.0000 -67.0034 -12.1927 -18.3318 -179.6983 56.1549 -297.7445 151.9426 -63.0819 -116.8278 58.5928 -12.1874 1.5382 3.3588 0.0000 0.0000 2.1551 0.0000 0.0000 0.5794 0.4270 -2.4256 3.8500 0.0000 0.0000 1.6468 0.0000 0.0000 1.3842 -0.0517 -0.4980 1.5764 0.0000 0.0000 0.5806 0.0000 0.0000 -2.9716 0.2193 0.3060 3.4640 0.0000 0.0000 3.7160 0.0000 0.0000 -8.4114 1.7261 2.7164 3.8015 0.0000 0.0000 6.6467 0.0000 0.0000 0.0000 0.0000 0.0000 77.2558 -17.1717 21.3993 -152.1501 61.3632 -56.2887 -107.3793 -46.9562 93.1452 -61.8153 -12.2589 -6.8272 2.3199 0.0000 0.0000 3.9401 0.0000 0.0000 -3.6963 0.1884 1.6604 1.7556 0.0000 0.0000 4.8716 0.0000 0.0000 -5.5326 -0.0097 4.5719 1.9610 0.0000 0.0000 0.6225 0.0000 0.0000 -2.2134 -0.6541 4.3801 1.6420 0.0000 0.0000 3.4321 0.0000 0.0000 0.0546 -1.0793 3.5227 4.7554 0.0000 0.0000 6.7061 0.0000 0.0000 0.0000 0.0000 0.0000 0.0000 0.0000 0.0000 0.0000 0.0000 0.0000 0.0000 0.0000 0.0000 0.0000 0.0000 0.0000 0.0000 0.0000 0.0000
0.0000 95.0000 0.0000 0.0000 0.0000 0.0000 0.0000 0.0000 0.0000 0.0000 0.0000 0.0000 0.0000 0.0000 0.0000 0.0000 0.0000 0.0000 0.0000 0.0000 0.0000 0.0000 0.0000 0.0000 -66.5266 -13.0197 -19.7366 -181.0778 64.7556 -291.9665 30.4626 34.7579 -289.5848 57.2895 -11.2847 6.1476 1.8176 0.0000 0.0000 11.8329 0.0000 0.0000 5.8431 -0.1888 -0.3382 5.3203 0.0000 0.0000 2.0836 0.0000 0.0000 6.0153 -0.2861 0.6691 6.8917 0.0000 0.0000 4.3445 0.0000 0.0000 2.5559 0.1660 2.6179 6.4094 0.0000 0.0000 5.8782 0.0000 0.0000 5.5683 0.5283 3.7181 8.5144 0.0000 0.0000 8.6761 0.0000 0.0000 0.0000 0.0000 0.0000 75.9701 -18.4718 23.5263 -149.9528 61.2309 -56.0353 -110.8107 -40.4333 94.3605 -60.6463 -11.7059 -9.2684 7.3697 0.0000 0.0000 3.1048 0.0000 0.0000 -3.2272 -0.4035 -1.2118 4.7872 0.0000 0.0000 2.9056 0.0000 0.0000 -0.9994 -0.0201 2.4701 2.7409 0.0000 0.0000 1.9521 0.0000 0.0000 0.2520 -0.1609 1.2244 4.0959 0.0000 0.0000 3.5393 0.0000 0.0000 -1.1119 0.1175 -0.6822 5.5572 0.0000 0.0000 6.7096 0.0000 0.0000 0.0000 0.0000 0.0000 0.0000 0.0000 0.0000 0.0000 0.0000 0.0000 0.0000 0.0000 0.0000 0.0000 0.0000 0.0000 0.0000 0.0000 0.0000
0.0000 95.0000 0.0000 0.0000 0.0000 0.0000 0.0000 0.0000 0.0000 0.0000 0.0000 0.0000 0.0000 0.0000 0.0000 0.0000 0.0000 0.0000 0.0000 0.0000 0.0000 0.0000 0.0000 0.0000 -67.1127 -13.1155 -19.6645 -173.2385 67.5288 -282.9764 156.6524 -56.7550 -110.5650 48.7545 -11.0600 -1.9500 9.2718 0.0000 0.0000 14.8031 0.0000 0.0000 -7.9701 1.3351 -8.8445 6.3026 0.0000 0.0000 2.8022 0.0000 0.0000 1.3865 0.0654 -10.1712 4.9948 0.0000 0.0000 0.3006 0.0000 0.0000 3.9037 -1.2273 -9.5217 4.0723 0.0000 0.0000 0.9055 0.0000 0.0000 5.1799 -2.1578 -6.8473 4.1008 0.0000 0.0000 3.6889 0.0000 0.0000 0.0000 0.0000 0.0000 76.2549 -18.5464 23.5030 -149.9373 63.9053 -57.3844 -110.3249 -49.7220 90.2794 -65.6903 -13.3041 -4.7531 10.0698 0.0000 0.0000 7.2472 0.0000 0.0000 -4.7139 0.1973 1.8401 7.2143 0.0000 0.0000 5.0331 0.0000 0.0000 -3.2713 0.0461 6.3870 1.8748 0.0000 0.0000 1.6520 0.0000 0.0000 -1.7762 -0.7487 5.1997 4.7483 0.0000 0.0000 1.3037 0.0000 0.0000 -4.5596 -1.5953 4.7350 9.4659 0.0000 0.0000 3.4639 0.0000 0.0000 0.0000 0.0000 0.0000 0.0000 0.0000 0.0000 0.0000 0.0000 0.0000 0.0000 0.0000 0.0000 0.0000 0.0000 0.0000 0.0000 0.0000 0.0000
0.0000 95.0000 0.0000 0.0000 0.0000 0.0000 0.0000 0.0000 0.0000 0.0000 0.0000 0.0000 0.0000 0.0000 0.0000 0.0000 0.0000 0.0000 0.0000 0.0000 0.0000 0.0000 0.0000 0.0000 -68.3716 -12.3287 -18.0699 -142.2509 76.7722 -246.3290 236.2155 -45.4937 -232.1800 69.7893 -16.8951 -84.2854 15.7165 0.0000 0.0000 13.2297 0.0000 0.0000 3.5761 18.3514 -76.4574 6.1969 0.0000 0.0000 1.6770 0.0000 0.0000 8.5056 6.8264 -82.2349 8.7341 0.0000 0.0000 7.0579 0.0000 0.0000 11.6097 -4.3773 -83.4779 12.4947 0.0000 0.0000 5.9126 0.0000 0.0000 12.4666 -17.6611 -78.4191 14.0304 0.0000 0.0000 2.8879 0.0000 0.0000 0.0000 0.0000 0.0000 77.5391 -17.2673 21.4111 -145.1548 71.6389 -55.6172 -116.4020 -66.7335 92.4523 -71.1059 -14.7227 10.4198 13.7416 0.0000 0.0000 14.2250 0.0000 0.0000 -5.2859 3.0847 14.4755 13.2965 0.0000 0.0000 7.4881 0.0000 0.0000 -5.8785 0.7183 18.6925 9.0151 0.0000 0.0000 5.6657 0.0000 0.0000 -3.6546 -2.1501 17.9637 9.8643 0.0000 0.0000 3.8128 0.0000 0.0000 -5.9001 -5.9851 22.0575 13.5542 0.0000 0.0000 0.5808 0.0000 0.0000 0.0000 0.0000 0.0000 0.0000 0.0000 0.0000 0.0000 0.0000 0.0000 0.0000 0.0000 0.0000 0.0000 0.0000 0.0000 0.0000 0.0000 0.0000
0.0000 95.0000 0.0000 0.0000 0.0000 0.0000 0.0000 0.0000 0.0000 0.0000 0.0000 0.0000 0.0000 0.0000 0.0000 0.0000 0.0000 0.0000 0.0000 0.0000 0.0000 0.0000 0.0000 0.0000 -68.8250 -11.1858 -16.2706 -82.7870 77.6835 -180.3726 326.2799 -37.4635 -266.7667 66.9913 -16.7800 -55.6195 6.8305 0.0000 0.0000 33.9997 0.0000 0.0000 12.4912 2.9964 -12.0472 55.9767 0.0000 0.0000 14.2179 0.0000 0.0000 15.8038 0.1654 -5.9635 70.3643 0.0000 0.0000 8.9387 0.0000 0.0000 24.4011 0.0003 -18.3651 57.2110 0.0000 0.0000 4.7877 0.0000 0.0000 36.3320 -1.7770 -41.3715 33.1756 0.0000 0.0000 5.1792 0.0000 0.0000 0.0000 0.0000 0.0000 78.1840 -15.9728 19.5952 -131.3717 79.0193 -45.2991 63.1046 -69.2720 257.5106 -70.4764 -15.1775 33.0816 12.0456 0.0000 0.0000 13.8267 0.0000 0.0000 -8.7684 6.6022 26.5474 32.6473 0.0000 0.0000 14.5563 0.0000 0.0000 -14.1628 2.5581 25.1501 37.8510 0.0000 0.0000 11.8069 0.0000 0.0000 -12.1579 -1.8681 35.0244 28.9232 0.0000 0.0000 9.3510 0.0000 0.0000 -12.7790 -11.4258 53.5515 18.6826 0.0000 0.0000 4.5462 0.0000 0.0000 0.0000 0.0000 0.0000 0.0000 0.0000 0.0000 0.0000 0.0000 0.0000 0.0000 0.0000 0.0000 0.0000 0.0000 0.0000 0.0000 0.0000 0.0000
0.0000 95.0000 0.0000 0.0000 0.0000 0.0000 0.0000 0.0000 0.0000 0.0000 0.0000 0.0000 0.0000 0.0000 0.0000 0.0000 0.0000 0.0000 0.0000 0.0000 0.0000 0.0000 0.0000 0.0000 -68.6922 -10.4947 -15.3094 -58.4392 71.7832 -151.3075 346.5019 -54.9422 -315.7193 86.5905 -12.1951 -43.0799 3.2774 0.0000 0.0000 14.2720 0.0000 0.0000 33.6463 7.1235 -17.1463 40.7474 0.0000 0.0000 12.2998 0.0000 0.0000 36.2720 -1.4182 -0.4441 64.1453 0.0000 0.0000 1.4863 0.0000 0.0000 30.5340 -0.9619 -5.7517 61.8658 0.0000 0.0000 8.0704 0.0000 0.0000 24.3776 -4.3791 -30.4555 40.1810 0.0000 0.0000 10.9770 0.0000 0.0000 0.0000 0.0000 0.0000 78.5784 -15.0966 18.3993 -110.0007 83.1246 -26.2261 91.1398 -48.4560 258.9492 -80.6825 -10.8942 76.7195 33.4162 0.0000 0.0000 62.6096 0.0000 0.0000 6.9204 4.4911 34.2964 70.9801 0.0000 0.0000 1.0633 0.0000 0.0000 22.4301 -2.8666 19.1565 91.2389 0.0000 0.0000 8.0185 0.0000 0.0000 22.2308 -11.7130 36.9602 71.0493 0.0000 0.0000 13.1322 0.0000 0.0000 11.5001 -24.1099 57.4215 47.0835 0.0000 0.0000 14.7197 0.0000 0.0000 0.0000 0.0000 0.0000 0.0000 0.0000 0.0000 0.0000 0.0000 0.0000 0.0000 0.0000 0.0000 0.0000 0.0000 0.0000 0.0000 0.0000 0.0000
0.0000 95.0000 0.0000 0.0000 0.0000 0.0000 0.0000 0.0000 0.0000 0.0000 0.0000 0.0000 0.0000 0.0000 0.0000 0.0000 0.0000 0.0000 0.0000 0.0000 0.0000 0.0000 0.0000 0.0000 -68.8327 -10.1878 -14.8258 -48.8247 67.0935 -137.2774 408.1881 -66.0295 -376.5710 77.1104 -13.9992 -45.7548 17.7244 0.0000 0.0000 43.1820 0.0000 0.0000 20.7626 7.0568 -21.2449 41.4171 0.0000 0.0000 14.1809 0.0000 0.0000 20.7528 -1.7570 4.8020 67.0727 0.0000 0.0000 10.2665 0.0000 0.0000 20.5102 -0.5433 -15.0533 49.2147 0.0000 0.0000 17.0478 0.0000 0.0000 14.1085 -7.3720 -35.5349 25.4420 0.0000 0.0000 18.4404 0.0000 0.0000 0.0000 0.0000 0.0000 78.7586 -14.5503 17.6811 -88.5583 84.5644 -5.8900 80.9339 -50.9824 275.6524 -38.8398 -34.3860 82.2684 21.2196 0.0000 0.0000 88.4634 0.0000 0.0000 8.7034 6.8167 57.8479 49.1920 0.0000 0.0000 9.4997 0.0000 0.0000 16.9981 -6.3396 45.4412 69.0408 0.0000 0.0000 14.0544 0.0000 0.0000 5.5185 -11.6343 59.0927 53.6029 0.0000 0.0000 13.6073 0.0000 0.0000 0.5892 -22.6789 68.0026 41.7774 0.0000 0.0000 17.0493 0.0000 0.0000 0.0000 0.0000 0.0000 0.0000 0.0000 0.0000 0.0000 0.0000 0.0000 0.0000 0.0000 0.0000 0.0000 0.0000 0.0000 0.0000 0.0000 0.0000
0.0000 95.0000 0.0000 0.0000 0.0000 0.0000 0.0000 0.0000 0.0000 0.0000 0.0000 0.0000 0.0000 0.0000 0.0000 0.0000 0.0000 0.0000 0.0000 0.0000 0.0000 0.0000 0.0000 0.0000 -68.9270 -9.9923 -14.5176 -45.4588 64.3699 -131.4832 357.9237 -70.1629 -334.8352 88.1365 -8.2663 -68.1413 26.7541 0.0000 0.0000 69.2462 0.0000 0.0000 28.5984 14.6952 -34.6887 38.6940 0.0000 0.0000 21.7279 0.0000 0.0000 16.2716 -3.5229 19.5086 96.3150 0.0000 0.0000 9.3377 0.0000 0.0000 20.9695 -1.2270 1.4339 82.4457 0.0000 0.0000 11.4291 0.0000 0.0000 14.8595 -9.3098 -47.1665 33.2674 0.0000 0.0000 16.5727 0.0000 0.0000 0.0000 0.0000 0.0000 79.1387 -14.1398 17.0707 -69.0773 84.9841 12.7114 -71.5811 -64.7177 438.2535 -65.5537 -16.1290 39.3364 16.6950 0.0000 0.0000 27.4934 0.0000 0.0000 1.5436 2.8256 16.4088 30.3900 0.0000 0.0000 5.2140 0.0000 0.0000 -1.7285 0.1183 12.6015 41.9738 0.0000 0.0000 11.4334 0.0000 0.0000 -7.3326 -1.4676 13.9644 36.7443 0.0000 0.0000 10.6097 0.0000 0.0000 -19.2060 -3.2833 14.3328 27.0811 0.0000 0.0000 11.8678 0.0000 0.0000 0.0000 0.0000 0.0000 0.0000 0.0000 0.0000 0.0000 0.0000 0.0000 0.0000 0.0000 0.0000 0.0000 0.0000 0.0000 0.0000 0.0000 0.0000
0.0000 95.0000 0.0000 0.0000 0.0000 0.0000 0.0000 0.0000 0.0000 0.0000 0.0000 0.0000 0.0000 0.0000 0.0000 0.0000 0.0000 0.0000 0.0000 0.0000 0.0000 0.0000 0.0000 0.0000 -69.2184 -9.6505 -13.9482 -43.5924 61.5960 -127.3657 422.5977 -54.2624 -398.2218 72.0692 -15.0930 -43.2802 21.0716 0.0000 0.0000 57.1673 0.0000 0.0000 17.8184 5.0773 -16.9664 37.6265 0.0000 0.0000 15.5497 0.0000 0.0000 15.9050 -5.3296 32.0818 84.4784 0.0000 0.0000 11.6333 0.0000 0.0000 16.6899 -1.0297 16.2724 70.7479 0.0000 0.0000 16.5450 0.0000 0.0000 7.5101 -5.0793 -19.1241 31.0483 0.0000 0.0000 18.4908 0.0000 0.0000 0.0000 0.0000 0.0000 79.2260 -13.8711 16.7222 -52.6543 84.3147 28.1648 -70.7273 -58.4128 440.2229 -65.5613 -15.8603 35.2173 16.6297 0.0000 0.0000 23.9717 0.0000 0.0000 7.3985 1.5908 10.8898 35.2289 0.0000 0.0000 7.9873 0.0000 0.0000 -2.8744 0.1156 9.3789 41.4131 0.0000 0.0000 11.6977 0.0000 0.0000 -9.4603 -1.0826 9.7233 36.1748 0.0000 0.0000 11.2507 0.0000 0.0000 -19.9500 -2.4384 7.8267 28.4589 0.0000 0.0000 12.7874 0.0000 0.0000 0.0000 0.0000 0.0000 0.0000 0.0000 0.0000 0.0000 0.0000 0.0000 0.0000 0.0000 0.0000 0.0000 0.0000 0.0000 0.0000 0.0000 0.0000
0.0000 95.0000 0.0000 0.0000 0.0000 0.0000 0.0000 0.0000 0.0000 0.0000 0.0000 0.0000 0.0000 0.0000 0.0000 0.0000 0.0000 0.0000 0.0000 0.0000 0.0000 0.0000 0.0000 0.0000 -69.4898 -9.6070 -13.8163 -42.0666 60.3183 -124.0943 381.6389 -69.8594 -358.3909 78.9805 -12.4330 -66.4862 21.1985 0.0000 0.0000 28.5141 0.0000 0.0000 23.1027 13.0801 -34.8761 36.8125 0.0000 0.0000 8.0278 0.0000 0.0000 22.1989 -3.1161 11.0151 88.7664 0.0000 0.0000 5.5224 0.0000 0.0000 23.1580 -0.8835 -6.4094 74.6820 0.0000 0.0000 12.1125 0.0000 0.0000 13.3032 -8.9092 -42.3677 35.1666 0.0000 0.0000 14.8750 0.0000 0.0000 0.0000 0.0000 0.0000 79.2501 -13.6967 16.5059 -43.6118 83.6804 36.5556 -96.5686 -71.3004 466.8074 -55.9212 -19.1375 48.7735 15.6075 0.0000 0.0000 20.6208 0.0000 0.0000 11.0459 2.2233 20.6541 38.0069 0.0000 0.0000 7.2776 0.0000 0.0000 3.7041 -0.2945 13.8605 49.9179 0.0000 0.0000 11.5223 0.0000 0.0000 -3.9082 -2.1357 18.0737 41.5314 0.0000 0.0000 12.2945 0.0000 0.0000 -14.3756 -5.0770 23.0646 29.9513 0.0000 0.0000 12.3602 0.0000 0.0000 0.0000 0.0000 0.0000 0.0000 0.0000 0.0000 0.0000 0.0000 0.0000 0.0000 0.0000 0.0000 0.0000 0.0000 0.0000 0.0000 0.0000 0.0000
0.0000 95.0000 0.0000 0.0000 0.0000 0.0000 0.0000 0.0000 0.0000 0.0000 0.0000 0.0000 0.0000 0.0000 0.0000 0.0000 0.0000 0.0000 0.0000 0.0000 0.0000 0.0000 0.0000 0.0000 -69.5128 -9.4174 -13.5392 -40.9254 58.9736 -121.7170 299.7284 -47.8043 -275.9170 99.7397 3.2182 -87.4928 39.2629 0.0000 0.0000 66.2818 0.0000 0.0000 37.0381 26.6588 -50.3287 49.6425 0.0000 0.0000 15.6834 0.0000 0.0000 18.0157 -0.9378 1.1386 121.1807 0.0000 0.0000 9.0212 0.0000 0.0000 26.4720 0.1117 -17.1939 106.5193 0.0000 0.0000 9.6025 0.0000 0.0000 11.5294 -17.5755 -75.7784 44.6702 0.0000 0.0000 8.4412 0.0000 0.0000 0.0000 0.0000 0.0000 79.4550 -13.5267 16.2434 -34.4390 82.8784 44.8286 -207.3559 -60.2260 565.4769 -29.7511 -32.7749 66.2806 18.7461 0.0000 0.0000 11.8439 0.0000 0.0000 29.8543 -2.1821 41.8545 45.2685 0.0000 0.0000 6.1905 0.0000 0.0000 23.9592 -2.0189 14.2660 74.4252 0.0000 0.0000 11.9271 0.0000 0.0000 19.9065 -8.6678 30.0625 54.9288 0.0000 0.0000 14.1487 0.0000 0.0000 17.7262 -21.7035 46.8526 31.7611 0.0000 0.0000 11.2760 0.0000 0.0000 0.0000 0.0000 0.0000 0.0000 0.0000 0.0000 0.0000 0.0000 0.0000 0.0000 0.0000 0.0000 0.0000 0.0000 0.0000 0.0000 0.0000 0.0000
0.0000 95.0000 0.0000 0.0000 0.0000 0.0000 0.0000 0.0000 0.0000 0.0000 0.0000 0.0000 0.0000 0.0000 0.0000 0.0000 0.0000 0.0000 0.0000 0.0000 0.0000 0.0000 0.0000 0.0000 -69.8194 -9.3726 -13.3991 -40.1057 58.5863 -119.9171 308.9423 -51.4976 -288.4273 95.8123 1.7730 -91.9758 33.1221 0.0000 0.0000 64.2994 0.0000 0.0000 39.3844 29.4344 -52.7741 41.2641 0.0000 0.0000 12.8283 0.0000 0.0000 26.1087 1.5453 -11.4292 98.7279 0.0000 0.0000 5.4937 0.0000 0.0000 25.4760 1.8675 -38.6405 77.3598 0.0000 0.0000 5.2691 0.0000 0.0000 13.6101 -17.4199 -80.5614 34.9181 0.0000 0.0000 9.8613 0.0000 0.0000 0.0000 0.0000 0.0000 79.7531 -13.2083 15.7800 -28.2643 82.0202 50.2858 -227.3957 -49.5686 575.1902 -27.2018 -36.9289 73.2783 23.9714 0.0000 0.0000 7.1145 0.0000 0.0000 35.4371 -5.2703 49.9969 50.3708 0.0000 0.0000 5.9031 0.0000 0.0000 30.3774 -1.2281 9.2935 90.3893 0.0000 0.0000 12.5172 0.0000 0.0000 29.9451 -11.6409 31.4042 63.9496 0.0000 0.0000 14.9183 0.0000 0.0000 33.7874 -33.3337 53.2214 31.8164 0.0000 0.0000 10.7209 0.0000 0.0000 0.0000 0.0000 0.0000 0.0000 0.0000 0.0000 0.0000 0.0000 0.0000 0.0000 0.0000 0.0000 0.0000 0.0000 0.0000 0.0000 0.0000 0.0000
0.0000 95.0000 0.0000 0.0000 0.0000 0.0000 0.0000 0.0000 0.0000 0.0000 0.0000 0.0000 0.0000 0.0000 0.0000 0.0000 0.0000 0.0000 0.0000 0.0000 0.0000 0.0000 0.0000 0.0000 -69.8853 -9.4197 -13.4498 -40.0462 56.8808 -118.4717 338.7177 -51.6392 -323.4319 97.1324 0.4003 -84.4218 23.7556 0.0000 0.0000 61.8190 0.0000 0.0000 44.8551 29.9253 -49.0880 30.8956 0.0000 0.0000 7.4400 0.0000 0.0000 39.4921 15.7315 -46.8722 36.7973 0.0000 0.0000 5.0329 0.0000 0.0000 23.8167 3.7613 -67.6489 29.4177 0.0000 0.0000 7.7958 0.0000 0.0000 23.6837 -10.0180 -80.4273 23.9464 0.0000 0.0000 13.7269 0.0000 0.0000 0.0000 0.0000 0.0000 79.9012 -12.8748 15.3432 -21.1657 81.0735 56.6827 -92.4169 -69.3918 481.4734 -50.6944 -19.9613 46.3459 12.0118 0.0000 0.0000 18.1320 0.0000 0.0000 29.0938 1.2097 1.0855 55.5302 0.0000 0.0000 12.6880 0.0000 0.0000 14.2288 0.4885 0.8596 64.0152 0.0000 0.0000 10.8628 0.0000 0.0000 2.5999 -2.0824 13.6112 51.4914 0.0000 0.0000 10.5864 0.0000 0.0000 -18.2552 -6.0815 33.7707 27.3409 0.0000 0.0000 9.2526 0.0000 0.0000 0.0000 0.0000 0.0000 0.0000 0.0000 0.0000 0.0000 0.0000 0.0000 0.0000 0.0000 0.0000 0.0000 0.0000 0.0000 0.0000 0.0000 0.0000
0.0000 95.0000 0.0000 0.0000 0.0000 0.0000 0.0000 0.0000 0.0000 0.0000 0.0000 0.0000 0.0000 0.0000 0.0000 0.0000 0.0000 0.0000 0.0000 0.0000 0.0000 0.0000 0.0000 0.0000 -69.5674 -9.2483 -13.2838 -40.1717 53.9373 -117.0181 402.1218 -16.3961 -396.3916 72.9100 -14.8799 -16.9781 10.3290 0.0000 0.0000 31.6719 0.0000 0.0000 24.2866 2.8709 -9.7776 6.8783 0.0000 0.0000 5.2782 0.0000 0.0000 22.2258 2.3213 -16.5497 15.5094 0.0000 0.0000 17.9400 0.0000 0.0000 21.1407 -0.5540 -13.7514 27.0320 0.0000 0.0000 13.3985 0.0000 0.0000 23.8401 -2.9729 -13.7394 25.8923 0.0000 0.0000 13.5168 0.0000 0.0000 0.0000 0.0000 0.0000 79.8513 -12.2979 14.6708 -12.7574 78.9102 63.8188 25.9064 -86.9480 374.0822 -51.0131 -23.8790 66.0938 14.3062 0.0000 0.0000 12.6088 0.0000 0.0000 -5.1816 5.5431 25.1055 45.5860 0.0000 0.0000 6.1061 0.0000 0.0000 -1.4053 0.5239 45.6637 35.0659 0.0000 0.0000 9.1539 0.0000 0.0000 -8.0556 -3.4673 42.3181 41.6112 0.0000 0.0000 9.1987 0.0000 0.0000 -11.9103 -8.7589 39.5583 41.8438 0.0000 0.0000 11.5822 0.0000 0.0000 0.0000 0.0000 0.0000 0.0000 0.0000 0.0000 0.0000 0.0000 0.0000 0.0000 0.0000 0.0000 0.0000 0.0000 0.0000 0.0000 0.0000 0.0000
0.0000 95.0000 0.0000 0.0000 0.0000 0.0000 0.0000 0.0000 0.0000 0.0000 0.0000 0.0000 0.0000 0.0000 0.0000 0.0000 0.0000 0.0000 0.0000 0.0000 0.0000 0.0000 0.0000 0.0000 -69.1383 -9.1735 -13.2817 -39.0636 48.5394 -111.3979 381.3251 2.7654 -395.9900 87.2418 -15.6077 -13.9444 13.8302 0.0000 0.0000 43.0594 0.0000 0.0000 35.3476 -1.5500 -0.3979 15.2817 0.0000 0.0000 3.9687 0.0000 0.0000 35.0721 0.8279 -7.3916 30.1023 0.0000 0.0000 30.4845 0.0000 0.0000 35.1208 -0.8420 -6.6024 40.4809 0.0000 0.0000 22.3244 0.0000 0.0000 37.4038 -2.4558 -8.3580 39.5612 0.0000 0.0000 16.4875 0.0000 0.0000 0.0000 0.0000 0.0000 80.4834 -11.6187 13.7101 -2.6670 76.7275 72.2567 -47.5969 -47.2798 390.2031 -61.1923 -15.6329 27.3969 13.8620 0.0000 0.0000 12.9092 0.0000 0.0000 -3.7977 6.3086 29.6743 16.6498 0.0000 0.0000 6.3034 0.0000 0.0000 -7.9921 2.9050 44.6711 12.6841 0.0000 0.0000 6.0188 0.0000 0.0000 -8.3738 -3.4733 43.8053 20.9931 0.0000 0.0000 6.4164 0.0000 0.0000 -13.7738 -9.5669 46.4803 26.3868 0.0000 0.0000 9.3507 0.0000 0.0000 0.0000 0.0000 0.0000 0.0000 0.0000 0.0000 0.0000 0.0000 0.0000 0.0000 0.0000 0.0000 0.0000 0.0000 0.0000 0.0000 0.0000 0.0000
0.0000 95.0000 0.0000 0.0000 0.0000 0.0000 0.0000 0.0000 0.0000 0.0000 0.0000 0.0000 0.0000 0.0000 0.0000 0.0000 0.0000 0.0000 0.0000 0.0000 0.0000 0.0000 0.0000 0.0000 -69.0408 -8.6684 -12.5764 -36.1859 32.6628 -88.9130 337.2518 36.7847 -421.1274 97.8247 -17.4613 -7.7850 31.1053 0.0000 0.0000 62.2583 0.0000 0.0000 22.4731 -5.8132 11.9039 127.4470 0.0000 0.0000 30.1917 0.0000 0.0000 25.2011 -2.3457 5.6941 132.3809 0.0000 0.0000 43.0065 0.0000 0.0000 31.2960 -1.9775 1.7640 132.6496 0.0000 0.0000 51.2139 0.0000 0.0000 34.2822 -2.4784 -1.9612 127.0822 0.0000 0.0000 42.6595 0.0000 0.0000 0.0000 0.0000 0.0000 81.1647 -10.0527 11.7251 10.3432 65.0954 76.3619 -67.4227 -7.1017 277.7929 -70.9730 -14.5439 1.2657 29.7456 0.0000 0.0000 75.6497 0.0000 0.0000 7.7981 21.0409 120.7177 23.5782 0.0000 0.0000 13.6675 0.0000 0.0000 -4.5404 9.7855 135.0736 19.0911 0.0000 0.0000 23.8396 0.0000 0.0000 -10.5295 -12.6425 136.7219 30.8164 0.0000 0.0000 44.3290 0.0000 0.0000 -25.6005 -21.9512 141.9214 32.1890 0.0000 0.0000 39.0337 0.0000 0.0000 0.0000 0.0000 0.0000 0.0000 0.0000 0.0000 0.0000 0.0000 0.0000 0.0000 0.0000 0.0000 0.0000 0.0000 0.0000 0.0000 0.0000 0.0000
0.0000 95.0000 0.0000 0.0000 0.0000 0.0000 0.0000 0.0000 0.0000 0.0000 0.0000 0.0000 0.0000 0.0000 0.0000 0.0000 0.0000 0.0000 0.0000 0.0000 0.0000 0.0000 0.0000 0.0000 -69.5939 -8.3150 -11.9426 -35.5170 20.9936 -67.4818 311.8273 51.3614 -448.2197 97.8247 -17.4613 -7.7850 31.1053 0.0000 0.0000 62.2583 0.0000 0.0000 22.4731 -5.8132 11.9039 127.4470 0.0000 0.0000 30.1917 0.0000 0.0000 25.2011 -2.3457 5.6941 132.3809 0.0000 0.0000 43.0065 0.0000 0.0000 31.2960 -1.9775 1.7640 132.6496 0.0000 0.0000 51.2139 0.0000 0.0000 34.2822 -2.4784 -1.9612 127.0822 0.0000 0.0000 42.6595 0.0000 0.0000 0.0000 0.0000 0.0000 81.6943 -8.6784 10.0308 14.9931 52.4158 69.4985 -83.7811 -15.5369 283.5276 -70.9730 -14.5439 1.2657 29.7456 0.0000 0.0000 75.6497 0.0000 0.0000 7.7981 21.0409 120.7177 23.5782 0.0000 0.0000 13.6675 0.0000 0.0000 -4.5404 9.7855 135.0736 19.0911 0.0000 0.0000 23.8396 0.0000 0.0000 -10.5295 -12.6425 136.7219 30.8164 0.0000 0.0000 44.3290 0.0000 0.0000 -25.6005 -21.9512 141.9214 32.1890 0.0000 0.0000 39.0337 0.0000 0.0000 0.0000 0.0000 0.0000 0.0000 0.0000 0.0000 0.0000 0.0000 0.0000 0.0000 0.0000 0.0000 0.0000 0.0000 0.0000 0.0000 0.0000 0.0000
0.0000 95.0000 0.0000 0.0000 0.0000 0.0000 0.0000 0.0000 0.0000 0.0000 0.0000 0.0000 0.0000 0.0000 0.0000 0.0000 0.0000 0.0000 0.0000 0.0000 0.0000 0.0000 0.0000 0.0000 -71.1995 -6.6668 -9.3021 -36.5161 9.8549 -40.1310 267.3809 47.5569 -498.8417 97.8247 -17.4613 -7.7850 31.1053 0.0000 0.0000 62.2583 0.0000 0.0000 22.4731 -5.8132 11.9039 127.4470 0.0000 0.0000 30.1917 0.0000 0.0000 25.2011 -2.3457 5.6941 132.3809 0.0000 0.0000 43.0065 0.0000 0.0000 31.2960 -1.9775 1.7640 132.6496 0.0000 0.0000 51.2139 0.0000 0.0000 34.2822 -2.4784 -1.9612 127.0822 0.0000 0.0000 42.6595 0.0000 0.0000 0.0000 0.0000 0.0000 82.5142 -7.3005 8.3192 13.9660 37.2464 51.5406 -107.3902 -19.4419 300.9532 -70.9730 -14.5439 1.2657 29.7456 0.0000 0.0000 75.6497 0.0000 0.0000 7.7981 21.0409 120.7177 23.5782 0.0000 0.0000 13.6675 0.0000 0.0000 -4.5404 9.7855 135.0736 19.0911 0.0000 0.0000 23.8396 0.0000 0.0000 -10.5295 -12.6425 136.7219 30.8164 0.0000 0.0000 44.3290 0.0000 0.0000 -25.6005 -21.9512 141.9214 32.1890 0.0000 0.0000 39.0337 0.0000 0.0000 0.0000 0.0000 0.0000 0.0000 0.0000 0.0000 0.0000 0.0000 0.0000 0.0000 0.0000 0.0000 0.0000 0.0000 0.0000 0.0000 0.0000 0.0000
0.0000 95.0000 0.0000 0.0000 0.0000 0.0000 0.0000 0.0000 0.0000 0.0000 0.0000 0.0000 0.0000 0.0000 0.0000 0.0000 0.0000 0.0000 0.0000 0.0000 0.0000 0.0000 0.0000 0.0000 -73.3184 -5.2319 -7.0257 -32.4920 3.9538 -17.2614 254.6662 29.3490 -522.6952 97.8247 -17.4613 -7.7850 31.1053 0.0000 0.0000 62.2583 0.0000 0.0000 22.4731 -5.8132 11.9039 127.4470 0.0000 0.0000 30.1917 0.0000 0.0000 25.2011 -2.3457 5.6941 132.3809 0.0000 0.0000 43.0065 0.0000 0.0000 31.2960 -1.9775 1.7640 132.6496 0.0000 0.0000 51.2139 0.0000 0.0000 34.2822 -2.4784 -1.9612 127.0822 0.0000 0.0000 42.6595 0.0000 0.0000 0.0000 0.0000 0.0000 83.4157 -6.6766 7.4894 10.3705 25.8326 34.4545 -123.5932 -14.1894 317.9553 -70.9730 -14.5439 1.2657 29.7456 0.0000 0.0000 75.6497 0.0000 0.0000 7.7981 21.0409 120.7177 23.5782 0.0000 0.0000 13.6675 0.0000 0.0000 -4.5404 9.7855 135.0736 19.0911 0.0000 0.0000 23.8396 0.0000 0.0000 -10.5295 -12.6425 136.7219 30.8164 0.0000 0.0000 44.3290 0.0000 0.0000 -25.6005 -21.9512 141.9214 32.1890 0.0000 0.0000 39.0337 0.0000 0.0000 0.0000 0.0000 0.0000 0.0000 0.0000 0.0000 0.0000 0.0000 0.0000 0.0000 0.0000 0.0000 0.0000 0.0000 0.0000 0.0000 0.0000 0.0000
0.0000 95.0000 0.0000 0.0000 0.0000 0.0000 0.0000 0.0000 0.0000 0.0000 0.0000 0.0000 0.0000 0.0000 0.0000 0.0000 0.0000 0.0000 0.0000 0.0000 0.0000 0.0000 0.0000 0.0000 -74.7617 -4.2953 -5.6201 -27.4118 0.1189 -4.4262 255.5894 17.4050 -531.9944 97.8247 -17.4613 -7.7850 31.1053 0.0000 0.0000 62.2583 0.0000 0.0000 22.4731 -5.8132 11.9039 127.4470 0.0000 0.0000 30.1917 0.0000 0.0000 25.2011 -2.3457 5.6941 132.3809 0.0000 0.0000 43.0065 0.0000 0.0000 31.2960 -1.9775 1.7640 132.6496 0.0000 0.0000 51.2139 0.0000 0.0000 34.2822 -2.4784 -1.9612 127.0822 0.0000 0.0000 42.6595 0.0000 0.0000 0.0000 0.0000 0.0000 84.7509 -5.9420 6.5117 7.0931 17.3027 21.7271 -132.4272 -6.1494 330.2958 -70.9730 -14.5439 1.2657 29.7456 0.0000 0.0000 75.6497 0.0000 0.0000 7.7981 21.0409 120.7177 23.5782 0.0000 0.0000 13.6675 0.0000 0.0000 -4.5404 9.7855 135.0736 19.0911 0.0000 0.0000 23.8396 0.0000 0.0000 -10.5295 -12.6425 136.7219 30.8164 0.0000 0.0000 44.3290 0.0000 0.0000 -25.6005 -21.9512 141.9214 32.1890 0.0000 0.0000 39.0337 0.0000 0.0000 0.0000 0.0000 0.0000 0.0000 0.0000 0.0000 0.0000 0.0000 0.0000 0.0000 0.0000 0.0000 0.0000 0.0000 0.0000 0.0000 0.0000 0.0000
0.0000 95.0000 0.0000 0.0000 0.0000 0.0000 0.0000 0.0000 0.0000 0.0000 0.0000 0.0000 0.0000 0.0000 0.0000 0.0000 0.0000 0.0000 0.0000 0.0000 0.0000 0.0000 0.0000 0.0000 -75.9173 -3.8114 -4.8845 -23.0954 -1.6258 0.4812 258.4670 12.5457 -535.2855 97.8247 -17.4613 -7.7850 31.1053 0.0000 0.0000 62.2583 0.0000 0.0000 22.4731 -5.8132 11.9039 127.4470 0.0000 0.0000 30.1917 0.0000 0.0000 25.2011 -2.3457 5.6941 132.3809 0.0000 0.0000 43.0065 0.0000 0.0000 31.2960 -1.9775 1.7640 132.6496 0.0000 0.0000 51.2139 0.0000 0.0000 34.2822 -2.4784 -1.9612 127.0822 0.0000 0.0000 42.6595 0.0000 0.0000 0.0000 0.0000 0.0000 85.7134 -5.5645 5.9964 4.2304 14.1433 16.5387 -133.8574 -1.9327 335.1952 -70.9730 -14.5439 1.2657 29.7456 0.0000 0.0000 75.6497 0.0000 0.0000 7.7981 21.0409 120.7177 23.5782 0.0000 0.0000 13.6675 0.0000 0.0000 -4.5404 9.7855 135.0736 19.0911 0.0000 0.0000 23.8396 0.0000 0.0000 -10.5295 -12.6425 136.7219 30.8164 0.0000 0.0000 44.3290 0.0000 0.0000 -25.6005 -21.9512 141.9214 32.1890 0.0000 0.0000 39.0337 0.0000 0.0000 0.0000 0.0000 0.0000 0.0000 0.0000 0.0000 0.0000 0.0000 0.0000 0.0000 0.0000 0.0000 0.0000 0.0000 0.0000 0.0000 0.0000 0.0000
0.0000 95.0000 0.0000 0.0000 0.0000 0.0000 0.0000 0.0000 0.0000 0.0000 0.0000 0.0000 0.0000 0.0000 0.0000 0.0000 0.0000 0.0000 0.0000 0.0000 0.0000 0.0000 0.0000 0.0000 -76.3849 -2.6831 -3.4101 -20.2833 -4.8138 7.4156 261.0838 5.3509 -541.0956 97.8247 -17.4613 -7.7850 31.1053 0.0000 0.0000 62.2583 0.0000 0.0000 22.4731 -5.8132 11.9039 127.4470 0.0000 0.0000 30.1917 0.0000 0.0000 25.2011 -2.3457 5.6941 132.3809 0.0000 0.0000 43.0065 0.0000 0.0000 31.2960 -1.9775 1.7640 132.6496 0.0000 0.0000 51.2139 0.0000 0.0000 34.2822 -2.4784 -1.9612 127.0822 0.0000 0.0000 42.6595 0.0000 0.0000 0.0000 0.0000 0.0000 85.1840 -5.4209 5.8961 2.9246 11.0191 12.7222 -134.2527 1.4986 338.9897 -70.9730 -14.5439 1.2657 29.7456 0.0000 0.0000 75.6497 0.0000 0.0000 7.7981 21.0409 120.7177 23.5782 0.0000 0.0000 13.6675 0.0000 0.0000 -4.5404 9.7855 135.0736 19.0911 0.0000 0.0000 23.8396 0.0000 0.0000 -10.5295 -12.6425 136.7219 30.8164 0.0000 0.0000 44.3290 0.0000 0.0000 -25.6005 -21.9512 141.9214 32.1890 0.0000 0.0000 39.0337 0.0000 0.0000 0.0000 0.0000 0.0000 0.0000 0.0000 0.0000 0.0000 0.0000 0.0000 0.0000 0.0000 0.0000 0.0000 0.0000 0.0000 0.0000 0.0000 0.0000
0.0000 95.0000 0.0000 0.0000 0.0000 0.0000 0.0000 0.0000 0.0000 0.0000 0.0000 0.0000 0.0000 0.0000 0.0000 0.0000 0.0000 0.0000 0.0000 0.0000 0.0000 0.0000 0.0000 0.0000 -76.3509 -2.1591 -2.7460 -17.7541 -5.9192 9.4545 263.9403 3.0293 -542.9036 97.8247 -17.4613 -7.7850 31.1053 0.0000 0.0000 62.2583 0.0000 0.0000 22.4731 -5.8132 11.9039 127.4470 0.0000 0.0000 30.1917 0.0000 0.0000 25.2011 -2.3457 5.6941 132.3809 0.0000 0.0000 43.0065 0.0000 0.0000 31.2960 -1.9775 1.7640 132.6496 0.0000 0.0000 51.2139 0.0000 0.0000 34.2822 -2.4784 -1.9612 127.0822 0.0000 0.0000 42.6595 0.0000 0.0000 0.0000 0.0000 0.0000 84.9124 -5.0719 5.5428 2.4099 9.2373 10.6331 -134.5696 3.6672 341.3710 -70.9730 -14.5439 1.2657 29.7456 0.0000 0.0000 75.6497 0.0000 0.0000 7.7981 21.0409 120.7177 23.5782 0.0000 0.0000 13.6675 0.0000 0.0000 -4.5404 9.7855 135.0736 19.0911 0.0000 0.0000 23.8396 0.0000 0.0000 -10.5295 -12.6425 136.7219 30.8164 0.0000 0.0000 44.3290 0.0000 0.0000 -25.6005 -21.9512 141.9214 32.1890 0.0000 0.0000 39.0337 0.0000 0.0000 0.0000 0.0000 0.0000 0.0000 0.0000 0.0000 0.0000 0.0000 0.0000 0.0000 0.0000 0.0000 0.0000 0.0000 0.0000 0.0000 0.0000 0.0000
0.0000 95.0000 0.0000 0.0000 0.0000 0.0000 0.0000 0.0000 0.0000 0.0000 0.0000 0.0000 0.0000 0.0000 0.0000 0.0000 0.0000 0.0000 0.0000 0.0000 0.0000 0.0000 0.0000 0.0000 -75.9212 -2.0674 -2.6498 -15.5567 -5.9701 9.3675 266.5631 2.9781 -542.6936 97.8247 -17.4613 -7.7850 31.1053 0.0000 0.0000 62.2583 0.0000 0.0000 22.4731 -5.8132 11.9039 127.4470 0.0000 0.0000 30.1917 0.0000 0.0000 25.2011 -2.3457 5.6941 132.3809 0.0000 0.0000 43.0065 0.0000 0.0000 31.2960 -1.9775 1.7640 132.6496 0.0000 0.0000 51.2139 0.0000 0.0000 34.2822 -2.4784 -1.9612 127.0822 0.0000 0.0000 42.6595 0.0000 0.0000 0.0000 0.0000 0.0000 84.4418 -5.1222 5.6441 2.3708 8.6841 10.0881 -134.3197 4.1698 341.9195 -70.9730 -14.5439 1.2657 29.7456 0.0000 0.0000 75.6497 0.0000 0.0000 7.7981 21.0409 120.7177 23.5782 0.0000 0.0000 13.6675 0.0000 0.0000 -4.5404 9.7855 135.0736 19.0911 0.0000 0.0000 23.8396 0.0000 0.0000 -10.5295 -12.6425 136.7219 30.8164 0.0000 0.0000 44.3290 0.0000 0.0000 -25.6005 -21.9512 141.9214 32.1890 0.0000 0.0000 39.0337 0.0000 0.0000 0.0000 0.0000 0.0000 0.0000 0.0000 0.0000 0.0000 0.0000 0.0000 0.0000 0.0000 0.0000 0.0000 0.0000 0.0000 0.0000 0.0000 0.0000
0.0000 95.0000 0.0000 0.0000 0.0000 0.0000 0.0000 0.0000 0.0000 0.0000 0.0000 0.0000 0.0000 0.0000 0.0000 0.0000 0.0000 0.0000 0.0000 0.0000 0.0000 0.0000 0.0000 0.0000 -75.5004 -2.3113 -2.9848 -14.4609 -6.2931 9.7490 268.1155 2.9201 -542.5941 97.8247 -17.4613 -7.7850 31.1053 0.0000 0.0000 62.2583 0.0000 0.0000 22.4731 -5.8132 11.9039 127.4470 0.0000 0.0000 30.1917 0.0000 0.0000 25.2011 -2.3457 5.6941 132.3809 0.0000 0.0000 43.0065 0.0000 0.0000 31.2960 -1.9775 1.7640 132.6496 0.0000 0.0000 51.2139 0.0000 0.0000 34.2822 -2.4784 -1.9612 127.0822 0.0000 0.0000 42.6595 0.0000 0.0000 0.0000 0.0000 0.0000 83.9125 -4.6846 5.2101 1.8223 8.0041 9.2623 -133.6895 5.4299 343.3178 -70.9730 -14.5439 1.2657 29.7456 0.0000 0.0000 75.6497 0.0000 0.0000 7.7981 21.0409 120.7177 23.5782 0.0000 0.0000 13.6675 0.0000 0.0000 -4.5404 9.7855 135.0736 19.0911 0.0000 0.0000 23.8396 0.0000 0.0000 -10.5295 -12.6425 136.7219 30.8164 0.0000 0.0000 44.3290 0.0000 0.0000 -25.6005 -21.9512 141.9214 32.1890 0.0000 0.0000 39.0337 0.0000 0.0000 0.0000 0.0000 0.0000 0.0000 0.0000 0.0000 0.0000 0.0000 0.0000 0.0000 0.0000 0.0000 0.0000 0.0000 0.0000 0.0000 0.0000 0.0000
0.0000 95.0000 0.0000 0.0000 0.0000 0.0000 0.0000 0.0000 0.0000 0.0000 0.0000 0.0000 0.0000 0.0000 0.0000 0.0000 0.0000 0.0000 0.0000 0.0000 0.0000 0.0000 0.0000 0.0000 -75.3534 -2.4078 -3.1176 -13.6663 -6.3202 9.6800 269.0407 3.0618 -542.3528 97.8247 -17.4613 -7.7850 31.1053 0.0000 0.0000 62.2583 0.0000 0.0000 22.4731 -5.8132 11.9039 127.4470 0.0000 0.0000 30.1917 0.0000 0.0000 25.2011 -2.3457 5.6941 132.3809 0.0000 0.0000 43.0065 0.0000 0.0000 31.2960 -1.9775 1.7640 132.6496 0.0000 0.0000 51.2139 0.0000 0.0000 34.2822 -2.4784 -1.9612 127.0822 0.0000 0.0000 42.6595 0.0000 0.0000 0.0000 0.0000 0.0000 83.6505 -4.7731 5.3329 1.8147 7.8682 9.1495 -133.4599 5.4839 343.3833 -70.9730 -14.5439 1.2657 29.7456 0.0000 0.0000 75.6497 0.0000 0.0000 7.7981 21.0409 120.7177 23.5782 0.0000 0.0000 13.6675 0.0000 0.0000 -4.5404 9.7855 135.0736 19.0911 0.0000 0.0000 23.8396 0.0000 0.0000 -10.5295 -12.6425 136.7219 30.8164 0.0000 0.0000 44.3290 0.0000 0.0000 -25.6005 -21.9512 141.9214 32.1890 0.0000 0.0000 39.0337 0.0000 0.0000 0.0000 0.0000 0.0000 0.0000 0.0000 0.0000 0.0000 0.0000 0.0000 0.0000 0.0000 0.0000 0.0000 0.0000 0.0000 0.0000 0.0000 0.0000
0.0000 95.0000 0.0000 0.0000 0.0000 0.0000 0.0000 0.0000 0.0000 0.0000 0.0000 0.0000 0.0000 0.0000 0.0000 0.0000 0.0000 0.0000 0.0000 0.0000 0.0000 0.0000 0.0000 0.0000 -75.4316 -2.4579 -3.1781 -13.1619 -6.6777 10.1757 269.5402 2.6915 -542.6838 97.8247 -17.4613 -7.7850 31.1053 0.0000 0.0000 62.2583 0.0000 0.0000 22.4731 -5.8132 11.9039 127.4470 0.0000 0.0000 30.1917 0.0000 0.0000 25.2011 -2.3457 5.6941 132.3809 0.0000 0.0000 43.0065 0.0000 0.0000 31.2960 -1.9775 1.7640 132.6496 0.0000 0.0000 51.2139 0.0000 0.0000 34.2822 -2.4784 -1.9612 127.0822 0.0000 0.0000 42.6595 0.0000 0.0000 0.0000 0.0000 0.0000 83.6483 -4.7172 5.2707 1.0406 8.0305 9.1375 -132.6783 5.6035 343.5374 -70.9730 -14.5439 1.2657 29.7456 0.0000 0.0000 75.6497 0.0000 0.0000 7.7981 21.0409 120.7177 23.5782 0.0000 0.0000 13.6675 0.0000 0.0000 -4.5404 9.7855 135.0736 19.0911 0.0000 0.0000 23.8396 0.0000 0.0000 -10.5295 -12.6425 136.7219 30.8164 0.0000 0.0000 44.3290 0.0000 0.0000 -25.6005 -21.9512 141.9214 32.1890 0.0000 0.0000 39.0337 0.0000 0.0000 0.0000 0.0000 0.0000 0.0000 0.0000 0.0000 0.0000 0.0000 0.0000 0.0000 0.0000 0.0000 0.0000 0.0000 0.0000 0.0000 0.0000 0.0000
0.0000 95.0000 0.0000 0.0000 0.0000 0.0000 0.0000 0.0000 0.0000 0.0000 0.0000 0.0000 0.0000 0.0000 0.0000 0.0000 0.0000 0.0000 0.0000 0.0000 0.0000 0.0000 0.0000 0.0000 -75.4298 -2.4811 -3.2081 -13.4262 -6.3285 9.6219 269.1930 3.1726 -542.2221 97.8247 -17.4613 -7.7850 31.1053 0.0000 0.0000 62.2583 0.0000 0.0000 22.4731 -5.8132 11.9039 127.4470 0.0000 0.0000 30.1917 0.0000 0.0000 25.2011 -2.3457 5.6941 132.3809 0.0000 0.0000 43.0065 0.0000 0.0000 31.2960 -1.9775 1.7640 132.6496 0.0000 0.0000 51.2139 0.0000 0.0000 34.2822 -2.4784 -1.9612 127.0822 0.0000 0.0000 42.6595 0.0000 0.0000 0.0000 0.0000 0.0000 84.1034 -4.9068 5.4389 0.8704 8.0736 9.0692 -132.9262 5.4081 343.3108 -70.9730 -14.5439 1.2657 29.7456 0.0000 0.0000 75.6497 0.0000 0.0000 7.7981 21.0409 120.7177 23.5782 0.0000 0.0000 13.6675 0.0000 0.0000 -4.5404 9.7855 135.0736 19.0911 0.0000 0.0000 23.8396 0.0000 0.0000 -10.5295 -12.6425 136.7219 30.8164 0.0000 0.0000 44.3290 0.0000 0.0000 -25.6005 -21.9512 141.9214 32.1890 0.0000 0.0000 39.0337 0.0000 0.0000 0.0000 0.0000 0.0000 0.0000 0.0000 0.0000 0.0000 0.0000 0.0000 0.0000 0.0000 0.0000 0.0000 0.0000 0.0000 0.0000 0.0000 0.0000
0.0000 95.0000 0.0000 0.0000 0.0000 0.0000 0.0000 0.0000 0.0000 0.0000 0.0000 0.0000 0.0000 0.0000 0.0000 0.0000 0.0000 0.0000 0.0000 0.0000 0.0000 0.0000 0.0000 0.0000 -75.3860 -2.2413 -2.9004 -13.5476 -6.0964 9.3460 269.0923 3.1505 -542.2559 97.8247 -17.4613 -7.7850 31.1053 0.0000 0.0000 62.2583 0.0000 0.0000 22.4731 -5.8132 11.9039 127.4470 0.0000 0.0000 30.1917 0.0000 0.0000 25.2011 -2.3457 5.6941 132.3809 0.0000 0.0000 43.0065 0.0000 0.0000 31.2960 -1.9775 1.7640 132.6496 0.0000 0.0000 51.2139 0.0000 0.0000 34.2822 -2.4784 -1.9612 127.0822 0.0000 0.0000 42.6595 0.0000 0.0000 0.0000 0.0000 0.0000 84.3589 -5.1662 5.7008 0.9044 7.9668 8.9177 -133.2136 5.2351 343.1104 -70.9730 -14.5439 1.2657 29.7456 0.0000 0.0000 75.6497 0.0000 0.0000 7.7981 21.0409 120.7177 23.5782 0.0000 0.0000 13.6675 0.0000 0.0000 -4.5404 9.7855 135.0736 19.0911 0.0000 0.0000 23.8396 0.0000 0.0000 -10.5295 -12.6425 136.7219 30.8164 0.0000 0.0000 44.3290 0.0000 0.0000 -25.6005 -21.9512 141.9214 32.1890 0.0000 0.0000 39.0337 0.0000 0.0000 0.0000 0.0000 0.0000 0.0000 0.0000 0.0000 0.0000 0.0000 0.0000 0.0000 0.0000 0.0000 0.0000 0.0000 0.0000 0.0000 0.0000 0.0000
0.0000 95.0000 0.0000 0.0000 0.0000 0.0000 0.0000 0.0000 0.0000 0.0000 0.0000 0.0000 0.0000 0.0000 0.0000 0.0000 0.0000 0.0000 0.0000 0.0000 0.0000 0.0000 0.0000 0.0000 -75.7920 -2.0838 -2.6770 -13.5688 -6.1312 9.3915 268.6880 2.9231 -542.5321 97.8247 -17.4613 -7.7850 31.1053 0.0000 0.0000 62.2583 0.0000 0.0000 22.4731 -5.8132 11.9039 127.4470 0.0000 0.0000 30.1917 0.0000 0.0000 25.2011 -2.3457 5.6941 132.3809 0.0000 0.0000 43.0065 0.0000 0.0000 31.2960 -1.9775 1.7640 132.6496 0.0000 0.0000 51.2139 0.0000 0.0000 34.2822 -2.4784 -1.9612 127.0822 0.0000 0.0000 42.6595 0.0000 0.0000 0.0000 0.0000 0.0000 84.5379 -5.1948 5.7144 0.6076 7.9969 8.8475 -133.1011 5.2558 343.1358 -70.9730 -14.5439 1.2657 29.7456 0.0000 0.0000 75.6497 0.0000 0.0000 7.7981 21.0409 120.7177 23.5782 0.0000 0.0000 13.6675 0.0000 0.0000 -4.5404 9.7855 135.0736 19.0911 0.0000 0.0000 23.8396 0.0000 0.0000 -10.5295 -12.6425 136.7219 30.8164 0.0000 0.0000 44.3290 0.0000 0.0000 -25.6005 -21.9512 141.9214 32.1890 0.0000 0.0000 39.0337 0.0000 0.0000 0.0000 0.0000 0.0000 0.0000 0.0000 0.0000 0.0000 0.0000 0.0000 0.0000 0.0000 0.0000 0.0000 0.0000 0.0000 0.0000 0.0000 0.0000
0.0000 95.0000 0.0000 0.0000 0.0000 0.0000 0.0000 0.0000 0.0000 0.0000 0.0000 0.0000 0.0000 0.0000 0.0000 0.0000 0.0000 0.0000 0.0000 0.0000 0.0000 0.0000 0.0000 0.0000 -75.9191 -1.5450 -1.9803 -13.4761 -6.2455 9.7392 268.7448 2.0628 -543.4076 97.8247 -17.4613 -7.7850 31.1053 0.0000 0.0000 62.2583 0.0000 0.0000 22.4731 -5.8132 11.9039 127.4470 0.0000 0.0000 30.1917 0.0000 0.0000 25.2011 -2.3457 5.6941 132.3809 0.0000 0.0000 43.0065 0.0000 0.0000 31.2960 -1.9775 1.7640 132.6496 0.0000 0.0000 51.2139 0.0000 0.0000 34.2822 -2.4784 -1.9612 127.0822 0.0000 0.0000 42.6595 0.0000 0.0000 0.0000 0.0000 0.0000 84.9275 -5.1029 5.5752 0.3009 7.8315 8.5350 -133.2997 5.5655 343.4784 -70.9730 -14.5439 1.2657 29.7456 0.0000 0.0000 75.6497 0.0000 0.0000 7.7981 21.0409 120.7177 23.5782 0.0000 0.0000 13.6675 0.0000 0.0000 -4.5404 9.7855 135.0736 19.0911 0.0000 0.0000 23.8396 0.0000 0.0000 -10.5295 -12.6425 136.7219 30.8164 0.0000 0.0000 44.3290 0.0000 0.0000 -25.6005 -21.9512 141.9214 32.1890 0.0000 0.0000 39.0337 0.0000 0.0000 0.0000 0.0000 0.0000 0.0000 0.0000 0.0000 0.0000 0.0000 0.0000 0.0000 0.0000 0.0000 0.0000 0.0000 0.0000 0.0000 0.0000 0.0000
0.0000 95.0000 0.0000 0.0000 0.0000 0.0000 0.0000 0.0000 0.0000 0.0000 0.0000 0.0000 0.0000 0.0000 0.0000 0.0000 0.0000 0.0000 0.0000 0.0000 0.0000 0.0000 0.0000 0.0000 -76.1641 -1.3937 -1.7786 -13.7194 -6.2899 9.8582 268.2892 1.7979 -543.7170 97.8247 -17.4613 -7.7850 31.1053 0.0000 0.0000 62.2583 0.0000 0.0000 22.4731 -5.8132 11.9039 127.4470 0.0000 0.0000 30.1917 0.0000 0.0000 25.2011 -2.3457 5.6941 132.3809 0.0000 0.0000 43.0065 0.0000 0.0000 31.2960 -1.9775 1.7640 132.6496 0.0000 0.0000 51.2139 0.0000 0.0000 34.2822 -2.4784 -1.9612 127.0822 0.0000 0.0000 42.6595 0.0000 0.0000 0.0000 0.0000 0.0000 85.1689 -5.2531 5.7151 0.2262 7.9413 8.5959 -133.3989 5.3297 343.2125 -70.9730 -14.5439 1.2657 29.7456 0.0000 0.0000 75.6497 0.0000 0.0000 7.7981 21.0409 120.7177 23.5782 0.0000 0.0000 13.6675 0.0000 0.0000 -4.5404 9.7855 135.0736 19.0911 0.0000 0.0000 23.8396 0.0000 0.0000 -10.5295 -12.6425 136.7219 30.8164 0.0000 0.0000 44.3290 0.0000 0.0000 -25.6005 -21.9512 141.9214 32.1890 0.0000 0.0000 39.0337 0.0000 0.0000 0.0000 0.0000 0.0000 0.0000 0.0000 0.0000 0.0000 0.0000 0.0000 0.0000 0.0000 0.0000 0.0000 0.0000 0.0000 0.0000 0.0000 0.0000
0.0000 95.0000 0.0000 0.0000 0.0000 0.0000 0.0000 0.0000 0.0000 0.0000 0.0000 0.0000 0.0000 0.0000 0.0000 0.0000 0.0000 0.0000 0.0000 0.0000 0.0000 0.0000 0.0000 0.0000 -76.2879 -1.2151 -1.5472 -14.0016 -6.2735 9.9185 267.9064 1.5604 -543.9886 97.8247 -17.4613 -7.7850 31.1053 0.0000 0.0000 62.2583 0.0000 0.0000 22.4731 -5.8132 11.9039 127.4470 0.0000 0.0000 30.1917 0.0000 0.0000 25.2011 -2.3457 5.6941 132.3809 0.0000 0.0000 43.0065 0.0000 0.0000 31.2960 -1.9775 1.7640 132.6496 0.0000 0.0000 51.2139 0.0000 0.0000 34.2822 -2.4784 -1.9612 127.0822 0.0000 0.0000 42.6595 0.0000 0.0000 0.0000 0.0000 0.0000 85.2429 -5.2298 5.6824 -0.0428 7.9086 8.4841 -133.2423 5.4535 343.3544 -70.9730 -14.5439 1.2657 29.7456 0.0000 0.0000 75.6497 0.0000 0.0000 7.7981 21.0409 120.7177 23.5782 0.0000 0.0000 13.6675 0.0000 0.0000 -4.5404 9.7855 135.0736 19.0911 0.0000 0.0000 23.8396 0.0000 0.0000 -10.5295 -12.6425 136.7219 30.8164 0.0000 0.0000 44.3290 0.0000 0.0000 -25.6005 -21.9512 141.9214 32.1890 0.0000 0.0000 39.0337 0.0000 0.0000 0.0000 0.0000 0.0000 0.0000 0.0000 0.0000 0.0000 0.0000 0.0000 0.0000 0.0000 0.0000 0.0000 0.0000 0.0000 0.0000 0.0000 0.0000
0.0000 95.0000 0.0000 0.0000 0.0000 0.0000 0.0000 0.0000 0.0000 0.0000 0.0000 0.0000 0.0000 0.0000 0.0000 0.0000 0.0000 0.0000 0.0000 0.0000 0.0000 0.0000 0.0000 0.0000 -76.3758 -0.6252 -0.7949 -14.1850 -6.3173 10.2246 267.7288 0.6889 -544.8807 97.8247 -17.4613 -7.7850 31.1053 0.0000 0.0000 62.2583 0.0000 0.0000 22.4731 -5.8132 11.9039 127.4470 0.0000 0.0000 30.1917 0.0000 0.0000 25.2011 -2.3457 5.6941 132.3809 0.0000 0.0000 43.0065 0.0000 0.0000 31.2960 -1.9775 1.7640 132.6496 0.0000 0.0000 51.2139 0.0000 0.0000 34.2822 -2.4784 -1.9612 127.0822 0.0000 0.0000 42.6595 0.0000 0.0000 0.0000 0.0000 0.0000 85.5679 -4.9618 5.3607 -0.4132 7.8224 8.2644 -133.3113 5.8734 343.8227 -70.9730 -14.5439 1.2657 29.7456 0.0000 0.0000 75.6497 0.0000 0.0000 7.7981 21.0409 120.7177 23.5782 0.0000 0.0000 13.6675 0.0000 0.0000 -4.5404 9.7855 135.0736 19.0911 0.0000 0.0000 23.8396 0.0000 0.0000 -10.5295 -12.6425 136.7219 30.8164 0.0000 0.0000 44.3290 0.0000 0.0000 -25.6005 -21.9512 141.9214 32.1890 0.0000 0.0000 39.0337 0.0000 0.0000 0.0000 0.0000 0.0000 0.0000 0.0000 0.0000 0.0000 0.0000 0.0000 0.0000 0.0000 0.0000 0.0000 0.0000 0.0000 0.0000 0.0000 0.0000
