HIERARCHY
ROOT Hips
{
  OFFSET 0.000000 95.000000 0.000000
  CHANNELS 6 Xposition Yposition Zposition Zrotation Xrotation Yrotation
  JOINT Spine
  {
    OFFSET 0.000000 10.000000 0.000000
    CHANNELS 3 Zrotation Xrotation Yrotation
    JOINT Spine1
    {
      OFFSET 0.000000 12.000000 0.000000
      CHANNELS 3 Zrotation Xrotation Yrotation
      JOINT Spine2
      {
        OFFSET 0.000000 12.000000 0.000000
        CHANNELS 3 Zrotation Xrotation Yrotation
        JOINT Neck
        {
          OFFSET 0.000000 10.000000 0.000000
          CHANNELS 3 Zrotation Xrotation Yrotation
          JOINT Head
          {
            OFFSET 0.000000 8.000000 0.000000
            CHANNELS 3 Zrotation Xrotation Yrotation
            End Site
            {
              OFFSET 0.000000 10.000000 0.000000
            }
          }
        }
        JOINT LeftShoulder
        {
          OFFSET 6.000000 8.000000 0.000000
          CHANNELS 3 Zrotation Xrotation Yrotation
          JOINT LeftArm
          {
            OFFSET 12.000000 0.000000 0.000000
            CHANNELS 3 Zrotation Xrotation Yrotation
            JOINT LeftForeArm
            {
              OFFSET 24.000000 0.000000 0.000000
              CHANNELS 3 Zrotation Xrotation Yrotation
              JOINT LeftHand
              {
                OFFSET 22.000000 0.000000 0.000000
                CHANNELS 3 Zrotation Xrotation Yrotation
                JOINT LeftHandThumb1
                {
                  OFFSET 1.800000 -1.400000 0.500000
                  CHANNELS 3 Zrotation Xrotation Yrotation
                  JOINT LeftHandThumb2
                  {
                    OFFSET 2.400000 0.000000 0.000000
                    CHANNELS 3 Zrotation Xrotation Yrotation
                    JOINT LeftHandThumb3
                    {
                      OFFSET 1.900000 0.000000 0.000000
                      CHANNELS 3 Zrotation Xrotation Yrotation
                      End Site
                      {
                        OFFSET 1.600000 0.000000 0.000000
                      }
                    }
                  }
                }
                JOINT LeftHandIndex1
                {
                  OFFSET 6.600000 1.200000 0.300000
                  CHANNELS 3 Zrotation Xrotation Yrotation
                  JOINT LeftHandIndex2
                  {
                    OFFSET 2.000000 0.000000 0.000000
                    CHANNELS 3 Zrotation Xrotation Yrotation
                    JOINT LeftHandIndex3
                    {
                      OFFSET 1.200000 0.000000 0.000000
                      CHANNELS 3 Zrotation Xrotation Yrotation
                      End Site
                      {
                        OFFSET 1.000000 0.000000 0.000000
                      }
                    }
                  }
                }
                JOINT LeftHandMiddle1
                {
                  OFFSET 7.200000 0.000000 0.300000
                  CHANNELS 3 Zrotation Xrotation Yrotation
                  JOINT LeftHandMiddle2
                  {
                    OFFSET 3.000000 0.000000 0.000000
                    CHANNELS 3 Zrotation Xrotation Yrotation
                    JOINT LeftHandMiddle3
                    {
                      OFFSET 2.000000 0.000000 0.000000
                      CHANNELS 3 Zrotation Xrotation Yrotation
                      End Site
                      {
                        OFFSET 1.600000 0.000000 0.000000
                      }
                    }
                  }
                }
                JOINT LeftHandRing1
                {
                  OFFSET 7.100000 -1.000000 0.400000
                  CHANNELS 3 Zrotation Xrotation Yrotation
                  JOINT LeftHandRing2
                  {
                    OFFSET 2.600000 0.000000 0.000000
                    CHANNELS 3 Zrotation Xrotation Yrotation
                    JOINT LeftHandRing3
                    {
                      OFFSET 1.600000 0.000000 0.000000
                      CHANNELS 3 Zrotation Xrotation Yrotation
                      End Site
                      {
                        OFFSET 1.300000 0.000000 0.000000
                      }
                    }
                  }
                }
                JOINT LeftHandPinky1
                {
                  OFFSET 6.500000 -2.000000 0.500000
                  CHANNELS 3 Zrotation Xrotation Yrotation
                  JOINT LeftHandPinky2
                  {
                    OFFSET 1.900000 0.000000 0.000000
                    CHANNELS 3 Zrotation Xrotation Yrotation
                    JOINT LeftHandPinky3
                    {
                      OFFSET 1.400000 0.000000 0.000000
                      CHANNELS 3 Zrotation Xrotation Yrotation
                      End Site
                      {
                        OFFSET 1.300000 0.000000 0.000000
                      }
                    }
                  }
                }
              }
            }
          }
        }
        JOINT RightShoulder
        {
          OFFSET -6.000000 8.000000 0.000000
          CHANNELS 3 Zrotation Xrotation Yrotation
          JOINT RightArm
          {
            OFFSET -12.000000 0.000000 0.000000
            CHANNELS 3 Zrotation Xrotation Yrotation
            JOINT RightForeArm
            {
              OFFSET -24.000000 0.000000 0.000000
              CHANNELS 3 Zrotation Xrotation Yrotation
              JOINT RightHand
              {
                OFFSET -22.000000 0.000000 0.000000
                CHANNELS 3 Zrotation Xrotation Yrotation
                JOINT RightHandThumb1
                {
                  OFFSET -1.800000 -1.400000 0.500000
                  CHANNELS 3 Zrotation Xrotation Yrotation
                  JOINT RightHandThumb2
                  {
                    OFFSET -2.400000 0.000000 0.000000
                    CHANNELS 3 Zrotation Xrotation Yrotation
                    JOINT RightHandThumb3
                    {
                      OFFSET -1.900000 0.000000 0.000000
                      CHANNELS 3 Zrotation Xrotation Yrotation
                      End Site
                      {
                        OFFSET -1.600000 0.000000 0.000000
                      }
                    }
                  }
                }
                JOINT RightHandIndex1
                {
                  OFFSET -6.600000 1.200000 0.300000
                  CHANNELS 3 Zrotation Xrotation Yrotation
                  JOINT RightHandIndex2
                  {
                    OFFSET -2.000000 0.000000 0.000000
                    CHANNELS 3 Zrotation Xrotation Yrotation
                    JOINT RightHandIndex3
                    {
                      OFFSET -1.200000 0.000000 0.000000
                      CHANNELS 3 Zrotation Xrotation Yrotation
                      End Site
                      {
                        OFFSET -1.000000 0.000000 0.000000
                      }
                    }
                  }
                }
                JOINT RightHandMiddle1
                {
                  OFFSET -7.200000 0.000000 0.300000
                  CHANNELS 3 Zrotation Xrotation Yrotation
                  JOINT RightHandMiddle2
                  {
                    OFFSET -3.000000 0.000000 0.000000
                    CHANNELS 3 Zrotation Xrotation Yrotation
                    JOINT RightHandMiddle3
                    {
                      OFFSET -2.000000 0.000000 0.000000
                      CHANNELS 3 Zrotation Xrotation Yrotation
                      End Site
                      {
                        OFFSET -1.600000 0.000000 0.000000
                      }
                    }
                  }
                }
                JOINT RightHandRing1
                {
                  OFFSET -7.100000 -1.000000 0.400000
                  CHANNELS 3 Zrotation Xrotation Yrotation
                  JOINT RightHandRing2
                  {
                    OFFSET -2.600000 0.000000 0.000000
                    CHANNELS 3 Zrotation Xrotation Yrotation
                    JOINT RightHandRing3
                    {
                      OFFSET -1.600000 0.000000 0.000000
                      CHANNELS 3 Zrotation Xrotation Yrotation
                      End Site
                      {
                        OFFSET -1.300000 0.000000 0.000000
                      }
                    }
                  }
                }
                JOINT RightHandPinky1
                {
                  OFFSET -6.500000 -2.000000 0.500000
                  CHANNELS 3 Zrotation Xrotation Yrotation
                  JOINT RightHandPinky2
                  {
                    OFFSET -1.900000 0.000000 0.000000
                    CHANNELS 3 Zrotation Xrotation Yrotation
                    JOINT RightHandPinky3
                    {
                      OFFSET -1.400000 0.000000 0.000000
                      CHANNELS 3 Zrotation Xrotation Yrotation
                      End Site
                      {
                        OFFSET -1.300000 0.000000 0.000000
                      }
                    }
                  }
                }
              }
            }
          }
        }
      }
    }
  }
  JOINT LeftUpLeg
  {
    OFFSET 10.000000 -5.000000 0.000000
    CHANNELS 3 Zrotation Xrotation Yrotation
    JOINT LeftLeg
    {
      OFFSET 0.000000 -42.000000 0.000000
      CHANNELS 3 Zrotation Xrotation Yrotation
      JOINT LeftFoot
      {
        OFFSET 0.000000 -42.000000 4.000000
        CHANNELS 3 Zrotation Xrotation Yrotation
        End Site
        {
          OFFSET 0.000000 0.000000 12.000000
        }
      }
    }
  }
  JOINT RightUpLeg
  {
    OFFSET -10.000000 -5.000000 0.000000
    CHANNELS 3 Zrotation Xrotation Yrotation
    JOINT RightLeg
    {
      OFFSET 0.000000 -42.000000 0.000000
      CHANNELS 3 Zrotation Xrotation Yrotation
      JOINT RightFoot
      {
        OFFSET 0.000000 -42.000000 4.000000
        CHANNELS 3 Zrotation Xrotation Yrotation
        End Site
        {
          OFFSET 0.000000 0.000000 12.000000
        }
      }
    }
  }
}
MOTION
Frames: 60
Frame Time: 0.033333
0.0000 95.0000 0.0000 0.0000 0.0000 0.0000 0.0000 0.0000 0.0000 0.0000 0.0000 0.0000 0.0000 0.0000 0.0000 0.0000 0.0000 0.0000 0.0000 0.0000 0.0000 0.0000 0.0000 0.0000 -79.3233 1.8664 2.2510 -8.7961 -8.0287 11.6770 18.1606 -51.7350 158.9078 48.8655 -10.4412 0.9772 14.1779 0.0000 0.0000 9.7780 0.0000 0.0000 -23.1911 1.3645 14.4227 4.3043 0.0000 0.0000 2.3186 0.0000 0.0000 -12.3121 1.9705 13.3467 5.2866 0.0000 0.0000 6.1609 0.0000 0.0000 -2.7258 2.3631 13.2215 4.2059 0.0000 0.0000 4.2848 0.0000 0.0000 8.7971 1.7443 10.5919 5.4803 0.0000 0.0000 3.4086 0.0000 0.0000 0.0000 0.0000 0.0000 92.2396 -0.9014 0.8668 -5.4553 12.7535 11.0596 176.5675 48.4954 -112.2631 -41.1254 -19.6222 37.1543 35.1510 0.0000 0.0000 10.7890 0.0000 0.0000 11.8090 0.7846 3.3380 19.4065 0.0000 0.0000 37.9821 0.0000 0.0000 34.3811 -12.1217 42.6570 10.2805 0.0000 0.0000 6.3771 0.0000 0.0000 31.7138 -15.5730 38.8881 12.0782 0.0000 0.0000 1.8673 0.0000 0.0000 28.7051 -18.6016 34.4012 9.2635 0.0000 0.0000 7.2051 0.0000 0.0000 0.0000 0.0000 0.0000 0.0000 0.0000 0.0000 0.0000 0.0000 0.0000 0.0000 0.0000 0.0000 0.0000 0.0000 0.0000 0.0000 0.0000 0.0000
0.0000 95.0000 0.0000 0.0000 0.0000 0.0000 0.0000 0.0000 0.0000 0.0000 0.0000 0.0000 0.0000 0.0000 0.0000 0.0000 0.0000 0.0000 0.0000 0.0000 0.0000 0.0000 0.0000 0.0000 -79.1723 1.5168 1.8343 -8.9773 -7.7659 11.3219 17.6831 -51.1160 159.9842 48.8655 -10.4412 0.9772 14.1779 0.0000 0.0000 9.7780 0.0000 0.0000 -23.1911 1.3645 14.4227 4.3043 0.0000 0.0000 2.3186 0.0000 0.0000 -12.3121 1.9705 13.3467 5.2866 0.0000 0.0000 6.1609 0.0000 0.0000 -2.7258 2.3631 13.2215 4.2059 0.0000 0.0000 4.2848 0.0000 0.0000 8.7971 1.7443 10.5919 5.4803 0.0000 0.0000 3.4086 0.0000 0.0000 0.0000 0.0000 0.0000 91.9937 -0.8319 0.8035 -5.1250 12.8127 11.2362 176.6528 48.4565 -112.2534 -41.1254 -19.6222 37.1543 35.1510 0.0000 0.0000 10.7890 0.0000 0.0000 11.8090 0.7846 3.3380 19.4065 0.0000 0.0000 37.9821 0.0000 0.0000 34.3811 -12.1217 42.6570 10.2805 0.0000 0.0000 6.3771 0.0000 0.0000 31.7138 -15.5730 38.8881 12.0782 0.0000 0.0000 1.8673 0.0000 0.0000 28.7051 -18.6016 34.4012 9.2635 0.0000 0.0000 7.2051 0.0000 0.0000 0.0000 0.0000 0.0000 0.0000 0.0000 0.0000 0.0000 0.0000 0.0000 0.0000 0.0000 0.0000 0.0000 0.0000 0.0000 0.0000 0.0000 0.0000
0.0000 95.0000 0.0000 0.0000 0.0000 0.0000 0.0000 0.0000 0.0000 0.0000 0.0000 0.0000 0.0000 0.0000 0.0000 0.0000 0.0000 0.0000 0.0000 0.0000 0.0000 0.0000 0.0000 0.0000 -79.0618 1.8310 2.2187 -9.1119 -7.5044 11.0678 17.6079 -51.2267 159.9341 48.8655 -10.4412 0.9772 14.1779 0.0000 0.0000 9.7780 0.0000 0.0000 -23.1911 1.3645 14.4227 4.3043 0.0000 0.0000 2.3186 0.0000 0.0000 -12.3121 1.9705 13.3467 5.2866 0.0000 0.0000 6.1609 0.0000 0.0000 -2.7258 2.3631 13.2215 4.2059 0.0000 0.0000 4.2848 0.0000 0.0000 8.7971 1.7443 10.5919 5.4803 0.0000 0.0000 3.4086 0.0000 0.0000 0.0000 0.0000 0.0000 92.1421 -0.8257 0.7954 -5.1237 12.7609 11.1623 176.6260 48.2773 -112.2197 -41.1254 -19.6222 37.1543 35.1510 0.0000 0.0000 10.7890 0.0000 0.0000 11.8090 0.7846 3.3380 19.4065 0.0000 0.0000 37.9821 0.0000 0.0000 34.3811 -12.1217 42.6570 10.2805 0.0000 0.0000 6.3771 0.0000 0.0000 31.7138 -15.5730 38.8881 12.0782 0.0000 0.0000 1.8673 0.0000 0.0000 28.7051 -18.6016 34.4012 9.2635 0.0000 0.0000 7.2051 0.0000 0.0000 0.0000 0.0000 0.0000 0.0000 0.0000 0.0000 0.0000 0.0000 0.0000 0.0000 0.0000 0.0000 0.0000 0.0000 0.0000 0.0000 0.0000 0.0000
0.0000 95.0000 0.0000 0.0000 0.0000 0.0000 0.0000 0.0000 0.0000 0.0000 0.0000 0.0000 0.0000 0.0000 0.0000 0.0000 0.0000 0.0000 0.0000 0.0000 0.0000 0.0000 0.0000 0.0000 -79.1627 2.2262 2.6927 -8.8282 -7.1074 10.4935 17.7088 -51.1544 159.9210 48.8655 -10.4412 0.9772 14.1779 0.0000 0.0000 9.7780 0.0000 0.0000 -23.1911 1.3645 14.4227 4.3043 0.0000 0.0000 2.3186 0.0000 0.0000 -12.3121 1.9705 13.3467 5.2866 0.0000 0.0000 6.1609 0.0000 0.0000 -2.7258 2.3631 13.2215 4.2059 0.0000 0.0000 4.2848 0.0000 0.0000 8.7971 1.7443 10.5919 5.4803 0.0000 0.0000 3.4086 0.0000 0.0000 0.0000 0.0000 0.0000 92.3300 -0.8921 0.8565 -5.1769 12.4713 10.8539 176.3958 48.0063 -112.1728 -41.1254 -19.6222 37.1543 35.1510 0.0000 0.0000 10.7890 0.0000 0.0000 11.8090 0.7846 3.3380 19.4065 0.0000 0.0000 37.9821 0.0000 0.0000 34.3811 -12.1217 42.6570 10.2805 0.0000 0.0000 6.3771 0.0000 0.0000 31.7138 -15.5730 38.8881 12.0782 0.0000 0.0000 1.8673 0.0000 0.0000 28.7051 -18.6016 34.4012 9.2635 0.0000 0.0000 7.2051 0.0000 0.0000 0.0000 0.0000 0.0000 0.0000 0.0000 0.0000 0.0000 0.0000 0.0000 0.0000 0.0000 0.0000 0.0000 0.0000 0.0000 0.0000 0.0000 0.0000
0.0000 95.0000 0.0000 0.0000 0.0000 0.0000 0.0000 0.0000 0.0000 0.0000 0.0000 0.0000 0.0000 0.0000 0.0000 0.0000 0.0000 0.0000 0.0000 0.0000 0.0000 0.0000 0.0000 0.0000 -79.1621 2.4035 2.9071 -8.9936 -6.9542 10.3515 17.4316 -51.2508 160.0643 48.8655 -10.4412 0.9772 14.1779 0.0000 0.0000 9.7780 0.0000 0.0000 -23.1911 1.3645 14.4227 4.3043 0.0000 0.0000 2.3186 0.0000 0.0000 -12.3121 1.9705 13.3467 5.2866 0.0000 0.0000 6.1609 0.0000 0.0000 -2.7258 2.3631 13.2215 4.2059 0.0000 0.0000 4.2848 0.0000 0.0000 8.7971 1.7443 10.5919 5.4803 0.0000 0.0000 3.4086 0.0000 0.0000 0.0000 0.0000 0.0000 92.4475 -1.2267 1.1754 -5.1763 12.1807 10.5429 176.5077 47.8454 -112.1396 -41.1254 -19.6222 37.1543 35.1510 0.0000 0.0000 10.7890 0.0000 0.0000 11.8090 0.7846 3.3380 19.4065 0.0000 0.0000 37.9821 0.0000 0.0000 34.3811 -12.1217 42.6570 10.2805 0.0000 0.0000 6.3771 0.0000 0.0000 31.7138 -15.5730 38.8881 12.0782 0.0000 0.0000 1.8673 0.0000 0.0000 28.7051 -18.6016 34.4012 9.2635 0.0000 0.0000 7.2051 0.0000 0.0000 0.0000 0.0000 0.0000 0.0000 0.0000 0.0000 0.0000 0.0000 0.0000 0.0000 0.0000 0.0000 0.0000 0.0000 0.0000 0.0000 0.0000 0.0000
0.0000 95.0000 0.0000 0.0000 0.0000 0.0000 0.0000 0.0000 0.0000 0.0000 0.0000 0.0000 0.0000 0.0000 0.0000 0.0000 0.0000 0.0000 0.0000 0.0000 0.0000 0.0000 0.0000 0.0000 -79.1296 2.0598 2.4929 -9.1387 -6.9303 10.2936 17.0649 -50.8837 160.7711 48.8655 -10.4412 0.9772 14.1779 0.0000 0.0000 9.7780 0.0000 0.0000 -23.1911 1.3645 14.4227 4.3043 0.0000 0.0000 2.3186 0.0000 0.0000 -12.3121 1.9705 13.3467 5.2866 0.0000 0.0000 6.1609 0.0000 0.0000 -2.7258 2.3631 13.2215 4.2059 0.0000 0.0000 4.2848 0.0000 0.0000 8.7971 1.7443 10.5919 5.4803 0.0000 0.0000 3.4086 0.0000 0.0000 0.0000 0.0000 0.0000 92.4987 -1.0657 1.0202 -5.1568 12.4290 10.7711 176.6202 47.8538 -112.1391 -41.1254 -19.6222 37.1543 35.1510 0.0000 0.0000 10.7890 0.0000 0.0000 11.8090 0.7846 3.3380 19.4065 0.0000 0.0000 37.9821 0.0000 0.0000 34.3811 -12.1217 42.6570 10.2805 0.0000 0.0000 6.3771 0.0000 0.0000 31.7138 -15.5730 38.8881 12.0782 0.0000 0.0000 1.8673 0.0000 0.0000 28.7051 -18.6016 34.4012 9.2635 0.0000 0.0000 7.2051 0.0000 0.0000 0.0000 0.0000 0.0000 0.0000 0.0000 0.0000 0.0000 0.0000 0.0000 0.0000 0.0000 0.0000 0.0000 0.0000 0.0000 0.0000 0.0000 0.0000
0.0000 95.0000 0.0000 0.0000 0.0000 0.0000 0.0000 0.0000 0.0000 0.0000 0.0000 0.0000 0.0000 0.0000 0.0000 0.0000 0.0000 0.0000 0.0000 0.0000 0.0000 0.0000 0.0000 0.0000 -79.5042 2.1078 2.5341 -8.2851 -6.8833 9.9684 17.6727 -50.6267 160.5088 48.8655 -10.4412 0.9772 14.1779 0.0000 0.0000 9.7780 0.0000 0.0000 -23.1911 1.3645 14.4227 4.3043 0.0000 0.0000 2.3186 0.0000 0.0000 -12.3121 1.9705 13.3467 5.2866 0.0000 0.0000 6.1609 0.0000 0.0000 -2.7258 2.3631 13.2215 4.2059 0.0000 0.0000 4.2848 0.0000 0.0000 8.7971 1.7443 10.5919 5.4803 0.0000 0.0000 3.4086 0.0000 0.0000 0.0000 0.0000 0.0000 92.5018 -0.7035 0.6734 -5.2928 12.6641 10.9858 176.3737 47.9768 -112.1675 -41.1254 -19.6222 37.1543 35.1510 0.0000 0.0000 10.7890 0.0000 0.0000 11.8090 0.7846 3.3380 19.4065 0.0000 0.0000 37.9821 0.0000 0.0000 34.3811 -12.1217 42.6570 10.2805 0.0000 0.0000 6.3771 0.0000 0.0000 31.7138 -15.5730 38.8881 12.0782 0.0000 0.0000 1.8673 0.0000 0.0000 28.7051 -18.6016 34.4012 9.2635 0.0000 0.0000 7.2051 0.0000 0.0000 0.0000 0.0000 0.0000 0.0000 0.0000 0.0000 0.0000 0.0000 0.0000 0.0000 0.0000 0.0000 0.0000 0.0000 0.0000 0.0000 0.0000 0.0000
0.0000 95.0000 0.0000 0.0000 0.0000 0.0000 0.0000 0.0000 0.0000 0.0000 0.0000 0.0000 0.0000 0.0000 0.0000 0.0000 0.0000 0.0000 0.0000 0.0000 0.0000 0.0000 0.0000 0.0000 -79.4841 2.2627 2.7212 -8.1820 -6.5857 9.5641 17.6782 -50.4439 160.6967 48.8655 -10.4412 0.9772 14.1779 0.0000 0.0000 9.7780 0.0000 0.0000 -23.1911 1.3645 14.4227 4.3043 0.0000 0.0000 2.3186 0.0000 0.0000 -12.3121 1.9705 13.3467 5.2866 0.0000 0.0000 6.1609 0.0000 0.0000 -2.7258 2.3631 13.2215 4.2059 0.0000 0.0000 4.2848 0.0000 0.0000 8.7971 1.7443 10.5919 5.4803 0.0000 0.0000 3.4086 0.0000 0.0000 0.0000 0.0000 0.0000 92.3756 -0.8086 0.7757 -5.2196 12.5574 10.9206 176.3828 48.0164 -112.1750 -41.1254 -19.6222 37.1543 35.1510 0.0000 0.0000 10.7890 0.0000 0.0000 11.8090 0.7846 3.3380 19.4065 0.0000 0.0000 37.9821 0.0000 0.0000 34.3811 -12.1217 42.6570 10.2805 0.0000 0.0000 6.3771 0.0000 0.0000 31.7138 -15.5730 38.8881 12.0782 0.0000 0.0000 1.8673 0.0000 0.0000 28.7051 -18.6016 34.4012 9.2635 0.0000 0.0000 7.2051 0.0000 0.0000 0.0000 0.0000 0.0000 0.0000 0.0000 0.0000 0.0000 0.0000 0.0000 0.0000 0.0000 0.0000 0.0000 0.0000 0.0000 0.0000 0.0000 0.0000
0.0000 95.0000 0.0000 0.0000 0.0000 0.0000 0.0000 0.0000 0.0000 0.0000 0.0000 0.0000 0.0000 0.0000 0.0000 0.0000 0.0000 0.0000 0.0000 0.0000 0.0000 0.0000 0.0000 0.0000 -79.7719 2.1805 2.6090 -7.5812 -6.2165 8.8664 17.7366 -49.7872 161.3392 48.8655 -10.4412 0.9772 14.1779 0.0000 0.0000 9.7780 0.0000 0.0000 -23.1911 1.3645 14.4227 4.3043 0.0000 0.0000 2.3186 0.0000 0.0000 -12.3121 1.9705 13.3467 5.2866 0.0000 0.0000 6.1609 0.0000 0.0000 -2.7258 2.3631 13.2215 4.2059 0.0000 0.0000 4.2848 0.0000 0.0000 8.7971 1.7443 10.5919 5.4803 0.0000 0.0000 3.4086 0.0000 0.0000 0.0000 0.0000 0.0000 92.2936 -0.6254 0.6009 -5.2529 12.6925 11.0672 176.2716 48.1389 -112.2012 -41.1254 -19.6222 37.1543 35.1510 0.0000 0.0000 10.7890 0.0000 0.0000 11.8090 0.7846 3.3380 19.4065 0.0000 0.0000 37.9821 0.0000 0.0000 34.3811 -12.1217 42.6570 10.2805 0.0000 0.0000 6.3771 0.0000 0.0000 31.7138 -15.5730 38.8881 12.0782 0.0000 0.0000 1.8673 0.0000 0.0000 28.7051 -18.6016 34.4012 9.2635 0.0000 0.0000 7.2051 0.0000 0.0000 0.0000 0.0000 0.0000 0.0000 0.0000 0.0000 0.0000 0.0000 0.0000 0.0000 0.0000 0.0000 0.0000 0.0000 0.0000 0.0000 0.0000 0.0000
0.0000 95.0000 0.0000 0.0000 0.0000 0.0000 0.0000 0.0000 0.0000 0.0000 0.0000 0.0000 0.0000 0.0000 0.0000 0.0000 0.0000 0.0000 0.0000 0.0000 0.0000 0.0000 0.0000 0.0000 -79.5245 2.2096 2.6555 -7.6641 -5.6431 8.1450 17.5734 -49.2048 162.0964 48.8655 -10.4412 0.9772 14.1779 0.0000 0.0000 9.7780 0.0000 0.0000 -23.1911 1.3645 14.4227 4.3043 0.0000 0.0000 2.3186 0.0000 0.0000 -12.3121 1.9705 13.3467 5.2866 0.0000 0.0000 6.1609 0.0000 0.0000 -2.7258 2.3631 13.2215 4.2059 0.0000 0.0000 4.2848 0.0000 0.0000 8.7971 1.7443 10.5919 5.4803 0.0000 0.0000 3.4086 0.0000 0.0000 0.0000 0.0000 0.0000 91.7254 -0.0407 0.0394 -3.7031 12.8961 11.7339 176.4149 47.2403 -112.0255 -41.1254 -19.6222 37.1543 35.1510 0.0000 0.0000 10.7890 0.0000 0.0000 11.8090 0.7846 3.3380 19.4065 0.0000 0.0000 37.9821 0.0000 0.0000 34.3811 -12.1217 42.6570 10.2805 0.0000 0.0000 6.3771 0.0000 0.0000 31.7138 -15.5730 38.8881 12.0782 0.0000 0.0000 1.8673 0.0000 0.0000 28.7051 -18.6016 34.4012 9.2635 0.0000 0.0000 7.2051 0.0000 0.0000 0.0000 0.0000 0.0000 0.0000 0.0000 0.0000 0.0000 0.0000 0.0000 0.0000 0.0000 0.0000 0.0000 0.0000 0.0000 0.0000 0.0000 0.0000
0.0000 95.0000 0.0000 0.0000 0.0000 0.0000 0.0000 0.0000 0.0000 0.0000 0.0000 0.0000 0.0000 0.0000 0.0000 0.0000 0.0000 0.0000 0.0000 0.0000 0.0000 0.0000 0.0000 0.0000 -79.7323 2.1714 2.5999 -6.6252 -4.2734 6.0729 17.7743 -47.3946 163.8455 48.8655 -10.4412 0.9772 14.1779 0.0000 0.0000 9.7780 0.0000 0.0000 -23.1911 1.3645 14.4227 4.3043 0.0000 0.0000 2.3186 0.0000 0.0000 -12.3121 1.9705 13.3467 5.2866 0.0000 0.0000 6.1609 0.0000 0.0000 -2.7258 2.3631 13.2215 4.2059 0.0000 0.0000 4.2848 0.0000 0.0000 8.7971 1.7443 10.5919 5.4803 0.0000 0.0000 3.4086 0.0000 0.0000 0.0000 0.0000 0.0000 91.0409 -3.8001 3.7317 -2.0808 20.5835 19.1245 191.4332 52.3919 -111.8488 -41.1254 -19.6222 37.1543 35.1510 0.0000 0.0000 10.7890 0.0000 0.0000 11.8090 0.7846 3.3380 19.4065 0.0000 0.0000 37.9821 0.0000 0.0000 34.3811 -12.1217 42.6570 10.2805 0.0000 0.0000 6.3771 0.0000 0.0000 31.7138 -15.5730 38.8881 12.0782 0.0000 0.0000 1.8673 0.0000 0.0000 28.7051 -18.6016 34.4012 9.2635 0.0000 0.0000 7.2051 0.0000 0.0000 0.0000 0.0000 0.0000 0.0000 0.0000 0.0000 0.0000 0.0000 0.0000 0.0000 0.0000 0.0000 0.0000 0.0000 0.0000 0.0000 0.0000 0.0000
0.0000 95.0000 0.0000 0.0000 0.0000 0.0000 0.0000 0.0000 0.0000 0.0000 0.0000 0.0000 0.0000 0.0000 0.0000 0.0000 0.0000 0.0000 0.0000 0.0000 0.0000 0.0000 0.0000 0.0000 -78.6448 5.7600 7.0289 -5.5724 -0.6045 1.5492 20.0072 -46.9562 162.4037 48.8655 -10.4412 0.9772 14.1779 0.0000 0.0000 9.7780 0.0000 0.0000 -23.1911 1.3645 14.4227 4.3043 0.0000 0.0000 2.3186 0.0000 0.0000 -12.3121 1.9705 13.3467 5.2866 0.0000 0.0000 6.1609 0.0000 0.0000 -2.7258 2.3631 13.2215 4.2059 0.0000 0.0000 4.2848 0.0000 0.0000 8.7971 1.7443 10.5919 5.4803 0.0000 0.0000 3.4086 0.0000 0.0000 0.0000 0.0000 0.0000 89.3857 -9.3691 9.4697 -3.2429 36.9607 32.8327 226.9835 67.3604 -99.5945 -41.1254 -19.6222 37.1543 35.1510 0.0000 0.0000 10.7890 0.0000 0.0000 11.8090 0.7846 3.3380 19.4065 0.0000 0.0000 37.9821 0.0000 0.0000 34.3811 -12.1217 42.6570 10.2805 0.0000 0.0000 6.3771 0.0000 0.0000 31.7138 -15.5730 38.8881 12.0782 0.0000 0.0000 1.8673 0.0000 0.0000 28.7051 -18.6016 34.4012 9.2635 0.0000 0.0000 7.2051 0.0000 0.0000 0.0000 0.0000 0.0000 0.0000 0.0000 0.0000 0.0000 0.0000 0.0000 0.0000 0.0000 0.0000 0.0000 0.0000 0.0000 0.0000 0.0000 0.0000
0.0000 95.0000 0.0000 0.0000 0.0000 0.0000 0.0000 0.0000 0.0000 0.0000 0.0000 0.0000 0.0000 0.0000 0.0000 0.0000 0.0000 0.0000 0.0000 0.0000 0.0000 0.0000 0.0000 0.0000 -75.5963 11.4983 14.7917 -4.7401 2.5271 -2.1506 25.5778 -49.1307 154.9159 48.8655 -10.4412 0.9772 14.1779 0.0000 0.0000 9.7780 0.0000 0.0000 -23.1911 1.3645 14.4227 4.3043 0.0000 0.0000 2.3186 0.0000 0.0000 -12.3121 1.9705 13.3467 5.2866 0.0000 0.0000 6.1609 0.0000 0.0000 -2.7258 2.3631 13.2215 4.2059 0.0000 0.0000 4.2848 0.0000 0.0000 8.7971 1.7443 10.5919 5.4803 0.0000 0.0000 3.4086 0.0000 0.0000 0.0000 0.0000 0.0000 87.5018 -14.3005 14.9310 -10.0510 54.2060 40.4358 253.4944 41.9107 -62.9221 -54.4258 -19.2489 47.1963 49.9848 0.0000 0.0000 20.1749 0.0000 0.0000 16.6908 0.6708 -2.1629 14.7544 0.0000 0.0000 23.8935 0.0000 0.0000 41.3772 -22.2709 59.8309 22.5211 0.0000 0.0000 15.1537 0.0000 0.0000 29.0104 -29.6165 69.9924 21.5788 0.0000 0.0000 3.9127 0.0000 0.0000 25.1773 -37.5508 66.9381 16.2753 0.0000 0.0000 1.3391 0.0000 0.0000 0.0000 0.0000 0.0000 0.0000 0.0000 0.0000 0.0000 0.0000 0.0000 0.0000 0.0000 0.0000 0.0000 0.0000 0.0000 0.0000 0.0000 0.0000
0.0000 95.0000 0.0000 0.0000 0.0000 0.0000 0.0000 0.0000 0.0000 0.0000 0.0000 0.0000 0.0000 0.0000 0.0000 0.0000 0.0000 0.0000 0.0000 0.0000 0.0000 0.0000 0.0000 0.0000 -73.9671 14.0055 18.5270 -3.2192 2.6874 -2.5455 30.8379 -50.5501 148.0666 48.8655 -10.4412 0.9772 14.1779 0.0000 0.0000 9.7780 0.0000 0.0000 -23.1911 1.3645 14.4227 4.3043 0.0000 0.0000 2.3186 0.0000 0.0000 -12.3121 1.9705 13.3467 5.2866 0.0000 0.0000 6.1609 0.0000 0.0000 -2.7258 2.3631 13.2215 4.2059 0.0000 0.0000 4.2848 0.0000 0.0000 8.7971 1.7443 10.5919 5.4803 0.0000 0.0000 3.4086 0.0000 0.0000 0.0000 0.0000 0.0000 85.7226 -18.4030 19.8036 -40.0074 76.7365 27.0411 270.2335 20.9473 -65.5552 -61.5510 -14.7508 18.6111 26.0637 0.0000 0.0000 41.9716 0.0000 0.0000 19.2420 0.8069 -4.2711 5.3165 0.0000 0.0000 9.7252 0.0000 0.0000 21.2166 -0.5882 7.9115 37.4317 0.0000 0.0000 34.1218 0.0000 0.0000 -2.0111 -9.9592 72.2188 61.8735 0.0000 0.0000 8.7893 0.0000 0.0000 -16.8824 -17.2911 89.9933 42.5130 0.0000 0.0000 5.9434 0.0000 0.0000 0.0000 0.0000 0.0000 0.0000 0.0000 0.0000 0.0000 0.0000 0.0000 0.0000 0.0000 0.0000 0.0000 0.0000 0.0000 0.0000 0.0000 0.0000
0.0000 95.0000 0.0000 0.0000 0.0000 0.0000 0.0000 0.0000 0.0000 0.0000 0.0000 0.0000 0.0000 0.0000 0.0000 0.0000 0.0000 0.0000 0.0000 0.0000 0.0000 0.0000 0.0000 0.0000 -72.3524 15.2570 20.7583 -2.2957 2.2552 -2.1950 20.2473 -1.4387 180.3049 51.2218 -9.6225 7.3237 14.4536 0.0000 0.0000 24.1191 0.0000 0.0000 -31.4776 0.6982 -7.3089 1.3516 0.0000 0.0000 4.2128 0.0000 0.0000 -27.7682 -0.9260 -8.5169 6.6883 0.0000 0.0000 22.7099 0.0000 0.0000 -13.3448 -0.7735 -5.8833 12.8421 0.0000 0.0000 6.8213 0.0000 0.0000 3.7037 -0.8599 -2.1231 10.9763 0.0000 0.0000 3.0695 0.0000 0.0000 0.0000 0.0000 0.0000 84.1449 -21.6360 23.9043 -144.0543 72.0974 -63.5893 293.6673 17.0768 -64.4666 -50.8331 -11.0631 0.2664 12.2320 0.0000 0.0000 11.5539 0.0000 0.0000 20.0767 0.8742 -4.4132 2.7406 0.0000 0.0000 3.5930 0.0000 0.0000 12.4488 1.0424 -4.7642 9.2728 0.0000 0.0000 6.8300 0.0000 0.0000 -12.9057 -1.5297 29.8362 110.0000 0.0000 0.0000 14.2551 0.0000 0.0000 -34.1586 -2.4141 52.0006 82.9166 0.0000 0.0000 14.2537 0.0000 0.0000 0.0000 0.0000 0.0000 0.0000 0.0000 0.0000 0.0000 0.0000 0.0000 0.0000 0.0000 0.0000 0.0000 0.0000 0.0000 0.0000 0.0000 0.0000
0.0000 95.0000 0.0000 0.0000 0.0000 0.0000 0.0000 0.0000 0.0000 0.0000 0.0000 0.0000 0.0000 0.0000 0.0000 0.0000 0.0000 0.0000 0.0000 0.0000 0.0000 0.0000 0.0000 0.0000 -71.5555 15.6286 21.5646 -1.5465 2.1749 -2.3465 21.7071 2.6254 180.4771 49.8771 -8.9152 9.0408 10.4295 0.0000 0.0000 21.9225 0.0000 0.0000 -28.5651 0.7813 -6.9512 2.0013 0.0000 0.0000 4.8422 0.0000 0.0000 -23.7856 -0.7834 -8.4906 2.5351 0.0000 0.0000 20.5384 0.0000 0.0000 -10.4718 -0.5015 -4.6762 11.6818 0.0000 0.0000 6.7741 0.0000 0.0000 5.2180 -0.6117 -0.8352 10.4549 0.0000 0.0000 3.3863 0.0000 0.0000 0.0000 0.0000 0.0000 82.5224 -24.3534 27.6358 -160.2016 55.9672 -72.0786 311.6893 13.4059 -57.9059 -43.3205 -8.1916 -5.2668 8.0717 0.0000 0.0000 5.4420 0.0000 0.0000 20.1637 0.8790 -5.0950 3.8806 0.0000 0.0000 0.5547 0.0000 0.0000 11.0111 0.9556 -5.1178 6.4418 0.0000 0.0000 3.6850 0.0000 0.0000 -11.3019 -1.3490 17.5431 110.0000 0.0000 0.0000 20.2361 0.0000 0.0000 -31.6009 -3.0128 33.4570 96.2030 0.0000 0.0000 23.6166 0.0000 0.0000 0.0000 0.0000 0.0000 0.0000 0.0000 0.0000 0.0000 0.0000 0.0000 0.0000 0.0000 0.0000 0.0000 0.0000 0.0000 0.0000 0.0000 0.0000
0.0000 95.0000 0.0000 0.0000 0.0000 0.0000 0.0000 0.0000 0.0000 0.0000 0.0000 0.0000 0.0000 0.0000 0.0000 0.0000 0.0000 0.0000 0.0000 0.0000 0.0000 0.0000 0.0000 0.0000 -71.2657 15.6993 21.7741 -0.9115 2.2664 -2.7013 23.0065 9.5197 182.4598 48.4843 -8.0802 11.0272 6.4606 0.0000 0.0000 19.4406 0.0000 0.0000 -25.3175 0.8445 -6.7385 3.0190 0.0000 0.0000 5.6463 0.0000 0.0000 -19.5550 -0.6771 -8.6998 7.8916 0.0000 0.0000 22.2901 0.0000 0.0000 -7.5204 -0.3141 -3.5621 10.4193 0.0000 0.0000 6.9561 0.0000 0.0000 6.6648 -0.4244 0.3260 9.9426 0.0000 0.0000 3.8162 0.0000 0.0000 0.0000 0.0000 0.0000 80.4219 -26.9846 31.6897 -162.1374 46.4848 -72.1667 322.1143 6.5748 -45.6821 -44.9345 -9.1016 -3.2410 6.9976 0.0000 0.0000 19.2016 0.0000 0.0000 15.9166 0.4510 -6.3430 4.6841 0.0000 0.0000 2.2676 0.0000 0.0000 9.9453 0.9086 -5.6420 8.8700 0.0000 0.0000 4.3999 0.0000 0.0000 -12.6481 -1.3042 20.5115 110.0000 0.0000 0.0000 18.0346 0.0000 0.0000 -32.1250 -3.0976 44.7797 99.8573 0.0000 0.0000 14.7506 0.0000 0.0000 0.0000 0.0000 0.0000 0.0000 0.0000 0.0000 0.0000 0.0000 0.0000 0.0000 0.0000 0.0000 0.0000 0.0000 0.0000 0.0000 0.0000 0.0000
0.0000 95.0000 0.0000 0.0000 0.0000 0.0000 0.0000 0.0000 0.0000 0.0000 0.0000 0.0000 0.0000 0.0000 0.0000 0.0000 0.0000 0.0000 0.0000 0.0000 0.0000 0.0000 0.0000 0.0000 -71.1991 15.6379 21.7160 -0.3983 2.3030 -2.9329 25.1073 20.8127 186.9411 46.8535 -6.9783 13.5242 2.6347 0.0000 0.0000 16.7110 0.0000 0.0000 -21.5322 0.9007 -6.7354 4.4644 0.0000 0.0000 6.6573 0.0000 0.0000 -14.7654 -0.5907 -9.3283 13.2334 0.0000 0.0000 22.5050 0.0000 0.0000 -4.5614 -0.2412 -2.7519 8.8925 0.0000 0.0000 7.6067 0.0000 0.0000 7.9290 -0.3387 1.1126 9.4253 0.0000 0.0000 4.4015 0.0000 0.0000 0.0000 0.0000 0.0000 78.9719 -28.6192 34.4036 -162.3791 41.6215 -72.3148 327.2139 6.0542 -44.2478 -45.0151 -9.0223 -3.6152 6.8551 0.0000 0.0000 17.0743 0.0000 0.0000 16.1594 0.4713 -6.4451 4.8405 0.0000 0.0000 1.9484 0.0000 0.0000 10.2324 0.9200 -5.4765 8.3956 0.0000 0.0000 4.4801 0.0000 0.0000 -12.5675 -1.3063 20.2497 110.0000 0.0000 0.0000 18.2321 0.0000 0.0000 -32.2048 -3.0435 43.2065 101.1109 0.0000 0.0000 14.9718 0.0000 0.0000 0.0000 0.0000 0.0000 0.0000 0.0000 0.0000 0.0000 0.0000 0.0000 0.0000 0.0000 0.0000 0.0000 0.0000 0.0000 0.0000 0.0000 0.0000
0.0000 95.0000 0.0000 0.0000 0.0000 0.0000 0.0000 0.0000 0.0000 0.0000 0.0000 0.0000 0.0000 0.0000 0.0000 0.0000 0.0000 0.0000 0.0000 0.0000 0.0000 0.0000 0.0000 0.0000 -71.7548 15.1710 20.8650 -0.1392 2.3770 -3.1017 67.5331 64.5504 241.0770 40.1756 -3.0091 19.0311 5.4058 0.0000 0.0000 10.7554 0.0000 0.0000 -12.1136 0.9388 -5.3614 8.9401 0.0000 0.0000 9.3301 0.0000 0.0000 -1.6161 -0.0669 -9.5140 20.4729 0.0000 0.0000 19.1798 0.0000 0.0000 0.5534 -0.4892 -3.3751 4.7983 0.0000 0.0000 12.3590 0.0000 0.0000 9.6878 -0.9164 -0.8694 8.1884 0.0000 0.0000 6.3396 0.0000 0.0000 0.0000 0.0000 0.0000 77.7018 -29.9363 36.7237 -161.1660 39.2491 -72.3594 327.9589 1.4355 -38.8793 -44.0517 -8.6202 -4.3220 4.9730 0.0000 0.0000 25.4484 0.0000 0.0000 17.4556 0.4732 -11.1059 6.1594 0.0000 0.0000 3.3924 0.0000 0.0000 10.1428 1.3166 -9.9821 11.9274 0.0000 0.0000 4.9770 0.0000 0.0000 -10.0364 -1.5162 18.3553 110.0000 0.0000 0.0000 15.8760 0.0000 0.0000 -27.7017 -5.0864 53.0734 92.5971 0.0000 0.0000 12.1620 0.0000 0.0000 0.0000 0.0000 0.0000 0.0000 0.0000 0.0000 0.0000 0.0000 0.0000 0.0000 0.0000 0.0000 0.0000 0.0000 0.0000 0.0000 0.0000 0.0000
0.0000 95.0000 0.0000 0.0000 0.0000 0.0000 0.0000 0.0000 0.0000 0.0000 0.0000 0.0000 0.0000 0.0000 0.0000 0.0000 0.0000 0.0000 0.0000 0.0000 0.0000 0.0000 0.0000 0.0000 -72.5230 14.4328 19.5872 -0.1203 2.5136 -3.2638 131.7496 58.5179 311.6399 36.6229 -1.9088 18.2379 9.1256 0.0000 0.0000 7.6890 0.0000 0.0000 -10.9131 0.7261 -2.8031 12.0950 0.0000 0.0000 10.8796 0.0000 0.0000 1.8039 0.0266 -6.4621 22.5220 0.0000 0.0000 17.0744 0.0000 0.0000 0.7033 -0.6159 -4.2897 9.8056 0.0000 0.0000 19.6932 0.0000 0.0000 10.0007 -1.4223 -3.1439 7.2913 0.0000 0.0000 7.9856 0.0000 0.0000 0.0000 0.0000 0.0000 76.7388 -30.7842 38.3472 -160.8748 37.2846 -72.6136 328.2260 -2.5806 -36.2015 -41.9830 -7.6089 -6.1686 6.0366 0.0000 0.0000 18.4836 0.0000 0.0000 16.9326 0.3780 -11.7541 5.4358 0.0000 0.0000 2.6041 0.0000 0.0000 10.2396 1.4932 -11.7784 11.0922 0.0000 0.0000 4.3349 0.0000 0.0000 -6.8259 -1.4343 13.1275 110.0000 0.0000 0.0000 16.2080 0.0000 0.0000 -21.7551 -6.0783 40.8042 101.6525 0.0000 0.0000 15.0615 0.0000 0.0000 0.0000 0.0000 0.0000 0.0000 0.0000 0.0000 0.0000 0.0000 0.0000 0.0000 0.0000 0.0000 0.0000 0.0000 0.0000 0.0000 0.0000 0.0000
0.0000 95.0000 0.0000 0.0000 0.0000 0.0000 0.0000 0.0000 0.0000 0.0000 0.0000 0.0000 0.0000 0.0000 0.0000 0.0000 0.0000 0.0000 0.0000 0.0000 0.0000 0.0000 0.0000 0.0000 -73.1354 13.9670 18.7533 0.0881 2.2840 -2.9970 147.5548 44.0128 330.6385 35.3770 -2.1171 16.4358 12.7908 0.0000 0.0000 4.6866 0.0000 0.0000 -13.0856 0.6722 -1.3288 15.8601 0.0000 0.0000 12.3601 0.0000 0.0000 1.0951 -0.0043 -4.3197 23.7687 0.0000 0.0000 15.0913 0.0000 0.0000 -1.4672 -0.7662 -5.5250 27.1677 0.0000 0.0000 45.8662 0.0000 0.0000 8.9963 -1.8327 -5.1930 6.2887 0.0000 0.0000 10.4971 0.0000 0.0000 0.0000 0.0000 0.0000 76.3099 -31.4205 39.3970 -160.5733 35.5911 -72.7107 328.8658 -8.3422 -31.9026 -42.2326 -7.6519 -6.2344 6.0566 0.0000 0.0000 17.0200 0.0000 0.0000 15.6728 0.1938 -11.7062 5.1617 0.0000 0.0000 1.9731 0.0000 0.0000 8.5056 1.2779 -12.2860 12.7986 0.0000 0.0000 5.6783 0.0000 0.0000 -5.7623 -1.5505 13.7125 110.0000 0.0000 0.0000 16.7700 0.0000 0.0000 -19.9851 -6.8677 42.7830 100.3464 0.0000 0.0000 16.0894 0.0000 0.0000 0.0000 0.0000 0.0000 0.0000 0.0000 0.0000 0.0000 0.0000 0.0000 0.0000 0.0000 0.0000 0.0000 0.0000 0.0000 0.0000 0.0000 0.0000
0.0000 95.0000 0.0000 0.0000 0.0000 0.0000 0.0000 0.0000 0.0000 0.0000 0.0000 0.0000 0.0000 0.0000 0.0000 0.0000 0.0000 0.0000 0.0000 0.0000 0.0000 0.0000 0.0000 0.0000 -73.3834 13.9587 18.6593 0.4917 2.2060 -2.9965 151.7506 34.7937 336.3315 35.3701 -2.7103 14.8740 16.3792 0.0000 0.0000 1.9006 0.0000 0.0000 -16.6086 0.7740 -0.9640 20.1103 0.0000 0.0000 13.5275 0.0000 0.0000 -1.1593 0.0127 -3.5190 24.3939 0.0000 0.0000 13.3161 0.0000 0.0000 -4.8329 -1.0418 -7.1570 56.8808 0.0000 0.0000 61.8849 0.0000 0.0000 6.9748 -2.2792 -7.2698 7.2387 0.0000 0.0000 14.5780 0.0000 0.0000 0.0000 0.0000 0.0000 75.7001 -32.0451 40.5639 -158.6386 35.1367 -72.2799 326.2480 -19.3789 -27.2833 -40.7174 -6.7550 -7.9221 5.6007 0.0000 0.0000 20.3935 0.0000 0.0000 14.8528 -0.0963 -15.0075 5.2755 0.0000 0.0000 2.4791 0.0000 0.0000 6.9118 1.2278 -15.3509 15.9859 0.0000 0.0000 4.5658 0.0000 0.0000 -1.3551 -1.4406 10.6212 102.9819 0.0000 0.0000 30.3577 0.0000 0.0000 -9.6220 -7.5947 31.5083 78.2305 0.0000 0.0000 27.3034 0.0000 0.0000 0.0000 0.0000 0.0000 0.0000 0.0000 0.0000 0.0000 0.0000 0.0000 0.0000 0.0000 0.0000 0.0000 0.0000 0.0000 0.0000 0.0000 0.0000
0.0000 95.0000 0.0000 0.0000 0.0000 0.0000 0.0000 0.0000 0.0000 0.0000 0.0000 0.0000 0.0000 0.0000 0.0000 0.0000 0.0000 0.0000 0.0000 0.0000 0.0000 0.0000 0.0000 0.0000 -73.4458 14.0166 18.7152 0.6641 1.6751 -2.3594 153.3417 29.3628 337.9559 35.8707 -3.3667 13.5866 19.8816 0.0000 0.0000 1.3381 0.0000 0.0000 -20.6884 0.9189 -1.2238 24.5941 0.0000 0.0000 14.1646 0.0000 0.0000 -3.8487 0.0427 -3.5015 24.5506 0.0000 0.0000 11.7655 0.0000 0.0000 -8.7453 -1.4815 -9.0278 83.1190 0.0000 0.0000 46.6937 0.0000 0.0000 4.3108 -2.8413 -9.4621 15.9185 0.0000 0.0000 21.4822 0.0000 0.0000 0.0000 0.0000 0.0000 75.7074 -32.4487 41.0532 -157.2647 35.0333 -72.0009 329.3408 -29.9434 -23.4717 -41.4746 -7.4810 -6.1721 5.1059 0.0000 0.0000 9.3019 0.0000 0.0000 14.2302 -0.0390 -12.0588 5.5203 0.0000 0.0000 0.3164 0.0000 0.0000 4.7226 0.7692 -13.7198 11.0658 0.0000 0.0000 1.7053 0.0000 0.0000 -0.2600 0.0305 -0.3256 30.4031 0.0000 0.0000 14.9826 0.0000 0.0000 -4.4478 -3.4212 11.6673 25.0404 0.0000 0.0000 9.1233 0.0000 0.0000 0.0000 0.0000 0.0000 0.0000 0.0000 0.0000 0.0000 0.0000 0.0000 0.0000 0.0000 0.0000 0.0000 0.0000 0.0000 0.0000 0.0000 0.0000
0.0000 95.0000 0.0000 0.0000 0.0000 0.0000 0.0000 0.0000 0.0000 0.0000 0.0000 0.0000 0.0000 0.0000 0.0000 0.0000 0.0000 0.0000 0.0000 0.0000 0.0000 0.0000 0.0000 0.0000 -73.3808 13.6339 18.2292 0.0879 1.3933 -1.8300 153.1401 50.7559 336.1753 40.8737 -4.5344 15.1576 14.4688 0.0000 0.0000 2.1607 0.0000 0.0000 -18.2377 0.8148 -0.1212 17.7591 0.0000 0.0000 13.5666 0.0000 0.0000 -3.3041 -0.0574 -6.7606 16.6009 0.0000 0.0000 9.7815 0.0000 0.0000 -9.6551 -1.8474 -10.5356 48.9709 0.0000 0.0000 38.7646 0.0000 0.0000 -0.8709 -2.4030 -7.8452 11.3504 0.0000 0.0000 23.8559 0.0000 0.0000 0.0000 0.0000 0.0000 75.3378 -32.6143 41.5082 -156.2810 34.2467 -71.3496 334.8325 -38.9964 -23.2813 -42.4488 -8.3643 -3.9318 4.6925 0.0000 0.0000 1.9472 0.0000 0.0000 14.8792 0.2270 -8.7363 5.0006 0.0000 0.0000 1.2873 0.0000 0.0000 3.8683 0.5460 -11.2908 7.3456 0.0000 0.0000 1.7331 0.0000 0.0000 -3.4847 0.7461 -8.5202 5.7092 0.0000 0.0000 3.4224 0.0000 0.0000 -8.6393 0.5463 -5.2639 8.9564 0.0000 0.0000 3.7833 0.0000 0.0000 0.0000 0.0000 0.0000 0.0000 0.0000 0.0000 0.0000 0.0000 0.0000 0.0000 0.0000 0.0000 0.0000 0.0000 0.0000 0.0000 0.0000 0.0000
0.0000 95.0000 0.0000 0.0000 0.0000 0.0000 0.0000 0.0000 0.0000 0.0000 0.0000 0.0000 0.0000 0.0000 0.0000 0.0000 0.0000 0.0000 0.0000 0.0000 0.0000 0.0000 0.0000 0.0000 -72.8411 14.2934 19.2894 0.2219 1.0097 -1.3846 131.2296 78.9680 315.7567 47.9952 -7.2727 13.7970 8.6496 0.0000 0.0000 5.9009 0.0000 0.0000 -15.7903 0.7546 -1.1966 15.4101 0.0000 0.0000 3.5291 0.0000 0.0000 -9.1894 -1.1937 -19.5438 3.5234 0.0000 0.0000 6.6220 0.0000 0.0000 -15.5027 -4.9065 -20.5176 23.4596 0.0000 0.0000 23.3770 0.0000 0.0000 -9.8261 -2.2259 -7.4482 14.8328 0.0000 0.0000 25.5392 0.0000 0.0000 0.0000 0.0000 0.0000 77.2931 -32.4823 40.0339 -154.4594 36.1890 -70.6519 344.2089 -28.6976 -37.8973 -46.3144 -9.0630 -4.6048 3.1244 0.0000 0.0000 9.7845 0.0000 0.0000 19.8478 0.8059 -12.1460 15.0748 0.0000 0.0000 6.5405 0.0000 0.0000 8.8370 1.2639 -11.4754 14.8062 0.0000 0.0000 4.8080 0.0000 0.0000 1.6251 1.7388 -10.5160 13.0400 0.0000 0.0000 4.8161 0.0000 0.0000 1.3262 4.3651 -13.1318 18.7653 0.0000 0.0000 4.0437 0.0000 0.0000 0.0000 0.0000 0.0000 0.0000 0.0000 0.0000 0.0000 0.0000 0.0000 0.0000 0.0000 0.0000 0.0000 0.0000 0.0000 0.0000 0.0000 0.0000
0.0000 95.0000 0.0000 0.0000 0.0000 0.0000 0.0000 0.0000 0.0000 0.0000 0.0000 0.0000 0.0000 0.0000 0.0000 0.0000 0.0000 0.0000 0.0000 0.0000 0.0000 0.0000 0.0000 0.0000 -72.5454 14.7899 20.0594 0.4440 0.4331 -0.7180 -14.3718 74.3725 178.3558 57.3483 -10.9521 8.5511 4.0265 0.0000 0.0000 8.5614 0.0000 0.0000 -14.2510 0.9101 -4.9513 21.2050 0.0000 0.0000 6.4378 0.0000 0.0000 -28.3333 -7.7444 -34.7932 17.9920 0.0000 0.0000 8.2354 0.0000 0.0000 -28.0004 -11.4942 -32.2477 42.2147 0.0000 0.0000 18.3810 0.0000 0.0000 -24.2980 -4.1044 -10.9843 36.8857 0.0000 0.0000 27.7117 0.0000 0.0000 0.0000 0.0000 0.0000 78.8404 -31.9234 38.3717 -151.9265 38.6968 -69.0955 289.7580 -65.5517 27.6482 -43.6008 -6.1998 -12.6165 3.8318 0.0000 0.0000 16.3573 0.0000 0.0000 8.1299 -0.8963 -11.4646 10.9933 0.0000 0.0000 4.5795 0.0000 0.0000 -0.3786 -0.0300 -4.2753 7.2809 0.0000 0.0000 1.8974 0.0000 0.0000 -7.3068 -0.0126 -5.1856 5.3453 0.0000 0.0000 2.7935 0.0000 0.0000 -14.5121 0.2308 -7.5350 6.5773 0.0000 0.0000 1.9426 0.0000 0.0000 0.0000 0.0000 0.0000 0.0000 0.0000 0.0000 0.0000 0.0000 0.0000 0.0000 0.0000 0.0000 0.0000 0.0000 0.0000 0.0000 0.0000 0.0000
0.0000 95.0000 0.0000 0.0000 0.0000 0.0000 0.0000 0.0000 0.0000 0.0000 0.0000 0.0000 0.0000 0.0000 0.0000 0.0000 0.0000 0.0000 0.0000 0.0000 0.0000 0.0000 0.0000 0.0000 -71.8711 15.2215 20.8901 -0.1820 0.2949 -0.3196 -163.0901 73.2073 52.9816 81.2442 -16.4805 3.0165 4.7195 0.0000 0.0000 29.7983 0.0000 0.0000 17.4455 3.7205 -13.1757 20.9428 0.0000 0.0000 8.8916 0.0000 0.0000 12.5632 2.9264 -30.9008 24.9442 0.0000 0.0000 20.6562 0.0000 0.0000 2.0926 -3.2562 -25.5832 13.9501 0.0000 0.0000 30.8579 0.0000 0.0000 -15.4019 3.8223 5.5462 28.1412 0.0000 0.0000 22.1305 0.0000 0.0000 0.0000 0.0000 0.0000 80.8266 -31.1944 36.3033 -149.3186 40.5904 -67.0781 241.0861 -53.7216 88.7540 -54.3618 -8.8507 -16.1025 4.9798 0.0000 0.0000 29.4261 0.0000 0.0000 5.9552 -0.4095 -5.2619 7.6154 0.0000 0.0000 2.8766 0.0000 0.0000 2.8642 0.0695 1.9939 2.4720 0.0000 0.0000 0.2264 0.0000 0.0000 -5.2671 -0.3156 0.2191 0.7253 0.0000 0.0000 2.1996 0.0000 0.0000 -14.4687 -0.8735 -1.1729 3.9811 0.0000 0.0000 1.6141 0.0000 0.0000 0.0000 0.0000 0.0000 0.0000 0.0000 0.0000 0.0000 0.0000 0.0000 0.0000 0.0000 0.0000 0.0000 0.0000 0.0000 0.0000 0.0000 0.0000
0.0000 95.0000 0.0000 0.0000 0.0000 0.0000 0.0000 0.0000 0.0000 0.0000 0.0000 0.0000 0.0000 0.0000 0.0000 0.0000 0.0000 0.0000 0.0000 0.0000 0.0000 0.0000 0.0000 0.0000 -71.1490 15.8758 22.0624 -0.1887 -0.4132 0.6218 -161.3382 74.4983 56.9084 84.3469 -17.1072 3.1990 4.8650 0.0000 0.0000 29.8564 0.0000 0.0000 19.3088 2.7316 -10.0461 20.7796 0.0000 0.0000 11.0925 0.0000 0.0000 14.3436 2.7357 -26.2618 24.5363 0.0000 0.0000 16.5594 0.0000 0.0000 4.0523 -2.3313 -20.0646 21.5806 0.0000 0.0000 24.1546 0.0000 0.0000 -11.5431 5.0959 9.8009 25.4026 0.0000 0.0000 19.6347 0.0000 0.0000 0.0000 0.0000 0.0000 82.8801 -30.6907 34.5336 -145.6815 40.3559 -64.0089 237.2360 -42.6172 104.2484 -67.8047 -13.2572 -15.0799 6.5899 0.0000 0.0000 45.4134 0.0000 0.0000 8.0068 0.2086 -1.3713 5.0876 0.0000 0.0000 1.5812 0.0000 0.0000 6.6971 0.0238 4.3651 1.4962 0.0000 0.0000 0.7191 0.0000 0.0000 -2.5129 -0.4380 2.5081 3.4995 0.0000 0.0000 1.9239 0.0000 0.0000 -13.3560 -1.2835 1.5692 4.5308 0.0000 0.0000 1.6833 0.0000 0.0000 0.0000 0.0000 0.0000 0.0000 0.0000 0.0000 0.0000 0.0000 0.0000 0.0000 0.0000 0.0000 0.0000 0.0000 0.0000 0.0000 0.0000 0.0000
0.0000 95.0000 0.0000 0.0000 0.0000 0.0000 0.0000 0.0000 0.0000 0.0000 0.0000 0.0000 0.0000 0.0000 0.0000 0.0000 0.0000 0.0000 0.0000 0.0000 0.0000 0.0000 0.0000 0.0000 -70.5226 16.3223 22.9321 -0.2411 -0.8368 1.2145 -160.7618 75.3402 60.8964 87.8902 -17.8354 3.3962 5.0553 0.0000 0.0000 29.8918 0.0000 0.0000 21.5594 1.5082 -6.5797 21.3205 0.0000 0.0000 13.3440 0.0000 0.0000 16.7252 2.4040 -21.0185 25.4329 0.0000 0.0000 12.0599 0.0000 0.0000 6.7891 -1.5105 -14.0434 28.9438 0.0000 0.0000 17.6824 0.0000 0.0000 -7.0781 5.9745 14.1715 23.6430 0.0000 0.0000 17.1621 0.0000 0.0000 0.0000 0.0000 0.0000 84.2068 -30.3601 33.4237 -142.5726 40.2247 -61.5847 239.7150 -40.4614 104.5076 -67.9745 -13.3135 -14.9967 6.1646 0.0000 0.0000 45.4346 0.0000 0.0000 8.1762 0.2277 -1.2847 4.9805 0.0000 0.0000 1.6511 0.0000 0.0000 6.6843 0.0109 4.5845 1.3932 0.0000 0.0000 0.6925 0.0000 0.0000 -2.4250 -0.4606 2.7229 3.4569 0.0000 0.0000 1.8174 0.0000 0.0000 -13.1646 -1.3045 1.7431 4.5906 0.0000 0.0000 1.6545 0.0000 0.0000 0.0000 0.0000 0.0000 0.0000 0.0000 0.0000 0.0000 0.0000 0.0000 0.0000 0.0000 0.0000 0.0000 0.0000 0.0000 0.0000 0.0000 0.0000
0.0000 95.0000 0.0000 0.0000 0.0000 0.0000 0.0000 0.0000 0.0000 0.0000 0.0000 0.0000 0.0000 0.0000 0.0000 0.0000 0.0000 0.0000 0.0000 0.0000 0.0000 0.0000 0.0000 0.0000 -69.9857 16.3631 23.2126 -1.1967 -0.7022 1.4687 -162.1523 74.8949 64.4715 91.8838 -18.6798 3.6519 5.3085 0.0000 0.0000 29.8920 0.0000 0.0000 24.1922 -0.0164 -2.7775 22.6350 0.0000 0.0000 15.6104 0.0000 0.0000 19.7460 1.8152 -15.1735 27.7523 0.0000 0.0000 7.2762 0.0000 0.0000 10.3317 -0.9503 -7.5682 35.7402 0.0000 0.0000 11.7589 0.0000 0.0000 -2.0688 6.3898 18.6250 23.2629 0.0000 0.0000 14.8425 0.0000 0.0000 0.0000 0.0000 0.0000 85.1492 -29.6929 32.1887 -142.1993 39.1743 -60.1278 230.5758 -32.3990 119.0249 -66.2405 -13.2575 -7.4235 1.8633 0.0000 0.0000 44.9997 0.0000 0.0000 4.2888 0.3394 1.0171 2.1762 0.0000 0.0000 2.8990 0.0000 0.0000 -1.3234 -0.0071 4.1529 1.3398 0.0000 0.0000 1.5512 0.0000 0.0000 -10.7260 -0.7054 2.3303 17.2199 0.0000 0.0000 12.6045 0.0000 0.0000 -26.1428 -2.0975 2.7122 46.7557 0.0000 0.0000 77.0218 0.0000 0.0000 0.0000 0.0000 0.0000 0.0000 0.0000 0.0000 0.0000 0.0000 0.0000 0.0000 0.0000 0.0000 0.0000 0.0000 0.0000 0.0000 0.0000 0.0000
0.0000 95.0000 0.0000 0.0000 0.0000 0.0000 0.0000 0.0000 0.0000 0.0000 0.0000 0.0000 0.0000 0.0000 0.0000 0.0000 0.0000 0.0000 0.0000 0.0000 0.0000 0.0000 0.0000 0.0000 -69.4974 16.7079 23.9048 -1.6103 -0.7132 1.6971 -166.8212 74.7050 71.5061 100.9819 -20.8237 4.7601 6.1078 0.0000 0.0000 29.7079 0.0000 0.0000 30.2787 -4.2329 5.7593 27.4475 0.0000 0.0000 20.0683 0.0000 0.0000 27.3969 -0.6895 -1.9435 35.6101 0.0000 0.0000 2.9835 0.0000 0.0000 19.3994 -1.2676 6.3327 47.0693 0.0000 0.0000 4.1940 0.0000 0.0000 9.0672 5.6989 27.6215 26.7576 0.0000 0.0000 11.3387 0.0000 0.0000 0.0000 0.0000 0.0000 85.8278 -29.6926 31.8275 -141.6238 36.1639 -58.7423 230.2935 -23.4170 124.0323 -62.4791 -12.3068 -7.9492 5.2548 0.0000 0.0000 28.7962 0.0000 0.0000 6.5450 0.2266 -0.5530 3.0625 0.0000 0.0000 2.1499 0.0000 0.0000 -3.6616 -0.0597 2.9054 10.7022 0.0000 0.0000 15.0779 0.0000 0.0000 -16.6893 -0.8922 5.7784 110.0000 0.0000 0.0000 23.0976 0.0000 0.0000 -33.5442 -2.4710 9.4338 110.0000 0.0000 0.0000 28.5648 0.0000 0.0000 0.0000 0.0000 0.0000 0.0000 0.0000 0.0000 0.0000 0.0000 0.0000 0.0000 0.0000 0.0000 0.0000 0.0000 0.0000 0.0000 0.0000 0.0000
0.0000 95.0000 0.0000 0.0000 0.0000 0.0000 0.0000 0.0000 0.0000 0.0000 0.0000 0.0000 0.0000 0.0000 0.0000 0.0000 0.0000 0.0000 0.0000 0.0000 0.0000 0.0000 0.0000 0.0000 -69.1893 17.1387 24.6486 -1.6541 -0.8046 1.8682 -168.4718 74.6809 75.9770 105.7236 -22.2302 6.0298 6.7247 0.0000 0.0000 29.4620 0.0000 0.0000 33.3533 -6.9989 10.4335 30.7176 0.0000 0.0000 22.2088 0.0000 0.0000 31.5444 -2.8181 5.1826 40.2768 0.0000 0.0000 7.6384 0.0000 0.0000 24.3754 -2.3555 13.4784 51.5440 0.0000 0.0000 5.8447 0.0000 0.0000 14.7878 4.6358 32.0962 29.9371 0.0000 0.0000 10.5476 0.0000 0.0000 0.0000 0.0000 0.0000 85.7996 -30.2228 32.4071 -140.7876 33.3509 -57.9721 229.7906 -24.1332 125.2598 -60.9042 -11.8790 -8.3157 4.1496 0.0000 0.0000 27.6589 0.0000 0.0000 7.4552 0.2206 -0.9959 3.0175 0.0000 0.0000 2.9258 0.0000 0.0000 -0.2976 -0.0049 2.8898 8.1947 0.0000 0.0000 9.2001 0.0000 0.0000 -13.7930 -0.8816 5.9456 110.0000 0.0000 0.0000 20.5630 0.0000 0.0000 -33.4570 -2.4763 10.2806 110.0000 0.0000 0.0000 24.1397 0.0000 0.0000 0.0000 0.0000 0.0000 0.0000 0.0000 0.0000 0.0000 0.0000 0.0000 0.0000 0.0000 0.0000 0.0000 0.0000 0.0000 0.0000 0.0000 0.0000
0.0000 95.0000 0.0000 0.0000 0.0000 0.0000 0.0000 0.0000 0.0000 0.0000 0.0000 0.0000 0.0000 0.0000 0.0000 0.0000 0.0000 0.0000 0.0000 0.0000 0.0000 0.0000 0.0000 0.0000 -68.9146 17.1722 24.8192 -2.0130 -0.4381 1.5426 -173.2601 74.1798 78.7393 110.1109 -23.9861 8.2470 7.5434 0.0000 0.0000 29.0517 0.0000 0.0000 36.0471 -10.1622 15.3435 34.3580 0.0000 0.0000 24.2624 0.0000 0.0000 35.3794 -5.5278 12.4425 44.8923 0.0000 0.0000 12.0916 0.0000 0.0000 29.1038 -4.0379 20.5785 55.2767 0.0000 0.0000 9.0022 0.0000 0.0000 20.2575 3.2106 36.5342 33.5046 0.0000 0.0000 10.6109 0.0000 0.0000 0.0000 0.0000 0.0000 85.7201 -30.3528 32.5883 -140.8176 31.7785 -57.6127 229.3345 -22.2359 128.7431 -59.9662 -11.6996 -7.8564 4.5941 0.0000 0.0000 24.5449 0.0000 0.0000 7.9735 0.2218 -1.2357 2.9974 0.0000 0.0000 2.9601 0.0000 0.0000 0.9643 0.0175 2.6896 9.6481 0.0000 0.0000 7.1297 0.0000 0.0000 -12.5078 -0.9174 7.2661 110.0000 0.0000 0.0000 22.4409 0.0000 0.0000 -34.3459 -2.4477 14.3897 110.0000 0.0000 0.0000 25.7487 0.0000 0.0000 0.0000 0.0000 0.0000 0.0000 0.0000 0.0000 0.0000 0.0000 0.0000 0.0000 0.0000 0.0000 0.0000 0.0000 0.0000 0.0000 0.0000 0.0000
0.0000 95.0000 0.0000 0.0000 0.0000 0.0000 0.0000 0.0000 0.0000 0.0000 0.0000 0.0000 0.0000 0.0000 0.0000 0.0000 0.0000 0.0000 0.0000 0.0000 0.0000 0.0000 0.0000 0.0000 -68.6827 17.3396 25.1627 -1.7838 -0.7762 1.9179 -175.2893 74.2371 83.3644 113.5470 -26.2005 11.9257 8.6070 0.0000 0.0000 28.4128 0.0000 0.0000 37.9983 -13.5886 20.4820 38.2031 0.0000 0.0000 26.2131 0.0000 0.0000 38.4487 -8.6550 19.7155 49.1700 0.0000 0.0000 16.1620 0.0000 0.0000 33.1462 -6.1474 27.5567 58.3402 0.0000 0.0000 12.1300 0.0000 0.0000 25.1918 1.5711 40.9432 37.1567 0.0000 0.0000 11.5297 0.0000 0.0000 0.0000 0.0000 0.0000 85.8977 -30.5739 32.7276 -140.8738 30.9849 -57.6841 230.0083 -22.3632 130.4691 -59.9216 -11.8309 -6.6702 4.9611 0.0000 0.0000 22.8005 0.0000 0.0000 7.2277 0.2760 -0.4198 3.3024 0.0000 0.0000 2.9392 0.0000 0.0000 -0.3942 -0.0012 4.4343 12.2980 0.0000 0.0000 9.8871 0.0000 0.0000 -14.1278 -0.9494 10.0570 86.2011 0.0000 0.0000 53.1261 0.0000 0.0000 -31.2613 -2.6526 15.7901 96.3786 0.0000 0.0000 40.5138 0.0000 0.0000 0.0000 0.0000 0.0000 0.0000 0.0000 0.0000 0.0000 0.0000 0.0000 0.0000 0.0000 0.0000 0.0000 0.0000 0.0000 0.0000 0.0000 0.0000
0.0000 95.0000 0.0000 0.0000 0.0000 0.0000 0.0000 0.0000 0.0000 0.0000 0.0000 0.0000 0.0000 0.0000 0.0000 0.0000 0.0000 0.0000 0.0000 0.0000 0.0000 0.0000 0.0000 0.0000 -68.7632 17.5235 25.3879 -1.2279 -0.9172 1.8400 -178.1528 74.1724 87.4903 115.2259 -28.8779 17.6708 9.9441 0.0000 0.0000 27.4687 0.0000 0.0000 38.8816 -17.0580 25.8522 42.0947 0.0000 0.0000 28.0489 0.0000 0.0000 40.3736 -11.9209 26.9339 52.9363 0.0000 0.0000 19.7929 0.0000 0.0000 36.1429 -8.4262 34.3864 60.8184 0.0000 0.0000 14.9878 0.0000 0.0000 29.3427 -0.1065 45.3406 40.7021 0.0000 0.0000 13.1553 0.0000 0.0000 0.0000 0.0000 0.0000 85.8125 -30.8980 33.1186 -140.9546 30.8554 -58.1414 229.9558 -22.4607 130.9109 -59.1132 -11.6315 -6.7419 5.6109 0.0000 0.0000 22.8709 0.0000 0.0000 8.1824 0.3392 -0.2624 3.6185 0.0000 0.0000 2.4855 0.0000 0.0000 -0.7851 -0.0038 4.2121 14.1354 0.0000 0.0000 11.9950 0.0000 0.0000 -13.7175 -0.9312 8.4632 84.9068 0.0000 0.0000 57.1482 0.0000 0.0000 -30.5153 -2.6253 13.2634 88.0841 0.0000 0.0000 48.2966 0.0000 0.0000 0.0000 0.0000 0.0000 0.0000 0.0000 0.0000 0.0000 0.0000 0.0000 0.0000 0.0000 0.0000 0.0000 0.0000 0.0000 0.0000 0.0000 0.0000
0.0000 95.0000 0.0000 0.0000 0.0000 0.0000 0.0000 0.0000 0.0000 0.0000 0.0000 0.0000 0.0000 0.0000 0.0000 0.0000 0.0000 0.0000 0.0000 0.0000 0.0000 0.0000 0.0000 0.0000 -68.4848 17.6665 25.7208 -0.9070 -1.1251 1.9773 -179.7612 74.0752 92.2615 114.2131 -31.7016 26.0365 11.5475 0.0000 0.0000 26.1448 0.0000 0.0000 38.4938 -20.2947 31.4415 45.8928 0.0000 0.0000 29.7622 0.0000 0.0000 40.9395 -14.9911 34.0609 56.1187 0.0000 0.0000 22.9751 0.0000 0.0000 37.8825 -10.5794 41.0612 62.7984 0.0000 0.0000 17.5559 0.0000 0.0000 32.5409 -1.6427 49.7370 44.0330 0.0000 0.0000 15.2763 0.0000 0.0000 0.0000 0.0000 0.0000 85.8445 -30.7031 32.8939 -140.6149 31.7740 -57.9929 232.2702 -24.5039 129.6752 -58.7274 -11.5789 -6.4462 6.0934 0.0000 0.0000 22.8240 0.0000 0.0000 9.0283 0.4487 0.4273 3.4152 0.0000 0.0000 2.4656 0.0000 0.0000 -1.2451 0.0020 4.9598 24.8307 0.0000 0.0000 34.6718 0.0000 0.0000 -13.8306 -0.9362 8.8428 92.7612 0.0000 0.0000 48.2727 0.0000 0.0000 -30.8246 -2.6092 13.1920 90.3554 0.0000 0.0000 43.3406 0.0000 0.0000 0.0000 0.0000 0.0000 0.0000 0.0000 0.0000 0.0000 0.0000 0.0000 0.0000 0.0000 0.0000 0.0000 0.0000 0.0000 0.0000 0.0000 0.0000
0.0000 95.0000 0.0000 0.0000 0.0000 0.0000 0.0000 0.0000 0.0000 0.0000 0.0000 0.0000 0.0000 0.0000 0.0000 0.0000 0.0000 0.0000 0.0000 0.0000 0.0000 0.0000 0.0000 0.0000 -68.1509 17.5543 25.7159 -1.0457 -1.0459 1.9489 -182.6090 73.5754 95.8639 109.8162 -33.8192 37.1335 13.3428 0.0000 0.0000 24.3988 0.0000 0.0000 36.8134 -23.0238 37.1843 49.4863 0.0000 0.0000 31.3488 0.0000 0.0000 40.1381 -17.5526 41.0443 58.7210 0.0000 0.0000 25.7286 0.0000 0.0000 38.3317 -12.3339 47.5543 64.3635 0.0000 0.0000 19.8572 0.0000 0.0000 34.7201 -2.8793 54.1210 47.0976 0.0000 0.0000 17.6899 0.0000 0.0000 0.0000 0.0000 0.0000 85.7384 -30.2212 32.4383 -140.1315 33.2814 -57.5533 233.4265 -24.6691 129.1511 -58.7773 -11.6010 -6.3660 7.6896 0.0000 0.0000 21.6987 0.0000 0.0000 9.6131 0.4997 0.7112 3.6813 0.0000 0.0000 2.2484 0.0000 0.0000 -1.6337 -0.0053 4.3971 32.6121 0.0000 0.0000 61.7330 0.0000 0.0000 -13.2280 -0.9156 7.4362 93.4891 0.0000 0.0000 47.3420 0.0000 0.0000 -29.7095 -2.5928 11.4283 86.3464 0.0000 0.0000 46.4729 0.0000 0.0000 0.0000 0.0000 0.0000 0.0000 0.0000 0.0000 0.0000 0.0000 0.0000 0.0000 0.0000 0.0000 0.0000 0.0000 0.0000 0.0000 0.0000 0.0000
0.0000 95.0000 0.0000 0.0000 0.0000 0.0000 0.0000 0.0000 0.0000 0.0000 0.0000 0.0000 0.0000 0.0000 0.0000 0.0000 0.0000 0.0000 0.0000 0.0000 0.0000 0.0000 0.0000 0.0000 -68.2108 17.5085 25.6221 -0.7695 -1.1056 1.8901 -184.7516 73.0458 99.5762 102.3540 -34.0005 49.9375 15.1598 0.0000 0.0000 22.2700 0.0000 0.0000 34.0125 -25.0335 42.9365 52.7972 0.0000 0.0000 32.8077 0.0000 0.0000 38.1551 -19.3790 47.7797 60.7946 0.0000 0.0000 28.0902 0.0000 0.0000 37.6237 -13.4879 53.7915 65.5895 0.0000 0.0000 21.9226 0.0000 0.0000 35.9169 -3.6990 58.4501 49.8793 0.0000 0.0000 20.2266 0.0000 0.0000 0.0000 0.0000 0.0000 85.5040 -29.7477 32.0581 -140.2264 34.3567 -57.3070 234.1725 -25.2474 128.0314 -58.4373 -11.6070 -5.7247 7.5164 0.0000 0.0000 21.4815 0.0000 0.0000 9.6456 0.5659 1.3896 4.3413 0.0000 0.0000 2.7494 0.0000 0.0000 -0.7399 0.0003 4.8191 38.3814 0.0000 0.0000 71.5523 0.0000 0.0000 -12.2581 -0.9464 8.0931 101.0988 0.0000 0.0000 42.1507 0.0000 0.0000 -29.2360 -2.6173 11.6795 93.2026 0.0000 0.0000 42.3745 0.0000 0.0000 0.0000 0.0000 0.0000 0.0000 0.0000 0.0000 0.0000 0.0000 0.0000 0.0000 0.0000 0.0000 0.0000 0.0000 0.0000 0.0000 0.0000 0.0000
0.0000 95.0000 0.0000 0.0000 0.0000 0.0000 0.0000 0.0000 0.0000 0.0000 0.0000 0.0000 0.0000 0.0000 0.0000 0.0000 0.0000 0.0000 0.0000 0.0000 0.0000 0.0000 0.0000 0.0000 -68.2476 17.2417 25.2216 -0.5623 -1.0208 1.6689 -187.3790 72.5699 102.7247 93.5234 -31.4524 62.0980 16.7335 0.0000 0.0000 19.9264 0.0000 0.0000 30.4152 -26.2219 48.4827 55.7812 0.0000 0.0000 34.1405 0.0000 0.0000 35.3135 -20.3691 54.1079 62.4132 0.0000 0.0000 30.1039 0.0000 0.0000 36.0131 -13.9415 59.6512 66.5423 0.0000 0.0000 23.7817 0.0000 0.0000 36.2546 -4.0392 62.6512 52.3825 0.0000 0.0000 22.7551 0.0000 0.0000 0.0000 0.0000 0.0000 85.3857 -29.1421 31.4720 -140.5813 35.8751 -57.1963 237.0961 -28.0647 124.5236 -56.8390 -11.3101 -5.2666 8.4049 0.0000 0.0000 20.4867 0.0000 0.0000 9.3252 0.6826 2.6790 5.5157 0.0000 0.0000 3.2412 0.0000 0.0000 -1.5466 0.0123 5.6858 46.5488 0.0000 0.0000 72.9743 0.0000 0.0000 -13.3078 -0.9372 8.3909 78.7958 0.0000 0.0000 53.6356 0.0000 0.0000 -28.4868 -2.6087 11.0113 73.4889 0.0000 0.0000 54.3761 0.0000 0.0000 0.0000 0.0000 0.0000 0.0000 0.0000 0.0000 0.0000 0.0000 0.0000 0.0000 0.0000 0.0000 0.0000 0.0000 0.0000 0.0000 0.0000 0.0000
0.0000 95.0000 0.0000 0.0000 0.0000 0.0000 0.0000 0.0000 0.0000 0.0000 0.0000 0.0000 0.0000 0.0000 0.0000 0.0000 0.0000 0.0000 0.0000 0.0000 0.0000 0.0000 0.0000 0.0000 -68.3031 17.0844 24.9701 -0.2933 -1.0214 1.5379 -188.8583 72.0629 106.1724 85.2581 -26.5593 71.2702 17.7661 0.0000 0.0000 17.6687 0.0000 0.0000 26.4259 -26.6134 53.5728 58.4227 0.0000 0.0000 35.3511 0.0000 0.0000 32.0022 -20.5559 59.8415 63.6556 0.0000 0.0000 31.8150 0.0000 0.0000 33.8219 -13.7111 64.9854 67.2772 0.0000 0.0000 25.4610 0.0000 0.0000 35.9228 -3.9052 66.6286 54.6233 0.0000 0.0000 25.1817 0.0000 0.0000 0.0000 0.0000 0.0000 85.1232 -28.7393 31.1762 -140.6542 37.1065 -57.0898 237.4117 -28.0192 123.9258 -56.7899 -11.3228 -5.1061 8.3690 0.0000 0.0000 20.7120 0.0000 0.0000 9.3916 0.6942 2.7831 5.7143 0.0000 0.0000 3.2747 0.0000 0.0000 -1.5442 0.0128 5.7220 47.5632 0.0000 0.0000 73.1837 0.0000 0.0000 -13.3058 -0.9384 8.4420 78.6066 0.0000 0.0000 53.5483 0.0000 0.0000 -28.5002 -2.6174 11.1977 73.1298 0.0000 0.0000 54.3751 0.0000 0.0000 0.0000 0.0000 0.0000 0.0000 0.0000 0.0000 0.0000 0.0000 0.0000 0.0000 0.0000 0.0000 0.0000 0.0000 0.0000 0.0000 0.0000 0.0000
0.0000 95.0000 0.0000 0.0000 0.0000 0.0000 0.0000 0.0000 0.0000 0.0000 0.0000 0.0000 0.0000 0.0000 0.0000 0.0000 0.0000 0.0000 0.0000 0.0000 0.0000 0.0000 0.0000 0.0000 -68.4844 17.0115 24.7835 0.1392 -1.1874 1.5528 -189.3487 71.6090 109.7930 78.4314 -20.5681 76.5272 18.0426 0.0000 0.0000 15.8523 0.0000 0.0000 22.4733 -26.3520 57.9581 60.7277 0.0000 0.0000 36.4447 0.0000 0.0000 28.6286 -20.1005 64.7945 64.5952 0.0000 0.0000 33.2666 0.0000 0.0000 31.4064 -12.9378 69.6442 67.8394 0.0000 0.0000 26.9834 0.0000 0.0000 35.1710 -3.3914 70.2727 56.6231 0.0000 0.0000 27.4469 0.0000 0.0000 0.0000 0.0000 0.0000 84.8734 -28.5134 31.0621 -140.3022 38.2012 -56.9205 240.9351 -30.7217 117.8747 -56.1421 -10.9992 -6.2671 9.4810 0.0000 0.0000 19.9062 0.0000 0.0000 10.9951 0.6924 2.3823 5.7841 0.0000 0.0000 3.2684 0.0000 0.0000 -0.2187 0.0014 5.5305 53.0582 0.0000 0.0000 71.3836 0.0000 0.0000 -11.6087 -0.9473 7.8545 65.4790 0.0000 0.0000 55.3787 0.0000 0.0000 -26.3704 -2.6396 10.6515 60.9399 0.0000 0.0000 58.4074 0.0000 0.0000 0.0000 0.0000 0.0000 0.0000 0.0000 0.0000 0.0000 0.0000 0.0000 0.0000 0.0000 0.0000 0.0000 0.0000 0.0000 0.0000 0.0000 0.0000
0.0000 95.0000 0.0000 0.0000 0.0000 0.0000 0.0000 0.0000 0.0000 0.0000 0.0000 0.0000 0.0000 0.0000 0.0000 0.0000 0.0000 0.0000 0.0000 0.0000 0.0000 0.0000 0.0000 0.0000 -68.1778 16.8036 24.6226 -0.1790 -1.0468 1.5232 -190.6494 71.2729 112.3367 73.0541 -14.8191 78.1813 17.5274 0.0000 0.0000 14.7393 0.0000 0.0000 19.0261 -25.6997 61.3836 62.7167 0.0000 0.0000 37.4276 0.0000 0.0000 25.6411 -19.3059 68.7772 65.2952 0.0000 0.0000 34.4977 0.0000 0.0000 29.1797 -11.9188 73.4790 68.2656 0.0000 0.0000 28.3683 0.0000 0.0000 34.3426 -2.7324 73.4617 58.4057 0.0000 0.0000 29.5191 0.0000 0.0000 0.0000 0.0000 0.0000 83.8083 -28.1128 31.1788 -139.6626 40.2010 -56.5490 245.9995 -32.5776 111.7852 -56.4607 -10.7822 -8.1817 11.2258 0.0000 0.0000 15.0185 0.0000 0.0000 10.7947 0.6638 2.1020 4.6412 0.0000 0.0000 3.9282 0.0000 0.0000 0.5035 -0.0023 5.3058 31.8478 0.0000 0.0000 67.5752 0.0000 0.0000 -10.8432 -0.8790 6.1036 46.2242 0.0000 0.0000 68.1016 0.0000 0.0000 -25.1507 -2.4203 7.4662 49.3793 0.0000 0.0000 69.5442 0.0000 0.0000 0.0000 0.0000 0.0000 0.0000 0.0000 0.0000 0.0000 0.0000 0.0000 0.0000 0.0000 0.0000 0.0000 0.0000 0.0000 0.0000 0.0000 0.0000
0.0000 95.0000 0.0000 0.0000 0.0000 0.0000 0.0000 0.0000 0.0000 0.0000 0.0000 0.0000 0.0000 0.0000 0.0000 0.0000 0.0000 0.0000 0.0000 0.0000 0.0000 0.0000 0.0000 0.0000 -68.2682 16.6514 24.3630 -0.4182 -0.5886 1.0025 -196.7618 74.0632 112.8066 67.2385 -8.8298 72.9088 14.8121 0.0000 0.0000 14.5941 0.0000 0.0000 17.2011 -25.2772 63.2049 65.8635 0.0000 0.0000 39.0901 0.0000 0.0000 24.2829 -19.3888 72.1314 66.1757 0.0000 0.0000 36.4301 0.0000 0.0000 28.5493 -12.1440 77.4329 68.8196 0.0000 0.0000 30.7899 0.0000 0.0000 35.4816 -3.8037 77.4849 61.4110 0.0000 0.0000 33.0571 0.0000 0.0000 0.0000 0.0000 0.0000 83.0116 -27.3376 30.7342 -139.1147 44.3959 -56.4406 260.2589 -39.7453 96.1240 -52.9751 -10.3102 -5.9566 9.6868 0.0000 0.0000 15.6684 0.0000 0.0000 14.2862 1.0276 7.0910 14.0216 0.0000 0.0000 90.0000 0.0000 0.0000 1.2246 -0.0497 9.4218 49.6621 0.0000 0.0000 89.8633 0.0000 0.0000 -10.1160 -1.0937 10.3184 63.8100 0.0000 0.0000 77.2876 0.0000 0.0000 -23.8162 -2.6548 10.1673 60.7172 0.0000 0.0000 75.9526 0.0000 0.0000 0.0000 0.0000 0.0000 0.0000 0.0000 0.0000 0.0000 0.0000 0.0000 0.0000 0.0000 0.0000 0.0000 0.0000 0.0000 0.0000 0.0000 0.0000
0.0000 95.0000 0.0000 0.0000 0.0000 0.0000 0.0000 0.0000 0.0000 0.0000 0.0000 0.0000 0.0000 0.0000 0.0000 0.0000 0.0000 0.0000 0.0000 0.0000 0.0000 0.0000 0.0000 0.0000 -68.6304 16.2884 23.6833 -0.8129 -0.1091 0.5061 -223.5558 81.5419 89.1942 70.4551 -12.5847 63.3977 13.1006 0.0000 0.0000 15.1663 0.0000 0.0000 25.3372 -27.3850 56.2942 67.0851 0.0000 0.0000 39.7845 0.0000 0.0000 32.5135 -23.6364 66.5519 66.4314 0.0000 0.0000 37.1859 0.0000 0.0000 36.2895 -17.8692 73.4443 68.9884 0.0000 0.0000 31.8528 0.0000 0.0000 43.0227 -10.3858 74.9140 62.6761 0.0000 0.0000 34.5383 0.0000 0.0000 0.0000 0.0000 0.0000 82.1985 -26.2262 29.9028 -138.5217 49.7065 -56.1543 271.6504 -42.3747 85.6812 -53.8778 -11.2171 -1.9604 9.3158 0.0000 0.0000 17.2605 0.0000 0.0000 13.7818 1.2091 9.9966 110.0000 0.0000 0.0000 59.9973 0.0000 0.0000 0.1996 -0.0117 11.4821 110.0000 0.0000 0.0000 29.6302 0.0000 0.0000 -12.1426 -1.0788 11.9827 110.0000 0.0000 0.0000 32.2430 0.0000 0.0000 -25.3309 -2.6482 10.4517 110.0000 0.0000 0.0000 41.7620 0.0000 0.0000 0.0000 0.0000 0.0000 0.0000 0.0000 0.0000 0.0000 0.0000 0.0000 0.0000 0.0000 0.0000 0.0000 0.0000 0.0000 0.0000 0.0000 0.0000
0.0000 95.0000 0.0000 0.0000 0.0000 0.0000 0.0000 0.0000 0.0000 0.0000 0.0000 0.0000 0.0000 0.0000 0.0000 0.0000 0.0000 0.0000 0.0000 0.0000 0.0000 0.0000 0.0000 0.0000 -69.1007 15.9737 23.0343 -0.6713 0.4735 -0.3725 -344.8015 63.0912 -30.3520 89.6982 -21.4076 24.6775 11.4120 0.0000 0.0000 15.8974 0.0000 0.0000 55.4100 -21.3493 23.1623 68.1131 0.0000 0.0000 40.3974 0.0000 0.0000 67.5946 -23.7578 30.1185 66.6008 0.0000 0.0000 37.8307 0.0000 0.0000 72.5454 -24.9597 37.0464 69.1053 0.0000 0.0000 32.8316 0.0000 0.0000 77.0585 -22.7048 41.0526 63.8075 0.0000 0.0000 35.8480 0.0000 0.0000 0.0000 0.0000 0.0000 81.6703 -25.2738 29.0862 -135.2878 56.4265 -54.6564 289.9172 -38.0156 71.3898 -56.7994 -12.0023 -0.4737 10.1212 0.0000 0.0000 18.6253 0.0000 0.0000 12.1863 1.2201 9.2025 110.0000 0.0000 0.0000 11.2405 0.0000 0.0000 -2.1308 0.1136 10.8737 110.0000 0.0000 0.0000 5.8275 0.0000 0.0000 -14.0300 -0.9812 11.7337 110.0000 0.0000 0.0000 18.0263 0.0000 0.0000 -26.2922 -2.6619 10.9546 110.0000 0.0000 0.0000 27.3042 0.0000 0.0000 0.0000 0.0000 0.0000 0.0000 0.0000 0.0000 0.0000 0.0000 0.0000 0.0000 0.0000 0.0000 0.0000 0.0000 0.0000 0.0000 0.0000 0.0000
0.0000 95.0000 0.0000 0.0000 0.0000 0.0000 0.0000 0.0000 0.0000 0.0000 0.0000 0.0000 0.0000 0.0000 0.0000 0.0000 0.0000 0.0000 0.0000 0.0000 0.0000 0.0000 0.0000 0.0000 -69.7672 15.8067 22.5226 -0.2311 1.3882 -1.8005 -352.0721 8.9825 -38.9351 82.6485 -13.9305 -31.7580 9.8492 0.0000 0.0000 16.6660 0.0000 0.0000 55.2896 15.1644 -23.3016 68.9750 0.0000 0.0000 40.9359 0.0000 0.0000 72.2770 14.9752 -25.1781 66.7041 0.0000 0.0000 38.3822 0.0000 0.0000 82.4638 12.0572 -25.9365 69.1813 0.0000 0.0000 33.7354 0.0000 0.0000 88.3888 8.2757 -28.7303 64.8215 0.0000 0.0000 37.0040 0.0000 0.0000 0.0000 0.0000 0.0000 81.8045 -24.4551 28.0895 -126.3334 65.0274 -49.3918 325.2238 -33.0324 41.7810 -72.1551 -14.8228 12.2916 12.6259 0.0000 0.0000 19.9881 0.0000 0.0000 4.0694 3.4738 22.5611 110.0000 0.0000 0.0000 27.6048 0.0000 0.0000 -8.3264 1.5720 26.1190 110.0000 0.0000 0.0000 16.0601 0.0000 0.0000 -19.9489 -0.1139 28.4407 110.0000 0.0000 0.0000 30.4518 0.0000 0.0000 -35.4050 -2.2033 29.6537 110.0000 0.0000 0.0000 39.2598 0.0000 0.0000 0.0000 0.0000 0.0000 0.0000 0.0000 0.0000 0.0000 0.0000 0.0000 0.0000 0.0000 0.0000 0.0000 0.0000 0.0000 0.0000 0.0000 0.0000
0.0000 95.0000 0.0000 0.0000 0.0000 0.0000 0.0000 0.0000 0.0000 0.0000 0.0000 0.0000 0.0000 0.0000 0.0000 0.0000 0.0000 0.0000 0.0000 0.0000 0.0000 0.0000 0.0000 0.0000 -70.5245 14.9011 20.9578 -1.7916 3.2032 -3.7957 -348.6317 -12.0068 -37.3204 68.6635 -15.5877 -38.5622 8.4566 0.0000 0.0000 17.4084 0.0000 0.0000 39.1104 22.1044 -41.2648 69.6952 0.0000 0.0000 41.4069 0.0000 0.0000 54.7000 22.2263 -46.3618 66.7566 0.0000 0.0000 38.8551 0.0000 0.0000 64.8790 19.0812 -48.5637 69.2252 0.0000 0.0000 34.5719 0.0000 0.0000 71.0592 13.0174 -52.0373 65.7320 0.0000 0.0000 38.0240 0.0000 0.0000 0.0000 0.0000 0.0000 82.7620 -22.4006 25.3334 -90.2047 74.7681 -19.4535 354.7347 -13.1076 36.2686 -91.9146 -14.2207 24.1272 18.6703 0.0000 0.0000 19.6342 0.0000 0.0000 -12.5829 6.1212 22.4222 95.2432 0.0000 0.0000 56.0334 0.0000 0.0000 -25.2009 5.2342 27.8850 110.0000 0.0000 0.0000 27.4354 0.0000 0.0000 -35.6101 3.4280 30.9001 110.0000 0.0000 0.0000 36.6953 0.0000 0.0000 -48.9174 0.9482 33.7305 110.0000 0.0000 0.0000 30.5324 0.0000 0.0000 0.0000 0.0000 0.0000 0.0000 0.0000 0.0000 0.0000 0.0000 0.0000 0.0000 0.0000 0.0000 0.0000 0.0000 0.0000 0.0000 0.0000 0.0000
0.0000 95.0000 0.0000 0.0000 0.0000 0.0000 0.0000 0.0000 0.0000 0.0000 0.0000 0.0000 0.0000 0.0000 0.0000 0.0000 0.0000 0.0000 0.0000 0.0000 0.0000 0.0000 0.0000 0.0000 -72.8461 12.5130 16.9020 -2.4558 4.2174 -5.0663 -344.3300 -18.2210 -33.0763 65.6756 -15.9182 -36.3585 7.2425 0.0000 0.0000 18.0959 0.0000 0.0000 36.1193 22.3236 -43.7746 70.2950 0.0000 0.0000 41.8167 0.0000 0.0000 51.7739 22.5939 -49.5196 66.7704 0.0000 0.0000 39.2618 0.0000 0.0000 62.0660 19.4828 -52.0185 69.2439 0.0000 0.0000 35.3480 0.0000 0.0000 68.2914 13.1753 -55.8687 66.5516 0.0000 0.0000 38.9248 0.0000 0.0000 0.0000 0.0000 0.0000 84.0268 -20.7609 22.9886 -36.5874 71.9138 26.1629 396.0533 9.9842 40.3406 -110.9892 -8.9049 37.6452 34.7608 0.0000 0.0000 7.4748 0.0000 0.0000 -29.8655 6.2950 16.4439 35.0256 0.0000 0.0000 27.8162 0.0000 0.0000 -40.4937 7.3540 24.5382 40.1077 0.0000 0.0000 41.5939 0.0000 0.0000 -47.4903 4.8986 26.6302 46.7098 0.0000 0.0000 39.7837 0.0000 0.0000 -52.0725 0.6619 27.5502 66.6366 0.0000 0.0000 21.9816 0.0000 0.0000 0.0000 0.0000 0.0000 0.0000 0.0000 0.0000 0.0000 0.0000 0.0000 0.0000 0.0000 0.0000 0.0000 0.0000 0.0000 0.0000 0.0000 0.0000
0.0000 95.0000 0.0000 0.0000 0.0000 0.0000 0.0000 0.0000 0.0000 0.0000 0.0000 0.0000 0.0000 0.0000 0.0000 0.0000 0.0000 0.0000 0.0000 0.0000 0.0000 0.0000 0.0000 0.0000 -75.1438 8.6686 11.2530 -3.0179 3.2815 -3.8282 -340.7301 -20.1455 -30.3361 65.6756 -15.9182 -36.3585 7.2425 0.0000 0.0000 18.0959 0.0000 0.0000 36.1193 22.3236 -43.7746 70.2950 0.0000 0.0000 41.8167 0.0000 0.0000 51.7739 22.5939 -49.5196 66.7704 0.0000 0.0000 39.2618 0.0000 0.0000 62.0660 19.4828 -52.0185 69.2439 0.0000 0.0000 35.3480 0.0000 0.0000 68.2914 13.1753 -55.8687 66.5516 0.0000 0.0000 38.9248 0.0000 0.0000 0.0000 0.0000 0.0000 84.9383 -18.3898 20.0575 -12.3023 60.5787 41.9059 429.3455 28.7743 55.9326 -98.3384 -15.1969 18.5399 38.9985 0.0000 0.0000 5.1648 0.0000 0.0000 -16.2157 -0.0795 2.0490 23.2710 0.0000 0.0000 14.5751 0.0000 0.0000 -21.2388 0.6546 8.2622 25.4788 0.0000 0.0000 19.4515 0.0000 0.0000 -24.8204 -1.0675 4.0125 37.2467 0.0000 0.0000 4.8842 0.0000 0.0000 -24.9953 -1.7378 -1.1466 19.8137 0.0000 0.0000 5.6864 0.0000 0.0000 0.0000 0.0000 0.0000 0.0000 0.0000 0.0000 0.0000 0.0000 0.0000 0.0000 0.0000 0.0000 0.0000 0.0000 0.0000 0.0000 0.0000 0.0000
0.0000 95.0000 0.0000 0.0000 0.0000 0.0000 0.0000 0.0000 0.0000 0.0000 0.0000 0.0000 0.0000 0.0000 0.0000 0.0000 0.0000 0.0000 0.0000 0.0000 0.0000 0.0000 0.0000 0.0000 -76.0009 6.8497 8.7604 -4.1305 0.3259 0.2345 -339.7749 -18.2679 -32.2495 65.6756 -15.9182 -36.3585 7.2425 0.0000 0.0000 18.0959 0.0000 0.0000 36.1193 22.3236 -43.7746 70.2950 0.0000 0.0000 41.8167 0.0000 0.0000 51.7739 22.5939 -49.5196 66.7704 0.0000 0.0000 39.2618 0.0000 0.0000 62.0660 19.4828 -52.0185 69.2439 0.0000 0.0000 35.3480 0.0000 0.0000 68.2914 13.1753 -55.8687 66.5516 0.0000 0.0000 38.9248 0.0000 0.0000 0.0000 0.0000 0.0000 88.5924 -12.7365 13.0506 0.7646 35.1909 33.4931 461.9576 58.4049 94.9182 -98.3384 -15.1969 18.5399 38.9985 0.0000 0.0000 5.1648 0.0000 0.0000 -16.2157 -0.0795 2.0490 23.2710 0.0000 0.0000 14.5751 0.0000 0.0000 -21.2388 0.6546 8.2622 25.4788 0.0000 0.0000 19.4515 0.0000 0.0000 -24.8204 -1.0675 4.0125 37.2467 0.0000 0.0000 4.8842 0.0000 0.0000 -24.9953 -1.7378 -1.1466 19.8137 0.0000 0.0000 5.6864 0.0000 0.0000 0.0000 0.0000 0.0000 0.0000 0.0000 0.0000 0.0000 0.0000 0.0000 0.0000 0.0000 0.0000 0.0000 0.0000 0.0000 0.0000 0.0000 0.0000
0.0000 95.0000 0.0000 0.0000 0.0000 0.0000 0.0000 0.0000 0.0000 0.0000 0.0000 0.0000 0.0000 0.0000 0.0000 0.0000 0.0000 0.0000 0.0000 0.0000 0.0000 0.0000 0.0000 0.0000 -76.2357 6.1273 7.8048 -5.2859 -1.6105 3.0211 -339.4518 -16.4738 -34.1012 65.6756 -15.9182 -36.3585 7.2425 0.0000 0.0000 18.0959 0.0000 0.0000 36.1193 22.3236 -43.7746 70.2950 0.0000 0.0000 41.8167 0.0000 0.0000 51.7739 22.5939 -49.5196 66.7704 0.0000 0.0000 39.2618 0.0000 0.0000 62.0660 19.4828 -52.0185 69.2439 0.0000 0.0000 35.3480 0.0000 0.0000 68.2914 13.1753 -55.8687 66.5516 0.0000 0.0000 38.9248 0.0000 0.0000 0.0000 0.0000 0.0000 90.3918 -8.0264 7.9719 2.6749 19.3981 19.8745 503.8440 55.1511 147.1086 -98.3384 -15.1969 18.5399 38.9985 0.0000 0.0000 5.1648 0.0000 0.0000 -16.2157 -0.0795 2.0490 23.2710 0.0000 0.0000 14.5751 0.0000 0.0000 -21.2388 0.6546 8.2622 25.4788 0.0000 0.0000 19.4515 0.0000 0.0000 -24.8204 -1.0675 4.0125 37.2467 0.0000 0.0000 4.8842 0.0000 0.0000 -24.9953 -1.7378 -1.1466 19.8137 0.0000 0.0000 5.6864 0.0000 0.0000 0.0000 0.0000 0.0000 0.0000 0.0000 0.0000 0.0000 0.0000 0.0000 0.0000 0.0000 0.0000 0.0000 0.0000 0.0000 0.0000 0.0000 0.0000
0.0000 95.0000 0.0000 0.0000 0.0000 0.0000 0.0000 0.0000 0.0000 0.0000 0.0000 0.0000 0.0000 0.0000 0.0000 0.0000 0.0000 0.0000 0.0000 0.0000 0.0000 0.0000 0.0000 0.0000 -76.8065 4.2091 5.3085 -6.2972 -3.7077 5.8474 -338.5189 -15.6843 -34.7369 65.6756 -15.9182 -36.3585 7.2425 0.0000 0.0000 18.0959 0.0000 0.0000 36.1193 22.3236 -43.7746 70.2950 0.0000 0.0000 41.8167 0.0000 0.0000 51.7739 22.5939 -49.5196 66.7704 0.0000 0.0000 39.2618 0.0000 0.0000 62.0660 19.4828 -52.0185 69.2439 0.0000 0.0000 35.3480 0.0000 0.0000 68.2914 13.1753 -55.8687 66.5516 0.0000 0.0000 38.9248 0.0000 0.0000 0.0000 0.0000 0.0000 91.1744 -4.9302 4.8303 0.5267 14.2916 13.9790 509.8060 47.5221 160.2747 -98.3384 -15.1969 18.5399 38.9985 0.0000 0.0000 5.1648 0.0000 0.0000 -16.2157 -0.0795 2.0490 23.2710 0.0000 0.0000 14.5751 0.0000 0.0000 -21.2388 0.6546 8.2622 25.4788 0.0000 0.0000 19.4515 0.0000 0.0000 -24.8204 -1.0675 4.0125 37.2467 0.0000 0.0000 4.8842 0.0000 0.0000 -24.9953 -1.7378 -1.1466 19.8137 0.0000 0.0000 5.6864 0.0000 0.0000 0.0000 0.0000 0.0000 0.0000 0.0000 0.0000 0.0000 0.0000 0.0000 0.0000 0.0000 0.0000 0.0000 0.0000 0.0000 0.0000 0.0000 0.0000
0.0000 95.0000 0.0000 0.0000 0.0000 0.0000 0.0000 0.0000 0.0000 0.0000 0.0000 0.0000 0.0000 0.0000 0.0000 0.0000 0.0000 0.0000 0.0000 0.0000 0.0000 0.0000 0.0000 0.0000 -77.2273 3.0795 3.8552 -7.0116 -4.8161 7.3325 -337.7077 -15.2273 -35.0346 65.6756 -15.9182 -36.3585 7.2425 0.0000 0.0000 18.0959 0.0000 0.0000 36.1193 22.3236 -43.7746 70.2950 0.0000 0.0000 41.8167 0.0000 0.0000 51.7739 22.5939 -49.5196 66.7704 0.0000 0.0000 39.2618 0.0000 0.0000 62.0660 19.4828 -52.0185 69.2439 0.0000 0.0000 35.3480 0.0000 0.0000 68.2914 13.1753 -55.8687 66.5516 0.0000 0.0000 38.9248 0.0000 0.0000 0.0000 0.0000 0.0000 91.5088 -2.5133 2.4480 -1.0114 12.6995 12.0469 510.2853 43.4520 164.8964 -98.3384 -15.1969 18.5399 38.9985 0.0000 0.0000 5.1648 0.0000 0.0000 -16.2157 -0.0795 2.0490 23.2710 0.0000 0.0000 14.5751 0.0000 0.0000 -21.2388 0.6546 8.2622 25.4788 0.0000 0.0000 19.4515 0.0000 0.0000 -24.8204 -1.0675 4.0125 37.2467 0.0000 0.0000 4.8842 0.0000 0.0000 -24.9953 -1.7378 -1.1466 19.8137 0.0000 0.0000 5.6864 0.0000 0.0000 0.0000 0.0000 0.0000 0.0000 0.0000 0.0000 0.0000 0.0000 0.0000 0.0000 0.0000 0.0000 0.0000 0.0000 0.0000 0.0000 0.0000 0.0000
0.0000 95.0000 0.0000 0.0000 0.0000 0.0000 0.0000 0.0000 0.0000 0.0000 0.0000 0.0000 0.0000 0.0000 0.0000 0.0000 0.0000 0.0000 0.0000 0.0000 0.0000 0.0000 0.0000 0.0000 -77.5368 2.4736 3.0797 -7.4926 -5.5315 8.3006 -337.2140 -14.7825 -35.3764 65.6756 -15.9182 -36.3585 7.2425 0.0000 0.0000 18.0959 0.0000 0.0000 36.1193 22.3236 -43.7746 70.2950 0.0000 0.0000 41.8167 0.0000 0.0000 51.7739 22.5939 -49.5196 66.7704 0.0000 0.0000 39.2618 0.0000 0.0000 62.0660 19.4828 -52.0185 69.2439 0.0000 0.0000 35.3480 0.0000 0.0000 68.2914 13.1753 -55.8687 66.5516 0.0000 0.0000 38.9248 0.0000 0.0000 0.0000 0.0000 0.0000 91.6975 -0.9226 0.8957 -2.0049 12.6493 11.8111 509.7848 41.7131 166.3812 -98.3384 -15.1969 18.5399 38.9985 0.0000 0.0000 5.1648 0.0000 0.0000 -16.2157 -0.0795 2.0490 23.2710 0.0000 0.0000 14.5751 0.0000 0.0000 -21.2388 0.6546 8.2622 25.4788 0.0000 0.0000 19.4515 0.0000 0.0000 -24.8204 -1.0675 4.0125 37.2467 0.0000 0.0000 4.8842 0.0000 0.0000 -24.9953 -1.7378 -1.1466 19.8137 0.0000 0.0000 5.6864 0.0000 0.0000 0.0000 0.0000 0.0000 0.0000 0.0000 0.0000 0.0000 0.0000 0.0000 0.0000 0.0000 0.0000 0.0000 0.0000 0.0000 0.0000 0.0000 0.0000
0.0000 95.0000 0.0000 0.0000 0.0000 0.0000 0.0000 0.0000 0.0000 0.0000 0.0000 0.0000 0.0000 0.0000 0.0000 0.0000 0.0000 0.0000 0.0000 0.0000 0.0000 0.0000 0.0000 0.0000 -77.6203 1.9814 2.4634 -7.9844 -5.9834 8.9487 -336.7904 -14.5425 -35.5229 65.6756 -15.9182 -36.3585 7.2425 0.0000 0.0000 18.0959 0.0000 0.0000 36.1193 22.3236 -43.7746 70.2950 0.0000 0.0000 41.8167 0.0000 0.0000 51.7739 22.5939 -49.5196 66.7704 0.0000 0.0000 39.2618 0.0000 0.0000 62.0660 19.4828 -52.0185 69.2439 0.0000 0.0000 35.3480 0.0000 0.0000 68.2914 13.1753 -55.8687 66.5516 0.0000 0.0000 38.9248 0.0000 0.0000 0.0000 0.0000 0.0000 91.6405 -0.1811 0.1760 -3.0816 13.0956 12.0532 508.3326 41.1954 165.9453 -98.3384 -15.1969 18.5399 38.9985 0.0000 0.0000 5.1648 0.0000 0.0000 -16.2157 -0.0795 2.0490 23.2710 0.0000 0.0000 14.5751 0.0000 0.0000 -21.2388 0.6546 8.2622 25.4788 0.0000 0.0000 19.4515 0.0000 0.0000 -24.8204 -1.0675 4.0125 37.2467 0.0000 0.0000 4.8842 0.0000 0.0000 -24.9953 -1.7378 -1.1466 19.8137 0.0000 0.0000 5.6864 0.0000 0.0000 0.0000 0.0000 0.0000 0.0000 0.0000 0.0000 0.0000 0.0000 0.0000 0.0000 0.0000 0.0000 0.0000 0.0000 0.0000 0.0000 0.0000 0.0000
0.0000 95.0000 0.0000 0.0000 0.0000 0.0000 0.0000 0.0000 0.0000 0.0000 0.0000 0.0000 0.0000 0.0000 0.0000 0.0000 0.0000 0.0000 0.0000 0.0000 0.0000 0.0000 0.0000 0.0000 -77.6856 2.1622 2.6849 -8.2307 -6.4613 9.7047 -337.0580 -13.7748 -36.3424 65.6756 -15.9182 -36.3585 7.2425 0.0000 0.0000 18.0959 0.0000 0.0000 36.1193 22.3236 -43.7746 70.2950 0.0000 0.0000 41.8167 0.0000 0.0000 51.7739 22.5939 -49.5196 66.7704 0.0000 0.0000 39.2618 0.0000 0.0000 62.0660 19.4828 -52.0185 69.2439 0.0000 0.0000 35.3480 0.0000 0.0000 68.2914 13.1753 -55.8687 66.5516 0.0000 0.0000 38.9248 0.0000 0.0000 0.0000 0.0000 0.0000 91.6296 0.5147 -0.5003 -3.5321 13.0640 11.9863 507.9875 40.4462 166.5181 -98.3384 -15.1969 18.5399 38.9985 0.0000 0.0000 5.1648 0.0000 0.0000 -16.2157 -0.0795 2.0490 23.2710 0.0000 0.0000 14.5751 0.0000 0.0000 -21.2388 0.6546 8.2622 25.4788 0.0000 0.0000 19.4515 0.0000 0.0000 -24.8204 -1.0675 4.0125 37.2467 0.0000 0.0000 4.8842 0.0000 0.0000 -24.9953 -1.7378 -1.1466 19.8137 0.0000 0.0000 5.6864 0.0000 0.0000 0.0000 0.0000 0.0000 0.0000 0.0000 0.0000 0.0000 0.0000 0.0000 0.0000 0.0000 0.0000 0.0000 0.0000 0.0000 0.0000 0.0000 0.0000
0.0000 95.0000 0.0000 0.0000 0.0000 0.0000 0.0000 0.0000 0.0000 0.0000 0.0000 0.0000 0.0000 0.0000 0.0000 0.0000 0.0000 0.0000 0.0000 0.0000 0.0000 0.0000 0.0000 0.0000 -77.9440 1.7769 2.1963 -8.3473 -6.7236 9.9891 -336.6849 -13.7473 -36.2828 65.6756 -15.9182 -36.3585 7.2425 0.0000 0.0000 18.0959 0.0000 0.0000 36.1193 22.3236 -43.7746 70.2950 0.0000 0.0000 41.8167 0.0000 0.0000 51.7739 22.5939 -49.5196 66.7704 0.0000 0.0000 39.2618 0.0000 0.0000 62.0660 19.4828 -52.0185 69.2439 0.0000 0.0000 35.3480 0.0000 0.0000 68.2914 13.1753 -55.8687 66.5516 0.0000 0.0000 38.9248 0.0000 0.0000 0.0000 0.0000 0.0000 91.6436 1.0580 -1.0281 -4.1145 13.1605 12.0022 507.4020 39.9249 166.6881 -98.3384 -15.1969 18.5399 38.9985 0.0000 0.0000 5.1648 0.0000 0.0000 -16.2157 -0.0795 2.0490 23.2710 0.0000 0.0000 14.5751 0.0000 0.0000 -21.2388 0.6546 8.2622 25.4788 0.0000 0.0000 19.4515 0.0000 0.0000 -24.8204 -1.0675 4.0125 37.2467 0.0000 0.0000 4.8842 0.0000 0.0000 -24.9953 -1.7378 -1.1466 19.8137 0.0000 0.0000 5.6864 0.0000 0.0000 0.0000 0.0000 0.0000 0.0000 0.0000 0.0000 0.0000 0.0000 0.0000 0.0000 0.0000 0.0000 0.0000 0.0000 0.0000 0.0000 0.0000 0.0000
0.0000 95.0000 0.0000 0.0000 0.0000 0.0000 0.0000 0.0000 0.0000 0.0000 0.0000 0.0000 0.0000 0.0000 0.0000 0.0000 0.0000 0.0000 0.0000 0.0000 0.0000 0.0000 0.0000 0.0000 -78.0125 1.8218 2.2491 -8.7692 -6.5348 9.8095 -336.1537 -13.5849 -36.3182 65.6756 -15.9182 -36.3585 7.2425 0.0000 0.0000 18.0959 0.0000 0.0000 36.1193 22.3236 -43.7746 70.2950 0.0000 0.0000 41.8167 0.0000 0.0000 51.7739 22.5939 -49.5196 66.7704 0.0000 0.0000 39.2618 0.0000 0.0000 62.0660 19.4828 -52.0185 69.2439 0.0000 0.0000 35.3480 0.0000 0.0000 68.2914 13.1753 -55.8687 66.5516 0.0000 0.0000 38.9248 0.0000 0.0000 0.0000 0.0000 0.0000 91.7919 0.4377 -0.4242 -4.5498 12.9687 11.6582 506.9911 40.2230 166.0838 -98.3384 -15.1969 18.5399 38.9985 0.0000 0.0000 5.1648 0.0000 0.0000 -16.2157 -0.0795 2.0490 23.2710 0.0000 0.0000 14.5751 0.0000 0.0000 -21.2388 0.6546 8.2622 25.4788 0.0000 0.0000 19.4515 0.0000 0.0000 -24.8204 -1.0675 4.0125 37.2467 0.0000 0.0000 4.8842 0.0000 0.0000 -24.9953 -1.7378 -1.1466 19.8137 0.0000 0.0000 5.6864 0.0000 0.0000 0.0000 0.0000 0.0000 0.0000 0.0000 0.0000 0.0000 0.0000 0.0000 0.0000 0.0000 0.0000 0.0000 0.0000 0.0000 0.0000 0.0000 0.0000
0.0000 95.0000 0.0000 0.0000 0.0000 0.0000 0.0000 0.0000 0.0000 0.0000 0.0000 0.0000 0.0000 0.0000 0.0000 0.0000 0.0000 0.0000 0.0000 0.0000 0.0000 0.0000 0.0000 0.0000 -78.2384 1.5780 1.9404 -8.8702 -6.6390 9.8927 -335.7813 -13.5787 -36.2381 65.6756 -15.9182 -36.3585 7.2425 0.0000 0.0000 18.0959 0.0000 0.0000 36.1193 22.3236 -43.7746 70.2950 0.0000 0.0000 41.8167 0.0000 0.0000 51.7739 22.5939 -49.5196 66.7704 0.0000 0.0000 39.2618 0.0000 0.0000 62.0660 19.4828 -52.0185 69.2439 0.0000 0.0000 35.3480 0.0000 0.0000 68.2914 13.1753 -55.8687 66.5516 0.0000 0.0000 38.9248 0.0000 0.0000 0.0000 0.0000 0.0000 91.9198 0.5483 -0.5302 -4.8581 12.9913 11.6031 506.8059 40.0857 166.1078 -98.3384 -15.1969 18.5399 38.9985 0.0000 0.0000 5.1648 0.0000 0.0000 -16.2157 -0.0795 2.0490 23.2710 0.0000 0.0000 14.5751 0.0000 0.0000 -21.2388 0.6546 8.2622 25.4788 0.0000 0.0000 19.4515 0.0000 0.0000 -24.8204 -1.0675 4.0125 37.2467 0.0000 0.0000 4.8842 0.0000 0.0000 -24.9953 -1.7378 -1.1466 19.8137 0.0000 0.0000 5.6864 0.0000 0.0000 0.0000 0.0000 0.0000 0.0000 0.0000 0.0000 0.0000 0.0000 0.0000 0.0000 0.0000 0.0000 0.0000 0.0000 0.0000 0.0000 0.0000 0.0000
0.0000 95.0000 0.0000 0.0000 0.0000 0.0000 0.0000 0.0000 0.0000 0.0000 0.0000 0.0000 0.0000 0.0000 0.0000 0.0000 0.0000 0.0000 0.0000 0.0000 0.0000 0.0000 0.0000 0.0000 -78.3771 1.8288 2.2431 -8.9501 -6.5646 9.8271 -335.6942 -13.2916 -36.4943 65.6756 -15.9182 -36.3585 7.2425 0.0000 0.0000 18.0959 0.0000 0.0000 36.1193 22.3236 -43.7746 70.2950 0.0000 0.0000 41.8167 0.0000 0.0000 51.7739 22.5939 -49.5196 66.7704 0.0000 0.0000 39.2618 0.0000 0.0000 62.0660 19.4828 -52.0185 69.2439 0.0000 0.0000 35.3480 0.0000 0.0000 68.2914 13.1753 -55.8687 66.5516 0.0000 0.0000 38.9248 0.0000 0.0000 0.0000 0.0000 0.0000 92.1262 0.6108 -0.5886 -5.0296 12.7880 11.3543 506.9981 39.8331 166.5153 -98.3384 -15.1969 18.5399 38.9985 0.0000 0.0000 5.1648 0.0000 0.0000 -16.2157 -0.0795 2.0490 23.2710 0.0000 0.0000 14.5751 0.0000 0.0000 -21.2388 0.6546 8.2622 25.4788 0.0000 0.0000 19.4515 0.0000 0.0000 -24.8204 -1.0675 4.0125 37.2467 0.0000 0.0000 4.8842 0.0000 0.0000 -24.9953 -1.7378 -1.1466 19.8137 0.0000 0.0000 5.6864 0.0000 0.0000 0.0000 0.0000 0.0000 0.0000 0.0000 0.0000 0.0000 0.0000 0.0000 0.0000 0.0000 0.0000 0.0000 0.0000 0.0000 0.0000 0.0000 0.0000
