HIERARCHY
ROOT Hips
{
  OFFSET 0.000000 95.000000 0.000000
  CHANNELS 6 Xposition Yposition Zposition Zrotation Xrotation Yrotation
  JOINT Spine
  {
    OFFSET 0.000000 10.000000 0.000000
    CHANNELS 3 Zrotation Xrotation Yrotation
    JOINT Spine1
    {
      OFFSET 0.000000 12.000000 0.000000
      CHANNELS 3 Zrotation Xrotation Yrotation
      JOINT Spine2
      {
        OFFSET 0.000000 12.000000 0.000000
        CHANNELS 3 Zrotation Xrotation Yrotation
        JOINT Neck
        {
          OFFSET 0.000000 10.000000 0.000000
          CHANNELS 3 Zrotation Xrotation Yrotation
          JOINT Head
          {
            OFFSET 0.000000 8.000000 0.000000
            CHANNELS 3 Zrotation Xrotation Yrotation
            End Site
            {
              OFFSET 0.000000 10.000000 0.000000
            }
          }
        }
        JOINT LeftShoulder
        {
          OFFSET 6.000000 8.000000 0.000000
          CHANNELS 3 Zrotation Xrotation Yrotation
          JOINT LeftArm
          {
            OFFSET 12.000000 0.000000 0.000000
            CHANNELS 3 Zrotation Xrotation Yrotation
            JOINT LeftForeArm
            {
              OFFSET 24.000000 0.000000 0.000000
              CHANNELS 3 Zrotation Xrotation Yrotation
              JOINT LeftHand
              {
                OFFSET 22.000000 0.000000 0.000000
                CHANNELS 3 Zrotation Xrotation Yrotation
                JOINT LeftHandThumb1
                {
                  OFFSET 1.800000 -1.400000 0.500000
                  CHANNELS 3 Zrotation Xrotation Yrotation
                  JOINT LeftHandThumb2
                  {
                    OFFSET 2.400000 0.000000 0.000000
                    CHANNELS 3 Zrotation Xrotation Yrotation
                    JOINT LeftHandThumb3
                    {
                      OFFSET 1.900000 0.000000 0.000000
                      CHANNELS 3 Zrotation Xrotation Yrotation
                      End Site
                      {
                        OFFSET 1.600000 0.000000 0.000000
                      }
                    }
                  }
                }
                JOINT LeftHandIndex1
                {
                  OFFSET 6.600000 1.200000 0.300000
                  CHANNELS 3 Zrotation Xrotation Yrotation
                  JOINT LeftHandIndex2
                  {
                    OFFSET 2.000000 0.000000 0.000000
                    CHANNELS 3 Zrotation Xrotation Yrotation
                    JOINT LeftHandIndex3
                    {
                      OFFSET 1.200000 0.000000 0.000000
                      CHANNELS 3 Zrotation Xrotation Yrotation
                      End Site
                      {
                        OFFSET 1.000000 0.000000 0.000000
                      }
                    }
                  }
                }
                JOINT LeftHandMiddle1
                {
                  OFFSET 7.200000 0.000000 0.300000
                  CHANNELS 3 Zrotation Xrotation Yrotation
                  JOINT LeftHandMiddle2
                  {
                    OFFSET 3.000000 0.000000 0.000000
                    CHANNELS 3 Zrotation Xrotation Yrotation
                    JOINT LeftHandMiddle3
                    {
                      OFFSET 2.000000 0.000000 0.000000
                      CHANNELS 3 Zrotation Xrotation Yrotation
                      End Site
                      {
                        OFFSET 1.600000 0.000000 0.000000
                      }
                    }
                  }
                }
                JOINT LeftHandRing1
                {
                  OFFSET 7.100000 -1.000000 0.400000
                  CHANNELS 3 Zrotation Xrotation Yrotation
                  JOINT LeftHandRing2
                  {
                    OFFSET 2.600000 0.000000 0.000000
                    CHANNELS 3 Zrotation Xrotation Yrotation
                    JOINT LeftHandRing3
                    {
                      OFFSET 1.600000 0.000000 0.000000
                      CHANNELS 3 Zrotation Xrotation Yrotation
                      End Site
                      {
                        OFFSET 1.300000 0.000000 0.000000
                      }
                    }
                  }
                }
                JOINT LeftHandPinky1
                {
                  OFFSET 6.500000 -2.000000 0.500000
                  CHANNELS 3 Zrotation Xrotation Yrotation
                  JOINT LeftHandPinky2
                  {
                    OFFSET 1.900000 0.000000 0.000000
                    CHANNELS 3 Zrotation Xrotation Yrotation
                    JOINT LeftHandPinky3
                    {
                      OFFSET 1.400000 0.000000 0.000000
                      CHANNELS 3 Zrotation Xrotation Yrotation
                      End Site
                      {
                        OFFSET 1.300000 0.000000 0.000000
                      }
                    }
                  }
                }
              }
            }
          }
        }
        JOINT RightShoulder
        {
          OFFSET -6.000000 8.000000 0.000000
          CHANNELS 3 Zrotation Xrotation Yrotation
          JOINT RightArm
          {
            OFFSET -12.000000 0.000000 0.000000
            CHANNELS 3 Zrotation Xrotation Yrotation
            JOINT RightForeArm
            {
              OFFSET -24.000000 0.000000 0.000000
              CHANNELS 3 Zrotation Xrotation Yrotation
              JOINT RightHand
              {
                OFFSET -22.000000 0.000000 0.000000
                CHANNELS 3 Zrotation Xrotation Yrotation
                JOINT RightHandThumb1
                {
                  OFFSET -1.800000 -1.400000 0.500000
                  CHANNELS 3 Zrotation Xrotation Yrotation
                  JOINT RightHandThumb2
                  {
                    OFFSET -2.400000 0.000000 0.000000
                    CHANNELS 3 Zrotation Xrotation Yrotation
                    JOINT RightHandThumb3
                    {
                      OFFSET -1.900000 0.000000 0.000000
                      CHANNELS 3 Zrotation Xrotation Yrotation
                      End Site
                      {
                        OFFSET -1.600000 0.000000 0.000000
                      }
                    }
                  }
                }
                JOINT RightHandIndex1
                {
                  OFFSET -6.600000 1.200000 0.300000
                  CHANNELS 3 Zrotation Xrotation Yrotation
                  JOINT RightHandIndex2
                  {
                    OFFSET -2.000000 0.000000 0.000000
                    CHANNELS 3 Zrotation Xrotation Yrotation
                    JOINT RightHandIndex3
                    {
                      OFFSET -1.200000 0.000000 0.000000
                      CHANNELS 3 Zrotation Xrotation Yrotation
                      End Site
                      {
                        OFFSET -1.000000 0.000000 0.000000
                      }
                    }
                  }
                }
                JOINT RightHandMiddle1
                {
                  OFFSET -7.200000 0.000000 0.300000
                  CHANNELS 3 Zrotation Xrotation Yrotation
                  JOINT RightHandMiddle2
                  {
                    OFFSET -3.000000 0.000000 0.000000
                    CHANNELS 3 Zrotation Xrotation Yrotation
                    JOINT RightHandMiddle3
                    {
                      OFFSET -2.000000 0.000000 0.000000
                      CHANNELS 3 Zrotation Xrotation Yrotation
                      End Site
                      {
                        OFFSET -1.600000 0.000000 0.000000
                      }
                    }
                  }
                }
                JOINT RightHandRing1
                {
                  OFFSET -7.100000 -1.000000 0.400000
                  CHANNELS 3 Zrotation Xrotation Yrotation
                  JOINT RightHandRing2
                  {
                    OFFSET -2.600000 0.000000 0.000000
                    CHANNELS 3 Zrotation Xrotation Yrotation
                    JOINT RightHandRing3
                    {
                      OFFSET -1.600000 0.000000 0.000000
                      CHANNELS 3 Zrotation Xrotation Yrotation
                      End Site
                      {
                        OFFSET -1.300000 0.000000 0.000000
                      }
                    }
                  }
                }
                JOINT RightHandPinky1
                {
                  OFFSET -6.500000 -2.000000 0.500000
                  CHANNELS 3 Zrotation Xrotation Yrotation
                  JOINT RightHandPinky2
                  {
                    OFFSET -1.900000 0.000000 0.000000
                    CHANNELS 3 Zrotation Xrotation Yrotation
                    JOINT RightHandPinky3
                    {
                      OFFSET -1.400000 0.000000 0.000000
                      CHANNELS 3 Zrotation Xrotation Yrotation
                      End Site
                      {
                        OFFSET -1.300000 0.000000 0.000000
                      }
                    }
                  }
                }
              }
            }
          }
        }
      }
    }
  }
  JOINT LeftUpLeg
  {
    OFFSET 10.000000 -5.000000 0.000000
    CHANNELS 3 Zrotation Xrotation Yrotation
    JOINT LeftLeg
    {
      OFFSET 0.000000 -42.000000 0.000000
      CHANNELS 3 Zrotation Xrotation Yrotation
      JOINT LeftFoot
      {
        OFFSET 0.000000 -42.000000 4.000000
        CHANNELS 3 Zrotation Xrotation Yrotation
        End Site
        {
          OFFSET 0.000000 0.000000 12.000000
        }
      }
    }
  }
  JOINT RightUpLeg
  {
    OFFSET -10.000000 -5.000000 0.000000
    CHANNELS 3 Zrotation Xrotation Yrotation
    JOINT RightLeg
    {
      OFFSET 0.000000 -42.000000 0.000000
      CHANNELS 3 Zrotation Xrotation Yrotation
      JOINT RightFoot
      {
        OFFSET 0.000000 -42.000000 4.000000
        CHANNELS 3 Zrotation Xrotation Yrotation
        End Site
        {
          OFFSET 0.000000 0.000000 12.000000
        }
      }
    }
  }
}
MOTION
Frames: 60
Frame Time: 0.033333
0.0000 95.0000 0.0000 0.0000 0.0000 0.0000 0.0000 0.0000 0.0000 0.0000 0.0000 0.0000 0.0000 0.0000 0.0000 0.0000 0.0000 0.0000 0.0000 0.0000 0.0000 0.0000 0.0000 0.0000 -78.7311 2.5415 3.0977 -8.8568 -5.3718 8.1880 -44.1389 -60.0681 -139.0935 38.6222 -10.3033 -4.9503 1.8849 0.0000 0.0000 4.3831 0.0000 0.0000 -3.6331 2.8623 -18.0686 11.4964 0.0000 0.0000 4.8764 0.0000 0.0000 6.5270 0.9796 -21.8259 11.9967 0.0000 0.0000 1.9959 0.0000 0.0000 14.1101 -1.1542 -22.4377 18.8552 0.0000 0.0000 6.5469 0.0000 0.0000 21.1690 -4.0904 -22.4090 16.8956 0.0000 0.0000 10.8618 0.0000 0.0000 0.0000 0.0000 0.0000 90.4054 2.3237 -2.3073 -1.2075 9.2122 9.0269 -33.6467 -7.5443 33.6650 -84.1022 -10.9329 60.3670 11.8323 0.0000 0.0000 18.6728 0.0000 0.0000 -22.2589 15.5004 41.2570 55.5137 0.0000 0.0000 7.5168 0.0000 0.0000 -31.8648 26.1883 83.1181 21.9216 0.0000 0.0000 2.1543 0.0000 0.0000 -34.0662 17.2045 96.2293 20.0585 0.0000 0.0000 3.8790 0.0000 0.0000 -40.2575 4.7905 106.7005 17.7468 0.0000 0.0000 3.0102 0.0000 0.0000 0.0000 0.0000 0.0000 0.0000 0.0000 0.0000 0.0000 0.0000 0.0000 0.0000 0.0000 0.0000 0.0000 0.0000 0.0000 0.0000 0.0000 0.0000
0.0000 95.0000 0.0000 0.0000 0.0000 0.0000 0.0000 0.0000 0.0000 0.0000 0.0000 0.0000 0.0000 0.0000 0.0000 0.0000 0.0000 0.0000 0.0000 0.0000 0.0000 0.0000 0.0000 0.0000 -78.9987 1.9937 2.4185 -8.8940 -5.3448 8.0100 -43.5926 -59.3326 -138.8421 38.6222 -10.3033 -4.9503 1.8849 0.0000 0.0000 4.3831 0.0000 0.0000 -3.6331 2.8623 -18.0686 11.4964 0.0000 0.0000 4.8764 0.0000 0.0000 6.5270 0.9796 -21.8259 11.9967 0.0000 0.0000 1.9959 0.0000 0.0000 14.1101 -1.1542 -22.4377 18.8552 0.0000 0.0000 6.5469 0.0000 0.0000 21.1690 -4.0904 -22.4090 16.8956 0.0000 0.0000 10.8618 0.0000 0.0000 0.0000 0.0000 0.0000 90.4111 2.2096 -2.1938 -1.4516 9.2982 9.0777 -33.5438 -7.8457 33.4817 -84.1022 -10.9329 60.3670 11.8323 0.0000 0.0000 18.6728 0.0000 0.0000 -22.2589 15.5004 41.2570 55.5137 0.0000 0.0000 7.5168 0.0000 0.0000 -31.8648 26.1883 83.1181 21.9216 0.0000 0.0000 2.1543 0.0000 0.0000 -34.0662 17.2045 96.2293 20.0585 0.0000 0.0000 3.8790 0.0000 0.0000 -40.2575 4.7905 106.7005 17.7468 0.0000 0.0000 3.0102 0.0000 0.0000 0.0000 0.0000 0.0000 0.0000 0.0000 0.0000 0.0000 0.0000 0.0000 0.0000 0.0000 0.0000 0.0000 0.0000 0.0000 0.0000 0.0000 0.0000
0.0000 95.0000 0.0000 0.0000 0.0000 0.0000 0.0000 0.0000 0.0000 0.0000 0.0000 0.0000 0.0000 0.0000 0.0000 0.0000 0.0000 0.0000 0.0000 0.0000 0.0000 0.0000 0.0000 0.0000 -79.0511 1.4602 1.7698 -8.9950 -5.2288 7.7511 -42.8008 -58.6486 -138.7269 38.6222 -10.3033 -4.9503 1.8849 0.0000 0.0000 4.3831 0.0000 0.0000 -3.6331 2.8623 -18.0686 11.4964 0.0000 0.0000 4.8764 0.0000 0.0000 6.5270 0.9796 -21.8259 11.9967 0.0000 0.0000 1.9959 0.0000 0.0000 14.1101 -1.1542 -22.4377 18.8552 0.0000 0.0000 6.5469 0.0000 0.0000 21.1690 -4.0904 -22.4090 16.8956 0.0000 0.0000 10.8618 0.0000 0.0000 0.0000 0.0000 0.0000 90.4248 1.9249 -1.9107 -1.7291 9.5249 9.2514 -33.5610 -8.4260 33.0119 -84.1022 -10.9329 60.3670 11.8323 0.0000 0.0000 18.6728 0.0000 0.0000 -22.2589 15.5004 41.2570 55.5137 0.0000 0.0000 7.5168 0.0000 0.0000 -31.8648 26.1883 83.1181 21.9216 0.0000 0.0000 2.1543 0.0000 0.0000 -34.0662 17.2045 96.2293 20.0585 0.0000 0.0000 3.8790 0.0000 0.0000 -40.2575 4.7905 106.7005 17.7468 0.0000 0.0000 3.0102 0.0000 0.0000 0.0000 0.0000 0.0000 0.0000 0.0000 0.0000 0.0000 0.0000 0.0000 0.0000 0.0000 0.0000 0.0000 0.0000 0.0000 0.0000 0.0000 0.0000
0.0000 95.0000 0.0000 0.0000 0.0000 0.0000 0.0000 0.0000 0.0000 0.0000 0.0000 0.0000 0.0000 0.0000 0.0000 0.0000 0.0000 0.0000 0.0000 0.0000 0.0000 0.0000 0.0000 0.0000 -79.2070 1.0213 1.2344 -8.8768 -5.2150 7.6016 -42.1213 -58.2017 -138.7163 38.6222 -10.3033 -4.9503 1.8849 0.0000 0.0000 4.3831 0.0000 0.0000 -3.6331 2.8623 -18.0686 11.4964 0.0000 0.0000 4.8764 0.0000 0.0000 6.5270 0.9796 -21.8259 11.9967 0.0000 0.0000 1.9959 0.0000 0.0000 14.1101 -1.1542 -22.4377 18.8552 0.0000 0.0000 6.5469 0.0000 0.0000 21.1690 -4.0904 -22.4090 16.8956 0.0000 0.0000 10.8618 0.0000 0.0000 0.0000 0.0000 0.0000 90.2930 2.1481 -2.1372 -1.8427 9.6169 9.3560 -33.2887 -8.4722 33.1174 -84.1022 -10.9329 60.3670 11.8323 0.0000 0.0000 18.6728 0.0000 0.0000 -22.2589 15.5004 41.2570 55.5137 0.0000 0.0000 7.5168 0.0000 0.0000 -31.8648 26.1883 83.1181 21.9216 0.0000 0.0000 2.1543 0.0000 0.0000 -34.0662 17.2045 96.2293 20.0585 0.0000 0.0000 3.8790 0.0000 0.0000 -40.2575 4.7905 106.7005 17.7468 0.0000 0.0000 3.0102 0.0000 0.0000 0.0000 0.0000 0.0000 0.0000 0.0000 0.0000 0.0000 0.0000 0.0000 0.0000 0.0000 0.0000 0.0000 0.0000 0.0000 0.0000 0.0000 0.0000
0.0000 95.0000 0.0000 0.0000 0.0000 0.0000 0.0000 0.0000 0.0000 0.0000 0.0000 0.0000 0.0000 0.0000 0.0000 0.0000 0.0000 0.0000 0.0000 0.0000 0.0000 0.0000 0.0000 0.0000 -79.3265 0.7621 0.9192 -8.9137 -5.2852 7.6381 -42.0174 -57.9262 -138.5709 38.6222 -10.3033 -4.9503 1.8849 0.0000 0.0000 4.3831 0.0000 0.0000 -3.6331 2.8623 -18.0686 11.4964 0.0000 0.0000 4.8764 0.0000 0.0000 6.5270 0.9796 -21.8259 11.9967 0.0000 0.0000 1.9959 0.0000 0.0000 14.1101 -1.1542 -22.4377 18.8552 0.0000 0.0000 6.5469 0.0000 0.0000 21.1690 -4.0904 -22.4090 16.8956 0.0000 0.0000 10.8618 0.0000 0.0000 0.0000 0.0000 0.0000 90.1388 2.1950 -2.1897 -1.7925 9.5193 9.2943 -33.1472 -8.4195 33.2338 -84.1022 -10.9329 60.3670 11.8323 0.0000 0.0000 18.6728 0.0000 0.0000 -22.2589 15.5004 41.2570 55.5137 0.0000 0.0000 7.5168 0.0000 0.0000 -31.8648 26.1883 83.1181 21.9216 0.0000 0.0000 2.1543 0.0000 0.0000 -34.0662 17.2045 96.2293 20.0585 0.0000 0.0000 3.8790 0.0000 0.0000 -40.2575 4.7905 106.7005 17.7468 0.0000 0.0000 3.0102 0.0000 0.0000 0.0000 0.0000 0.0000 0.0000 0.0000 0.0000 0.0000 0.0000 0.0000 0.0000 0.0000 0.0000 0.0000 0.0000 0.0000 0.0000 0.0000 0.0000
0.0000 95.0000 0.0000 0.0000 0.0000 0.0000 0.0000 0.0000 0.0000 0.0000 0.0000 0.0000 0.0000 0.0000 0.0000 0.0000 0.0000 0.0000 0.0000 0.0000 0.0000 0.0000 0.0000 0.0000 -79.3518 0.5294 0.6382 -9.1881 -5.5383 7.9890 -42.4176 -57.7774 -138.2971 38.6222 -10.3033 -4.9503 1.8849 0.0000 0.0000 4.3831 0.0000 0.0000 -3.6331 2.8623 -18.0686 11.4964 0.0000 0.0000 4.8764 0.0000 0.0000 6.5270 0.9796 -21.8259 11.9967 0.0000 0.0000 1.9959 0.0000 0.0000 14.1101 -1.1542 -22.4377 18.8552 0.0000 0.0000 6.5469 0.0000 0.0000 21.1690 -4.0904 -22.4090 16.8956 0.0000 0.0000 10.8618 0.0000 0.0000 0.0000 0.0000 0.0000 90.1335 2.1357 -2.1307 -1.8870 9.5273 9.2890 -33.0979 -8.5300 33.1709 -84.1022 -10.9329 60.3670 11.8323 0.0000 0.0000 18.6728 0.0000 0.0000 -22.2589 15.5004 41.2570 55.5137 0.0000 0.0000 7.5168 0.0000 0.0000 -31.8648 26.1883 83.1181 21.9216 0.0000 0.0000 2.1543 0.0000 0.0000 -34.0662 17.2045 96.2293 20.0585 0.0000 0.0000 3.8790 0.0000 0.0000 -40.2575 4.7905 106.7005 17.7468 0.0000 0.0000 3.0102 0.0000 0.0000 0.0000 0.0000 0.0000 0.0000 0.0000 0.0000 0.0000 0.0000 0.0000 0.0000 0.0000 0.0000 0.0000 0.0000 0.0000 0.0000 0.0000 0.0000
0.0000 95.0000 0.0000 0.0000 0.0000 0.0000 0.0000 0.0000 0.0000 0.0000 0.0000 0.0000 0.0000 0.0000 0.0000 0.0000 0.0000 0.0000 0.0000 0.0000 0.0000 0.0000 0.0000 0.0000 -79.5760 0.1050 0.1261 -9.4222 -5.7567 8.2133 -42.6585 -57.2917 -137.8657 38.6222 -10.3033 -4.9503 1.8849 0.0000 0.0000 4.3831 0.0000 0.0000 -3.6331 2.8623 -18.0686 11.4964 0.0000 0.0000 4.8764 0.0000 0.0000 6.5270 0.9796 -21.8259 11.9967 0.0000 0.0000 1.9959 0.0000 0.0000 14.1101 -1.1542 -22.4377 18.8552 0.0000 0.0000 6.5469 0.0000 0.0000 21.1690 -4.0904 -22.4090 16.8956 0.0000 0.0000 10.8618 0.0000 0.0000 0.0000 0.0000 0.0000 90.3760 1.7372 -1.7258 -2.4682 9.7637 9.3844 -33.0969 -9.2210 32.6142 -84.1022 -10.9329 60.3670 11.8323 0.0000 0.0000 18.6728 0.0000 0.0000 -22.2589 15.5004 41.2570 55.5137 0.0000 0.0000 7.5168 0.0000 0.0000 -31.8648 26.1883 83.1181 21.9216 0.0000 0.0000 2.1543 0.0000 0.0000 -34.0662 17.2045 96.2293 20.0585 0.0000 0.0000 3.8790 0.0000 0.0000 -40.2575 4.7905 106.7005 17.7468 0.0000 0.0000 3.0102 0.0000 0.0000 0.0000 0.0000 0.0000 0.0000 0.0000 0.0000 0.0000 0.0000 0.0000 0.0000 0.0000 0.0000 0.0000 0.0000 0.0000 0.0000 0.0000 0.0000
0.0000 95.0000 0.0000 0.0000 0.0000 0.0000 0.0000 0.0000 0.0000 0.0000 0.0000 0.0000 0.0000 0.0000 0.0000 0.0000 0.0000 0.0000 0.0000 0.0000 0.0000 0.0000 0.0000 0.0000 -79.5049 -0.0528 -0.0635 -9.8678 -5.5511 7.9629 -42.6755 -56.7128 -137.4697 38.6222 -10.3033 -4.9503 1.8849 0.0000 0.0000 4.3831 0.0000 0.0000 -3.6331 2.8623 -18.0686 11.4964 0.0000 0.0000 4.8764 0.0000 0.0000 6.5270 0.9796 -21.8259 11.9967 0.0000 0.0000 1.9959 0.0000 0.0000 14.1101 -1.1542 -22.4377 18.8552 0.0000 0.0000 6.5469 0.0000 0.0000 21.1690 -4.0904 -22.4090 16.8956 0.0000 0.0000 10.8618 0.0000 0.0000 0.0000 0.0000 0.0000 90.4652 1.2778 -1.2674 -2.4676 9.8010 9.3821 -33.4085 -9.5699 32.1721 -84.1022 -10.9329 60.3670 11.8323 0.0000 0.0000 18.6728 0.0000 0.0000 -22.2589 15.5004 41.2570 55.5137 0.0000 0.0000 7.5168 0.0000 0.0000 -31.8648 26.1883 83.1181 21.9216 0.0000 0.0000 2.1543 0.0000 0.0000 -34.0662 17.2045 96.2293 20.0585 0.0000 0.0000 3.8790 0.0000 0.0000 -40.2575 4.7905 106.7005 17.7468 0.0000 0.0000 3.0102 0.0000 0.0000 0.0000 0.0000 0.0000 0.0000 0.0000 0.0000 0.0000 0.0000 0.0000 0.0000 0.0000 0.0000 0.0000 0.0000 0.0000 0.0000 0.0000 0.0000
0.0000 95.0000 0.0000 0.0000 0.0000 0.0000 0.0000 0.0000 0.0000 0.0000 0.0000 0.0000 0.0000 0.0000 0.0000 0.0000 0.0000 0.0000 0.0000 0.0000 0.0000 0.0000 0.0000 0.0000 -79.4938 -0.4069 -0.4893 -10.1297 -5.3782 7.6710 -42.2552 -56.0575 -137.2015 38.6222 -10.3033 -4.9503 1.8849 0.0000 0.0000 4.3831 0.0000 0.0000 -3.6331 2.8623 -18.0686 11.4964 0.0000 0.0000 4.8764 0.0000 0.0000 6.5270 0.9796 -21.8259 11.9967 0.0000 0.0000 1.9959 0.0000 0.0000 14.1101 -1.1542 -22.4377 18.8552 0.0000 0.0000 6.5469 0.0000 0.0000 21.1690 -4.0904 -22.4090 16.8956 0.0000 0.0000 10.8618 0.0000 0.0000 0.0000 0.0000 0.0000 90.4737 0.9413 -0.9335 -2.6187 9.7940 9.3344 -33.4524 -9.9103 31.8738 -84.1022 -10.9329 60.3670 11.8323 0.0000 0.0000 18.6728 0.0000 0.0000 -22.2589 15.5004 41.2570 55.5137 0.0000 0.0000 7.5168 0.0000 0.0000 -31.8648 26.1883 83.1181 21.9216 0.0000 0.0000 2.1543 0.0000 0.0000 -34.0662 17.2045 96.2293 20.0585 0.0000 0.0000 3.8790 0.0000 0.0000 -40.2575 4.7905 106.7005 17.7468 0.0000 0.0000 3.0102 0.0000 0.0000 0.0000 0.0000 0.0000 0.0000 0.0000 0.0000 0.0000 0.0000 0.0000 0.0000 0.0000 0.0000 0.0000 0.0000 0.0000 0.0000 0.0000 0.0000
0.0000 95.0000 0.0000 0.0000 0.0000 0.0000 0.0000 0.0000 0.0000 0.0000 0.0000 0.0000 0.0000 0.0000 0.0000 0.0000 0.0000 0.0000 0.0000 0.0000 0.0000 0.0000 0.0000 0.0000 -79.3371 -0.7273 -0.8770 -10.6351 -5.2437 7.4851 -42.0849 -55.4189 -136.8425 38.6222 -10.3033 -4.9503 1.8849 0.0000 0.0000 4.3831 0.0000 0.0000 -3.6331 2.8623 -18.0686 11.4964 0.0000 0.0000 4.8764 0.0000 0.0000 6.5270 0.9796 -21.8259 11.9967 0.0000 0.0000 1.9959 0.0000 0.0000 14.1101 -1.1542 -22.4377 18.8552 0.0000 0.0000 6.5469 0.0000 0.0000 21.1690 -4.0904 -22.4090 16.8956 0.0000 0.0000 10.8618 0.0000 0.0000 0.0000 0.0000 0.0000 90.5396 1.2423 -1.2307 -2.6528 9.6244 9.1742 -33.2629 -9.4894 32.3116 -84.1022 -10.9329 60.3670 11.8323 0.0000 0.0000 18.6728 0.0000 0.0000 -22.2589 15.5004 41.2570 55.5137 0.0000 0.0000 7.5168 0.0000 0.0000 -31.8648 26.1883 83.1181 21.9216 0.0000 0.0000 2.1543 0.0000 0.0000 -34.0662 17.2045 96.2293 20.0585 0.0000 0.0000 3.8790 0.0000 0.0000 -40.2575 4.7905 106.7005 17.7468 0.0000 0.0000 3.0102 0.0000 0.0000 0.0000 0.0000 0.0000 0.0000 0.0000 0.0000 0.0000 0.0000 0.0000 0.0000 0.0000 0.0000 0.0000 0.0000 0.0000 0.0000 0.0000 0.0000
0.0000 95.0000 0.0000 0.0000 0.0000 0.0000 0.0000 0.0000 0.0000 0.0000 0.0000 0.0000 0.0000 0.0000 0.0000 0.0000 0.0000 0.0000 0.0000 0.0000 0.0000 0.0000 0.0000 0.0000 -79.3125 -0.5330 -0.6429 -10.7246 -5.5385 7.9803 -42.8585 -55.8550 -136.8267 38.6222 -10.3033 -4.9503 1.8849 0.0000 0.0000 4.3831 0.0000 0.0000 -3.6331 2.8623 -18.0686 11.4964 0.0000 0.0000 4.8764 0.0000 0.0000 6.5270 0.9796 -21.8259 11.9967 0.0000 0.0000 1.9959 0.0000 0.0000 14.1101 -1.1542 -22.4377 18.8552 0.0000 0.0000 6.5469 0.0000 0.0000 21.1690 -4.0904 -22.4090 16.8956 0.0000 0.0000 10.8618 0.0000 0.0000 0.0000 0.0000 0.0000 90.5624 1.3203 -1.3074 -2.7186 9.3347 8.8910 -33.0754 -9.1886 32.6516 -84.1022 -10.9329 60.3670 11.8323 0.0000 0.0000 18.6728 0.0000 0.0000 -22.2589 15.5004 41.2570 55.5137 0.0000 0.0000 7.5168 0.0000 0.0000 -31.8648 26.1883 83.1181 21.9216 0.0000 0.0000 2.1543 0.0000 0.0000 -34.0662 17.2045 96.2293 20.0585 0.0000 0.0000 3.8790 0.0000 0.0000 -40.2575 4.7905 106.7005 17.7468 0.0000 0.0000 3.0102 0.0000 0.0000 0.0000 0.0000 0.0000 0.0000 0.0000 0.0000 0.0000 0.0000 0.0000 0.0000 0.0000 0.0000 0.0000 0.0000 0.0000 0.0000 0.0000 0.0000
0.0000 95.0000 0.0000 0.0000 0.0000 0.0000 0.0000 0.0000 0.0000 0.0000 0.0000 0.0000 0.0000 0.0000 0.0000 0.0000 0.0000 0.0000 0.0000 0.0000 0.0000 0.0000 0.0000 0.0000 -79.3068 -0.7027 -0.8478 -10.6229 -5.2483 7.5006 -42.0769 -55.4777 -136.8848 38.6222 -10.3033 -4.9503 1.8849 0.0000 0.0000 4.3831 0.0000 0.0000 -3.6331 2.8623 -18.0686 11.4964 0.0000 0.0000 4.8764 0.0000 0.0000 6.5270 0.9796 -21.8259 11.9967 0.0000 0.0000 1.9959 0.0000 0.0000 14.1101 -1.1542 -22.4377 18.8552 0.0000 0.0000 6.5469 0.0000 0.0000 21.1690 -4.0904 -22.4090 16.8956 0.0000 0.0000 10.8618 0.0000 0.0000 0.0000 0.0000 0.0000 90.5477 1.4510 -1.4372 -2.7528 9.4164 8.9734 -33.0023 -9.1832 32.6937 -84.1022 -10.9329 60.3670 11.8323 0.0000 0.0000 18.6728 0.0000 0.0000 -22.2589 15.5004 41.2570 55.5137 0.0000 0.0000 7.5168 0.0000 0.0000 -31.8648 26.1883 83.1181 21.9216 0.0000 0.0000 2.1543 0.0000 0.0000 -34.0662 17.2045 96.2293 20.0585 0.0000 0.0000 3.8790 0.0000 0.0000 -40.2575 4.7905 106.7005 17.7468 0.0000 0.0000 3.0102 0.0000 0.0000 0.0000 0.0000 0.0000 0.0000 0.0000 0.0000 0.0000 0.0000 0.0000 0.0000 0.0000 0.0000 0.0000 0.0000 0.0000 0.0000 0.0000 0.0000
0.0000 95.0000 0.0000 0.0000 0.0000 0.0000 0.0000 0.0000 0.0000 0.0000 0.0000 0.0000 0.0000 0.0000 0.0000 0.0000 0.0000 0.0000 0.0000 0.0000 0.0000 0.0000 0.0000 0.0000 -79.4817 -0.2835 -0.3410 -10.0179 -4.9869 7.1228 -41.7561 -55.8625 -137.2700 38.6222 -10.3033 -4.9503 1.8849 0.0000 0.0000 4.3831 0.0000 0.0000 -3.6331 2.8623 -18.0686 11.4964 0.0000 0.0000 4.8764 0.0000 0.0000 6.5270 0.9796 -21.8259 11.9967 0.0000 0.0000 1.9959 0.0000 0.0000 14.1101 -1.1542 -22.4377 18.8552 0.0000 0.0000 6.5469 0.0000 0.0000 21.1690 -4.0904 -22.4090 16.8956 0.0000 0.0000 10.8618 0.0000 0.0000 0.0000 0.0000 0.0000 90.5611 1.1354 -1.1243 -3.0209 9.5142 9.0097 -32.9837 -9.6580 32.3173 -84.1022 -10.9329 60.3670 11.8323 0.0000 0.0000 18.6728 0.0000 0.0000 -22.2589 15.5004 41.2570 55.5137 0.0000 0.0000 7.5168 0.0000 0.0000 -31.8648 26.1883 83.1181 21.9216 0.0000 0.0000 2.1543 0.0000 0.0000 -34.0662 17.2045 96.2293 20.0585 0.0000 0.0000 3.8790 0.0000 0.0000 -40.2575 4.7905 106.7005 17.7468 0.0000 0.0000 3.0102 0.0000 0.0000 0.0000 0.0000 0.0000 0.0000 0.0000 0.0000 0.0000 0.0000 0.0000 0.0000 0.0000 0.0000 0.0000 0.0000 0.0000 0.0000 0.0000 0.0000
0.0000 95.0000 0.0000 0.0000 0.0000 0.0000 0.0000 0.0000 0.0000 0.0000 0.0000 0.0000 0.0000 0.0000 0.0000 0.0000 0.0000 0.0000 0.0000 0.0000 0.0000 0.0000 0.0000 0.0000 -79.0763 0.3733 0.4522 -9.5178 -5.1877 7.5461 -41.8475 -57.2922 -138.2064 38.6222 -10.3033 -4.9503 1.8849 0.0000 0.0000 4.3831 0.0000 0.0000 -3.6331 2.8623 -18.0686 11.4964 0.0000 0.0000 4.8764 0.0000 0.0000 6.5270 0.9796 -21.8259 11.9967 0.0000 0.0000 1.9959 0.0000 0.0000 14.1101 -1.1542 -22.4377 18.8552 0.0000 0.0000 6.5469 0.0000 0.0000 21.1690 -4.0904 -22.4090 16.8956 0.0000 0.0000 10.8618 0.0000 0.0000 0.0000 0.0000 0.0000 90.3228 1.0073 -1.0016 -3.5118 9.8770 9.3113 -32.5841 -10.4949 31.8322 -84.1022 -10.9329 60.3670 11.8323 0.0000 0.0000 18.6728 0.0000 0.0000 -22.2589 15.5004 41.2570 55.5137 0.0000 0.0000 7.5168 0.0000 0.0000 -31.8648 26.1883 83.1181 21.9216 0.0000 0.0000 2.1543 0.0000 0.0000 -34.0662 17.2045 96.2293 20.0585 0.0000 0.0000 3.8790 0.0000 0.0000 -40.2575 4.7905 106.7005 17.7468 0.0000 0.0000 3.0102 0.0000 0.0000 0.0000 0.0000 0.0000 0.0000 0.0000 0.0000 0.0000 0.0000 0.0000 0.0000 0.0000 0.0000 0.0000 0.0000 0.0000 0.0000 0.0000 0.0000
0.0000 95.0000 0.0000 0.0000 0.0000 0.0000 0.0000 0.0000 0.0000 0.0000 0.0000 0.0000 0.0000 0.0000 0.0000 0.0000 0.0000 0.0000 0.0000 0.0000 0.0000 0.0000 0.0000 0.0000 -78.0888 1.4748 1.8183 -9.7616 -5.7255 8.7613 -43.4547 -59.4475 -138.9823 38.6222 -10.3033 -4.9503 1.8849 0.0000 0.0000 4.3831 0.0000 0.0000 -3.6331 2.8623 -18.0686 11.4964 0.0000 0.0000 4.8764 0.0000 0.0000 6.5270 0.9796 -21.8259 11.9967 0.0000 0.0000 1.9959 0.0000 0.0000 14.1101 -1.1542 -22.4377 18.8552 0.0000 0.0000 6.5469 0.0000 0.0000 21.1690 -4.0904 -22.4090 16.8956 0.0000 0.0000 10.8618 0.0000 0.0000 0.0000 0.0000 0.0000 89.9011 1.8081 -1.8112 -3.6363 9.7373 9.2867 -31.7078 -10.0726 32.6301 -84.1022 -10.9329 60.3670 11.8323 0.0000 0.0000 18.6728 0.0000 0.0000 -22.2589 15.5004 41.2570 55.5137 0.0000 0.0000 7.5168 0.0000 0.0000 -31.8648 26.1883 83.1181 21.9216 0.0000 0.0000 2.1543 0.0000 0.0000 -34.0662 17.2045 96.2293 20.0585 0.0000 0.0000 3.8790 0.0000 0.0000 -40.2575 4.7905 106.7005 17.7468 0.0000 0.0000 3.0102 0.0000 0.0000 0.0000 0.0000 0.0000 0.0000 0.0000 0.0000 0.0000 0.0000 0.0000 0.0000 0.0000 0.0000 0.0000 0.0000 0.0000 0.0000 0.0000 0.0000
0.0000 95.0000 0.0000 0.0000 0.0000 0.0000 0.0000 0.0000 0.0000 0.0000 0.0000 0.0000 0.0000 0.0000 0.0000 0.0000 0.0000 0.0000 0.0000 0.0000 0.0000 0.0000 0.0000 0.0000 -77.6876 2.7442 3.4073 -9.0823 -6.1185 9.5211 -44.5638 -61.7070 -140.0117 38.6222 -10.3033 -4.9503 1.8849 0.0000 0.0000 4.3831 0.0000 0.0000 -3.6331 2.8623 -18.0686 11.4964 0.0000 0.0000 4.8764 0.0000 0.0000 6.5270 0.9796 -21.8259 11.9967 0.0000 0.0000 1.9959 0.0000 0.0000 14.1101 -1.1542 -22.4377 18.8552 0.0000 0.0000 6.5469 0.0000 0.0000 21.1690 -4.0904 -22.4090 16.8956 0.0000 0.0000 10.8618 0.0000 0.0000 0.0000 0.0000 0.0000 89.6457 2.2843 -2.2985 -3.8644 9.6303 9.2319 -31.0466 -9.8881 33.1281 -84.1022 -10.9329 60.3670 11.8323 0.0000 0.0000 18.6728 0.0000 0.0000 -22.2589 15.5004 41.2570 55.5137 0.0000 0.0000 7.5168 0.0000 0.0000 -31.8648 26.1883 83.1181 21.9216 0.0000 0.0000 2.1543 0.0000 0.0000 -34.0662 17.2045 96.2293 20.0585 0.0000 0.0000 3.8790 0.0000 0.0000 -40.2575 4.7905 106.7005 17.7468 0.0000 0.0000 3.0102 0.0000 0.0000 0.0000 0.0000 0.0000 0.0000 0.0000 0.0000 0.0000 0.0000 0.0000 0.0000 0.0000 0.0000 0.0000 0.0000 0.0000 0.0000 0.0000 0.0000
0.0000 95.0000 0.0000 0.0000 0.0000 0.0000 0.0000 0.0000 0.0000 0.0000 0.0000 0.0000 0.0000 0.0000 0.0000 0.0000 0.0000 0.0000 0.0000 0.0000 0.0000 0.0000 0.0000 0.0000 -77.7939 0.5223 0.6473 -8.4112 -3.6851 5.4262 -36.9200 -57.5924 -140.5453 38.6222 -10.3033 -4.9503 1.8849 0.0000 0.0000 4.3831 0.0000 0.0000 -3.6331 2.8623 -18.0686 11.4964 0.0000 0.0000 4.8764 0.0000 0.0000 6.5270 0.9796 -21.8259 11.9967 0.0000 0.0000 1.9959 0.0000 0.0000 14.1101 -1.1542 -22.4377 18.8552 0.0000 0.0000 6.5469 0.0000 0.0000 21.1690 -4.0904 -22.4090 16.8956 0.0000 0.0000 10.8618 0.0000 0.0000 0.0000 0.0000 0.0000 90.2557 -2.4978 2.4866 -13.3971 29.6314 22.7428 -25.6655 -34.6019 9.2015 -84.1022 -10.9329 60.3670 11.8323 0.0000 0.0000 18.6728 0.0000 0.0000 -22.2589 15.5004 41.2570 55.5137 0.0000 0.0000 7.5168 0.0000 0.0000 -31.8648 26.1883 83.1181 21.9216 0.0000 0.0000 2.1543 0.0000 0.0000 -34.0662 17.2045 96.2293 20.0585 0.0000 0.0000 3.8790 0.0000 0.0000 -40.2575 4.7905 106.7005 17.7468 0.0000 0.0000 3.0102 0.0000 0.0000 0.0000 0.0000 0.0000 0.0000 0.0000 0.0000 0.0000 0.0000 0.0000 0.0000 0.0000 0.0000 0.0000 0.0000 0.0000 0.0000 0.0000 0.0000
0.0000 95.0000 0.0000 0.0000 0.0000 0.0000 0.0000 0.0000 0.0000 0.0000 0.0000 0.0000 0.0000 0.0000 0.0000 0.0000 0.0000 0.0000 0.0000 0.0000 0.0000 0.0000 0.0000 0.0000 -76.8514 -3.3834 -4.2641 -9.2840 3.3107 -5.7107 -22.8202 -47.4851 -137.5638 38.6222 -10.3033 -4.9503 1.8849 0.0000 0.0000 4.3831 0.0000 0.0000 -3.6331 2.8623 -18.0686 11.4964 0.0000 0.0000 4.8764 0.0000 0.0000 6.5270 0.9796 -21.8259 11.9967 0.0000 0.0000 1.9959 0.0000 0.0000 14.1101 -1.1542 -22.4377 18.8552 0.0000 0.0000 6.5469 0.0000 0.0000 21.1690 -4.0904 -22.4090 16.8956 0.0000 0.0000 10.8618 0.0000 0.0000 0.0000 0.0000 0.0000 89.6142 -5.8919 5.9316 -34.4373 53.5396 26.1805 -42.0411 -23.8660 -10.6856 -80.4252 -14.4485 27.0359 11.5275 0.0000 0.0000 12.0635 0.0000 0.0000 1.8349 1.3751 7.8284 62.7533 0.0000 0.0000 16.4869 0.0000 0.0000 -31.4486 6.6463 28.0782 41.3224 0.0000 0.0000 2.6157 0.0000 0.0000 -44.3239 6.5670 35.2413 35.8811 0.0000 0.0000 4.6852 0.0000 0.0000 -57.0789 4.1353 39.5816 33.1163 0.0000 0.0000 4.8553 0.0000 0.0000 0.0000 0.0000 0.0000 0.0000 0.0000 0.0000 0.0000 0.0000 0.0000 0.0000 0.0000 0.0000 0.0000 0.0000 0.0000 0.0000 0.0000 0.0000
0.0000 95.0000 0.0000 0.0000 0.0000 0.0000 0.0000 0.0000 0.0000 0.0000 0.0000 0.0000 0.0000 0.0000 0.0000 0.0000 0.0000 0.0000 0.0000 0.0000 0.0000 0.0000 0.0000 0.0000 -75.6812 -5.2285 -6.7276 -11.8156 14.4576 -24.0446 0.9181 8.4914 -83.8111 61.5456 -17.0535 -41.9752 24.0129 0.0000 0.0000 24.5238 0.0000 0.0000 -6.0068 6.0120 -43.4812 25.4758 0.0000 0.0000 29.6463 0.0000 0.0000 4.2701 1.5789 -45.3405 29.6332 0.0000 0.0000 47.2920 0.0000 0.0000 13.8496 -1.7231 -49.0049 35.8375 0.0000 0.0000 50.8053 0.0000 0.0000 21.7732 -7.2348 -50.5422 36.3693 0.0000 0.0000 59.3369 0.0000 0.0000 0.0000 0.0000 0.0000 87.7723 -7.4556 7.7504 -85.1186 66.6835 -2.8180 -61.4495 6.3217 -66.4252 -55.8062 -10.6844 -7.7583 26.4792 0.0000 0.0000 44.5109 0.0000 0.0000 43.9932 -4.3858 30.1989 114.0325 0.0000 0.0000 6.8850 0.0000 0.0000 37.7510 -9.2454 31.3831 123.9467 0.0000 0.0000 5.8915 0.0000 0.0000 23.3719 -8.5443 27.5413 144.6775 0.0000 0.0000 6.8996 0.0000 0.0000 23.4389 -10.8933 23.4130 150.7530 0.0000 0.0000 8.1569 0.0000 0.0000 0.0000 0.0000 0.0000 0.0000 0.0000 0.0000 0.0000 0.0000 0.0000 0.0000 0.0000 0.0000 0.0000 0.0000 0.0000 0.0000 0.0000 0.0000
0.0000 95.0000 0.0000 0.0000 0.0000 0.0000 0.0000 0.0000 0.0000 0.0000 0.0000 0.0000 0.0000 0.0000 0.0000 0.0000 0.0000 0.0000 0.0000 0.0000 0.0000 0.0000 0.0000 0.0000 -74.3277 -5.7947 -7.6395 -20.6438 36.7265 -65.6195 20.0520 11.8755 -84.0796 56.9703 -13.8498 -12.4583 20.8845 0.0000 0.0000 25.1691 0.0000 0.0000 -3.9348 2.0629 -12.8815 71.5357 0.0000 0.0000 89.6742 0.0000 0.0000 12.8117 1.3748 -16.9716 73.4982 0.0000 0.0000 87.8323 0.0000 0.0000 23.6632 0.0951 -20.9086 71.8982 0.0000 0.0000 81.6062 0.0000 0.0000 33.4398 -2.5356 -21.6311 59.6778 0.0000 0.0000 94.8914 0.0000 0.0000 0.0000 0.0000 0.0000 84.1793 -9.6707 10.7009 -115.4185 68.1095 -24.8654 -61.7399 7.5339 -47.8711 -56.3948 -12.7334 4.9914 19.9545 0.0000 0.0000 84.1665 0.0000 0.0000 9.5350 0.5949 1.7260 1.3461 0.0000 0.0000 4.1821 0.0000 0.0000 -34.6496 18.2799 59.3386 91.1271 0.0000 0.0000 24.7956 0.0000 0.0000 -44.7466 22.4471 83.8489 71.7192 0.0000 0.0000 33.4948 0.0000 0.0000 -65.4033 19.1327 76.0287 67.2449 0.0000 0.0000 33.7409 0.0000 0.0000 0.0000 0.0000 0.0000 0.0000 0.0000 0.0000 0.0000 0.0000 0.0000 0.0000 0.0000 0.0000 0.0000 0.0000 0.0000 0.0000 0.0000 0.0000
0.0000 95.0000 0.0000 0.0000 0.0000 0.0000 0.0000 0.0000 0.0000 0.0000 0.0000 0.0000 0.0000 0.0000 0.0000 0.0000 0.0000 0.0000 0.0000 0.0000 0.0000 0.0000 0.0000 0.0000 -73.1252 -7.2768 -9.8009 -48.4704 69.3912 -136.6081 62.4175 -20.8031 -60.8798 51.6098 -11.3320 -0.9509 22.2505 0.0000 0.0000 38.1447 0.0000 0.0000 -17.0687 0.9046 -4.7012 12.0559 0.0000 0.0000 69.1360 0.0000 0.0000 1.8724 0.0674 -8.8947 43.3206 0.0000 0.0000 111.1646 0.0000 0.0000 18.8366 -0.7724 -11.0012 75.7134 0.0000 0.0000 75.4772 0.0000 0.0000 32.0823 -2.5363 -12.2321 64.7749 0.0000 0.0000 81.2282 0.0000 0.0000 0.0000 0.0000 0.0000 80.8700 -12.1258 14.2102 -126.6456 69.3534 -34.8423 -62.7835 14.3770 -54.9815 -59.6177 -13.2778 6.0477 21.8922 0.0000 0.0000 71.4747 0.0000 0.0000 8.4536 0.5487 1.5885 6.1564 0.0000 0.0000 2.5837 0.0000 0.0000 -43.3134 31.1878 74.9763 67.4486 0.0000 0.0000 25.3022 0.0000 0.0000 -47.0060 30.2753 96.3611 53.7039 0.0000 0.0000 27.8230 0.0000 0.0000 -66.9161 26.0305 88.8999 50.7833 0.0000 0.0000 24.4121 0.0000 0.0000 0.0000 0.0000 0.0000 0.0000 0.0000 0.0000 0.0000 0.0000 0.0000 0.0000 0.0000 0.0000 0.0000 0.0000 0.0000 0.0000 0.0000 0.0000
0.0000 95.0000 0.0000 0.0000 0.0000 0.0000 0.0000 0.0000 0.0000 0.0000 0.0000 0.0000 0.0000 0.0000 0.0000 0.0000 0.0000 0.0000 0.0000 0.0000 0.0000 0.0000 0.0000 0.0000 -73.0008 -9.0450 -12.2026 -146.6531 67.6291 -260.7464 83.3907 -52.9022 -58.0710 36.3536 -6.3665 5.6421 32.2703 0.0000 0.0000 24.9691 0.0000 0.0000 -23.7165 0.8936 -5.8179 46.7622 0.0000 0.0000 30.4665 0.0000 0.0000 -13.2363 -0.6306 -10.2033 14.0658 0.0000 0.0000 113.9722 0.0000 0.0000 7.0532 -1.1737 -9.9712 95.6682 0.0000 0.0000 60.0507 0.0000 0.0000 24.7444 -2.5932 -9.6219 78.9547 0.0000 0.0000 57.3642 0.0000 0.0000 0.0000 0.0000 0.0000 77.7035 -14.0355 17.3777 -127.8876 73.4574 -37.8757 -63.3696 27.1426 -49.0213 -64.2244 -16.1885 37.2570 21.7330 0.0000 0.0000 71.4341 0.0000 0.0000 6.2579 0.7312 3.5751 4.8432 0.0000 0.0000 8.1677 0.0000 0.0000 -12.6444 18.2851 115.6825 43.4813 0.0000 0.0000 63.2308 0.0000 0.0000 -18.4537 3.5528 128.1887 38.3007 0.0000 0.0000 95.4457 0.0000 0.0000 -29.9127 -10.5318 134.1795 26.5615 0.0000 0.0000 61.6030 0.0000 0.0000 0.0000 0.0000 0.0000 0.0000 0.0000 0.0000 0.0000 0.0000 0.0000 0.0000 0.0000 0.0000 0.0000 0.0000 0.0000 0.0000 0.0000 0.0000
0.0000 95.0000 0.0000 0.0000 0.0000 0.0000 0.0000 0.0000 0.0000 0.0000 0.0000 0.0000 0.0000 0.0000 0.0000 0.0000 0.0000 0.0000 0.0000 0.0000 0.0000 0.0000 0.0000 0.0000 -72.8545 -9.8729 -13.3504 -154.2509 59.3473 -274.6068 93.3492 -62.2180 -73.3593 47.3421 -9.1855 5.0735 32.8475 0.0000 0.0000 43.7586 0.0000 0.0000 -21.0890 0.9205 -3.8116 31.2263 0.0000 0.0000 43.7720 0.0000 0.0000 0.7100 0.0191 -7.8502 77.9511 0.0000 0.0000 80.0842 0.0000 0.0000 18.2292 -0.8492 -8.3495 87.2383 0.0000 0.0000 57.8431 0.0000 0.0000 33.2154 -2.4829 -10.5488 79.6878 0.0000 0.0000 60.9896 0.0000 0.0000 0.0000 0.0000 0.0000 76.0906 -15.0762 19.1956 -131.8661 76.3032 -42.5825 -63.9855 26.4996 -48.0375 -62.5751 -15.8672 30.9943 15.2813 0.0000 0.0000 74.5588 0.0000 0.0000 9.8095 0.6407 2.1273 2.0104 0.0000 0.0000 9.3997 0.0000 0.0000 -15.6720 20.7895 111.0146 46.7835 0.0000 0.0000 58.3368 0.0000 0.0000 -20.4792 6.4542 123.3879 40.1755 0.0000 0.0000 92.8833 0.0000 0.0000 -32.3602 -5.3607 128.1441 29.6989 0.0000 0.0000 54.9345 0.0000 0.0000 0.0000 0.0000 0.0000 0.0000 0.0000 0.0000 0.0000 0.0000 0.0000 0.0000 0.0000 0.0000 0.0000 0.0000 0.0000 0.0000 0.0000 0.0000
0.0000 95.0000 0.0000 0.0000 0.0000 0.0000 0.0000 0.0000 0.0000 0.0000 0.0000 0.0000 0.0000 0.0000 0.0000 0.0000 0.0000 0.0000 0.0000 0.0000 0.0000 0.0000 0.0000 0.0000 -72.7299 -10.2679 -13.9135 -152.9457 60.5641 -271.6140 81.3219 -64.3567 -66.8600 56.7900 -11.9784 0.6267 28.6970 0.0000 0.0000 55.6243 0.0000 0.0000 -16.3157 1.0618 -8.9923 4.8633 0.0000 0.0000 12.6144 0.0000 0.0000 8.6755 0.5423 -11.9121 39.1257 0.0000 0.0000 66.7874 0.0000 0.0000 26.9838 -0.4238 -11.1519 55.7186 0.0000 0.0000 76.4264 0.0000 0.0000 40.0383 -2.1840 -13.4017 45.7853 0.0000 0.0000 61.1195 0.0000 0.0000 0.0000 0.0000 0.0000 77.2966 -15.6698 19.5271 -137.6683 73.9153 -48.0324 -44.0716 -13.1816 13.0432 -47.0488 -11.2443 3.9438 18.7412 0.0000 0.0000 14.7334 0.0000 0.0000 2.9047 0.7437 3.9373 2.3590 0.0000 0.0000 3.3614 0.0000 0.0000 29.2208 -14.4358 56.5969 23.2934 0.0000 0.0000 2.6419 0.0000 0.0000 27.2033 -24.1910 61.5154 56.6993 0.0000 0.0000 25.8187 0.0000 0.0000 21.3286 -30.4455 59.3756 33.6847 0.0000 0.0000 18.6128 0.0000 0.0000 0.0000 0.0000 0.0000 0.0000 0.0000 0.0000 0.0000 0.0000 0.0000 0.0000 0.0000 0.0000 0.0000 0.0000 0.0000 0.0000 0.0000 0.0000
0.0000 95.0000 0.0000 0.0000 0.0000 0.0000 0.0000 0.0000 0.0000 0.0000 0.0000 0.0000 0.0000 0.0000 0.0000 0.0000 0.0000 0.0000 0.0000 0.0000 0.0000 0.0000 0.0000 0.0000 -72.7892 -10.9032 -14.7544 -150.2690 66.7800 -262.2379 70.4465 -57.8130 -60.8462 60.5751 -13.0383 -2.7914 32.0365 0.0000 0.0000 57.3749 0.0000 0.0000 -9.9354 1.4912 -11.2263 22.5457 0.0000 0.0000 10.1307 0.0000 0.0000 13.0803 0.8776 -12.4160 53.2742 0.0000 0.0000 89.4703 0.0000 0.0000 28.2073 -0.2420 -12.3605 60.3580 0.0000 0.0000 87.7810 0.0000 0.0000 39.9761 -2.1638 -13.8462 52.4447 0.0000 0.0000 97.6243 0.0000 0.0000 0.0000 0.0000 0.0000 78.4690 -16.5905 20.2467 -137.8527 69.6302 -48.3771 -52.3116 -34.4166 29.2283 -50.7476 -10.9570 -0.1877 13.4103 0.0000 0.0000 43.0476 0.0000 0.0000 22.7339 0.5046 26.5095 44.5738 0.0000 0.0000 30.6246 0.0000 0.0000 16.3531 -4.0401 32.3562 61.7461 0.0000 0.0000 37.5759 0.0000 0.0000 10.0891 -8.1500 37.0050 57.3196 0.0000 0.0000 58.1046 0.0000 0.0000 0.5063 -12.7314 40.4241 65.0696 0.0000 0.0000 88.4042 0.0000 0.0000 0.0000 0.0000 0.0000 0.0000 0.0000 0.0000 0.0000 0.0000 0.0000 0.0000 0.0000 0.0000 0.0000 0.0000 0.0000 0.0000 0.0000 0.0000
0.0000 95.0000 0.0000 0.0000 0.0000 0.0000 0.0000 0.0000 0.0000 0.0000 0.0000 0.0000 0.0000 0.0000 0.0000 0.0000 0.0000 0.0000 0.0000 0.0000 0.0000 0.0000 0.0000 0.0000 -73.8893 -10.9061 -14.4686 -116.4297 73.7954 -218.0178 8.3856 -42.4162 -11.2617 69.7015 -14.7200 -14.2539 36.1543 0.0000 0.0000 45.3385 0.0000 0.0000 -2.6821 3.2460 -19.7780 13.1070 0.0000 0.0000 14.6123 0.0000 0.0000 11.6137 2.0729 -24.9466 28.0683 0.0000 0.0000 24.7595 0.0000 0.0000 29.7872 1.2380 -23.7600 30.3226 0.0000 0.0000 20.9801 0.0000 0.0000 42.8783 -1.1571 -24.8393 33.7498 0.0000 0.0000 14.7966 0.0000 0.0000 0.0000 0.0000 0.0000 83.8546 -17.4123 19.3522 -132.7326 59.4830 -44.1933 -119.3177 -45.0411 103.4307 -64.1112 -13.3619 0.2297 8.6407 0.0000 0.0000 18.3113 0.0000 0.0000 -14.3998 -4.0388 -10.5902 16.2403 0.0000 0.0000 11.5036 0.0000 0.0000 -4.6532 0.3632 13.6935 3.1028 0.0000 0.0000 0.5300 0.0000 0.0000 -7.6879 -1.5004 14.7421 1.2549 0.0000 0.0000 2.9246 0.0000 0.0000 -16.4168 -3.6131 15.4522 13.2245 0.0000 0.0000 7.9559 0.0000 0.0000 0.0000 0.0000 0.0000 0.0000 0.0000 0.0000 0.0000 0.0000 0.0000 0.0000 0.0000 0.0000 0.0000 0.0000 0.0000 0.0000 0.0000 0.0000
0.0000 95.0000 0.0000 0.0000 0.0000 0.0000 0.0000 0.0000 0.0000 0.0000 0.0000 0.0000 0.0000 0.0000 0.0000 0.0000 0.0000 0.0000 0.0000 0.0000 0.0000 0.0000 0.0000 0.0000 -73.7163 -10.5894 -14.0940 -62.5991 70.2166 -151.0609 -20.1916 -12.9732 -1.5534 90.4774 -14.3621 -23.5212 41.8999 0.0000 0.0000 40.5447 0.0000 0.0000 6.4536 4.3060 -19.0930 30.8637 0.0000 0.0000 3.9856 0.0000 0.0000 16.4965 3.2076 -26.6354 45.8014 0.0000 0.0000 13.5962 0.0000 0.0000 33.3179 2.1364 -25.9764 46.3512 0.0000 0.0000 15.3180 0.0000 0.0000 38.0362 -1.7962 -27.0162 54.8272 0.0000 0.0000 17.7404 0.0000 0.0000 0.0000 0.0000 0.0000 87.8205 -19.3657 20.1017 -129.3833 52.1941 -43.2881 -105.9584 -36.5149 105.2808 -68.8338 -13.9929 -4.3035 7.7496 0.0000 0.0000 27.2348 0.0000 0.0000 -6.1592 -2.3204 -8.5147 10.7230 0.0000 0.0000 8.6484 0.0000 0.0000 -7.4096 0.1446 7.0041 0.9583 0.0000 0.0000 2.8574 0.0000 0.0000 -12.8640 -0.9157 7.3085 2.8951 0.0000 0.0000 3.7716 0.0000 0.0000 -22.0400 -2.4870 8.2516 8.4383 0.0000 0.0000 5.4529 0.0000 0.0000 0.0000 0.0000 0.0000 0.0000 0.0000 0.0000 0.0000 0.0000 0.0000 0.0000 0.0000 0.0000 0.0000 0.0000 0.0000 0.0000 0.0000 0.0000
0.0000 95.0000 0.0000 0.0000 0.0000 0.0000 0.0000 0.0000 0.0000 0.0000 0.0000 0.0000 0.0000 0.0000 0.0000 0.0000 0.0000 0.0000 0.0000 0.0000 0.0000 0.0000 0.0000 0.0000 -72.7323 -8.3802 -11.3636 -42.0274 46.9964 -110.3455 -69.7619 -35.8927 72.4053 30.3375 -24.9954 -46.9022 41.8849 0.0000 0.0000 15.3191 0.0000 0.0000 -41.7869 -7.6486 -48.5732 60.0836 0.0000 0.0000 13.8200 0.0000 0.0000 -34.9483 -19.0109 -60.7880 62.2798 0.0000 0.0000 13.7162 0.0000 0.0000 -25.4777 -28.0111 -71.5426 54.2165 0.0000 0.0000 13.9512 0.0000 0.0000 -11.9019 -35.5024 -78.7541 43.3807 0.0000 0.0000 12.4426 0.0000 0.0000 0.0000 0.0000 0.0000 88.8885 -18.8266 19.1886 -135.2533 52.4705 -46.9238 -100.1776 -32.8603 105.6107 -72.0597 -14.6398 -7.0868 6.8067 0.0000 0.0000 36.0897 0.0000 0.0000 4.3974 -0.5293 -5.0996 7.4301 0.0000 0.0000 5.9602 0.0000 0.0000 -4.0994 -0.1216 1.3757 8.0314 0.0000 0.0000 5.4934 0.0000 0.0000 -13.5192 -0.7699 0.8005 7.3133 0.0000 0.0000 4.6968 0.0000 0.0000 -24.5586 -1.9865 2.2675 7.5425 0.0000 0.0000 3.8317 0.0000 0.0000 0.0000 0.0000 0.0000 0.0000 0.0000 0.0000 0.0000 0.0000 0.0000 0.0000 0.0000 0.0000 0.0000 0.0000 0.0000 0.0000 0.0000 0.0000
0.0000 95.0000 0.0000 0.0000 0.0000 0.0000 0.0000 0.0000 0.0000 0.0000 0.0000 0.0000 0.0000 0.0000 0.0000 0.0000 0.0000 0.0000 0.0000 0.0000 0.0000 0.0000 0.0000 0.0000 -73.6978 -6.5105 -8.6801 -34.3889 28.4110 -72.4271 -32.7386 -13.5439 31.6180 49.7713 -6.3208 20.3998 9.4751 0.0000 0.0000 13.4540 0.0000 0.0000 -5.4521 -0.8735 8.3766 6.5095 0.0000 0.0000 19.9868 0.0000 0.0000 3.3440 -0.0952 -1.5103 148.0727 0.0000 0.0000 19.7086 0.0000 0.0000 15.1052 -0.8643 -3.1252 150.3404 0.0000 0.0000 16.5047 0.0000 0.0000 28.0843 -2.0333 0.2611 139.7384 0.0000 0.0000 24.7503 0.0000 0.0000 0.0000 0.0000 0.0000 89.0369 -20.1029 20.4365 -140.4041 50.9386 -51.4516 -90.4618 -36.2588 84.5651 -65.5432 -12.4236 -16.9669 4.1163 0.0000 0.0000 43.8532 0.0000 0.0000 16.1368 -0.6091 -32.8902 80.9463 0.0000 0.0000 18.3978 0.0000 0.0000 10.6953 0.3273 1.2765 4.6113 0.0000 0.0000 1.9215 0.0000 0.0000 -3.3462 -0.2489 0.5505 4.0937 0.0000 0.0000 4.4623 0.0000 0.0000 -17.2137 -1.6874 2.7823 8.1121 0.0000 0.0000 4.7831 0.0000 0.0000 0.0000 0.0000 0.0000 0.0000 0.0000 0.0000 0.0000 0.0000 0.0000 0.0000 0.0000 0.0000 0.0000 0.0000 0.0000 0.0000 0.0000 0.0000
0.0000 95.0000 0.0000 0.0000 0.0000 0.0000 0.0000 0.0000 0.0000 0.0000 0.0000 0.0000 0.0000 0.0000 0.0000 0.0000 0.0000 0.0000 0.0000 0.0000 0.0000 0.0000 0.0000 0.0000 -74.3555 -4.2482 -5.5994 -31.4367 17.7847 -46.5672 -16.9927 6.7931 13.9286 49.7713 -6.3208 20.3998 9.4751 0.0000 0.0000 13.4540 0.0000 0.0000 -5.4521 -0.8735 8.3766 6.5095 0.0000 0.0000 19.9868 0.0000 0.0000 3.3440 -0.0952 -1.5103 148.0727 0.0000 0.0000 19.7086 0.0000 0.0000 15.1052 -0.8643 -3.1252 150.3404 0.0000 0.0000 16.5047 0.0000 0.0000 28.0843 -2.0333 0.2611 139.7384 0.0000 0.0000 24.7503 0.0000 0.0000 0.0000 0.0000 0.0000 89.5977 -21.3678 21.5149 -142.6560 48.0964 -53.5654 -102.3511 -45.3566 94.4168 -66.8966 -13.3088 -9.2910 6.0526 0.0000 0.0000 43.4902 0.0000 0.0000 -8.9968 -7.5215 -26.1597 25.3309 0.0000 0.0000 18.2594 0.0000 0.0000 1.4214 -0.0039 5.0868 3.8816 0.0000 0.0000 3.9061 0.0000 0.0000 -9.0573 -0.9257 6.9327 3.4445 0.0000 0.0000 4.0044 0.0000 0.0000 -22.5993 -2.6968 10.3600 7.4278 0.0000 0.0000 2.7320 0.0000 0.0000 0.0000 0.0000 0.0000 0.0000 0.0000 0.0000 0.0000 0.0000 0.0000 0.0000 0.0000 0.0000 0.0000 0.0000 0.0000 0.0000 0.0000 0.0000
0.0000 95.0000 0.0000 0.0000 0.0000 0.0000 0.0000 0.0000 0.0000 0.0000 0.0000 0.0000 0.0000 0.0000 0.0000 0.0000 0.0000 0.0000 0.0000 0.0000 0.0000 0.0000 0.0000 0.0000 -75.6903 0.3565 0.4588 -30.1479 7.2675 -16.8368 -9.5553 37.0211 -6.5019 49.7713 -6.3208 20.3998 9.4751 0.0000 0.0000 13.4540 0.0000 0.0000 -5.4521 -0.8735 8.3766 6.5095 0.0000 0.0000 19.9868 0.0000 0.0000 3.3440 -0.0952 -1.5103 148.0727 0.0000 0.0000 19.7086 0.0000 0.0000 15.1052 -0.8643 -3.1252 150.3404 0.0000 0.0000 16.5047 0.0000 0.0000 28.0843 -2.0333 0.2611 139.7384 0.0000 0.0000 24.7503 0.0000 0.0000 0.0000 0.0000 0.0000 89.7489 -21.9672 22.0614 -143.7506 46.7647 -54.5442 -103.0071 -41.2603 94.8434 -62.9793 -12.1445 -11.0232 3.5717 0.0000 0.0000 20.4055 0.0000 0.0000 -5.8452 -5.5730 -22.0957 22.5939 0.0000 0.0000 12.4431 0.0000 0.0000 0.4477 0.0130 1.4550 5.2462 0.0000 0.0000 3.6898 0.0000 0.0000 -8.6790 -0.6258 2.2054 1.5694 0.0000 0.0000 4.7174 0.0000 0.0000 -21.6773 -2.1111 4.7709 7.9405 0.0000 0.0000 1.9780 0.0000 0.0000 0.0000 0.0000 0.0000 0.0000 0.0000 0.0000 0.0000 0.0000 0.0000 0.0000 0.0000 0.0000 0.0000 0.0000 0.0000 0.0000 0.0000 0.0000
0.0000 95.0000 0.0000 0.0000 0.0000 0.0000 0.0000 0.0000 0.0000 0.0000 0.0000 0.0000 0.0000 0.0000 0.0000 0.0000 0.0000 0.0000 0.0000 0.0000 0.0000 0.0000 0.0000 0.0000 -76.5084 3.2023 4.0609 -25.2131 3.5602 -4.8075 -18.1188 48.9166 -23.1206 49.7713 -6.3208 20.3998 9.4751 0.0000 0.0000 13.4540 0.0000 0.0000 -5.4521 -0.8735 8.3766 6.5095 0.0000 0.0000 19.9868 0.0000 0.0000 3.3440 -0.0952 -1.5103 148.0727 0.0000 0.0000 19.7086 0.0000 0.0000 15.1052 -0.8643 -3.1252 150.3404 0.0000 0.0000 16.5047 0.0000 0.0000 28.0843 -2.0333 0.2611 139.7384 0.0000 0.0000 24.7503 0.0000 0.0000 0.0000 0.0000 0.0000 89.8437 -22.2581 22.3173 -144.4693 46.5660 -55.3525 -106.8288 -43.2392 103.9366 -65.5937 -13.2554 -5.1702 1.5761 0.0000 0.0000 11.3536 0.0000 0.0000 -11.9234 -7.6218 -23.6634 3.9469 0.0000 0.0000 14.5498 0.0000 0.0000 2.8727 0.0128 4.2630 4.6581 0.0000 0.0000 2.8278 0.0000 0.0000 -8.1058 -0.8074 5.1415 3.0722 0.0000 0.0000 4.6432 0.0000 0.0000 -21.1904 -2.5009 8.3611 8.9528 0.0000 0.0000 1.5912 0.0000 0.0000 0.0000 0.0000 0.0000 0.0000 0.0000 0.0000 0.0000 0.0000 0.0000 0.0000 0.0000 0.0000 0.0000 0.0000 0.0000 0.0000 0.0000 0.0000
0.0000 95.0000 0.0000 0.0000 0.0000 0.0000 0.0000 0.0000 0.0000 0.0000 0.0000 0.0000 0.0000 0.0000 0.0000 0.0000 0.0000 0.0000 0.0000 0.0000 0.0000 0.0000 0.0000 0.0000 -76.3980 7.3085 9.2801 -19.8233 -1.5179 7.0150 -39.6892 58.0116 -52.8883 49.7713 -6.3208 20.3998 9.4751 0.0000 0.0000 13.4540 0.0000 0.0000 -5.4521 -0.8735 8.3766 6.5095 0.0000 0.0000 19.9868 0.0000 0.0000 3.3440 -0.0952 -1.5103 148.0727 0.0000 0.0000 19.7086 0.0000 0.0000 15.1052 -0.8643 -3.1252 150.3404 0.0000 0.0000 16.5047 0.0000 0.0000 28.0843 -2.0333 0.2611 139.7384 0.0000 0.0000 24.7503 0.0000 0.0000 0.0000 0.0000 0.0000 90.0729 -21.8237 21.7966 -146.1029 46.9047 -56.0970 -114.0259 -42.9512 110.1832 -62.9494 -12.9158 -2.5331 4.4262 0.0000 0.0000 22.7609 0.0000 0.0000 -10.5995 -4.1087 -12.8274 5.5603 0.0000 0.0000 14.4938 0.0000 0.0000 2.2191 0.0104 4.2330 4.1703 0.0000 0.0000 3.2876 0.0000 0.0000 -6.3692 -0.8065 5.3454 4.6013 0.0000 0.0000 5.2328 0.0000 0.0000 -20.0819 -2.6782 9.7865 13.0440 0.0000 0.0000 3.2176 0.0000 0.0000 0.0000 0.0000 0.0000 0.0000 0.0000 0.0000 0.0000 0.0000 0.0000 0.0000 0.0000 0.0000 0.0000 0.0000 0.0000 0.0000 0.0000 0.0000
0.0000 95.0000 0.0000 0.0000 0.0000 0.0000 0.0000 0.0000 0.0000 0.0000 0.0000 0.0000 0.0000 0.0000 0.0000 0.0000 0.0000 0.0000 0.0000 0.0000 0.0000 0.0000 0.0000 0.0000 -76.4759 9.4091 11.9242 -16.9264 -2.2097 8.1805 -47.9763 58.0653 -62.7310 49.7713 -6.3208 20.3998 9.4751 0.0000 0.0000 13.4540 0.0000 0.0000 -5.4521 -0.8735 8.3766 6.5095 0.0000 0.0000 19.9868 0.0000 0.0000 3.3440 -0.0952 -1.5103 148.0727 0.0000 0.0000 19.7086 0.0000 0.0000 15.1052 -0.8643 -3.1252 150.3404 0.0000 0.0000 16.5047 0.0000 0.0000 28.0843 -2.0333 0.2611 139.7384 0.0000 0.0000 24.7503 0.0000 0.0000 0.0000 0.0000 0.0000 90.7365 -21.6229 21.3531 -147.9109 46.2678 -56.9527 -109.0035 -42.8186 103.5757 -63.3414 -12.7374 -5.4612 4.2092 0.0000 0.0000 26.1011 0.0000 0.0000 -11.0298 -5.7842 -18.3147 4.1507 0.0000 0.0000 14.8445 0.0000 0.0000 1.0653 0.0166 2.9852 4.4345 0.0000 0.0000 3.1559 0.0000 0.0000 -8.5820 -0.6851 3.1758 3.5974 0.0000 0.0000 5.6874 0.0000 0.0000 -22.4172 -2.3901 7.3052 11.5002 0.0000 0.0000 4.5146 0.0000 0.0000 0.0000 0.0000 0.0000 0.0000 0.0000 0.0000 0.0000 0.0000 0.0000 0.0000 0.0000 0.0000 0.0000 0.0000 0.0000 0.0000 0.0000 0.0000
0.0000 95.0000 0.0000 0.0000 0.0000 0.0000 0.0000 0.0000 0.0000 0.0000 0.0000 0.0000 0.0000 0.0000 0.0000 0.0000 0.0000 0.0000 0.0000 0.0000 0.0000 0.0000 0.0000 0.0000 -75.7428 11.9470 15.3262 -14.5408 -2.5232 8.7956 -56.3153 57.4460 -72.7366 49.7713 -6.3208 20.3998 9.4751 0.0000 0.0000 13.4540 0.0000 0.0000 -5.4521 -0.8735 8.3766 6.5095 0.0000 0.0000 19.9868 0.0000 0.0000 3.3440 -0.0952 -1.5103 148.0727 0.0000 0.0000 19.7086 0.0000 0.0000 15.1052 -0.8643 -3.1252 150.3404 0.0000 0.0000 16.5047 0.0000 0.0000 28.0843 -2.0333 0.2611 139.7384 0.0000 0.0000 24.7503 0.0000 0.0000 0.0000 0.0000 0.0000 90.2095 -22.1689 22.0900 -148.3678 46.8332 -58.1208 -109.6191 -42.8787 103.6765 -63.0213 -12.7711 -4.3016 3.0245 0.0000 0.0000 29.8131 0.0000 0.0000 -11.9838 -6.4114 -19.6745 6.8579 0.0000 0.0000 15.6688 0.0000 0.0000 2.8641 0.0113 4.3193 2.8450 0.0000 0.0000 2.2781 0.0000 0.0000 -8.6417 -0.7385 3.9811 4.2846 0.0000 0.0000 4.6454 0.0000 0.0000 -22.2896 -2.3778 7.1936 10.5544 0.0000 0.0000 3.7877 0.0000 0.0000 0.0000 0.0000 0.0000 0.0000 0.0000 0.0000 0.0000 0.0000 0.0000 0.0000 0.0000 0.0000 0.0000 0.0000 0.0000 0.0000 0.0000 0.0000
0.0000 95.0000 0.0000 0.0000 0.0000 0.0000 0.0000 0.0000 0.0000 0.0000 0.0000 0.0000 0.0000 0.0000 0.0000 0.0000 0.0000 0.0000 0.0000 0.0000 0.0000 0.0000 0.0000 0.0000 -76.1038 12.4180 15.8257 -14.1095 -0.9994 6.2884 -53.3282 57.0255 -68.6731 49.7713 -6.3208 20.3998 9.4751 0.0000 0.0000 13.4540 0.0000 0.0000 -5.4521 -0.8735 8.3766 6.5095 0.0000 0.0000 19.9868 0.0000 0.0000 3.3440 -0.0952 -1.5103 148.0727 0.0000 0.0000 19.7086 0.0000 0.0000 15.1052 -0.8643 -3.1252 150.3404 0.0000 0.0000 16.5047 0.0000 0.0000 28.0843 -2.0333 0.2611 139.7384 0.0000 0.0000 24.7503 0.0000 0.0000 0.0000 0.0000 0.0000 90.3341 -22.2747 22.1484 -148.5459 46.5991 -58.3111 -109.2743 -44.5440 103.9759 -62.8754 -12.8297 -3.3214 3.5992 0.0000 0.0000 35.8797 0.0000 0.0000 -9.0899 -6.0427 -20.8026 1.8522 0.0000 0.0000 17.9785 0.0000 0.0000 2.7365 0.0117 4.2824 3.8734 0.0000 0.0000 2.3949 0.0000 0.0000 -8.2340 -0.7790 4.7030 4.7137 0.0000 0.0000 4.7252 0.0000 0.0000 -21.6306 -2.5615 8.9308 11.0486 0.0000 0.0000 4.2433 0.0000 0.0000 0.0000 0.0000 0.0000 0.0000 0.0000 0.0000 0.0000 0.0000 0.0000 0.0000 0.0000 0.0000 0.0000 0.0000 0.0000 0.0000 0.0000 0.0000
0.0000 95.0000 0.0000 0.0000 0.0000 0.0000 0.0000 0.0000 0.0000 0.0000 0.0000 0.0000 0.0000 0.0000 0.0000 0.0000 0.0000 0.0000 0.0000 0.0000 0.0000 0.0000 0.0000 0.0000 -76.7060 12.1823 15.3617 -13.5949 -0.1126 4.5289 -50.3778 56.2911 -64.4936 49.7713 -6.3208 20.3998 9.4751 0.0000 0.0000 13.4540 0.0000 0.0000 -5.4521 -0.8735 8.3766 6.5095 0.0000 0.0000 19.9868 0.0000 0.0000 3.3440 -0.0952 -1.5103 148.0727 0.0000 0.0000 19.7086 0.0000 0.0000 15.1052 -0.8643 -3.1252 150.3404 0.0000 0.0000 16.5047 0.0000 0.0000 28.0843 -2.0333 0.2611 139.7384 0.0000 0.0000 24.7503 0.0000 0.0000 0.0000 0.0000 0.0000 90.4033 -21.8706 21.7208 -149.1486 46.9180 -58.3577 -108.6658 -43.3455 102.9312 -61.9832 -12.4465 -5.3508 5.4549 0.0000 0.0000 32.8020 0.0000 0.0000 -8.7922 -5.8802 -20.4767 9.4045 0.0000 0.0000 23.9437 0.0000 0.0000 1.5420 0.0413 1.7059 4.4540 0.0000 0.0000 2.6411 0.0000 0.0000 -8.7931 -0.6976 3.2814 4.9517 0.0000 0.0000 4.6847 0.0000 0.0000 -22.1667 -2.4897 8.2794 10.8431 0.0000 0.0000 3.6437 0.0000 0.0000 0.0000 0.0000 0.0000 0.0000 0.0000 0.0000 0.0000 0.0000 0.0000 0.0000 0.0000 0.0000 0.0000 0.0000 0.0000 0.0000 0.0000 0.0000
0.0000 95.0000 0.0000 0.0000 0.0000 0.0000 0.0000 0.0000 0.0000 0.0000 0.0000 0.0000 0.0000 0.0000 0.0000 0.0000 0.0000 0.0000 0.0000 0.0000 0.0000 0.0000 0.0000 0.0000 -76.5948 12.4611 15.7427 -13.0896 0.1928 3.9674 -50.6872 55.8049 -64.5530 49.7713 -6.3208 20.3998 9.4751 0.0000 0.0000 13.4540 0.0000 0.0000 -5.4521 -0.8735 8.3766 6.5095 0.0000 0.0000 19.9868 0.0000 0.0000 3.3440 -0.0952 -1.5103 148.0727 0.0000 0.0000 19.7086 0.0000 0.0000 15.1052 -0.8643 -3.1252 150.3404 0.0000 0.0000 16.5047 0.0000 0.0000 28.0843 -2.0333 0.2611 139.7384 0.0000 0.0000 24.7503 0.0000 0.0000 0.0000 0.0000 0.0000 90.3585 -21.5710 21.4395 -149.0557 47.7249 -58.2765 -107.6718 -44.2683 103.3452 -62.1338 -12.7074 -3.0330 0.9150 0.0000 0.0000 30.8867 0.0000 0.0000 -6.3353 -4.1967 -16.0895 8.2598 0.0000 0.0000 12.9639 0.0000 0.0000 2.5960 -0.0624 7.5267 4.3307 0.0000 0.0000 1.3182 0.0000 0.0000 -7.2319 -0.9363 6.9446 8.1199 0.0000 0.0000 5.4999 0.0000 0.0000 -21.4207 -2.7833 10.9253 13.2730 0.0000 0.0000 5.5790 0.0000 0.0000 0.0000 0.0000 0.0000 0.0000 0.0000 0.0000 0.0000 0.0000 0.0000 0.0000 0.0000 0.0000 0.0000 0.0000 0.0000 0.0000 0.0000 0.0000
0.0000 95.0000 0.0000 0.0000 0.0000 0.0000 0.0000 0.0000 0.0000 0.0000 0.0000 0.0000 0.0000 0.0000 0.0000 0.0000 0.0000 0.0000 0.0000 0.0000 0.0000 0.0000 0.0000 0.0000 -76.9914 12.2066 15.3147 -12.9233 0.8288 2.8053 -48.5298 55.3012 -61.5301 49.7713 -6.3208 20.3998 9.4751 0.0000 0.0000 13.4540 0.0000 0.0000 -5.4521 -0.8735 8.3766 6.5095 0.0000 0.0000 19.9868 0.0000 0.0000 3.3440 -0.0952 -1.5103 148.0727 0.0000 0.0000 19.7086 0.0000 0.0000 15.1052 -0.8643 -3.1252 150.3404 0.0000 0.0000 16.5047 0.0000 0.0000 28.0843 -2.0333 0.2611 139.7384 0.0000 0.0000 24.7503 0.0000 0.0000 0.0000 0.0000 0.0000 90.4984 -21.1951 21.0156 -148.5386 48.1640 -57.6748 -106.1828 -45.0982 102.3168 -61.5222 -12.6564 -2.3364 1.7076 0.0000 0.0000 28.7595 0.0000 0.0000 0.5764 -1.0565 -6.1094 7.4350 0.0000 0.0000 7.8101 0.0000 0.0000 4.9024 -0.2331 10.2142 6.6694 0.0000 0.0000 0.9273 0.0000 0.0000 -5.9230 -1.1275 9.0354 10.1782 0.0000 0.0000 6.9624 0.0000 0.0000 -19.5958 -2.9617 11.9666 16.1462 0.0000 0.0000 10.1459 0.0000 0.0000 0.0000 0.0000 0.0000 0.0000 0.0000 0.0000 0.0000 0.0000 0.0000 0.0000 0.0000 0.0000 0.0000 0.0000 0.0000 0.0000 0.0000 0.0000
0.0000 95.0000 0.0000 0.0000 0.0000 0.0000 0.0000 0.0000 0.0000 0.0000 0.0000 0.0000 0.0000 0.0000 0.0000 0.0000 0.0000 0.0000 0.0000 0.0000 0.0000 0.0000 0.0000 0.0000 -77.2239 12.0360 15.0396 -13.1046 1.5169 1.7294 -46.4459 54.9869 -58.7551 49.7713 -6.3208 20.3998 9.4751 0.0000 0.0000 13.4540 0.0000 0.0000 -5.4521 -0.8735 8.3766 6.5095 0.0000 0.0000 19.9868 0.0000 0.0000 3.3440 -0.0952 -1.5103 148.0727 0.0000 0.0000 19.7086 0.0000 0.0000 15.1052 -0.8643 -3.1252 150.3404 0.0000 0.0000 16.5047 0.0000 0.0000 28.0843 -2.0333 0.2611 139.7384 0.0000 0.0000 24.7503 0.0000 0.0000 0.0000 0.0000 0.0000 89.1956 -21.0636 21.3546 -146.6633 51.1661 -57.2139 -104.3629 -52.2954 102.4512 -58.3103 -13.1303 6.1294 5.0758 0.0000 0.0000 20.3604 0.0000 0.0000 9.5330 1.9593 15.8209 5.7452 0.0000 0.0000 3.3792 0.0000 0.0000 1.3898 -0.1948 20.7322 8.2837 0.0000 0.0000 0.5276 0.0000 0.0000 -7.5586 -1.9252 20.3258 17.6144 0.0000 0.0000 11.9950 0.0000 0.0000 -19.9721 -3.9708 20.2262 19.8354 0.0000 0.0000 14.7958 0.0000 0.0000 0.0000 0.0000 0.0000 0.0000 0.0000 0.0000 0.0000 0.0000 0.0000 0.0000 0.0000 0.0000 0.0000 0.0000 0.0000 0.0000 0.0000 0.0000
0.0000 95.0000 0.0000 0.0000 0.0000 0.0000 0.0000 0.0000 0.0000 0.0000 0.0000 0.0000 0.0000 0.0000 0.0000 0.0000 0.0000 0.0000 0.0000 0.0000 0.0000 0.0000 0.0000 0.0000 -77.1421 12.0359 15.0612 -13.9754 2.4304 0.5717 -44.0693 55.0086 -55.8990 49.7713 -6.3208 20.3998 9.4751 0.0000 0.0000 13.4540 0.0000 0.0000 -5.4521 -0.8735 8.3766 6.5095 0.0000 0.0000 19.9868 0.0000 0.0000 3.3440 -0.0952 -1.5103 148.0727 0.0000 0.0000 19.7086 0.0000 0.0000 15.1052 -0.8643 -3.1252 150.3404 0.0000 0.0000 16.5047 0.0000 0.0000 28.0843 -2.0333 0.2611 139.7384 0.0000 0.0000 24.7503 0.0000 0.0000 0.0000 0.0000 0.0000 87.4318 -20.8121 21.7442 -144.3234 55.7020 -56.6969 -85.0791 -53.6910 83.3300 -60.3849 -13.5719 7.8829 5.0328 0.0000 0.0000 16.1813 0.0000 0.0000 5.5823 2.6929 18.4998 5.1842 0.0000 0.0000 3.8159 0.0000 0.0000 -4.1602 0.6038 21.2802 9.8057 0.0000 0.0000 3.4641 0.0000 0.0000 -12.5437 -1.3636 22.0327 21.6026 0.0000 0.0000 17.5844 0.0000 0.0000 -24.5155 -3.6934 22.7396 23.9489 0.0000 0.0000 21.5064 0.0000 0.0000 0.0000 0.0000 0.0000 0.0000 0.0000 0.0000 0.0000 0.0000 0.0000 0.0000 0.0000 0.0000 0.0000 0.0000 0.0000 0.0000 0.0000 0.0000
0.0000 95.0000 0.0000 0.0000 0.0000 0.0000 0.0000 0.0000 0.0000 0.0000 0.0000 0.0000 0.0000 0.0000 0.0000 0.0000 0.0000 0.0000 0.0000 0.0000 0.0000 0.0000 0.0000 0.0000 -77.8396 10.9396 13.5261 -14.1778 3.4262 -1.3815 -39.5669 53.5480 -49.5187 49.7713 -6.3208 20.3998 9.4751 0.0000 0.0000 13.4540 0.0000 0.0000 -5.4521 -0.8735 8.3766 6.5095 0.0000 0.0000 19.9868 0.0000 0.0000 3.3440 -0.0952 -1.5103 148.0727 0.0000 0.0000 19.7086 0.0000 0.0000 15.1052 -0.8643 -3.1252 150.3404 0.0000 0.0000 16.5047 0.0000 0.0000 28.0843 -2.0333 0.2611 139.7384 0.0000 0.0000 24.7503 0.0000 0.0000 0.0000 0.0000 0.0000 86.0466 -20.5275 21.9606 -141.0846 60.2974 -55.4320 -53.5694 -58.5830 55.3874 -67.2755 -14.8507 19.2867 6.7116 0.0000 0.0000 18.0585 0.0000 0.0000 -0.6432 5.5255 29.3222 7.0240 0.0000 0.0000 4.3655 0.0000 0.0000 -11.8778 2.9471 32.5514 14.5870 0.0000 0.0000 5.3024 0.0000 0.0000 -20.6657 0.2920 34.6269 27.5955 0.0000 0.0000 20.2886 0.0000 0.0000 -33.9512 -2.4852 36.0461 25.4003 0.0000 0.0000 23.8080 0.0000 0.0000 0.0000 0.0000 0.0000 0.0000 0.0000 0.0000 0.0000 0.0000 0.0000 0.0000 0.0000 0.0000 0.0000 0.0000 0.0000 0.0000 0.0000 0.0000
0.0000 95.0000 0.0000 0.0000 0.0000 0.0000 0.0000 0.0000 0.0000 0.0000 0.0000 0.0000 0.0000 0.0000 0.0000 0.0000 0.0000 0.0000 0.0000 0.0000 0.0000 0.0000 0.0000 0.0000 -77.8724 9.7478 12.0496 -15.4908 5.4854 -4.9570 -33.5862 50.9645 -40.7627 49.7713 -6.3208 20.3998 9.4751 0.0000 0.0000 13.4540 0.0000 0.0000 -5.4521 -0.8735 8.3766 6.5095 0.0000 0.0000 19.9868 0.0000 0.0000 3.3440 -0.0952 -1.5103 148.0727 0.0000 0.0000 19.7086 0.0000 0.0000 15.1052 -0.8643 -3.1252 150.3404 0.0000 0.0000 16.5047 0.0000 0.0000 28.0843 -2.0333 0.2611 139.7384 0.0000 0.0000 24.7503 0.0000 0.0000 0.0000 0.0000 0.0000 84.7284 -19.8296 21.7000 -129.9601 68.5783 -48.5892 20.2759 -40.0483 -11.7119 -93.1438 -9.0155 52.9959 13.6628 0.0000 0.0000 21.5854 0.0000 0.0000 -11.1495 19.5914 65.3032 14.7231 0.0000 0.0000 14.5756 0.0000 0.0000 -24.7096 15.8878 69.7720 27.4186 0.0000 0.0000 24.1186 0.0000 0.0000 -33.6836 11.3895 75.5202 31.5843 0.0000 0.0000 26.1403 0.0000 0.0000 -44.3576 4.9506 79.2423 27.1518 0.0000 0.0000 17.8849 0.0000 0.0000 0.0000 0.0000 0.0000 0.0000 0.0000 0.0000 0.0000 0.0000 0.0000 0.0000 0.0000 0.0000 0.0000 0.0000 0.0000 0.0000 0.0000 0.0000
0.0000 95.0000 0.0000 0.0000 0.0000 0.0000 0.0000 0.0000 0.0000 0.0000 0.0000 0.0000 0.0000 0.0000 0.0000 0.0000 0.0000 0.0000 0.0000 0.0000 0.0000 0.0000 0.0000 0.0000 -78.0081 8.6212 10.6343 -16.1221 6.5719 -7.1869 -30.2641 48.6809 -35.3574 49.7713 -6.3208 20.3998 9.4751 0.0000 0.0000 13.4540 0.0000 0.0000 -5.4521 -0.8735 8.3766 6.5095 0.0000 0.0000 19.9868 0.0000 0.0000 3.3440 -0.0952 -1.5103 148.0727 0.0000 0.0000 19.7086 0.0000 0.0000 15.1052 -0.8643 -3.1252 150.3404 0.0000 0.0000 16.5047 0.0000 0.0000 28.0843 -2.0333 0.2611 139.7384 0.0000 0.0000 24.7503 0.0000 0.0000 0.0000 0.0000 0.0000 84.4305 -18.7960 20.6784 -114.2799 74.8743 -36.1840 -31.0894 -20.7589 29.8981 -80.5500 -15.7752 5.8538 10.3719 0.0000 0.0000 13.2281 0.0000 0.0000 15.1638 1.8321 24.2898 35.0629 0.0000 0.0000 47.1901 0.0000 0.0000 -1.1392 0.1310 17.8954 70.7679 0.0000 0.0000 40.8594 0.0000 0.0000 -16.0471 -0.8828 17.4387 68.8195 0.0000 0.0000 21.6328 0.0000 0.0000 -17.8508 -3.2216 13.3674 67.6610 0.0000 0.0000 13.3761 0.0000 0.0000 0.0000 0.0000 0.0000 0.0000 0.0000 0.0000 0.0000 0.0000 0.0000 0.0000 0.0000 0.0000 0.0000 0.0000 0.0000 0.0000 0.0000 0.0000
0.0000 95.0000 0.0000 0.0000 0.0000 0.0000 0.0000 0.0000 0.0000 0.0000 0.0000 0.0000 0.0000 0.0000 0.0000 0.0000 0.0000 0.0000 0.0000 0.0000 0.0000 0.0000 0.0000 0.0000 -78.3795 6.0712 7.4432 -16.2942 7.1974 -9.3268 -26.9202 44.7720 -28.7320 49.7713 -6.3208 20.3998 9.4751 0.0000 0.0000 13.4540 0.0000 0.0000 -5.4521 -0.8735 8.3766 6.5095 0.0000 0.0000 19.9868 0.0000 0.0000 3.3440 -0.0952 -1.5103 148.0727 0.0000 0.0000 19.7086 0.0000 0.0000 15.1052 -0.8643 -3.1252 150.3404 0.0000 0.0000 16.5047 0.0000 0.0000 28.0843 -2.0333 0.2611 139.7384 0.0000 0.0000 24.7503 0.0000 0.0000 0.0000 0.0000 0.0000 84.1945 -17.1370 18.9361 -43.3307 76.5869 26.0575 -46.4688 -38.4686 25.4263 -61.9292 -14.8632 19.7520 13.3561 0.0000 0.0000 41.6539 0.0000 0.0000 1.1857 3.1821 18.2622 2.6493 0.0000 0.0000 18.5120 0.0000 0.0000 -7.3973 1.8931 33.4459 19.3767 0.0000 0.0000 30.6016 0.0000 0.0000 -20.1564 0.2772 37.5473 30.9766 0.0000 0.0000 21.1882 0.0000 0.0000 -36.2754 -1.8008 41.0518 26.1181 0.0000 0.0000 18.8201 0.0000 0.0000 0.0000 0.0000 0.0000 0.0000 0.0000 0.0000 0.0000 0.0000 0.0000 0.0000 0.0000 0.0000 0.0000 0.0000 0.0000 0.0000 0.0000 0.0000
0.0000 95.0000 0.0000 0.0000 0.0000 0.0000 0.0000 0.0000 0.0000 0.0000 0.0000 0.0000 0.0000 0.0000 0.0000 0.0000 0.0000 0.0000 0.0000 0.0000 0.0000 0.0000 0.0000 0.0000 -78.3377 4.0398 4.9577 -15.5109 6.3981 -8.8336 -26.9705 42.7945 -27.1914 49.7713 -6.3208 20.3998 9.4751 0.0000 0.0000 13.4540 0.0000 0.0000 -5.4521 -0.8735 8.3766 6.5095 0.0000 0.0000 19.9868 0.0000 0.0000 3.3440 -0.0952 -1.5103 148.0727 0.0000 0.0000 19.7086 0.0000 0.0000 15.1052 -0.8643 -3.1252 150.3404 0.0000 0.0000 16.5047 0.0000 0.0000 28.0843 -2.0333 0.2611 139.7384 0.0000 0.0000 24.7503 0.0000 0.0000 0.0000 0.0000 0.0000 83.7403 -15.2676 17.0093 -10.2835 63.7844 49.0937 55.4991 30.7931 35.5530 -106.1260 -12.8686 26.9833 40.1091 0.0000 0.0000 31.8718 0.0000 0.0000 -19.7597 3.1525 11.1299 90.2581 0.0000 0.0000 23.7803 0.0000 0.0000 -27.0001 2.2369 14.0701 97.7025 0.0000 0.0000 24.9773 0.0000 0.0000 -30.1120 0.2278 15.3180 102.7389 0.0000 0.0000 23.1014 0.0000 0.0000 -32.9312 -2.5247 14.2516 90.5866 0.0000 0.0000 20.6254 0.0000 0.0000 0.0000 0.0000 0.0000 0.0000 0.0000 0.0000 0.0000 0.0000 0.0000 0.0000 0.0000 0.0000 0.0000 0.0000 0.0000 0.0000 0.0000 0.0000
0.0000 95.0000 0.0000 0.0000 0.0000 0.0000 0.0000 0.0000 0.0000 0.0000 0.0000 0.0000 0.0000 0.0000 0.0000 0.0000 0.0000 0.0000 0.0000 0.0000 0.0000 0.0000 0.0000 0.0000 -78.2474 2.3448 2.8827 -14.5531 3.9089 -5.4039 -28.6966 43.3796 -29.4630 49.7713 -6.3208 20.3998 9.4751 0.0000 0.0000 13.4540 0.0000 0.0000 -5.4521 -0.8735 8.3766 6.5095 0.0000 0.0000 19.9868 0.0000 0.0000 3.3440 -0.0952 -1.5103 148.0727 0.0000 0.0000 19.7086 0.0000 0.0000 15.1052 -0.8643 -3.1252 150.3404 0.0000 0.0000 16.5047 0.0000 0.0000 28.0843 -2.0333 0.2611 139.7384 0.0000 0.0000 24.7503 0.0000 0.0000 0.0000 0.0000 0.0000 84.9116 -11.5491 12.6149 2.6852 45.9039 47.3043 56.0428 56.5813 43.1535 -106.1260 -12.8686 26.9833 40.1091 0.0000 0.0000 31.8718 0.0000 0.0000 -19.7597 3.1525 11.1299 90.2581 0.0000 0.0000 23.7803 0.0000 0.0000 -27.0001 2.2369 14.0701 97.7025 0.0000 0.0000 24.9773 0.0000 0.0000 -30.1120 0.2278 15.3180 102.7389 0.0000 0.0000 23.1014 0.0000 0.0000 -32.9312 -2.5247 14.2516 90.5866 0.0000 0.0000 20.6254 0.0000 0.0000 0.0000 0.0000 0.0000 0.0000 0.0000 0.0000 0.0000 0.0000 0.0000 0.0000 0.0000 0.0000 0.0000 0.0000 0.0000 0.0000 0.0000 0.0000
0.0000 95.0000 0.0000 0.0000 0.0000 0.0000 0.0000 0.0000 0.0000 0.0000 0.0000 0.0000 0.0000 0.0000 0.0000 0.0000 0.0000 0.0000 0.0000 0.0000 0.0000 0.0000 0.0000 0.0000 -77.9451 1.9542 2.4155 -14.3596 0.6885 -0.3733 -32.0070 46.4823 -35.5145 49.7713 -6.3208 20.3998 9.4751 0.0000 0.0000 13.4540 0.0000 0.0000 -5.4521 -0.8735 8.3766 6.5095 0.0000 0.0000 19.9868 0.0000 0.0000 3.3440 -0.0952 -1.5103 148.0727 0.0000 0.0000 19.7086 0.0000 0.0000 15.1052 -0.8643 -3.1252 150.3404 0.0000 0.0000 16.5047 0.0000 0.0000 28.0843 -2.0333 0.2611 139.7384 0.0000 0.0000 24.7503 0.0000 0.0000 0.0000 0.0000 0.0000 86.8178 -7.2194 7.6308 4.8214 23.8591 26.9708 125.5341 76.5796 129.4576 -106.1260 -12.8686 26.9833 40.1091 0.0000 0.0000 31.8718 0.0000 0.0000 -19.7597 3.1525 11.1299 90.2581 0.0000 0.0000 23.7803 0.0000 0.0000 -27.0001 2.2369 14.0701 97.7025 0.0000 0.0000 24.9773 0.0000 0.0000 -30.1120 0.2278 15.3180 102.7389 0.0000 0.0000 23.1014 0.0000 0.0000 -32.9312 -2.5247 14.2516 90.5866 0.0000 0.0000 20.6254 0.0000 0.0000 0.0000 0.0000 0.0000 0.0000 0.0000 0.0000 0.0000 0.0000 0.0000 0.0000 0.0000 0.0000 0.0000 0.0000 0.0000 0.0000 0.0000 0.0000
0.0000 95.0000 0.0000 0.0000 0.0000 0.0000 0.0000 0.0000 0.0000 0.0000 0.0000 0.0000 0.0000 0.0000 0.0000 0.0000 0.0000 0.0000 0.0000 0.0000 0.0000 0.0000 0.0000 0.0000 -77.8721 1.3383 1.6564 -14.1367 -0.7410 1.6873 -33.3570 47.1824 -37.5572 49.7713 -6.3208 20.3998 9.4751 0.0000 0.0000 13.4540 0.0000 0.0000 -5.4521 -0.8735 8.3766 6.5095 0.0000 0.0000 19.9868 0.0000 0.0000 3.3440 -0.0952 -1.5103 148.0727 0.0000 0.0000 19.7086 0.0000 0.0000 15.1052 -0.8643 -3.1252 150.3404 0.0000 0.0000 16.5047 0.0000 0.0000 28.0843 -2.0333 0.2611 139.7384 0.0000 0.0000 24.7503 0.0000 0.0000 0.0000 0.0000 0.0000 87.9241 -4.2523 4.4090 2.9470 14.5443 15.8879 153.5734 66.1258 168.9256 -106.1260 -12.8686 26.9833 40.1091 0.0000 0.0000 31.8718 0.0000 0.0000 -19.7597 3.1525 11.1299 90.2581 0.0000 0.0000 23.7803 0.0000 0.0000 -27.0001 2.2369 14.0701 97.7025 0.0000 0.0000 24.9773 0.0000 0.0000 -30.1120 0.2278 15.3180 102.7389 0.0000 0.0000 23.1014 0.0000 0.0000 -32.9312 -2.5247 14.2516 90.5866 0.0000 0.0000 20.6254 0.0000 0.0000 0.0000 0.0000 0.0000 0.0000 0.0000 0.0000 0.0000 0.0000 0.0000 0.0000 0.0000 0.0000 0.0000 0.0000 0.0000 0.0000 0.0000 0.0000
0.0000 95.0000 0.0000 0.0000 0.0000 0.0000 0.0000 0.0000 0.0000 0.0000 0.0000 0.0000 0.0000 0.0000 0.0000 0.0000 0.0000 0.0000 0.0000 0.0000 0.0000 0.0000 0.0000 0.0000 -78.2246 0.6475 0.7964 -13.3617 -1.9356 3.2672 -34.5053 47.3866 -38.9984 49.7713 -6.3208 20.3998 9.4751 0.0000 0.0000 13.4540 0.0000 0.0000 -5.4521 -0.8735 8.3766 6.5095 0.0000 0.0000 19.9868 0.0000 0.0000 3.3440 -0.0952 -1.5103 148.0727 0.0000 0.0000 19.7086 0.0000 0.0000 15.1052 -0.8643 -3.1252 150.3404 0.0000 0.0000 16.5047 0.0000 0.0000 28.0843 -2.0333 0.2611 139.7384 0.0000 0.0000 24.7503 0.0000 0.0000 0.0000 0.0000 0.0000 88.5363 -2.2757 2.3346 0.8641 12.1416 12.6114 153.2216 61.4090 173.6378 -106.1260 -12.8686 26.9833 40.1091 0.0000 0.0000 31.8718 0.0000 0.0000 -19.7597 3.1525 11.1299 90.2581 0.0000 0.0000 23.7803 0.0000 0.0000 -27.0001 2.2369 14.0701 97.7025 0.0000 0.0000 24.9773 0.0000 0.0000 -30.1120 0.2278 15.3180 102.7389 0.0000 0.0000 23.1014 0.0000 0.0000 -32.9312 -2.5247 14.2516 90.5866 0.0000 0.0000 20.6254 0.0000 0.0000 0.0000 0.0000 0.0000 0.0000 0.0000 0.0000 0.0000 0.0000 0.0000 0.0000 0.0000 0.0000 0.0000 0.0000 0.0000 0.0000 0.0000 0.0000
0.0000 95.0000 0.0000 0.0000 0.0000 0.0000 0.0000 0.0000 0.0000 0.0000 0.0000 0.0000 0.0000 0.0000 0.0000 0.0000 0.0000 0.0000 0.0000 0.0000 0.0000 0.0000 0.0000 0.0000 -78.4661 0.3847 0.4712 -12.7606 -2.6447 4.2178 -35.4971 47.5602 -40.2518 49.7713 -6.3208 20.3998 9.4751 0.0000 0.0000 13.4540 0.0000 0.0000 -5.4521 -0.8735 8.3766 6.5095 0.0000 0.0000 19.9868 0.0000 0.0000 3.3440 -0.0952 -1.5103 148.0727 0.0000 0.0000 19.7086 0.0000 0.0000 15.1052 -0.8643 -3.1252 150.3404 0.0000 0.0000 16.5047 0.0000 0.0000 28.0843 -2.0333 0.2611 139.7384 0.0000 0.0000 24.7503 0.0000 0.0000 0.0000 0.0000 0.0000 88.7489 -1.8095 1.8494 -0.4572 11.6433 11.7459 151.5053 60.3007 173.4308 -106.1260 -12.8686 26.9833 40.1091 0.0000 0.0000 31.8718 0.0000 0.0000 -19.7597 3.1525 11.1299 90.2581 0.0000 0.0000 23.7803 0.0000 0.0000 -27.0001 2.2369 14.0701 97.7025 0.0000 0.0000 24.9773 0.0000 0.0000 -30.1120 0.2278 15.3180 102.7389 0.0000 0.0000 23.1014 0.0000 0.0000 -32.9312 -2.5247 14.2516 90.5866 0.0000 0.0000 20.6254 0.0000 0.0000 0.0000 0.0000 0.0000 0.0000 0.0000 0.0000 0.0000 0.0000 0.0000 0.0000 0.0000 0.0000 0.0000 0.0000 0.0000 0.0000 0.0000 0.0000
0.0000 95.0000 0.0000 0.0000 0.0000 0.0000 0.0000 0.0000 0.0000 0.0000 0.0000 0.0000 0.0000 0.0000 0.0000 0.0000 0.0000 0.0000 0.0000 0.0000 0.0000 0.0000 0.0000 0.0000 -78.8639 0.1041 0.1266 -11.8863 -3.2074 4.8767 -36.3830 47.4611 -41.1787 49.7713 -6.3208 20.3998 9.4751 0.0000 0.0000 13.4540 0.0000 0.0000 -5.4521 -0.8735 8.3766 6.5095 0.0000 0.0000 19.9868 0.0000 0.0000 3.3440 -0.0952 -1.5103 148.0727 0.0000 0.0000 19.7086 0.0000 0.0000 15.1052 -0.8643 -3.1252 150.3404 0.0000 0.0000 16.5047 0.0000 0.0000 28.0843 -2.0333 0.2611 139.7384 0.0000 0.0000 24.7503 0.0000 0.0000 0.0000 0.0000 0.0000 89.0843 -1.0634 1.0805 -1.2235 11.4790 11.3721 150.9532 59.3136 174.0471 -106.1260 -12.8686 26.9833 40.1091 0.0000 0.0000 31.8718 0.0000 0.0000 -19.7597 3.1525 11.1299 90.2581 0.0000 0.0000 23.7803 0.0000 0.0000 -27.0001 2.2369 14.0701 97.7025 0.0000 0.0000 24.9773 0.0000 0.0000 -30.1120 0.2278 15.3180 102.7389 0.0000 0.0000 23.1014 0.0000 0.0000 -32.9312 -2.5247 14.2516 90.5866 0.0000 0.0000 20.6254 0.0000 0.0000 0.0000 0.0000 0.0000 0.0000 0.0000 0.0000 0.0000 0.0000 0.0000 0.0000 0.0000 0.0000 0.0000 0.0000 0.0000 0.0000 0.0000 0.0000
0.0000 95.0000 0.0000 0.0000 0.0000 0.0000 0.0000 0.0000 0.0000 0.0000 0.0000 0.0000 0.0000 0.0000 0.0000 0.0000 0.0000 0.0000 0.0000 0.0000 0.0000 0.0000 0.0000 0.0000 -78.4054 0.6359 0.7796 -11.6454 -3.1588 4.9752 -37.7939 47.4913 -42.8214 49.7713 -6.3208 20.3998 9.4751 0.0000 0.0000 13.4540 0.0000 0.0000 -5.4521 -0.8735 8.3766 6.5095 0.0000 0.0000 19.9868 0.0000 0.0000 3.3440 -0.0952 -1.5103 148.0727 0.0000 0.0000 19.7086 0.0000 0.0000 15.1052 -0.8643 -3.1252 150.3404 0.0000 0.0000 16.5047 0.0000 0.0000 28.0843 -2.0333 0.2611 139.7384 0.0000 0.0000 24.7503 0.0000 0.0000 0.0000 0.0000 0.0000 89.1798 -0.6141 0.6230 -1.2622 11.1159 11.0055 151.3350 58.5240 175.1986 -106.1260 -12.8686 26.9833 40.1091 0.0000 0.0000 31.8718 0.0000 0.0000 -19.7597 3.1525 11.1299 90.2581 0.0000 0.0000 23.7803 0.0000 0.0000 -27.0001 2.2369 14.0701 97.7025 0.0000 0.0000 24.9773 0.0000 0.0000 -30.1120 0.2278 15.3180 102.7389 0.0000 0.0000 23.1014 0.0000 0.0000 -32.9312 -2.5247 14.2516 90.5866 0.0000 0.0000 20.6254 0.0000 0.0000 0.0000 0.0000 0.0000 0.0000 0.0000 0.0000 0.0000 0.0000 0.0000 0.0000 0.0000 0.0000 0.0000 0.0000 0.0000 0.0000 0.0000 0.0000
0.0000 95.0000 0.0000 0.0000 0.0000 0.0000 0.0000 0.0000 0.0000 0.0000 0.0000 0.0000 0.0000 0.0000 0.0000 0.0000 0.0000 0.0000 0.0000 0.0000 0.0000 0.0000 0.0000 0.0000 -78.4880 0.0466 0.0570 -11.0965 -3.8911 5.8451 -38.5369 47.2447 -43.4869 49.7713 -6.3208 20.3998 9.4751 0.0000 0.0000 13.4540 0.0000 0.0000 -5.4521 -0.8735 8.3766 6.5095 0.0000 0.0000 19.9868 0.0000 0.0000 3.3440 -0.0952 -1.5103 148.0727 0.0000 0.0000 19.7086 0.0000 0.0000 15.1052 -0.8643 -3.1252 150.3404 0.0000 0.0000 16.5047 0.0000 0.0000 28.0843 -2.0333 0.2611 139.7384 0.0000 0.0000 24.7503 0.0000 0.0000 0.0000 0.0000 0.0000 89.4197 0.0671 -0.0678 -1.7925 11.4297 11.1953 150.7638 58.1086 175.1936 -106.1260 -12.8686 26.9833 40.1091 0.0000 0.0000 31.8718 0.0000 0.0000 -19.7597 3.1525 11.1299 90.2581 0.0000 0.0000 23.7803 0.0000 0.0000 -27.0001 2.2369 14.0701 97.7025 0.0000 0.0000 24.9773 0.0000 0.0000 -30.1120 0.2278 15.3180 102.7389 0.0000 0.0000 23.1014 0.0000 0.0000 -32.9312 -2.5247 14.2516 90.5866 0.0000 0.0000 20.6254 0.0000 0.0000 0.0000 0.0000 0.0000 0.0000 0.0000 0.0000 0.0000 0.0000 0.0000 0.0000 0.0000 0.0000 0.0000 0.0000 0.0000 0.0000 0.0000 0.0000
0.0000 95.0000 0.0000 0.0000 0.0000 0.0000 0.0000 0.0000 0.0000 0.0000 0.0000 0.0000 0.0000 0.0000 0.0000 0.0000 0.0000 0.0000 0.0000 0.0000 0.0000 0.0000 0.0000 0.0000 -78.2361 -0.2570 -0.3160 -11.0538 -3.9058 5.8083 -38.5102 46.7953 -43.0982 49.7713 -6.3208 20.3998 9.4751 0.0000 0.0000 13.4540 0.0000 0.0000 -5.4521 -0.8735 8.3766 6.5095 0.0000 0.0000 19.9868 0.0000 0.0000 3.3440 -0.0952 -1.5103 148.0727 0.0000 0.0000 19.7086 0.0000 0.0000 15.1052 -0.8643 -3.1252 150.3404 0.0000 0.0000 16.5047 0.0000 0.0000 28.0843 -2.0333 0.2611 139.7384 0.0000 0.0000 24.7503 0.0000 0.0000 0.0000 0.0000 0.0000 90.0249 0.2263 -0.2262 -2.4302 11.6425 11.1707 150.6810 58.0480 175.1935 -106.1260 -12.8686 26.9833 40.1091 0.0000 0.0000 31.8718 0.0000 0.0000 -19.7597 3.1525 11.1299 90.2581 0.0000 0.0000 23.7803 0.0000 0.0000 -27.0001 2.2369 14.0701 97.7025 0.0000 0.0000 24.9773 0.0000 0.0000 -30.1120 0.2278 15.3180 102.7389 0.0000 0.0000 23.1014 0.0000 0.0000 -32.9312 -2.5247 14.2516 90.5866 0.0000 0.0000 20.6254 0.0000 0.0000 0.0000 0.0000 0.0000 0.0000 0.0000 0.0000 0.0000 0.0000 0.0000 0.0000 0.0000 0.0000 0.0000 0.0000 0.0000 0.0000 0.0000 0.0000
0.0000 95.0000 0.0000 0.0000 0.0000 0.0000 0.0000 0.0000 0.0000 0.0000 0.0000 0.0000 0.0000 0.0000 0.0000 0.0000 0.0000 0.0000 0.0000 0.0000 0.0000 0.0000 0.0000 0.0000 -77.9828 0.0235 0.0290 -10.6759 -4.4185 6.6388 -40.2723 47.0497 -45.3672 49.7713 -6.3208 20.3998 9.4751 0.0000 0.0000 13.4540 0.0000 0.0000 -5.4521 -0.8735 8.3766 6.5095 0.0000 0.0000 19.9868 0.0000 0.0000 3.3440 -0.0952 -1.5103 148.0727 0.0000 0.0000 19.7086 0.0000 0.0000 15.1052 -0.8643 -3.1252 150.3404 0.0000 0.0000 16.5047 0.0000 0.0000 28.0843 -2.0333 0.2611 139.7384 0.0000 0.0000 24.7503 0.0000 0.0000 0.0000 0.0000 0.0000 90.5714 0.5881 -0.5823 -3.0013 11.1846 10.5511 150.9599 57.1860 176.3381 -106.1260 -12.8686 26.9833 40.1091 0.0000 0.0000 31.8718 0.0000 0.0000 -19.7597 3.1525 11.1299 90.2581 0.0000 0.0000 23.7803 0.0000 0.0000 -27.0001 2.2369 14.0701 97.7025 0.0000 0.0000 24.9773 0.0000 0.0000 -30.1120 0.2278 15.3180 102.7389 0.0000 0.0000 23.1014 0.0000 0.0000 -32.9312 -2.5247 14.2516 90.5866 0.0000 0.0000 20.6254 0.0000 0.0000 0.0000 0.0000 0.0000 0.0000 0.0000 0.0000 0.0000 0.0000 0.0000 0.0000 0.0000 0.0000 0.0000 0.0000 0.0000 0.0000 0.0000 0.0000
0.0000 95.0000 0.0000 0.0000 0.0000 0.0000 0.0000 0.0000 0.0000 0.0000 0.0000 0.0000 0.0000 0.0000 0.0000 0.0000 0.0000 0.0000 0.0000 0.0000 0.0000 0.0000 0.0000 0.0000 -77.7744 0.0879 0.1089 -10.6645 -4.6609 7.0451 -40.9611 47.1591 -46.2710 49.7713 -6.3208 20.3998 9.4751 0.0000 0.0000 13.4540 0.0000 0.0000 -5.4521 -0.8735 8.3766 6.5095 0.0000 0.0000 19.9868 0.0000 0.0000 3.3440 -0.0952 -1.5103 148.0727 0.0000 0.0000 19.7086 0.0000 0.0000 15.1052 -0.8643 -3.1252 150.3404 0.0000 0.0000 16.5047 0.0000 0.0000 28.0843 -2.0333 0.2611 139.7384 0.0000 0.0000 24.7503 0.0000 0.0000 0.0000 0.0000 0.0000 90.9558 0.8494 -0.8354 -3.2154 11.2742 10.5453 151.2871 56.9735 176.8188 -106.1260 -12.8686 26.9833 40.1091 0.0000 0.0000 31.8718 0.0000 0.0000 -19.7597 3.1525 11.1299 90.2581 0.0000 0.0000 23.7803 0.0000 0.0000 -27.0001 2.2369 14.0701 97.7025 0.0000 0.0000 24.9773 0.0000 0.0000 -30.1120 0.2278 15.3180 102.7389 0.0000 0.0000 23.1014 0.0000 0.0000 -32.9312 -2.5247 14.2516 90.5866 0.0000 0.0000 20.6254 0.0000 0.0000 0.0000 0.0000 0.0000 0.0000 0.0000 0.0000 0.0000 0.0000 0.0000 0.0000 0.0000 0.0000 0.0000 0.0000 0.0000 0.0000 0.0000 0.0000
0.0000 95.0000 0.0000 0.0000 0.0000 0.0000 0.0000 0.0000 0.0000 0.0000 0.0000 0.0000 0.0000 0.0000 0.0000 0.0000 0.0000 0.0000 0.0000 0.0000 0.0000 0.0000 0.0000 0.0000 -77.7541 0.0917 0.1138 -10.8060 -4.8502 7.3535 -41.1310 47.4009 -46.6645 49.7713 -6.3208 20.3998 9.4751 0.0000 0.0000 13.4540 0.0000 0.0000 -5.4521 -0.8735 8.3766 6.5095 0.0000 0.0000 19.9868 0.0000 0.0000 3.3440 -0.0952 -1.5103 148.0727 0.0000 0.0000 19.7086 0.0000 0.0000 15.1052 -0.8643 -3.1252 150.3404 0.0000 0.0000 16.5047 0.0000 0.0000 28.0843 -2.0333 0.2611 139.7384 0.0000 0.0000 24.7503 0.0000 0.0000 0.0000 0.0000 0.0000 91.5389 0.5181 -0.5043 -3.8482 11.4048 10.4268 151.1499 57.3066 176.3565 -106.1260 -12.8686 26.9833 40.1091 0.0000 0.0000 31.8718 0.0000 0.0000 -19.7597 3.1525 11.1299 90.2581 0.0000 0.0000 23.7803 0.0000 0.0000 -27.0001 2.2369 14.0701 97.7025 0.0000 0.0000 24.9773 0.0000 0.0000 -30.1120 0.2278 15.3180 102.7389 0.0000 0.0000 23.1014 0.0000 0.0000 -32.9312 -2.5247 14.2516 90.5866 0.0000 0.0000 20.6254 0.0000 0.0000 0.0000 0.0000 0.0000 0.0000 0.0000 0.0000 0.0000 0.0000 0.0000 0.0000 0.0000 0.0000 0.0000 0.0000 0.0000 0.0000 0.0000 0.0000
0.0000 95.0000 0.0000 0.0000 0.0000 0.0000 0.0000 0.0000 0.0000 0.0000 0.0000 0.0000 0.0000 0.0000 0.0000 0.0000 0.0000 0.0000 0.0000 0.0000 0.0000 0.0000 0.0000 0.0000 -78.1287 -0.0800 -0.0986 -10.7222 -4.8240 7.2063 -40.5082 47.4061 -45.9287 49.7713 -6.3208 20.3998 9.4751 0.0000 0.0000 13.4540 0.0000 0.0000 -5.4521 -0.8735 8.3766 6.5095 0.0000 0.0000 19.9868 0.0000 0.0000 3.3440 -0.0952 -1.5103 148.0727 0.0000 0.0000 19.7086 0.0000 0.0000 15.1052 -0.8643 -3.1252 150.3404 0.0000 0.0000 16.5047 0.0000 0.0000 28.0843 -2.0333 0.2611 139.7384 0.0000 0.0000 24.7503 0.0000 0.0000 0.0000 0.0000 0.0000 91.5818 0.2841 -0.2764 -3.7604 11.4192 10.4292 151.3528 57.5348 176.2703 -106.1260 -12.8686 26.9833 40.1091 0.0000 0.0000 31.8718 0.0000 0.0000 -19.7597 3.1525 11.1299 90.2581 0.0000 0.0000 23.7803 0.0000 0.0000 -27.0001 2.2369 14.0701 97.7025 0.0000 0.0000 24.9773 0.0000 0.0000 -30.1120 0.2278 15.3180 102.7389 0.0000 0.0000 23.1014 0.0000 0.0000 -32.9312 -2.5247 14.2516 90.5866 0.0000 0.0000 20.6254 0.0000 0.0000 0.0000 0.0000 0.0000 0.0000 0.0000 0.0000 0.0000 0.0000 0.0000 0.0000 0.0000 0.0000 0.0000 0.0000 0.0000 0.0000 0.0000 0.0000
0.0000 95.0000 0.0000 0.0000 0.0000 0.0000 0.0000 0.0000 0.0000 0.0000 0.0000 0.0000 0.0000 0.0000 0.0000 0.0000 0.0000 0.0000 0.0000 0.0000 0.0000 0.0000 0.0000 0.0000 -78.2503 0.5767 0.7090 -10.8371 -4.8797 7.4593 -41.2227 48.1785 -47.3847 49.7713 -6.3208 20.3998 9.4751 0.0000 0.0000 13.4540 0.0000 0.0000 -5.4521 -0.8735 8.3766 6.5095 0.0000 0.0000 19.9868 0.0000 0.0000 3.3440 -0.0952 -1.5103 148.0727 0.0000 0.0000 19.7086 0.0000 0.0000 15.1052 -0.8643 -3.1252 150.3404 0.0000 0.0000 16.5047 0.0000 0.0000 28.0843 -2.0333 0.2611 139.7384 0.0000 0.0000 24.7503 0.0000 0.0000 0.0000 0.0000 0.0000 91.6702 -0.0129 0.0125 -3.5327 11.1827 10.2151 152.0001 57.5899 176.7138 -106.1260 -12.8686 26.9833 40.1091 0.0000 0.0000 31.8718 0.0000 0.0000 -19.7597 3.1525 11.1299 90.2581 0.0000 0.0000 23.7803 0.0000 0.0000 -27.0001 2.2369 14.0701 97.7025 0.0000 0.0000 24.9773 0.0000 0.0000 -30.1120 0.2278 15.3180 102.7389 0.0000 0.0000 23.1014 0.0000 0.0000 -32.9312 -2.5247 14.2516 90.5866 0.0000 0.0000 20.6254 0.0000 0.0000 0.0000 0.0000 0.0000 0.0000 0.0000 0.0000 0.0000 0.0000 0.0000 0.0000 0.0000 0.0000 0.0000 0.0000 0.0000 0.0000 0.0000 0.0000
