HIERARCHY
ROOT Hips
{
  OFFSET 0.000000 95.000000 0.000000
  CHANNELS 6 Xposition Yposition Zposition Zrotation Xrotation Yrotation
  JOINT Spine
  {
    OFFSET 0.000000 10.000000 0.000000
    CHANNELS 3 Zrotation Xrotation Yrotation
    JOINT Spine1
    {
      OFFSET 0.000000 12.000000 0.000000
      CHANNELS 3 Zrotation Xrotation Yrotation
      JOINT Spine2
      {
        OFFSET 0.000000 12.000000 0.000000
        CHANNELS 3 Zrotation Xrotation Yrotation
        JOINT Neck
        {
          OFFSET 0.000000 10.000000 0.000000
          CHANNELS 3 Zrotation Xrotation Yrotation
          JOINT Head
          {
            OFFSET 0.000000 8.000000 0.000000
            CHANNELS 3 Zrotation Xrotation Yrotation
            End Site
            {
              OFFSET 0.000000 10.000000 0.000000
            }
          }
        }
        JOINT LeftShoulder
        {
          OFFSET 6.000000 8.000000 0.000000
          CHANNELS 3 Zrotation Xrotation Yrotation
          JOINT LeftArm
          {
            OFFSET 12.000000 0.000000 0.000000
            CHANNELS 3 Zrotation Xrotation Yrotation
            JOINT LeftForeArm
            {
              OFFSET 24.000000 0.000000 0.000000
              CHANNELS 3 Zrotation Xrotation Yrotation
              JOINT LeftHand
              {
                OFFSET 22.000000 0.000000 0.000000
                CHANNELS 3 Zrotation Xrotation Yrotation
                JOINT LeftHandThumb1
                {
                  OFFSET 1.800000 -1.400000 0.500000
                  CHANNELS 3 Zrotation Xrotation Yrotation
                  JOINT LeftHandThumb2
                  {
                    OFFSET 2.400000 0.000000 0.000000
                    CHANNELS 3 Zrotation Xrotation Yrotation
                    JOINT LeftHandThumb3
                    {
                      OFFSET 1.900000 0.000000 0.000000
                      CHANNELS 3 Zrotation Xrotation Yrotation
                      End Site
                      {
                        OFFSET 1.600000 0.000000 0.000000
                      }
                    }
                  }
                }
                JOINT LeftHandIndex1
                {
                  OFFSET 6.600000 1.200000 0.300000
                  CHANNELS 3 Zrotation Xrotation Yrotation
                  JOINT LeftHandIndex2
                  {
                    OFFSET 2.000000 0.000000 0.000000
                    CHANNELS 3 Zrotation Xrotation Yrotation
                    JOINT LeftHandIndex3
                    {
                      OFFSET 1.200000 0.000000 0.000000
                      CHANNELS 3 Zrotation Xrotation Yrotation
                      End Site
                      {
                        OFFSET 1.000000 0.000000 0.000000
                      }
                    }
                  }
                }
                JOINT LeftHandMiddle1
                {
                  OFFSET 7.200000 0.000000 0.300000
                  CHANNELS 3 Zrotation Xrotation Yrotation
                  JOINT LeftHandMiddle2
                  {
                    OFFSET 3.000000 0.000000 0.000000
                    CHANNELS 3 Zrotation Xrotation Yrotation
                    JOINT LeftHandMiddle3
                    {
                      OFFSET 2.000000 0.000000 0.000000
                      CHANNELS 3 Zrotation Xrotation Yrotation
                      End Site
                      {
                        OFFSET 1.600000 0.000000 0.000000
                      }
                    }
                  }
                }
                JOINT LeftHandRing1
                {
                  OFFSET 7.100000 -1.000000 0.400000
                  CHANNELS 3 Zrotation Xrotation Yrotation
                  JOINT LeftHandRing2
                  {
                    OFFSET 2.600000 0.000000 0.000000
                    CHANNELS 3 Zrotation Xrotation Yrotation
                    JOINT LeftHandRing3
                    {
                      OFFSET 1.600000 0.000000 0.000000
                      CHANNELS 3 Zrotation Xrotation Yrotation
                      End Site
                      {
                        OFFSET 1.300000 0.000000 0.000000
                      }
                    }
                  }
                }
                JOINT LeftHandPinky1
                {
                  OFFSET 6.500000 -2.000000 0.500000
                  CHANNELS 3 Zrotation Xrotation Yrotation
                  JOINT LeftHandPinky2
                  {
                    OFFSET 1.900000 0.000000 0.000000
                    CHANNELS 3 Zrotation Xrotation Yrotation
                    JOINT LeftHandPinky3
                    {
                      OFFSET 1.400000 0.000000 0.000000
                      CHANNELS 3 Zrotation Xrotation Yrotation
                      End Site
                      {
                        OFFSET 1.300000 0.000000 0.000000
                      }
                    }
                  }
                }
              }
            }
          }
        }
        JOINT RightShoulder
        {
          OFFSET -6.000000 8.000000 0.000000
          CHANNELS 3 Zrotation Xrotation Yrotation
          JOINT RightArm
          {
            OFFSET -12.000000 0.000000 0.000000
            CHANNELS 3 Zrotation Xrotation Yrotation
            JOINT RightForeArm
            {
              OFFSET -24.000000 0.000000 0.000000
              CHANNELS 3 Zrotation Xrotation Yrotation
              JOINT RightHand
              {
                OFFSET -22.000000 0.000000 0.000000
                CHANNELS 3 Zrotation Xrotation Yrotation
                JOINT RightHandThumb1
                {
                  OFFSET -1.800000 -1.400000 0.500000
                  CHANNELS 3 Zrotation Xrotation Yrotation
                  JOINT RightHandThumb2
                  {
                    OFFSET -2.400000 0.000000 0.000000
                    CHANNELS 3 Zrotation Xrotation Yrotation
                    JOINT RightHandThumb3
                    {
                      OFFSET -1.900000 0.000000 0.000000
                      CHANNELS 3 Zrotation Xrotation Yrotation
                      End Site
                      {
                        OFFSET -1.600000 0.000000 0.000000
                      }
                    }
                  }
                }
                JOINT RightHandIndex1
                {
                  OFFSET -6.600000 1.200000 0.300000
                  CHANNELS 3 Zrotation Xrotation Yrotation
                  JOINT RightHandIndex2
                  {
                    OFFSET -2.000000 0.000000 0.000000
                    CHANNELS 3 Zrotation Xrotation Yrotation
                    JOINT RightHandIndex3
                    {
                      OFFSET -1.200000 0.000000 0.000000
                      CHANNELS 3 Zrotation Xrotation Yrotation
                      End Site
                      {
                        OFFSET -1.000000 0.000000 0.000000
                      }
                    }
                  }
                }
                JOINT RightHandMiddle1
                {
                  OFFSET -7.200000 0.000000 0.300000
                  CHANNELS 3 Zrotation Xrotation Yrotation
                  JOINT RightHandMiddle2
                  {
                    OFFSET -3.000000 0.000000 0.000000
                    CHANNELS 3 Zrotation Xrotation Yrotation
                    JOINT RightHandMiddle3
                    {
                      OFFSET -2.000000 0.000000 0.000000
                      CHANNELS 3 Zrotation Xrotation Yrotation
                      End Site
                      {
                        OFFSET -1.600000 0.000000 0.000000
                      }
                    }
                  }
                }
                JOINT RightHandRing1
                {
                  OFFSET -7.100000 -1.000000 0.400000
                  CHANNELS 3 Zrotation Xrotation Yrotation
                  JOINT RightHandRing2
                  {
                    OFFSET -2.600000 0.000000 0.000000
                    CHANNELS 3 Zrotation Xrotation Yrotation
                    JOINT RightHandRing3
                    {
                      OFFSET -1.600000 0.000000 0.000000
                      CHANNELS 3 Zrotation Xrotation Yrotation
                      End Site
                      {
                        OFFSET -1.300000 0.000000 0.000000
                      }
                    }
                  }
                }
                JOINT RightHandPinky1
                {
                  OFFSET -6.500000 -2.000000 0.500000
                  CHANNELS 3 Zrotation Xrotation Yrotation
                  JOINT RightHandPinky2
                  {
                    OFFSET -1.900000 0.000000 0.000000
                    CHANNELS 3 Zrotation Xrotation Yrotation
                    JOINT RightHandPinky3
                    {
                      OFFSET -1.400000 0.000000 0.000000
                      CHANNELS 3 Zrotation Xrotation Yrotation
                      End Site
                      {
                        OFFSET -1.300000 0.000000 0.000000
                      }
                    }
                  }
                }
              }
            }
          }
        }
      }
    }
  }
  JOINT LeftUpLeg
  {
    OFFSET 10.000000 -5.000000 0.000000
    CHANNELS 3 Zrotation Xrotation Yrotation
    JOINT LeftLeg
    {
      OFFSET 0.000000 -42.000000 0.000000
      CHANNELS 3 Zrotation Xrotation Yrotation
      JOINT LeftFoot
      {
        OFFSET 0.000000 -42.000000 4.000000
        CHANNELS 3 Zrotation Xrotation Yrotation
        End Site
        {
          OFFSET 0.000000 0.000000 12.000000
        }
      }
    }
  }
  JOINT RightUpLeg
  {
    OFFSET -10.000000 -5.000000 0.000000
    CHANNELS 3 Zrotation Xrotation Yrotation
    JOINT RightLeg
    {
      OFFSET 0.000000 -42.000000 0.000000
      CHANNELS 3 Zrotation Xrotation Yrotation
      JOINT RightFoot
      {
        OFFSET 0.000000 -42.000000 4.000000
        CHANNELS 3 Zrotation Xrotation Yrotation
        End Site
        {
          OFFSET 0.000000 0.000000 12.000000
        }
      }
    }
  }
}
MOTION
Frames: 60
Frame Time: 0.033333
0.0000 95.0000 0.0000 0.0000 0.0000 0.0000 0.0000 0.0000 0.0000 0.0000 0.0000 0.0000 0.0000 0.0000 0.0000 0.0000 0.0000 0.0000 0.0000 0.0000 0.0000 0.0000 0.0000 0.0000 -76.1191 -0.6462 -0.8253 -15.3502 -4.5318 7.4505 -9.7997 6.8527 -9.6520 57.0565 -11.4553 4.6022 12.2066 0.0000 0.0000 6.8761 0.0000 0.0000 -1.9722 1.3507 -7.7006 24.4955 0.0000 0.0000 12.3566 0.0000 0.0000 4.0504 0.1142 -8.0014 87.3290 0.0000 0.0000 40.9141 0.0000 0.0000 6.3763 -1.0858 -8.6674 105.7689 0.0000 0.0000 38.9986 0.0000 0.0000 12.5820 -2.6833 -9.1963 110.0000 0.0000 0.0000 15.0942 0.0000 0.0000 0.0000 0.0000 0.0000 91.4693 0.8993 -0.8766 -3.7972 7.2292 6.6565 173.2517 -2.3822 -18.2182 -58.8885 -11.6903 -5.8739 33.1197 0.0000 0.0000 19.6039 0.0000 0.0000 19.8988 0.9258 6.8977 110.0000 0.0000 0.0000 13.7568 0.0000 0.0000 10.9126 -0.1347 6.1821 110.0000 0.0000 0.0000 6.5309 0.0000 0.0000 4.0444 -1.0025 6.9679 110.0000 0.0000 0.0000 4.4869 0.0000 0.0000 -2.8054 -1.1026 3.1679 110.0000 0.0000 0.0000 3.7160 0.0000 0.0000 0.0000 0.0000 0.0000 0.0000 0.0000 0.0000 0.0000 0.0000 0.0000 0.0000 0.0000 0.0000 0.0000 0.0000 0.0000 0.0000 0.0000 0.0000
0.0000 95.0000 0.0000 0.0000 0.0000 0.0000 0.0000 0.0000 0.0000 0.0000 0.0000 0.0000 0.0000 0.0000 0.0000 0.0000 0.0000 0.0000 0.0000 0.0000 0.0000 0.0000 0.0000 0.0000 -76.1286 -0.9826 -1.2548 -15.3513 -4.8998 7.9344 -9.8399 6.8917 -9.6980 57.0565 -11.4553 4.6022 12.2066 0.0000 0.0000 6.8761 0.0000 0.0000 -1.9722 1.3507 -7.7006 24.4955 0.0000 0.0000 12.3566 0.0000 0.0000 4.0504 0.1142 -8.0014 87.3290 0.0000 0.0000 40.9141 0.0000 0.0000 6.3763 -1.0858 -8.6674 105.7689 0.0000 0.0000 38.9986 0.0000 0.0000 12.5820 -2.6833 -9.1963 110.0000 0.0000 0.0000 15.0942 0.0000 0.0000 0.0000 0.0000 0.0000 91.5014 0.8657 -0.8433 -3.5882 7.4024 6.8306 173.1044 -2.6305 -18.4341 -58.8885 -11.6903 -5.8739 33.1197 0.0000 0.0000 19.6039 0.0000 0.0000 19.8988 0.9258 6.8977 110.0000 0.0000 0.0000 13.7568 0.0000 0.0000 10.9126 -0.1347 6.1821 110.0000 0.0000 0.0000 6.5309 0.0000 0.0000 4.0444 -1.0025 6.9679 110.0000 0.0000 0.0000 4.4869 0.0000 0.0000 -2.8054 -1.1026 3.1679 110.0000 0.0000 0.0000 3.7160 0.0000 0.0000 0.0000 0.0000 0.0000 0.0000 0.0000 0.0000 0.0000 0.0000 0.0000 0.0000 0.0000 0.0000 0.0000 0.0000 0.0000 0.0000 0.0000 0.0000
0.0000 95.0000 0.0000 0.0000 0.0000 0.0000 0.0000 0.0000 0.0000 0.0000 0.0000 0.0000 0.0000 0.0000 0.0000 0.0000 0.0000 0.0000 0.0000 0.0000 0.0000 0.0000 0.0000 0.0000 -76.5086 -1.1633 -1.4754 -14.7791 -4.8513 7.6476 -9.9469 6.4820 -9.3151 57.0565 -11.4553 4.6022 12.2066 0.0000 0.0000 6.8761 0.0000 0.0000 -1.9722 1.3507 -7.7006 24.4955 0.0000 0.0000 12.3566 0.0000 0.0000 4.0504 0.1142 -8.0014 87.3290 0.0000 0.0000 40.9141 0.0000 0.0000 6.3763 -1.0858 -8.6674 105.7689 0.0000 0.0000 38.9986 0.0000 0.0000 12.5820 -2.6833 -9.1963 110.0000 0.0000 0.0000 15.0942 0.0000 0.0000 0.0000 0.0000 0.0000 91.4719 0.6040 -0.5887 -3.4013 7.6816 7.0944 173.1564 -3.1516 -18.9831 -58.8885 -11.6903 -5.8739 33.1197 0.0000 0.0000 19.6039 0.0000 0.0000 19.8988 0.9258 6.8977 110.0000 0.0000 0.0000 13.7568 0.0000 0.0000 10.9126 -0.1347 6.1821 110.0000 0.0000 0.0000 6.5309 0.0000 0.0000 4.0444 -1.0025 6.9679 110.0000 0.0000 0.0000 4.4869 0.0000 0.0000 -2.8054 -1.1026 3.1679 110.0000 0.0000 0.0000 3.7160 0.0000 0.0000 0.0000 0.0000 0.0000 0.0000 0.0000 0.0000 0.0000 0.0000 0.0000 0.0000 0.0000 0.0000 0.0000 0.0000 0.0000 0.0000 0.0000 0.0000
0.0000 95.0000 0.0000 0.0000 0.0000 0.0000 0.0000 0.0000 0.0000 0.0000 0.0000 0.0000 0.0000 0.0000 0.0000 0.0000 0.0000 0.0000 0.0000 0.0000 0.0000 0.0000 0.0000 0.0000 -76.7523 -1.3579 -1.7147 -14.3512 -4.5881 7.0508 -9.9770 5.7968 -8.6454 57.0565 -11.4553 4.6022 12.2066 0.0000 0.0000 6.8761 0.0000 0.0000 -1.9722 1.3507 -7.7006 24.4955 0.0000 0.0000 12.3566 0.0000 0.0000 4.0504 0.1142 -8.0014 87.3290 0.0000 0.0000 40.9141 0.0000 0.0000 6.3763 -1.0858 -8.6674 105.7689 0.0000 0.0000 38.9986 0.0000 0.0000 12.5820 -2.6833 -9.1963 110.0000 0.0000 0.0000 15.0942 0.0000 0.0000 0.0000 0.0000 0.0000 91.5024 0.4121 -0.4014 -3.3285 8.0589 7.4344 173.2822 -3.6715 -19.5520 -58.8885 -11.6903 -5.8739 33.1197 0.0000 0.0000 19.6039 0.0000 0.0000 19.8988 0.9258 6.8977 110.0000 0.0000 0.0000 13.7568 0.0000 0.0000 10.9126 -0.1347 6.1821 110.0000 0.0000 0.0000 6.5309 0.0000 0.0000 4.0444 -1.0025 6.9679 110.0000 0.0000 0.0000 4.4869 0.0000 0.0000 -2.8054 -1.1026 3.1679 110.0000 0.0000 0.0000 3.7160 0.0000 0.0000 0.0000 0.0000 0.0000 0.0000 0.0000 0.0000 0.0000 0.0000 0.0000 0.0000 0.0000 0.0000 0.0000 0.0000 0.0000 0.0000 0.0000 0.0000
0.0000 95.0000 0.0000 0.0000 0.0000 0.0000 0.0000 0.0000 0.0000 0.0000 0.0000 0.0000 0.0000 0.0000 0.0000 0.0000 0.0000 0.0000 0.0000 0.0000 0.0000 0.0000 0.0000 0.0000 -76.9392 -1.4087 -1.7729 -13.9461 -4.4839 6.7947 -10.1389 5.5294 -8.4091 57.0565 -11.4553 4.6022 12.2066 0.0000 0.0000 6.8761 0.0000 0.0000 -1.9722 1.3507 -7.7006 24.4955 0.0000 0.0000 12.3566 0.0000 0.0000 4.0504 0.1142 -8.0014 87.3290 0.0000 0.0000 40.9141 0.0000 0.0000 6.3763 -1.0858 -8.6674 105.7689 0.0000 0.0000 38.9986 0.0000 0.0000 12.5820 -2.6833 -9.1963 110.0000 0.0000 0.0000 15.0942 0.0000 0.0000 0.0000 0.0000 0.0000 91.5835 0.2882 -0.2804 -3.4920 8.1376 7.4679 173.4286 -3.8120 -19.7387 -58.8885 -11.6903 -5.8739 33.1197 0.0000 0.0000 19.6039 0.0000 0.0000 19.8988 0.9258 6.8977 110.0000 0.0000 0.0000 13.7568 0.0000 0.0000 10.9126 -0.1347 6.1821 110.0000 0.0000 0.0000 6.5309 0.0000 0.0000 4.0444 -1.0025 6.9679 110.0000 0.0000 0.0000 4.4869 0.0000 0.0000 -2.8054 -1.1026 3.1679 110.0000 0.0000 0.0000 3.7160 0.0000 0.0000 0.0000 0.0000 0.0000 0.0000 0.0000 0.0000 0.0000 0.0000 0.0000 0.0000 0.0000 0.0000 0.0000 0.0000 0.0000 0.0000 0.0000 0.0000
0.0000 95.0000 0.0000 0.0000 0.0000 0.0000 0.0000 0.0000 0.0000 0.0000 0.0000 0.0000 0.0000 0.0000 0.0000 0.0000 0.0000 0.0000 0.0000 0.0000 0.0000 0.0000 0.0000 0.0000 -76.9356 -1.3965 -1.7576 -13.8852 -4.4615 6.7571 -10.1980 5.5055 -8.3955 57.0565 -11.4553 4.6022 12.2066 0.0000 0.0000 6.8761 0.0000 0.0000 -1.9722 1.3507 -7.7006 24.4955 0.0000 0.0000 12.3566 0.0000 0.0000 4.0504 0.1142 -8.0014 87.3290 0.0000 0.0000 40.9141 0.0000 0.0000 6.3763 -1.0858 -8.6674 105.7689 0.0000 0.0000 38.9986 0.0000 0.0000 12.5820 -2.6833 -9.1963 110.0000 0.0000 0.0000 15.0942 0.0000 0.0000 0.0000 0.0000 0.0000 91.4619 0.1826 -0.1780 -3.2050 8.2328 7.6013 173.3586 -4.0522 -19.9648 -58.8885 -11.6903 -5.8739 33.1197 0.0000 0.0000 19.6039 0.0000 0.0000 19.8988 0.9258 6.8977 110.0000 0.0000 0.0000 13.7568 0.0000 0.0000 10.9126 -0.1347 6.1821 110.0000 0.0000 0.0000 6.5309 0.0000 0.0000 4.0444 -1.0025 6.9679 110.0000 0.0000 0.0000 4.4869 0.0000 0.0000 -2.8054 -1.1026 3.1679 110.0000 0.0000 0.0000 3.7160 0.0000 0.0000 0.0000 0.0000 0.0000 0.0000 0.0000 0.0000 0.0000 0.0000 0.0000 0.0000 0.0000 0.0000 0.0000 0.0000 0.0000 0.0000 0.0000 0.0000
0.0000 95.0000 0.0000 0.0000 0.0000 0.0000 0.0000 0.0000 0.0000 0.0000 0.0000 0.0000 0.0000 0.0000 0.0000 0.0000 0.0000 0.0000 0.0000 0.0000 0.0000 0.0000 0.0000 0.0000 -76.9456 -1.3264 -1.6690 -13.9858 -4.1881 6.3450 -10.0182 5.2528 -8.1157 57.0565 -11.4553 4.6022 12.2066 0.0000 0.0000 6.8761 0.0000 0.0000 -1.9722 1.3507 -7.7006 24.4955 0.0000 0.0000 12.3566 0.0000 0.0000 4.0504 0.1142 -8.0014 87.3290 0.0000 0.0000 40.9141 0.0000 0.0000 6.3763 -1.0858 -8.6674 105.7689 0.0000 0.0000 38.9986 0.0000 0.0000 12.5820 -2.6833 -9.1963 110.0000 0.0000 0.0000 15.0942 0.0000 0.0000 0.0000 0.0000 0.0000 91.5080 -0.3227 0.3144 -3.1527 8.2746 7.6096 173.4476 -4.5601 -20.5121 -58.8885 -11.6903 -5.8739 33.1197 0.0000 0.0000 19.6039 0.0000 0.0000 19.8988 0.9258 6.8977 110.0000 0.0000 0.0000 13.7568 0.0000 0.0000 10.9126 -0.1347 6.1821 110.0000 0.0000 0.0000 6.5309 0.0000 0.0000 4.0444 -1.0025 6.9679 110.0000 0.0000 0.0000 4.4869 0.0000 0.0000 -2.8054 -1.1026 3.1679 110.0000 0.0000 0.0000 3.7160 0.0000 0.0000 0.0000 0.0000 0.0000 0.0000 0.0000 0.0000 0.0000 0.0000 0.0000 0.0000 0.0000 0.0000 0.0000 0.0000 0.0000 0.0000 0.0000 0.0000
0.0000 95.0000 0.0000 0.0000 0.0000 0.0000 0.0000 0.0000 0.0000 0.0000 0.0000 0.0000 0.0000 0.0000 0.0000 0.0000 0.0000 0.0000 0.0000 0.0000 0.0000 0.0000 0.0000 0.0000 -76.9827 -1.0741 -1.3507 -13.8914 -4.1103 6.2979 -10.1071 5.4739 -8.3488 57.0565 -11.4553 4.6022 12.2066 0.0000 0.0000 6.8761 0.0000 0.0000 -1.9722 1.3507 -7.7006 24.4955 0.0000 0.0000 12.3566 0.0000 0.0000 4.0504 0.1142 -8.0014 87.3290 0.0000 0.0000 40.9141 0.0000 0.0000 6.3763 -1.0858 -8.6674 105.7689 0.0000 0.0000 38.9986 0.0000 0.0000 12.5820 -2.6833 -9.1963 110.0000 0.0000 0.0000 15.0942 0.0000 0.0000 0.0000 0.0000 0.0000 91.3801 -0.1882 0.1837 -2.7692 7.9840 7.4171 173.0434 -4.2950 -20.1194 -58.8885 -11.6903 -5.8739 33.1197 0.0000 0.0000 19.6039 0.0000 0.0000 19.8988 0.9258 6.8977 110.0000 0.0000 0.0000 13.7568 0.0000 0.0000 10.9126 -0.1347 6.1821 110.0000 0.0000 0.0000 6.5309 0.0000 0.0000 4.0444 -1.0025 6.9679 110.0000 0.0000 0.0000 4.4869 0.0000 0.0000 -2.8054 -1.1026 3.1679 110.0000 0.0000 0.0000 3.7160 0.0000 0.0000 0.0000 0.0000 0.0000 0.0000 0.0000 0.0000 0.0000 0.0000 0.0000 0.0000 0.0000 0.0000 0.0000 0.0000 0.0000 0.0000 0.0000 0.0000
0.0000 95.0000 0.0000 0.0000 0.0000 0.0000 0.0000 0.0000 0.0000 0.0000 0.0000 0.0000 0.0000 0.0000 0.0000 0.0000 0.0000 0.0000 0.0000 0.0000 0.0000 0.0000 0.0000 0.0000 -76.9615 -0.0536 -0.0674 -13.5497 -4.0002 6.4522 -10.6603 6.6253 -9.5906 57.0565 -11.4553 4.6022 12.2066 0.0000 0.0000 6.8761 0.0000 0.0000 -1.9722 1.3507 -7.7006 24.4955 0.0000 0.0000 12.3566 0.0000 0.0000 4.0504 0.1142 -8.0014 87.3290 0.0000 0.0000 40.9141 0.0000 0.0000 6.3763 -1.0858 -8.6674 105.7689 0.0000 0.0000 38.9986 0.0000 0.0000 12.5820 -2.6833 -9.1963 110.0000 0.0000 0.0000 15.0942 0.0000 0.0000 0.0000 0.0000 0.0000 90.8265 0.0996 -0.0982 -2.0663 8.1796 7.7824 172.9343 -4.3179 -20.1102 -58.8885 -11.6903 -5.8739 33.1197 0.0000 0.0000 19.6039 0.0000 0.0000 19.8988 0.9258 6.8977 110.0000 0.0000 0.0000 13.7568 0.0000 0.0000 10.9126 -0.1347 6.1821 110.0000 0.0000 0.0000 6.5309 0.0000 0.0000 4.0444 -1.0025 6.9679 110.0000 0.0000 0.0000 4.4869 0.0000 0.0000 -2.8054 -1.1026 3.1679 110.0000 0.0000 0.0000 3.7160 0.0000 0.0000 0.0000 0.0000 0.0000 0.0000 0.0000 0.0000 0.0000 0.0000 0.0000 0.0000 0.0000 0.0000 0.0000 0.0000 0.0000 0.0000 0.0000 0.0000
0.0000 95.0000 0.0000 0.0000 0.0000 0.0000 0.0000 0.0000 0.0000 0.0000 0.0000 0.0000 0.0000 0.0000 0.0000 0.0000 0.0000 0.0000 0.0000 0.0000 0.0000 0.0000 0.0000 0.0000 -76.8785 0.4307 0.5426 -13.3491 -3.4509 5.7211 -10.8662 6.5038 -9.5082 57.0565 -11.4553 4.6022 12.2066 0.0000 0.0000 6.8761 0.0000 0.0000 -1.9722 1.3507 -7.7006 24.4955 0.0000 0.0000 12.3566 0.0000 0.0000 4.0504 0.1142 -8.0014 87.3290 0.0000 0.0000 40.9141 0.0000 0.0000 6.3763 -1.0858 -8.6674 105.7689 0.0000 0.0000 38.9986 0.0000 0.0000 12.5820 -2.6833 -9.1963 110.0000 0.0000 0.0000 15.0942 0.0000 0.0000 0.0000 0.0000 0.0000 90.1468 0.3665 -0.3656 -0.6098 8.3492 8.2476 172.2494 -4.5629 -20.1536 -58.8885 -11.6903 -5.8739 33.1197 0.0000 0.0000 19.6039 0.0000 0.0000 19.8988 0.9258 6.8977 110.0000 0.0000 0.0000 13.7568 0.0000 0.0000 10.9126 -0.1347 6.1821 110.0000 0.0000 0.0000 6.5309 0.0000 0.0000 4.0444 -1.0025 6.9679 110.0000 0.0000 0.0000 4.4869 0.0000 0.0000 -2.8054 -1.1026 3.1679 110.0000 0.0000 0.0000 3.7160 0.0000 0.0000 0.0000 0.0000 0.0000 0.0000 0.0000 0.0000 0.0000 0.0000 0.0000 0.0000 0.0000 0.0000 0.0000 0.0000 0.0000 0.0000 0.0000 0.0000
0.0000 95.0000 0.0000 0.0000 0.0000 0.0000 0.0000 0.0000 0.0000 0.0000 0.0000 0.0000 0.0000 0.0000 0.0000 0.0000 0.0000 0.0000 0.0000 0.0000 0.0000 0.0000 0.0000 0.0000 -76.6169 3.6882 4.6677 -11.3555 -0.6961 2.1722 -12.8600 6.7908 -10.1868 57.0565 -11.4553 4.6022 12.2066 0.0000 0.0000 6.8761 0.0000 0.0000 -1.9722 1.3507 -7.7006 24.4955 0.0000 0.0000 12.3566 0.0000 0.0000 4.0504 0.1142 -8.0014 87.3290 0.0000 0.0000 40.9141 0.0000 0.0000 6.3763 -1.0858 -8.6674 105.7689 0.0000 0.0000 38.9986 0.0000 0.0000 12.5820 -2.6833 -9.1963 110.0000 0.0000 0.0000 15.0942 0.0000 0.0000 0.0000 0.0000 0.0000 88.2894 -4.9744 5.1249 3.4625 24.3084 26.2309 186.6141 -21.5756 -45.7529 -58.8885 -11.6903 -5.8739 33.1197 0.0000 0.0000 19.6039 0.0000 0.0000 19.8988 0.9258 6.8977 110.0000 0.0000 0.0000 13.7568 0.0000 0.0000 10.9126 -0.1347 6.1821 110.0000 0.0000 0.0000 6.5309 0.0000 0.0000 4.0444 -1.0025 6.9679 110.0000 0.0000 0.0000 4.4869 0.0000 0.0000 -2.8054 -1.1026 3.1679 110.0000 0.0000 0.0000 3.7160 0.0000 0.0000 0.0000 0.0000 0.0000 0.0000 0.0000 0.0000 0.0000 0.0000 0.0000 0.0000 0.0000 0.0000 0.0000 0.0000 0.0000 0.0000 0.0000 0.0000
0.0000 95.0000 0.0000 0.0000 0.0000 0.0000 0.0000 0.0000 0.0000 0.0000 0.0000 0.0000 0.0000 0.0000 0.0000 0.0000 0.0000 0.0000 0.0000 0.0000 0.0000 0.0000 0.0000 0.0000 -75.0784 8.9593 11.6431 -9.0832 2.2120 -1.2373 -16.4171 9.2157 -13.5822 57.0565 -11.4553 4.6022 12.2066 0.0000 0.0000 6.8761 0.0000 0.0000 -1.9722 1.3507 -7.7006 24.4955 0.0000 0.0000 12.3566 0.0000 0.0000 4.0504 0.1142 -8.0014 87.3290 0.0000 0.0000 40.9141 0.0000 0.0000 6.3763 -1.0858 -8.6674 105.7689 0.0000 0.0000 38.9986 0.0000 0.0000 12.5820 -2.6833 -9.1963 110.0000 0.0000 0.0000 15.0942 0.0000 0.0000 0.0000 0.0000 0.0000 86.1845 -10.4155 11.1288 2.1778 47.3008 47.8025 221.6878 -20.6183 -81.7256 -58.8885 -11.6903 -5.8739 33.1197 0.0000 0.0000 19.6039 0.0000 0.0000 19.8988 0.9258 6.8977 110.0000 0.0000 0.0000 13.7568 0.0000 0.0000 10.9126 -0.1347 6.1821 110.0000 0.0000 0.0000 6.5309 0.0000 0.0000 4.0444 -1.0025 6.9679 110.0000 0.0000 0.0000 4.4869 0.0000 0.0000 -2.8054 -1.1026 3.1679 110.0000 0.0000 0.0000 3.7160 0.0000 0.0000 0.0000 0.0000 0.0000 0.0000 0.0000 0.0000 0.0000 0.0000 0.0000 0.0000 0.0000 0.0000 0.0000 0.0000 0.0000 0.0000 0.0000 0.0000
0.0000 95.0000 0.0000 0.0000 0.0000 0.0000 0.0000 0.0000 0.0000 0.0000 0.0000 0.0000 0.0000 0.0000 0.0000 0.0000 0.0000 0.0000 0.0000 0.0000 0.0000 0.0000 0.0000 0.0000 -73.4071 12.5666 16.8037 -12.0816 16.6014 -23.8253 -16.4366 -4.4148 1.5080 57.0565 -11.4553 4.6022 12.2066 0.0000 0.0000 6.8761 0.0000 0.0000 -1.9722 1.3507 -7.7006 24.4955 0.0000 0.0000 12.3566 0.0000 0.0000 4.0504 0.1142 -8.0014 87.3290 0.0000 0.0000 40.9141 0.0000 0.0000 6.3763 -1.0858 -8.6674 105.7689 0.0000 0.0000 38.9986 0.0000 0.0000 12.5820 -2.6833 -9.1963 110.0000 0.0000 0.0000 15.0942 0.0000 0.0000 0.0000 0.0000 0.0000 84.0296 -15.3768 17.0452 -19.6162 82.4555 53.7832 272.1319 2.6163 -90.5039 -61.2417 -12.8646 0.1666 24.1535 0.0000 0.0000 14.0758 0.0000 0.0000 -21.8304 16.5270 44.0538 106.5420 0.0000 0.0000 7.2630 0.0000 0.0000 -52.4056 31.9369 65.1246 75.1790 0.0000 0.0000 7.1497 0.0000 0.0000 -65.2172 34.5290 75.8123 65.2456 0.0000 0.0000 9.4097 0.0000 0.0000 -86.9883 22.2697 55.2047 74.0924 0.0000 0.0000 12.8168 0.0000 0.0000 0.0000 0.0000 0.0000 0.0000 0.0000 0.0000 0.0000 0.0000 0.0000 0.0000 0.0000 0.0000 0.0000 0.0000 0.0000 0.0000 0.0000 0.0000
0.0000 95.0000 0.0000 0.0000 0.0000 0.0000 0.0000 0.0000 0.0000 0.0000 0.0000 0.0000 0.0000 0.0000 0.0000 0.0000 0.0000 0.0000 0.0000 0.0000 0.0000 0.0000 0.0000 0.0000 -77.0635 4.7944 6.0185 -5.6385 9.3692 -12.4227 -18.2405 -4.4125 1.5110 57.0565 -11.4553 4.6022 12.2066 0.0000 0.0000 6.8761 0.0000 0.0000 -1.9722 1.3507 -7.7006 24.4955 0.0000 0.0000 12.3566 0.0000 0.0000 4.0504 0.1142 -8.0014 87.3290 0.0000 0.0000 40.9141 0.0000 0.0000 6.3763 -1.0858 -8.6674 105.7689 0.0000 0.0000 38.9986 0.0000 0.0000 12.5820 -2.6833 -9.1963 110.0000 0.0000 0.0000 15.0942 0.0000 0.0000 0.0000 0.0000 0.0000 81.9281 -19.2481 22.1031 -162.2549 67.3834 -72.5587 299.0509 18.9895 -78.0329 -56.1205 -11.8602 -0.6033 23.3047 0.0000 0.0000 28.5275 0.0000 0.0000 13.9020 1.4470 14.1563 110.0000 0.0000 0.0000 14.4896 0.0000 0.0000 -0.5233 0.0570 17.1984 110.0000 0.0000 0.0000 12.5814 0.0000 0.0000 -12.8941 -1.2457 19.4938 110.0000 0.0000 0.0000 13.9021 0.0000 0.0000 -29.9768 -2.6390 12.9572 110.0000 0.0000 0.0000 16.8964 0.0000 0.0000 0.0000 0.0000 0.0000 0.0000 0.0000 0.0000 0.0000 0.0000 0.0000 0.0000 0.0000 0.0000 0.0000 0.0000 0.0000 0.0000 0.0000 0.0000
0.0000 95.0000 0.0000 0.0000 0.0000 0.0000 0.0000 0.0000 0.0000 0.0000 0.0000 0.0000 0.0000 0.0000 0.0000 0.0000 0.0000 0.0000 0.0000 0.0000 0.0000 0.0000 0.0000 0.0000 -77.1253 4.7978 6.0162 -4.0293 9.3844 -12.2436 -19.7639 -4.3638 1.4582 57.0565 -11.4553 4.6022 12.2066 0.0000 0.0000 6.8761 0.0000 0.0000 -1.9722 1.3507 -7.7006 24.4955 0.0000 0.0000 12.3566 0.0000 0.0000 4.0504 0.1142 -8.0014 87.3290 0.0000 0.0000 40.9141 0.0000 0.0000 6.3763 -1.0858 -8.6674 105.7689 0.0000 0.0000 38.9986 0.0000 0.0000 12.5820 -2.6833 -9.1963 110.0000 0.0000 0.0000 15.0942 0.0000 0.0000 0.0000 0.0000 0.0000 76.8646 -23.6747 29.5916 -159.4369 54.0034 -67.9346 314.8248 29.3692 -73.0778 -64.3051 -13.5915 2.7852 26.6740 0.0000 0.0000 32.4435 0.0000 0.0000 -2.2094 7.8646 38.6229 110.0000 0.0000 0.0000 10.8659 0.0000 0.0000 -17.4008 4.0057 30.5167 110.0000 0.0000 0.0000 8.3020 0.0000 0.0000 -24.3277 1.2323 34.8056 110.0000 0.0000 0.0000 9.9065 0.0000 0.0000 -38.5312 -1.8246 24.2502 110.0000 0.0000 0.0000 11.1950 0.0000 0.0000 0.0000 0.0000 0.0000 0.0000 0.0000 0.0000 0.0000 0.0000 0.0000 0.0000 0.0000 0.0000 0.0000 0.0000 0.0000 0.0000 0.0000 0.0000
0.0000 95.0000 0.0000 0.0000 0.0000 0.0000 0.0000 0.0000 0.0000 0.0000 0.0000 0.0000 0.0000 0.0000 0.0000 0.0000 0.0000 0.0000 0.0000 0.0000 0.0000 0.0000 0.0000 0.0000 -77.0592 4.7886 6.0117 -3.0544 9.3829 -12.1475 -20.7911 -4.3467 1.4399 57.0565 -11.4553 4.6022 12.2066 0.0000 0.0000 6.8761 0.0000 0.0000 -1.9722 1.3507 -7.7006 24.4955 0.0000 0.0000 12.3566 0.0000 0.0000 4.0504 0.1142 -8.0014 87.3290 0.0000 0.0000 40.9141 0.0000 0.0000 6.3763 -1.0858 -8.6674 105.7689 0.0000 0.0000 38.9986 0.0000 0.0000 12.5820 -2.6833 -9.1963 110.0000 0.0000 0.0000 15.0942 0.0000 0.0000 0.0000 0.0000 0.0000 73.5469 -26.3154 34.7381 -156.3521 48.0847 -66.7052 317.6655 35.7842 -68.9322 -69.8245 -14.4419 4.1278 33.4988 0.0000 0.0000 32.2721 0.0000 0.0000 -5.6787 14.3852 58.8582 96.0740 0.0000 0.0000 9.4480 0.0000 0.0000 -19.0051 7.3398 46.7035 110.0000 0.0000 0.0000 7.9517 0.0000 0.0000 -23.4837 2.0793 49.4560 110.0000 0.0000 0.0000 9.9687 0.0000 0.0000 -42.2594 -0.0821 40.3027 110.0000 0.0000 0.0000 9.7413 0.0000 0.0000 0.0000 0.0000 0.0000 0.0000 0.0000 0.0000 0.0000 0.0000 0.0000 0.0000 0.0000 0.0000 0.0000 0.0000 0.0000 0.0000 0.0000 0.0000
0.0000 95.0000 0.0000 0.0000 0.0000 0.0000 0.0000 0.0000 0.0000 0.0000 0.0000 0.0000 0.0000 0.0000 0.0000 0.0000 0.0000 0.0000 0.0000 0.0000 0.0000 0.0000 0.0000 0.0000 -76.7341 4.7684 6.0212 -2.6975 9.3409 -12.1241 -21.4648 -4.3396 1.4325 57.0565 -11.4553 4.6022 12.2066 0.0000 0.0000 6.8761 0.0000 0.0000 -1.9722 1.3507 -7.7006 24.4955 0.0000 0.0000 12.3566 0.0000 0.0000 4.0504 0.1142 -8.0014 87.3290 0.0000 0.0000 40.9141 0.0000 0.0000 6.3763 -1.0858 -8.6674 105.7689 0.0000 0.0000 38.9986 0.0000 0.0000 12.5820 -2.6833 -9.1963 110.0000 0.0000 0.0000 15.0942 0.0000 0.0000 0.0000 0.0000 0.0000 70.8267 -27.9567 38.5905 -154.3773 43.3768 -66.1173 326.5827 35.9877 -64.7206 -68.4293 -14.1777 2.2593 29.8856 0.0000 0.0000 29.9511 0.0000 0.0000 -7.3904 9.9387 40.2585 110.0000 0.0000 0.0000 12.2526 0.0000 0.0000 -19.4335 4.7383 31.9386 110.0000 0.0000 0.0000 8.6201 0.0000 0.0000 -23.5807 0.9163 33.0238 110.0000 0.0000 0.0000 9.4666 0.0000 0.0000 -38.6971 -1.8468 23.1450 110.0000 0.0000 0.0000 10.6060 0.0000 0.0000 0.0000 0.0000 0.0000 0.0000 0.0000 0.0000 0.0000 0.0000 0.0000 0.0000 0.0000 0.0000 0.0000 0.0000 0.0000 0.0000 0.0000 0.0000
0.0000 95.0000 0.0000 0.0000 0.0000 0.0000 0.0000 0.0000 0.0000 0.0000 0.0000 0.0000 0.0000 0.0000 0.0000 0.0000 0.0000 0.0000 0.0000 0.0000 0.0000 0.0000 0.0000 0.0000 -76.8737 4.7753 6.0150 -2.6035 9.3605 -12.1089 -21.4195 -4.3388 1.4314 57.0565 -11.4553 4.6022 12.2066 0.0000 0.0000 6.8761 0.0000 0.0000 -1.9722 1.3507 -7.7006 24.4955 0.0000 0.0000 12.3566 0.0000 0.0000 4.0504 0.1142 -8.0014 87.3290 0.0000 0.0000 40.9141 0.0000 0.0000 6.3763 -1.0858 -8.6674 105.7689 0.0000 0.0000 38.9986 0.0000 0.0000 12.5820 -2.6833 -9.1963 110.0000 0.0000 0.0000 15.0942 0.0000 0.0000 0.0000 0.0000 0.0000 69.9611 -28.8311 40.3430 -154.3387 39.1211 -66.0756 332.5740 34.3884 -58.7467 -67.9775 -14.1111 2.2995 28.3787 0.0000 0.0000 37.4734 0.0000 0.0000 -4.8986 7.7081 34.5003 110.0000 0.0000 0.0000 10.2714 0.0000 0.0000 -16.0667 3.0579 26.1906 110.0000 0.0000 0.0000 8.2878 0.0000 0.0000 -22.8318 0.5289 29.6946 110.0000 0.0000 0.0000 9.6758 0.0000 0.0000 -38.0661 -2.0145 20.7951 110.0000 0.0000 0.0000 10.6390 0.0000 0.0000 0.0000 0.0000 0.0000 0.0000 0.0000 0.0000 0.0000 0.0000 0.0000 0.0000 0.0000 0.0000 0.0000 0.0000 0.0000 0.0000 0.0000 0.0000
0.0000 95.0000 0.0000 0.0000 0.0000 0.0000 0.0000 0.0000 0.0000 0.0000 0.0000 0.0000 0.0000 0.0000 0.0000 0.0000 0.0000 0.0000 0.0000 0.0000 0.0000 0.0000 0.0000 0.0000 -76.3380 4.7494 6.0400 -4.0200 9.2649 -12.2577 -20.5488 -4.3526 1.4465 57.0565 -11.4553 4.6022 12.2066 0.0000 0.0000 6.8761 0.0000 0.0000 -1.9722 1.3507 -7.7006 24.4955 0.0000 0.0000 12.3566 0.0000 0.0000 4.0504 0.1142 -8.0014 87.3290 0.0000 0.0000 40.9141 0.0000 0.0000 6.3763 -1.0858 -8.6674 105.7689 0.0000 0.0000 38.9986 0.0000 0.0000 12.5820 -2.6833 -9.1963 110.0000 0.0000 0.0000 15.0942 0.0000 0.0000 0.0000 0.0000 0.0000 68.5083 -29.3018 42.0037 -152.3758 41.3901 -66.4725 332.0942 33.5572 -60.7117 -71.6704 -14.7280 7.1359 27.6981 0.0000 0.0000 43.2646 0.0000 0.0000 -40.0894 39.1273 66.5839 68.7583 0.0000 0.0000 6.9270 0.0000 0.0000 -61.7805 42.8364 71.2757 60.7197 0.0000 0.0000 6.5088 0.0000 0.0000 -55.2348 36.0266 92.2530 57.2313 0.0000 0.0000 8.2201 0.0000 0.0000 -75.8770 26.4216 75.4437 65.4482 0.0000 0.0000 8.7657 0.0000 0.0000 0.0000 0.0000 0.0000 0.0000 0.0000 0.0000 0.0000 0.0000 0.0000 0.0000 0.0000 0.0000 0.0000 0.0000 0.0000 0.0000 0.0000 0.0000
0.0000 95.0000 0.0000 0.0000 0.0000 0.0000 0.0000 0.0000 0.0000 0.0000 0.0000 0.0000 0.0000 0.0000 0.0000 0.0000 0.0000 0.0000 0.0000 0.0000 0.0000 0.0000 0.0000 0.0000 -75.6320 4.6712 6.0164 -6.7388 9.0373 -12.4193 -18.5441 -4.3428 1.4311 57.0565 -11.4553 4.6022 12.2066 0.0000 0.0000 6.8761 0.0000 0.0000 -1.9722 1.3507 -7.7006 24.4955 0.0000 0.0000 12.3566 0.0000 0.0000 4.0504 0.1142 -8.0014 87.3290 0.0000 0.0000 40.9141 0.0000 0.0000 6.3763 -1.0858 -8.6674 105.7689 0.0000 0.0000 38.9986 0.0000 0.0000 12.5820 -2.6833 -9.1963 110.0000 0.0000 0.0000 15.0942 0.0000 0.0000 0.0000 0.0000 0.0000 67.1617 -29.1025 42.7081 -152.6435 41.8647 -66.5886 338.7771 20.1814 -45.1876 -61.6090 -13.8249 9.1522 8.0295 0.0000 0.0000 25.5567 0.0000 0.0000 -32.9373 51.5513 91.8428 47.5880 0.0000 0.0000 34.8763 0.0000 0.0000 -43.9680 45.8844 97.4849 48.3537 0.0000 0.0000 43.0333 0.0000 0.0000 -42.0050 32.3604 110.6067 47.6761 0.0000 0.0000 54.0611 0.0000 0.0000 -55.4566 23.9334 109.7530 49.6015 0.0000 0.0000 58.0429 0.0000 0.0000 0.0000 0.0000 0.0000 0.0000 0.0000 0.0000 0.0000 0.0000 0.0000 0.0000 0.0000 0.0000 0.0000 0.0000 0.0000 0.0000 0.0000 0.0000
0.0000 95.0000 0.0000 0.0000 0.0000 0.0000 0.0000 0.0000 0.0000 0.0000 0.0000 0.0000 0.0000 0.0000 0.0000 0.0000 0.0000 0.0000 0.0000 0.0000 0.0000 0.0000 0.0000 0.0000 -71.7637 12.0659 16.6239 -9.2428 5.0537 -4.9901 -19.0108 9.5465 -14.6491 57.0565 -11.4553 4.6022 12.2066 0.0000 0.0000 6.8761 0.0000 0.0000 -1.9722 1.3507 -7.7006 24.4955 0.0000 0.0000 12.3566 0.0000 0.0000 4.0504 0.1142 -8.0014 87.3290 0.0000 0.0000 40.9141 0.0000 0.0000 6.3763 -1.0858 -8.6674 105.7689 0.0000 0.0000 38.9986 0.0000 0.0000 12.5820 -2.6833 -9.1963 110.0000 0.0000 0.0000 15.0942 0.0000 0.0000 0.0000 0.0000 0.0000 69.3560 -28.0073 39.6453 -159.0888 40.3952 -68.1884 342.8431 -24.8021 -19.4782 -44.8089 -12.2171 9.1330 22.2424 0.0000 0.0000 29.0420 0.0000 0.0000 23.0671 -1.5895 95.1813 20.7464 0.0000 0.0000 11.3351 0.0000 0.0000 8.9016 -8.7998 94.1106 35.2713 0.0000 0.0000 8.2954 0.0000 0.0000 0.4929 -17.0691 95.3987 39.2313 0.0000 0.0000 15.8181 0.0000 0.0000 -13.7920 -21.7645 95.7357 36.8213 0.0000 0.0000 59.7676 0.0000 0.0000 0.0000 0.0000 0.0000 0.0000 0.0000 0.0000 0.0000 0.0000 0.0000 0.0000 0.0000 0.0000 0.0000 0.0000 0.0000 0.0000 0.0000 0.0000
0.0000 95.0000 0.0000 0.0000 0.0000 0.0000 0.0000 0.0000 0.0000 0.0000 0.0000 0.0000 0.0000 0.0000 0.0000 0.0000 0.0000 0.0000 0.0000 0.0000 0.0000 0.0000 0.0000 0.0000 -72.8348 8.3063 11.2428 -10.1948 9.3324 -12.9491 -10.6468 -0.3658 -4.3302 60.5783 -12.7714 -0.3583 19.3528 0.0000 0.0000 11.2334 0.0000 0.0000 -26.4676 -3.4431 -77.9109 80.3282 0.0000 0.0000 6.2854 0.0000 0.0000 -15.2689 -17.2173 -101.7286 60.5424 0.0000 0.0000 6.6719 0.0000 0.0000 -3.0973 -22.7585 -104.4558 65.1341 0.0000 0.0000 8.6399 0.0000 0.0000 1.6317 -30.1241 -89.2479 76.5195 0.0000 0.0000 10.4412 0.0000 0.0000 0.0000 0.0000 0.0000 69.5706 -27.5688 38.9049 -165.7768 45.9476 -74.1776 325.1195 -48.9297 73.5056 -45.4487 -9.6142 -1.6541 52.7911 0.0000 0.0000 22.4622 0.0000 0.0000 42.7036 0.2154 8.6144 13.2391 0.0000 0.0000 8.2768 0.0000 0.0000 36.2234 -2.3288 11.8838 12.9880 0.0000 0.0000 6.1772 0.0000 0.0000 44.7757 -2.7015 9.4169 110.0000 0.0000 0.0000 26.3226 0.0000 0.0000 31.2719 -3.5651 9.7617 110.0000 0.0000 0.0000 16.9259 0.0000 0.0000 0.0000 0.0000 0.0000 0.0000 0.0000 0.0000 0.0000 0.0000 0.0000 0.0000 0.0000 0.0000 0.0000 0.0000 0.0000 0.0000 0.0000 0.0000
0.0000 95.0000 0.0000 0.0000 0.0000 0.0000 0.0000 0.0000 0.0000 0.0000 0.0000 0.0000 0.0000 0.0000 0.0000 0.0000 0.0000 0.0000 0.0000 0.0000 0.0000 0.0000 0.0000 0.0000 -73.0579 3.9484 5.3286 -9.3261 15.3210 -23.6961 -8.6606 -7.8031 5.0083 66.7793 -14.0797 -5.0353 27.1736 0.0000 0.0000 11.1063 0.0000 0.0000 -23.2694 -4.9621 -135.6900 20.2877 0.0000 0.0000 6.7645 0.0000 0.0000 -10.5622 -26.5516 -141.9850 20.4669 0.0000 0.0000 5.3182 0.0000 0.0000 -2.0607 -40.4127 -138.8759 27.9657 0.0000 0.0000 8.4740 0.0000 0.0000 6.9527 -51.9576 -133.8534 29.5292 0.0000 0.0000 10.0454 0.0000 0.0000 0.0000 0.0000 0.0000 69.3828 -27.4415 38.8577 -174.8050 52.8205 -83.8703 328.6780 -42.2673 85.5675 -40.6567 -6.9292 -7.3037 48.7781 0.0000 0.0000 17.0454 0.0000 0.0000 48.0810 1.5136 2.5933 15.2239 0.0000 0.0000 6.7407 0.0000 0.0000 37.5177 -0.2419 5.4840 14.7531 0.0000 0.0000 11.0138 0.0000 0.0000 44.6869 -2.5172 9.1073 110.0000 0.0000 0.0000 18.1755 0.0000 0.0000 24.6138 -13.3326 27.3614 110.0000 0.0000 0.0000 8.9645 0.0000 0.0000 0.0000 0.0000 0.0000 0.0000 0.0000 0.0000 0.0000 0.0000 0.0000 0.0000 0.0000 0.0000 0.0000 0.0000 0.0000 0.0000 0.0000 0.0000
0.0000 95.0000 0.0000 0.0000 0.0000 0.0000 0.0000 0.0000 0.0000 0.0000 0.0000 0.0000 0.0000 0.0000 0.0000 0.0000 0.0000 0.0000 0.0000 0.0000 0.0000 0.0000 0.0000 0.0000 -72.4680 -0.7799 -1.0642 -5.0130 22.8707 -33.6700 -17.4866 -23.5478 29.4255 71.4300 -14.7310 -9.1652 28.8102 0.0000 0.0000 19.3697 0.0000 0.0000 -22.8540 -5.7377 -147.1408 14.7387 0.0000 0.0000 6.2703 0.0000 0.0000 -18.4385 -46.9186 -143.7591 18.2326 0.0000 0.0000 9.0467 0.0000 0.0000 -22.9343 -65.2104 -128.1430 27.1853 0.0000 0.0000 13.2620 0.0000 0.0000 -82.8887 -72.7891 -56.1433 34.0264 0.0000 0.0000 18.7558 0.0000 0.0000 0.0000 0.0000 0.0000 71.0427 -27.1519 37.3790 -188.9928 58.5373 -98.7202 362.9359 -42.8003 67.4231 -49.5853 -8.5264 -10.4467 50.7033 0.0000 0.0000 17.3353 0.0000 0.0000 49.3856 2.2540 -0.1716 22.6092 0.0000 0.0000 9.5671 0.0000 0.0000 38.0170 0.8548 2.2909 34.1122 0.0000 0.0000 28.5557 0.0000 0.0000 59.6634 2.3871 2.1068 108.3291 0.0000 0.0000 32.4454 0.0000 0.0000 82.0280 -5.9535 10.2255 95.2411 0.0000 0.0000 18.1842 0.0000 0.0000 0.0000 0.0000 0.0000 0.0000 0.0000 0.0000 0.0000 0.0000 0.0000 0.0000 0.0000 0.0000 0.0000 0.0000 0.0000 0.0000 0.0000 0.0000
0.0000 95.0000 0.0000 0.0000 0.0000 0.0000 0.0000 0.0000 0.0000 0.0000 0.0000 0.0000 0.0000 0.0000 0.0000 0.0000 0.0000 0.0000 0.0000 0.0000 0.0000 0.0000 0.0000 0.0000 -71.7018 -3.3812 -4.6781 -0.0825 27.6697 -36.8842 -28.7257 -24.7334 40.3886 72.5390 -14.8376 -10.2179 24.2434 0.0000 0.0000 22.0449 0.0000 0.0000 -21.1332 -0.6708 -145.8970 13.9981 0.0000 0.0000 6.3386 0.0000 0.0000 -13.3357 -35.7269 -144.8971 18.6896 0.0000 0.0000 9.8687 0.0000 0.0000 -20.0623 -60.0826 -127.1551 29.9876 0.0000 0.0000 23.2481 0.0000 0.0000 -70.2352 -68.9796 -63.4612 39.2790 0.0000 0.0000 31.0440 0.0000 0.0000 0.0000 0.0000 0.0000 73.5353 -26.2893 34.7115 -202.9005 60.9964 -112.6726 374.4182 -38.5798 62.3686 -45.3460 -7.1936 -10.9256 42.0163 0.0000 0.0000 17.2785 0.0000 0.0000 44.8442 1.9655 0.1557 16.5003 0.0000 0.0000 10.9301 0.0000 0.0000 36.7173 0.9276 1.9773 48.0888 0.0000 0.0000 87.4279 0.0000 0.0000 54.4926 1.5093 2.9307 110.0000 0.0000 0.0000 27.1242 0.0000 0.0000 78.7306 -10.8052 13.6161 92.7662 0.0000 0.0000 17.3068 0.0000 0.0000 0.0000 0.0000 0.0000 0.0000 0.0000 0.0000 0.0000 0.0000 0.0000 0.0000 0.0000 0.0000 0.0000 0.0000 0.0000 0.0000 0.0000 0.0000
0.0000 95.0000 0.0000 0.0000 0.0000 0.0000 0.0000 0.0000 0.0000 0.0000 0.0000 0.0000 0.0000 0.0000 0.0000 0.0000 0.0000 0.0000 0.0000 0.0000 0.0000 0.0000 0.0000 0.0000 -70.4234 -4.4689 -6.3291 3.9022 31.2566 -38.8428 -31.9159 -26.3048 41.0935 80.2418 -14.9415 -19.0450 33.5689 0.0000 0.0000 24.1501 0.0000 0.0000 -18.0327 7.4827 -142.8786 13.8182 0.0000 0.0000 5.2824 0.0000 0.0000 -5.6746 -15.9418 -145.7893 17.5060 0.0000 0.0000 7.4983 0.0000 0.0000 -2.1181 -41.0366 -139.4585 27.6845 0.0000 0.0000 25.0062 0.0000 0.0000 -6.5997 -62.6166 -124.2150 31.5132 0.0000 0.0000 27.1685 0.0000 0.0000 0.0000 0.0000 0.0000 77.1734 -24.4933 30.4365 -218.6407 63.6687 -129.7542 373.9833 -33.1377 53.2891 -51.0763 -9.4343 -8.0682 46.1277 0.0000 0.0000 19.8516 0.0000 0.0000 44.7798 1.4286 2.6438 10.4696 0.0000 0.0000 5.7254 0.0000 0.0000 31.9836 -0.5489 6.6870 26.5242 0.0000 0.0000 31.8771 0.0000 0.0000 40.3853 -3.8819 11.9094 110.0000 0.0000 0.0000 24.3753 0.0000 0.0000 48.5107 -27.5831 36.8186 99.3165 0.0000 0.0000 13.1196 0.0000 0.0000 0.0000 0.0000 0.0000 0.0000 0.0000 0.0000 0.0000 0.0000 0.0000 0.0000 0.0000 0.0000 0.0000 0.0000 0.0000 0.0000 0.0000 0.0000
0.0000 95.0000 0.0000 0.0000 0.0000 0.0000 0.0000 0.0000 0.0000 0.0000 0.0000 0.0000 0.0000 0.0000 0.0000 0.0000 0.0000 0.0000 0.0000 0.0000 0.0000 0.0000 0.0000 0.0000 -69.7728 -6.1092 -8.7530 7.1050 32.8437 -37.9546 -36.6815 -25.9627 46.6210 79.5365 -15.0301 -17.3081 34.6140 0.0000 0.0000 20.5563 0.0000 0.0000 -16.2074 13.3596 -146.5971 9.7885 0.0000 0.0000 2.8691 0.0000 0.0000 -5.6080 -17.3753 -149.2269 15.2609 0.0000 0.0000 5.1076 0.0000 0.0000 -2.4099 -45.3503 -143.3545 24.7698 0.0000 0.0000 16.8787 0.0000 0.0000 -10.4147 -68.7883 -125.5172 27.2794 0.0000 0.0000 22.1733 0.0000 0.0000 0.0000 0.0000 0.0000 79.6357 -23.1820 27.6429 -236.5787 66.9823 -152.1058 379.5825 -20.6304 45.2908 -49.9094 -9.3045 -7.2785 43.2092 0.0000 0.0000 20.5792 0.0000 0.0000 38.6906 1.1151 3.7840 4.9506 0.0000 0.0000 2.0439 0.0000 0.0000 26.6993 -0.1312 5.3246 8.3289 0.0000 0.0000 2.7317 0.0000 0.0000 32.9404 -0.2107 4.8337 110.0000 0.0000 0.0000 14.0645 0.0000 0.0000 33.8236 -4.7890 11.5032 110.0000 0.0000 0.0000 4.7616 0.0000 0.0000 0.0000 0.0000 0.0000 0.0000 0.0000 0.0000 0.0000 0.0000 0.0000 0.0000 0.0000 0.0000 0.0000 0.0000 0.0000 0.0000 0.0000 0.0000
0.0000 95.0000 0.0000 0.0000 0.0000 0.0000 0.0000 0.0000 0.0000 0.0000 0.0000 0.0000 0.0000 0.0000 0.0000 0.0000 0.0000 0.0000 0.0000 0.0000 0.0000 0.0000 0.0000 0.0000 -69.6268 -7.6741 -11.0185 9.2932 32.2395 -34.9691 -40.5818 -24.5330 51.3604 72.6237 -14.8426 -9.7249 28.9545 0.0000 0.0000 18.9219 0.0000 0.0000 -23.2581 -6.3393 -144.3760 16.2444 0.0000 0.0000 5.1797 0.0000 0.0000 -10.9997 -33.0440 -148.8050 17.9825 0.0000 0.0000 6.0960 0.0000 0.0000 -2.6113 -49.5915 -146.8118 24.0631 0.0000 0.0000 11.2760 0.0000 0.0000 2.6720 -68.8306 -142.7917 24.5945 0.0000 0.0000 16.8435 0.0000 0.0000 0.0000 0.0000 0.0000 78.9090 -23.3862 28.2315 -243.2045 70.4844 -161.6318 360.6868 -17.6180 40.8932 -49.5318 -9.8511 -4.3262 48.0072 0.0000 0.0000 23.9344 0.0000 0.0000 40.5804 1.0764 4.1240 11.8026 0.0000 0.0000 3.0196 0.0000 0.0000 25.9865 -0.4148 6.5694 6.2384 0.0000 0.0000 2.8825 0.0000 0.0000 34.4224 0.2938 3.8119 110.0000 0.0000 0.0000 16.8483 0.0000 0.0000 26.4438 -0.5353 4.7322 110.0000 0.0000 0.0000 6.4578 0.0000 0.0000 0.0000 0.0000 0.0000 0.0000 0.0000 0.0000 0.0000 0.0000 0.0000 0.0000 0.0000 0.0000 0.0000 0.0000 0.0000 0.0000 0.0000 0.0000
0.0000 95.0000 0.0000 0.0000 0.0000 0.0000 0.0000 0.0000 0.0000 0.0000 0.0000 0.0000 0.0000 0.0000 0.0000 0.0000 0.0000 0.0000 0.0000 0.0000 0.0000 0.0000 0.0000 0.0000 -71.6461 -6.9951 -9.6797 9.4005 29.5873 -31.3739 -36.3106 -25.5647 44.4432 67.0024 -14.2361 -7.4710 28.8917 0.0000 0.0000 14.3775 0.0000 0.0000 -24.5461 -9.8026 -144.3685 14.5800 0.0000 0.0000 7.9769 0.0000 0.0000 -11.3428 -34.7621 -149.5673 15.7554 0.0000 0.0000 4.4196 0.0000 0.0000 0.4026 -45.0601 -149.2779 21.8519 0.0000 0.0000 5.4394 0.0000 0.0000 7.5341 -64.4299 -146.2653 23.3106 0.0000 0.0000 8.4866 0.0000 0.0000 0.0000 0.0000 0.0000 80.1249 -23.0607 27.2714 -226.1927 68.7645 -141.2865 341.8782 -31.5400 40.9108 -67.3606 -13.7678 -2.6671 37.5940 0.0000 0.0000 15.0202 0.0000 0.0000 16.7934 0.7089 -1.2056 11.9883 0.0000 0.0000 12.4997 0.0000 0.0000 10.5121 0.0189 4.5667 7.8501 0.0000 0.0000 4.7563 0.0000 0.0000 1.0331 -0.3803 2.9261 60.8070 0.0000 0.0000 39.9379 0.0000 0.0000 -27.7724 -2.0591 0.6231 80.3154 0.0000 0.0000 40.9029 0.0000 0.0000 0.0000 0.0000 0.0000 0.0000 0.0000 0.0000 0.0000 0.0000 0.0000 0.0000 0.0000 0.0000 0.0000 0.0000 0.0000 0.0000 0.0000 0.0000
0.0000 95.0000 0.0000 0.0000 0.0000 0.0000 0.0000 0.0000 0.0000 0.0000 0.0000 0.0000 0.0000 0.0000 0.0000 0.0000 0.0000 0.0000 0.0000 0.0000 0.0000 0.0000 0.0000 0.0000 -73.8298 -3.3444 -4.4510 6.5595 21.7206 -24.7151 -36.1895 -24.9485 33.3348 61.4756 -13.1083 -2.1610 16.1725 0.0000 0.0000 8.7056 0.0000 0.0000 7.4921 6.9242 -28.7853 110.0000 0.0000 0.0000 8.9426 0.0000 0.0000 23.9920 6.3909 -34.2147 110.0000 0.0000 0.0000 8.1380 0.0000 0.0000 29.5517 1.2825 -24.4257 110.0000 0.0000 0.0000 5.6953 0.0000 0.0000 27.6459 -2.8289 -14.5633 110.0000 0.0000 0.0000 6.4679 0.0000 0.0000 0.0000 0.0000 0.0000 83.3454 -24.9386 27.9033 -185.9867 61.8130 -99.0744 432.3685 -35.6908 70.6700 -54.3640 -8.3869 -18.6483 11.4688 0.0000 0.0000 3.5249 0.0000 0.0000 6.4978 -1.1178 -11.3183 10.1416 0.0000 0.0000 1.7924 0.0000 0.0000 -3.5468 -0.4535 -9.7977 13.8843 0.0000 0.0000 2.9737 0.0000 0.0000 -7.8327 0.4144 -11.8111 11.5509 0.0000 0.0000 8.7013 0.0000 0.0000 -11.7878 1.4670 -11.7554 14.1421 0.0000 0.0000 17.5050 0.0000 0.0000 0.0000 0.0000 0.0000 0.0000 0.0000 0.0000 0.0000 0.0000 0.0000 0.0000 0.0000 0.0000 0.0000 0.0000 0.0000 0.0000 0.0000 0.0000
0.0000 95.0000 0.0000 0.0000 0.0000 0.0000 0.0000 0.0000 0.0000 0.0000 0.0000 0.0000 0.0000 0.0000 0.0000 0.0000 0.0000 0.0000 0.0000 0.0000 0.0000 0.0000 0.0000 0.0000 -74.2823 3.3409 4.4100 4.4217 6.0842 -7.7655 -23.3736 -8.5868 1.7751 61.4756 -13.1083 -2.1610 16.1725 0.0000 0.0000 8.7056 0.0000 0.0000 7.4921 6.9242 -28.7853 110.0000 0.0000 0.0000 8.9426 0.0000 0.0000 23.9920 6.3909 -34.2147 110.0000 0.0000 0.0000 8.1380 0.0000 0.0000 29.5517 1.2825 -24.4257 110.0000 0.0000 0.0000 5.6953 0.0000 0.0000 27.6459 -2.8289 -14.5633 110.0000 0.0000 0.0000 6.4679 0.0000 0.0000 0.0000 0.0000 0.0000 86.3285 -27.8847 29.6524 -157.8086 48.8805 -72.8242 596.2538 -45.5183 96.3565 -58.7796 -10.8024 -12.4195 3.3268 0.0000 0.0000 17.6959 0.0000 0.0000 4.8091 0.0620 -1.1175 6.0611 0.0000 0.0000 10.1480 0.0000 0.0000 5.0144 -0.0139 5.0889 0.9512 0.0000 0.0000 1.1435 0.0000 0.0000 -2.7084 -0.6321 4.1180 92.9781 0.0000 0.0000 70.3573 0.0000 0.0000 -17.2919 -2.1286 5.7545 35.2104 0.0000 0.0000 76.3543 0.0000 0.0000 0.0000 0.0000 0.0000 0.0000 0.0000 0.0000 0.0000 0.0000 0.0000 0.0000 0.0000 0.0000 0.0000 0.0000 0.0000 0.0000 0.0000 0.0000
0.0000 95.0000 0.0000 0.0000 0.0000 0.0000 0.0000 0.0000 0.0000 0.0000 0.0000 0.0000 0.0000 0.0000 0.0000 0.0000 0.0000 0.0000 0.0000 0.0000 0.0000 0.0000 0.0000 0.0000 -73.2123 8.7451 11.7542 -0.8456 13.1227 -17.8425 -20.1069 -10.4050 3.8416 61.4756 -13.1083 -2.1610 16.1725 0.0000 0.0000 8.7056 0.0000 0.0000 7.4921 6.9242 -28.7853 110.0000 0.0000 0.0000 8.9426 0.0000 0.0000 23.9920 6.3909 -34.2147 110.0000 0.0000 0.0000 8.1380 0.0000 0.0000 29.5517 1.2825 -24.4257 110.0000 0.0000 0.0000 5.6953 0.0000 0.0000 27.6459 -2.8289 -14.5633 110.0000 0.0000 0.0000 6.4679 0.0000 0.0000 0.0000 0.0000 0.0000 84.3550 -31.0211 34.0604 -142.0091 40.1583 -62.1344 590.3456 -39.6884 104.7245 -61.3109 -11.6897 -11.0005 2.0255 0.0000 0.0000 42.3960 0.0000 0.0000 -5.6850 -1.5140 -5.3471 4.6846 0.0000 0.0000 5.7214 0.0000 0.0000 1.5689 0.0315 2.4681 1.6286 0.0000 0.0000 2.5829 0.0000 0.0000 -1.6619 -0.2013 0.8562 8.7833 0.0000 0.0000 6.4860 0.0000 0.0000 -14.4034 -0.9193 -0.8783 34.5984 0.0000 0.0000 67.5493 0.0000 0.0000 0.0000 0.0000 0.0000 0.0000 0.0000 0.0000 0.0000 0.0000 0.0000 0.0000 0.0000 0.0000 0.0000 0.0000 0.0000 0.0000 0.0000 0.0000
0.0000 95.0000 0.0000 0.0000 0.0000 0.0000 0.0000 0.0000 0.0000 0.0000 0.0000 0.0000 0.0000 0.0000 0.0000 0.0000 0.0000 0.0000 0.0000 0.0000 0.0000 0.0000 0.0000 0.0000 -72.1030 11.5540 15.8254 -3.8203 15.8720 -22.3712 -18.6302 -10.5917 3.8522 61.4756 -13.1083 -2.1610 16.1725 0.0000 0.0000 8.7056 0.0000 0.0000 7.4921 6.9242 -28.7853 110.0000 0.0000 0.0000 8.9426 0.0000 0.0000 23.9920 6.3909 -34.2147 110.0000 0.0000 0.0000 8.1380 0.0000 0.0000 29.5517 1.2825 -24.4257 110.0000 0.0000 0.0000 5.6953 0.0000 0.0000 27.6459 -2.8289 -14.5633 110.0000 0.0000 0.0000 6.4679 0.0000 0.0000 0.0000 0.0000 0.0000 82.8460 -33.0663 37.1890 -138.7814 34.8719 -61.1747 598.0380 -40.6875 102.2580 -60.3150 -10.8450 -15.7546 3.3481 0.0000 0.0000 36.6323 0.0000 0.0000 2.0596 -1.3475 -8.7773 17.6230 0.0000 0.0000 12.3307 0.0000 0.0000 2.0139 0.0875 -0.2026 3.2315 0.0000 0.0000 0.3544 0.0000 0.0000 -5.4084 -0.1349 -1.8083 5.9072 0.0000 0.0000 3.0126 0.0000 0.0000 -18.7257 -0.8463 -3.9643 7.7565 0.0000 0.0000 6.0474 0.0000 0.0000 0.0000 0.0000 0.0000 0.0000 0.0000 0.0000 0.0000 0.0000 0.0000 0.0000 0.0000 0.0000 0.0000 0.0000 0.0000 0.0000 0.0000 0.0000
0.0000 95.0000 0.0000 0.0000 0.0000 0.0000 0.0000 0.0000 0.0000 0.0000 0.0000 0.0000 0.0000 0.0000 0.0000 0.0000 0.0000 0.0000 0.0000 0.0000 0.0000 0.0000 0.0000 0.0000 -74.5685 4.5782 6.0109 -1.0999 9.2230 -12.2720 -18.0795 -10.6431 3.8309 61.4756 -13.1083 -2.1610 16.1725 0.0000 0.0000 8.7056 0.0000 0.0000 7.4921 6.9242 -28.7853 110.0000 0.0000 0.0000 8.9426 0.0000 0.0000 23.9920 6.3909 -34.2147 110.0000 0.0000 0.0000 8.1380 0.0000 0.0000 29.5517 1.2825 -24.4257 110.0000 0.0000 0.0000 5.6953 0.0000 0.0000 27.6459 -2.8289 -14.5633 110.0000 0.0000 0.0000 6.4679 0.0000 0.0000 0.0000 0.0000 0.0000 81.2831 -34.0307 39.2444 -138.3004 33.3794 -61.8307 596.8575 -37.9408 106.9002 -59.2316 -10.9046 -12.6427 2.6354 0.0000 0.0000 38.0869 0.0000 0.0000 0.1721 -1.3727 -7.6242 5.4713 0.0000 0.0000 8.0801 0.0000 0.0000 10.3727 0.3075 1.3846 4.2868 0.0000 0.0000 3.8444 0.0000 0.0000 -0.6655 0.2002 -1.7599 3.6290 0.0000 0.0000 3.3769 0.0000 0.0000 -13.4558 -0.5410 -2.5305 2.0990 0.0000 0.0000 3.9817 0.0000 0.0000 0.0000 0.0000 0.0000 0.0000 0.0000 0.0000 0.0000 0.0000 0.0000 0.0000 0.0000 0.0000 0.0000 0.0000 0.0000 0.0000 0.0000 0.0000
0.0000 95.0000 0.0000 0.0000 0.0000 0.0000 0.0000 0.0000 0.0000 0.0000 0.0000 0.0000 0.0000 0.0000 0.0000 0.0000 0.0000 0.0000 0.0000 0.0000 0.0000 0.0000 0.0000 0.0000 -74.5082 4.6102 6.0594 -0.9379 9.2554 -12.3100 -18.3068 -10.6351 3.8570 61.4756 -13.1083 -2.1610 16.1725 0.0000 0.0000 8.7056 0.0000 0.0000 7.4921 6.9242 -28.7853 110.0000 0.0000 0.0000 8.9426 0.0000 0.0000 23.9920 6.3909 -34.2147 110.0000 0.0000 0.0000 8.1380 0.0000 0.0000 29.5517 1.2825 -24.4257 110.0000 0.0000 0.0000 5.6953 0.0000 0.0000 27.6459 -2.8289 -14.5633 110.0000 0.0000 0.0000 6.4679 0.0000 0.0000 0.0000 0.0000 0.0000 81.3913 -34.8305 40.0774 -137.3409 30.4229 -61.5547 590.2369 -40.5457 112.1649 -63.6426 -12.1832 -12.6504 3.3433 0.0000 0.0000 40.6764 0.0000 0.0000 0.5147 -0.9280 -5.3545 14.9533 0.0000 0.0000 64.0842 0.0000 0.0000 7.1976 0.1355 2.6182 3.1297 0.0000 0.0000 4.1399 0.0000 0.0000 -3.3947 -0.2854 0.8576 2.9461 0.0000 0.0000 2.4297 0.0000 0.0000 -17.9318 -1.3071 -0.1350 13.0907 0.0000 0.0000 17.4511 0.0000 0.0000 0.0000 0.0000 0.0000 0.0000 0.0000 0.0000 0.0000 0.0000 0.0000 0.0000 0.0000 0.0000 0.0000 0.0000 0.0000 0.0000 0.0000 0.0000
0.0000 95.0000 0.0000 0.0000 0.0000 0.0000 0.0000 0.0000 0.0000 0.0000 0.0000 0.0000 0.0000 0.0000 0.0000 0.0000 0.0000 0.0000 0.0000 0.0000 0.0000 0.0000 0.0000 0.0000 -75.1988 4.7307 6.1406 0.4457 9.5456 -12.3835 -19.0354 -10.6817 4.0379 61.4756 -13.1083 -2.1610 16.1725 0.0000 0.0000 8.7056 0.0000 0.0000 7.4921 6.9242 -28.7853 110.0000 0.0000 0.0000 8.9426 0.0000 0.0000 23.9920 6.3909 -34.2147 110.0000 0.0000 0.0000 8.1380 0.0000 0.0000 29.5517 1.2825 -24.4257 110.0000 0.0000 0.0000 5.6953 0.0000 0.0000 27.6459 -2.8289 -14.5633 110.0000 0.0000 0.0000 6.4679 0.0000 0.0000 0.0000 0.0000 0.0000 82.0552 -35.3125 40.1856 -136.3477 28.5288 -61.0889 586.6399 -41.2533 114.3542 -63.0691 -12.2010 -10.6783 3.1174 0.0000 0.0000 48.9313 0.0000 0.0000 -6.8250 -2.6632 -9.5618 5.6600 0.0000 0.0000 11.4059 0.0000 0.0000 5.2124 0.1335 1.8401 1.2093 0.0000 0.0000 4.2965 0.0000 0.0000 -2.8397 -0.2767 1.0153 0.7267 0.0000 0.0000 4.7361 0.0000 0.0000 -15.4478 -1.5193 2.2641 9.7091 0.0000 0.0000 5.7282 0.0000 0.0000 0.0000 0.0000 0.0000 0.0000 0.0000 0.0000 0.0000 0.0000 0.0000 0.0000 0.0000 0.0000 0.0000 0.0000 0.0000 0.0000 0.0000 0.0000
0.0000 95.0000 0.0000 0.0000 0.0000 0.0000 0.0000 0.0000 0.0000 0.0000 0.0000 0.0000 0.0000 0.0000 0.0000 0.0000 0.0000 0.0000 0.0000 0.0000 0.0000 0.0000 0.0000 0.0000 -75.2220 4.7622 6.1789 0.6333 9.5680 -12.3867 -19.1992 -10.6591 4.0349 61.4756 -13.1083 -2.1610 16.1725 0.0000 0.0000 8.7056 0.0000 0.0000 7.4921 6.9242 -28.7853 110.0000 0.0000 0.0000 8.9426 0.0000 0.0000 23.9920 6.3909 -34.2147 110.0000 0.0000 0.0000 8.1380 0.0000 0.0000 29.5517 1.2825 -24.4257 110.0000 0.0000 0.0000 5.6953 0.0000 0.0000 27.6459 -2.8289 -14.5633 110.0000 0.0000 0.0000 6.4679 0.0000 0.0000 0.0000 0.0000 0.0000 81.5745 -35.4240 40.6252 -136.3799 29.6995 -61.6223 588.0202 -38.4311 115.6350 -61.3035 -11.8757 -9.2697 3.1114 0.0000 0.0000 44.3822 0.0000 0.0000 0.2869 -1.0123 -5.7036 13.4579 0.0000 0.0000 27.3235 0.0000 0.0000 12.3839 0.2284 2.6670 3.4806 0.0000 0.0000 3.6166 0.0000 0.0000 1.9234 -0.0128 0.7683 9.4770 0.0000 0.0000 6.2178 0.0000 0.0000 -15.1036 -1.3369 1.2794 9.6959 0.0000 0.0000 4.0210 0.0000 0.0000 0.0000 0.0000 0.0000 0.0000 0.0000 0.0000 0.0000 0.0000 0.0000 0.0000 0.0000 0.0000 0.0000 0.0000 0.0000 0.0000 0.0000 0.0000
0.0000 95.0000 0.0000 0.0000 0.0000 0.0000 0.0000 0.0000 0.0000 0.0000 0.0000 0.0000 0.0000 0.0000 0.0000 0.0000 0.0000 0.0000 0.0000 0.0000 0.0000 0.0000 0.0000 0.0000 -74.6095 4.7215 6.1942 0.2281 9.4266 -12.3835 -19.3938 -10.6111 4.0029 61.4756 -13.1083 -2.1610 16.1725 0.0000 0.0000 8.7056 0.0000 0.0000 7.4921 6.9242 -28.7853 110.0000 0.0000 0.0000 8.9426 0.0000 0.0000 23.9920 6.3909 -34.2147 110.0000 0.0000 0.0000 8.1380 0.0000 0.0000 29.5517 1.2825 -24.4257 110.0000 0.0000 0.0000 5.6953 0.0000 0.0000 27.6459 -2.8289 -14.5633 110.0000 0.0000 0.0000 6.4679 0.0000 0.0000 0.0000 0.0000 0.0000 81.4857 -35.3524 40.6032 -137.3735 30.0131 -62.1943 588.7772 -38.5493 117.2320 -61.1505 -11.8959 -8.7239 5.6745 0.0000 0.0000 39.5564 0.0000 0.0000 -1.2130 -0.9622 -4.6931 5.8986 0.0000 0.0000 16.0355 0.0000 0.0000 9.6804 0.1542 2.9508 2.4339 0.0000 0.0000 2.2115 0.0000 0.0000 1.3623 -0.0793 1.0213 5.5215 0.0000 0.0000 5.7192 0.0000 0.0000 -14.3744 -1.4042 1.9219 7.1424 0.0000 0.0000 5.8393 0.0000 0.0000 0.0000 0.0000 0.0000 0.0000 0.0000 0.0000 0.0000 0.0000 0.0000 0.0000 0.0000 0.0000 0.0000 0.0000 0.0000 0.0000 0.0000 0.0000
0.0000 95.0000 0.0000 0.0000 0.0000 0.0000 0.0000 0.0000 0.0000 0.0000 0.0000 0.0000 0.0000 0.0000 0.0000 0.0000 0.0000 0.0000 0.0000 0.0000 0.0000 0.0000 0.0000 0.0000 -74.2672 4.7075 6.2143 0.2041 9.3884 -12.4122 -19.7146 -10.6015 4.0430 61.4756 -13.1083 -2.1610 16.1725 0.0000 0.0000 8.7056 0.0000 0.0000 7.4921 6.9242 -28.7853 110.0000 0.0000 0.0000 8.9426 0.0000 0.0000 23.9920 6.3909 -34.2147 110.0000 0.0000 0.0000 8.1380 0.0000 0.0000 29.5517 1.2825 -24.4257 110.0000 0.0000 0.0000 5.6953 0.0000 0.0000 27.6459 -2.8289 -14.5633 110.0000 0.0000 0.0000 6.4679 0.0000 0.0000 0.0000 0.0000 0.0000 82.1989 -35.2980 40.0759 -137.8936 29.4562 -62.2157 586.2943 -37.9704 118.1463 -61.1205 -11.8072 -9.4623 2.4271 0.0000 0.0000 43.0265 0.0000 0.0000 -5.9722 -1.8640 -6.7013 4.4013 0.0000 0.0000 7.0516 0.0000 0.0000 6.3619 0.1291 2.4493 0.6976 0.0000 0.0000 1.7024 0.0000 0.0000 -1.5796 -0.1638 0.5914 2.0750 0.0000 0.0000 4.0645 0.0000 0.0000 -14.5306 -1.2304 0.8637 4.2429 0.0000 0.0000 3.8000 0.0000 0.0000 0.0000 0.0000 0.0000 0.0000 0.0000 0.0000 0.0000 0.0000 0.0000 0.0000 0.0000 0.0000 0.0000 0.0000 0.0000 0.0000 0.0000 0.0000
0.0000 95.0000 0.0000 0.0000 0.0000 0.0000 0.0000 0.0000 0.0000 0.0000 0.0000 0.0000 0.0000 0.0000 0.0000 0.0000 0.0000 0.0000 0.0000 0.0000 0.0000 0.0000 0.0000 0.0000 -74.6473 4.7519 6.2298 0.5991 9.4775 -12.4009 -19.7339 -10.6043 4.0501 61.4756 -13.1083 -2.1610 16.1725 0.0000 0.0000 8.7056 0.0000 0.0000 7.4921 6.9242 -28.7853 110.0000 0.0000 0.0000 8.9426 0.0000 0.0000 23.9920 6.3909 -34.2147 110.0000 0.0000 0.0000 8.1380 0.0000 0.0000 29.5517 1.2825 -24.4257 110.0000 0.0000 0.0000 5.6953 0.0000 0.0000 27.6459 -2.8289 -14.5633 110.0000 0.0000 0.0000 6.4679 0.0000 0.0000 0.0000 0.0000 0.0000 82.6507 -35.2064 39.6819 -138.3380 29.8188 -62.4251 589.6200 -37.7965 116.6386 -59.0595 -11.3123 -9.1291 3.3721 0.0000 0.0000 34.3672 0.0000 0.0000 -2.8760 -1.0887 -4.5937 2.0262 0.0000 0.0000 6.8037 0.0000 0.0000 9.3271 0.1269 3.2170 1.4397 0.0000 0.0000 1.3896 0.0000 0.0000 0.7992 -0.1193 1.1109 6.5129 0.0000 0.0000 5.3219 0.0000 0.0000 -17.1039 -1.5380 1.8150 11.0437 0.0000 0.0000 6.6167 0.0000 0.0000 0.0000 0.0000 0.0000 0.0000 0.0000 0.0000 0.0000 0.0000 0.0000 0.0000 0.0000 0.0000 0.0000 0.0000 0.0000 0.0000 0.0000 0.0000
0.0000 95.0000 0.0000 0.0000 0.0000 0.0000 0.0000 0.0000 0.0000 0.0000 0.0000 0.0000 0.0000 0.0000 0.0000 0.0000 0.0000 0.0000 0.0000 0.0000 0.0000 0.0000 0.0000 0.0000 -74.7651 4.7809 6.2545 0.9615 9.5465 -12.4248 -19.9882 -10.6140 4.1057 61.4756 -13.1083 -2.1610 16.1725 0.0000 0.0000 8.7056 0.0000 0.0000 7.4921 6.9242 -28.7853 110.0000 0.0000 0.0000 8.9426 0.0000 0.0000 23.9920 6.3909 -34.2147 110.0000 0.0000 0.0000 8.1380 0.0000 0.0000 29.5517 1.2825 -24.4257 110.0000 0.0000 0.0000 5.6953 0.0000 0.0000 27.6459 -2.8289 -14.5633 110.0000 0.0000 0.0000 6.4679 0.0000 0.0000 0.0000 0.0000 0.0000 82.8838 -35.4209 39.7690 -138.9621 29.3940 -62.9595 587.3747 -38.3649 122.2559 -60.6194 -12.0943 -5.7891 5.5375 0.0000 0.0000 34.9132 0.0000 0.0000 -4.1231 -0.7616 -2.6091 1.5015 0.0000 0.0000 4.6257 0.0000 0.0000 8.8014 0.1719 2.5379 2.7113 0.0000 0.0000 2.0595 0.0000 0.0000 2.1947 -0.0946 1.3626 10.6609 0.0000 0.0000 5.9578 0.0000 0.0000 -15.5480 -1.7101 3.4022 15.1013 0.0000 0.0000 6.2403 0.0000 0.0000 0.0000 0.0000 0.0000 0.0000 0.0000 0.0000 0.0000 0.0000 0.0000 0.0000 0.0000 0.0000 0.0000 0.0000 0.0000 0.0000 0.0000 0.0000
0.0000 95.0000 0.0000 0.0000 0.0000 0.0000 0.0000 0.0000 0.0000 0.0000 0.0000 0.0000 0.0000 0.0000 0.0000 0.0000 0.0000 0.0000 0.0000 0.0000 0.0000 0.0000 0.0000 0.0000 -74.9311 4.7991 6.2596 0.7775 9.5692 -12.4379 -19.6368 -10.6251 4.0619 61.4756 -13.1083 -2.1610 16.1725 0.0000 0.0000 8.7056 0.0000 0.0000 7.4921 6.9242 -28.7853 110.0000 0.0000 0.0000 8.9426 0.0000 0.0000 23.9920 6.3909 -34.2147 110.0000 0.0000 0.0000 8.1380 0.0000 0.0000 29.5517 1.2825 -24.4257 110.0000 0.0000 0.0000 5.6953 0.0000 0.0000 27.6459 -2.8289 -14.5633 110.0000 0.0000 0.0000 6.4679 0.0000 0.0000 0.0000 0.0000 0.0000 83.3591 -34.8928 38.8844 -140.3748 29.8863 -63.1725 586.3761 -38.8520 122.5101 -62.1101 -12.3737 -6.3697 7.2680 0.0000 0.0000 30.7418 0.0000 0.0000 -4.1139 -0.6514 -2.1104 1.8578 0.0000 0.0000 5.4540 0.0000 0.0000 6.7315 0.1220 2.6971 1.6167 0.0000 0.0000 2.7506 0.0000 0.0000 1.3449 -0.1358 1.3857 8.2122 0.0000 0.0000 4.5981 0.0000 0.0000 -14.9717 -1.6362 3.1057 19.0614 0.0000 0.0000 7.5847 0.0000 0.0000 0.0000 0.0000 0.0000 0.0000 0.0000 0.0000 0.0000 0.0000 0.0000 0.0000 0.0000 0.0000 0.0000 0.0000 0.0000 0.0000 0.0000 0.0000
0.0000 95.0000 0.0000 0.0000 0.0000 0.0000 0.0000 0.0000 0.0000 0.0000 0.0000 0.0000 0.0000 0.0000 0.0000 0.0000 0.0000 0.0000 0.0000 0.0000 0.0000 0.0000 0.0000 0.0000 -75.4483 4.8282 6.2391 1.1366 9.6199 -12.3490 -19.4703 -10.6036 4.0054 61.4756 -13.1083 -2.1610 16.1725 0.0000 0.0000 8.7056 0.0000 0.0000 7.4921 6.9242 -28.7853 110.0000 0.0000 0.0000 8.9426 0.0000 0.0000 23.9920 6.3909 -34.2147 110.0000 0.0000 0.0000 8.1380 0.0000 0.0000 29.5517 1.2825 -24.4257 110.0000 0.0000 0.0000 5.6953 0.0000 0.0000 27.6459 -2.8289 -14.5633 110.0000 0.0000 0.0000 6.4679 0.0000 0.0000 0.0000 0.0000 0.0000 83.3568 -34.8064 38.7910 -140.4295 30.0115 -63.1210 586.4882 -38.1966 122.0646 -59.5262 -11.9767 -4.7239 2.9019 0.0000 0.0000 41.0608 0.0000 0.0000 -6.0029 -0.5971 -1.3576 3.6492 0.0000 0.0000 4.2352 0.0000 0.0000 5.8978 0.1389 2.0756 3.5955 0.0000 0.0000 2.5085 0.0000 0.0000 0.1470 -0.1735 1.2796 5.7207 0.0000 0.0000 4.9808 0.0000 0.0000 -16.4507 -1.8767 4.2369 12.5618 0.0000 0.0000 5.0495 0.0000 0.0000 0.0000 0.0000 0.0000 0.0000 0.0000 0.0000 0.0000 0.0000 0.0000 0.0000 0.0000 0.0000 0.0000 0.0000 0.0000 0.0000 0.0000 0.0000
0.0000 95.0000 0.0000 0.0000 0.0000 0.0000 0.0000 0.0000 0.0000 0.0000 0.0000 0.0000 0.0000 0.0000 0.0000 0.0000 0.0000 0.0000 0.0000 0.0000 0.0000 0.0000 0.0000 0.0000 -75.9829 4.8638 6.2249 1.4677 9.6872 -12.2814 -19.2617 -10.5935 3.9575 61.4756 -13.1083 -2.1610 16.1725 0.0000 0.0000 8.7056 0.0000 0.0000 7.4921 6.9242 -28.7853 110.0000 0.0000 0.0000 8.9426 0.0000 0.0000 23.9920 6.3909 -34.2147 110.0000 0.0000 0.0000 8.1380 0.0000 0.0000 29.5517 1.2825 -24.4257 110.0000 0.0000 0.0000 5.6953 0.0000 0.0000 27.6459 -2.8289 -14.5633 110.0000 0.0000 0.0000 6.4679 0.0000 0.0000 0.0000 0.0000 0.0000 83.6046 -34.7693 38.5944 -140.7955 29.5389 -63.1263 586.1184 -38.7840 122.2104 -59.8946 -11.9754 -5.4080 4.7032 0.0000 0.0000 41.3692 0.0000 0.0000 -2.7585 -0.3692 -1.1751 1.6363 0.0000 0.0000 4.6858 0.0000 0.0000 8.3238 0.0710 3.7963 3.4529 0.0000 0.0000 2.0503 0.0000 0.0000 1.9189 -0.2806 2.4644 7.7318 0.0000 0.0000 5.7429 0.0000 0.0000 -14.2236 -1.8947 4.7746 12.1384 0.0000 0.0000 6.5246 0.0000 0.0000 0.0000 0.0000 0.0000 0.0000 0.0000 0.0000 0.0000 0.0000 0.0000 0.0000 0.0000 0.0000 0.0000 0.0000 0.0000 0.0000 0.0000 0.0000
0.0000 95.0000 0.0000 0.0000 0.0000 0.0000 0.0000 0.0000 0.0000 0.0000 0.0000 0.0000 0.0000 0.0000 0.0000 0.0000 0.0000 0.0000 0.0000 0.0000 0.0000 0.0000 0.0000 0.0000 -76.0125 4.8596 6.2163 1.0957 9.6730 -12.2971 -18.8571 -10.6070 3.9092 61.4756 -13.1083 -2.1610 16.1725 0.0000 0.0000 8.7056 0.0000 0.0000 7.4921 6.9242 -28.7853 110.0000 0.0000 0.0000 8.9426 0.0000 0.0000 23.9920 6.3909 -34.2147 110.0000 0.0000 0.0000 8.1380 0.0000 0.0000 29.5517 1.2825 -24.4257 110.0000 0.0000 0.0000 5.6953 0.0000 0.0000 27.6459 -2.8289 -14.5633 110.0000 0.0000 0.0000 6.4679 0.0000 0.0000 0.0000 0.0000 0.0000 83.5233 -34.3304 38.1647 -141.3061 30.4035 -63.0825 586.1108 -39.9486 124.0835 -59.6745 -12.0654 -4.2568 4.4473 0.0000 0.0000 32.5507 0.0000 0.0000 -0.1281 0.1148 0.6592 2.8546 0.0000 0.0000 4.5677 0.0000 0.0000 6.6962 -0.0545 5.7029 3.1874 0.0000 0.0000 1.6469 0.0000 0.0000 0.3350 -0.6820 4.8816 7.8568 0.0000 0.0000 5.7061 0.0000 0.0000 -14.4014 -2.2075 6.5530 11.8149 0.0000 0.0000 7.8479 0.0000 0.0000 0.0000 0.0000 0.0000 0.0000 0.0000 0.0000 0.0000 0.0000 0.0000 0.0000 0.0000 0.0000 0.0000 0.0000 0.0000 0.0000 0.0000 0.0000
0.0000 95.0000 0.0000 0.0000 0.0000 0.0000 0.0000 0.0000 0.0000 0.0000 0.0000 0.0000 0.0000 0.0000 0.0000 0.0000 0.0000 0.0000 0.0000 0.0000 0.0000 0.0000 0.0000 0.0000 -76.2699 4.8825 6.2168 1.0313 9.7134 -12.2991 -18.5348 -10.6186 3.8722 61.4756 -13.1083 -2.1610 16.1725 0.0000 0.0000 8.7056 0.0000 0.0000 7.4921 6.9242 -28.7853 110.0000 0.0000 0.0000 8.9426 0.0000 0.0000 23.9920 6.3909 -34.2147 110.0000 0.0000 0.0000 8.1380 0.0000 0.0000 29.5517 1.2825 -24.4257 110.0000 0.0000 0.0000 5.6953 0.0000 0.0000 27.6459 -2.8289 -14.5633 110.0000 0.0000 0.0000 6.4679 0.0000 0.0000 0.0000 0.0000 0.0000 83.4083 -33.8231 37.6793 -141.8818 31.5446 -63.0754 585.3546 -42.4334 125.6333 -59.6917 -12.3944 -1.5406 4.4689 0.0000 0.0000 30.1182 0.0000 0.0000 3.6709 0.9231 5.0939 3.4808 0.0000 0.0000 3.6803 0.0000 0.0000 6.2301 -0.2770 9.8583 4.1846 0.0000 0.0000 0.7255 0.0000 0.0000 -1.1384 -1.3422 9.8034 9.2328 0.0000 0.0000 5.7887 0.0000 0.0000 -14.2949 -3.0136 11.1985 14.1351 0.0000 0.0000 7.3590 0.0000 0.0000 0.0000 0.0000 0.0000 0.0000 0.0000 0.0000 0.0000 0.0000 0.0000 0.0000 0.0000 0.0000 0.0000 0.0000 0.0000 0.0000 0.0000 0.0000
0.0000 95.0000 0.0000 0.0000 0.0000 0.0000 0.0000 0.0000 0.0000 0.0000 0.0000 0.0000 0.0000 0.0000 0.0000 0.0000 0.0000 0.0000 0.0000 0.0000 0.0000 0.0000 0.0000 0.0000 -76.9409 4.9391 6.2136 1.6329 9.8444 -12.2524 -18.4693 -10.6269 3.8725 61.4756 -13.1083 -2.1610 16.1725 0.0000 0.0000 8.7056 0.0000 0.0000 7.4921 6.9242 -28.7853 110.0000 0.0000 0.0000 8.9426 0.0000 0.0000 23.9920 6.3909 -34.2147 110.0000 0.0000 0.0000 8.1380 0.0000 0.0000 29.5517 1.2825 -24.4257 110.0000 0.0000 0.0000 5.6953 0.0000 0.0000 27.6459 -2.8289 -14.5633 110.0000 0.0000 0.0000 6.4679 0.0000 0.0000 0.0000 0.0000 0.0000 83.6549 -32.6730 36.2685 -142.9755 34.5438 -63.1068 602.1493 -52.2759 108.9935 -56.4066 -11.4940 -3.4034 5.8649 0.0000 0.0000 20.3964 0.0000 0.0000 9.9937 1.5210 11.5815 6.9738 0.0000 0.0000 4.7445 0.0000 0.0000 1.1745 -0.0971 14.2230 7.8148 0.0000 0.0000 4.5660 0.0000 0.0000 -5.2406 -1.6892 14.8218 15.1035 0.0000 0.0000 16.8612 0.0000 0.0000 -17.3059 -3.4228 14.5593 17.0915 0.0000 0.0000 16.8754 0.0000 0.0000 0.0000 0.0000 0.0000 0.0000 0.0000 0.0000 0.0000 0.0000 0.0000 0.0000 0.0000 0.0000 0.0000 0.0000 0.0000 0.0000 0.0000 0.0000
0.0000 95.0000 0.0000 0.0000 0.0000 0.0000 0.0000 0.0000 0.0000 0.0000 0.0000 0.0000 0.0000 0.0000 0.0000 0.0000 0.0000 0.0000 0.0000 0.0000 0.0000 0.0000 0.0000 0.0000 -77.5752 4.9662 6.1774 1.7659 9.8937 -12.1618 -17.9567 -10.6166 3.7765 61.4756 -13.1083 -2.1610 16.1725 0.0000 0.0000 8.7056 0.0000 0.0000 7.4921 6.9242 -28.7853 110.0000 0.0000 0.0000 8.9426 0.0000 0.0000 23.9920 6.3909 -34.2147 110.0000 0.0000 0.0000 8.1380 0.0000 0.0000 29.5517 1.2825 -24.4257 110.0000 0.0000 0.0000 5.6953 0.0000 0.0000 27.6459 -2.8289 -14.5633 110.0000 0.0000 0.0000 6.4679 0.0000 0.0000 0.0000 0.0000 0.0000 83.7815 -30.7297 34.0653 -143.7945 39.6174 -62.6433 618.3048 -57.2294 90.6738 -54.3252 -11.5677 -0.3945 4.6372 0.0000 0.0000 19.3742 0.0000 0.0000 13.9865 1.5773 16.5199 5.9688 0.0000 0.0000 11.0149 0.0000 0.0000 2.2597 -0.2615 17.9731 21.6698 0.0000 0.0000 90.0000 0.0000 0.0000 -6.7631 -1.9027 18.8486 72.1209 0.0000 0.0000 75.5425 0.0000 0.0000 -19.0596 -3.8531 18.5911 57.6696 0.0000 0.0000 76.9308 0.0000 0.0000 0.0000 0.0000 0.0000 0.0000 0.0000 0.0000 0.0000 0.0000 0.0000 0.0000 0.0000 0.0000 0.0000 0.0000 0.0000 0.0000 0.0000 0.0000
0.0000 95.0000 0.0000 0.0000 0.0000 0.0000 0.0000 0.0000 0.0000 0.0000 0.0000 0.0000 0.0000 0.0000 0.0000 0.0000 0.0000 0.0000 0.0000 0.0000 0.0000 0.0000 0.0000 0.0000 -77.7181 4.9572 6.1505 0.8595 9.8072 -12.1208 -16.8832 -10.5919 3.5751 61.4756 -13.1083 -2.1610 16.1725 0.0000 0.0000 8.7056 0.0000 0.0000 7.4921 6.9242 -28.7853 110.0000 0.0000 0.0000 8.9426 0.0000 0.0000 23.9920 6.3909 -34.2147 110.0000 0.0000 0.0000 8.1380 0.0000 0.0000 29.5517 1.2825 -24.4257 110.0000 0.0000 0.0000 5.6953 0.0000 0.0000 27.6459 -2.8289 -14.5633 110.0000 0.0000 0.0000 6.4679 0.0000 0.0000 0.0000 0.0000 0.0000 82.3737 -28.3879 32.2438 -140.6844 51.8808 -61.3626 668.4691 -56.1979 52.0955 -67.8879 -14.5219 11.7700 6.6452 0.0000 0.0000 15.4858 0.0000 0.0000 1.1385 4.5144 25.8511 74.6337 0.0000 0.0000 90.0000 0.0000 0.0000 -12.5584 2.4863 27.0846 110.0000 0.0000 0.0000 48.1680 0.0000 0.0000 -24.0514 0.6677 28.1330 110.0000 0.0000 0.0000 42.4100 0.0000 0.0000 -37.0187 -1.9574 27.3497 109.1240 0.0000 0.0000 57.5605 0.0000 0.0000 0.0000 0.0000 0.0000 0.0000 0.0000 0.0000 0.0000 0.0000 0.0000 0.0000 0.0000 0.0000 0.0000 0.0000 0.0000 0.0000 0.0000 0.0000
0.0000 95.0000 0.0000 0.0000 0.0000 0.0000 0.0000 0.0000 0.0000 0.0000 0.0000 0.0000 0.0000 0.0000 0.0000 0.0000 0.0000 0.0000 0.0000 0.0000 0.0000 0.0000 0.0000 0.0000 -77.0652 4.8534 6.0923 -0.7193 9.5372 -12.0903 -15.9250 -10.5500 3.3747 61.4756 -13.1083 -2.1610 16.1725 0.0000 0.0000 8.7056 0.0000 0.0000 7.4921 6.9242 -28.7853 110.0000 0.0000 0.0000 8.9426 0.0000 0.0000 23.9920 6.3909 -34.2147 110.0000 0.0000 0.0000 8.1380 0.0000 0.0000 29.5517 1.2825 -24.4257 110.0000 0.0000 0.0000 5.6953 0.0000 0.0000 27.6459 -2.8289 -14.5633 110.0000 0.0000 0.0000 6.4679 0.0000 0.0000 0.0000 0.0000 0.0000 81.6820 -25.7398 29.6108 -130.5871 66.2593 -54.6243 668.3236 -34.1391 64.1702 -76.0613 -15.2659 4.7460 8.3786 0.0000 0.0000 13.6288 0.0000 0.0000 -7.8434 2.1190 9.7942 14.9410 0.0000 0.0000 16.5261 0.0000 0.0000 -19.3922 1.2844 12.2788 22.3199 0.0000 0.0000 39.8077 0.0000 0.0000 -28.7088 -0.1101 13.3008 27.5738 0.0000 0.0000 35.9461 0.0000 0.0000 -40.1415 -2.1391 14.1514 23.6443 0.0000 0.0000 21.8558 0.0000 0.0000 0.0000 0.0000 0.0000 0.0000 0.0000 0.0000 0.0000 0.0000 0.0000 0.0000 0.0000 0.0000 0.0000 0.0000 0.0000 0.0000 0.0000 0.0000
0.0000 95.0000 0.0000 0.0000 0.0000 0.0000 0.0000 0.0000 0.0000 0.0000 0.0000 0.0000 0.0000 0.0000 0.0000 0.0000 0.0000 0.0000 0.0000 0.0000 0.0000 0.0000 0.0000 0.0000 -74.3001 11.7085 15.4137 -2.9821 4.6724 -5.5368 -15.1990 1.8015 -12.0167 61.4756 -13.1083 -2.1610 16.1725 0.0000 0.0000 8.7056 0.0000 0.0000 7.4921 6.9242 -28.7853 110.0000 0.0000 0.0000 8.9426 0.0000 0.0000 23.9920 6.3909 -34.2147 110.0000 0.0000 0.0000 8.1380 0.0000 0.0000 29.5517 1.2825 -24.4257 110.0000 0.0000 0.0000 5.6953 0.0000 0.0000 27.6459 -2.8289 -14.5633 110.0000 0.0000 0.0000 6.4679 0.0000 0.0000 0.0000 0.0000 0.0000 81.9482 -22.6179 25.9342 -46.9624 74.5722 17.5464 652.2172 -46.8447 50.9487 -49.6842 -14.3254 17.1945 11.6502 0.0000 0.0000 10.2390 0.0000 0.0000 -1.2497 4.7800 24.9111 7.6602 0.0000 0.0000 4.7066 0.0000 0.0000 -3.8551 0.9897 33.5597 11.2089 0.0000 0.0000 4.1702 0.0000 0.0000 -5.0673 -3.5044 33.2072 18.5521 0.0000 0.0000 4.9967 0.0000 0.0000 -16.5685 -6.9312 36.6052 21.4683 0.0000 0.0000 6.1217 0.0000 0.0000 0.0000 0.0000 0.0000 0.0000 0.0000 0.0000 0.0000 0.0000 0.0000 0.0000 0.0000 0.0000 0.0000 0.0000 0.0000 0.0000 0.0000 0.0000
0.0000 95.0000 0.0000 0.0000 0.0000 0.0000 0.0000 0.0000 0.0000 0.0000 0.0000 0.0000 0.0000 0.0000 0.0000 0.0000 0.0000 0.0000 0.0000 0.0000 0.0000 0.0000 0.0000 0.0000 -76.2458 7.2814 9.2709 -4.3101 4.3330 -5.1892 -12.2146 -2.4023 -6.7515 61.4756 -13.1083 -2.1610 16.1725 0.0000 0.0000 8.7056 0.0000 0.0000 7.4921 6.9242 -28.7853 110.0000 0.0000 0.0000 8.9426 0.0000 0.0000 23.9920 6.3909 -34.2147 110.0000 0.0000 0.0000 8.1380 0.0000 0.0000 29.5517 1.2825 -24.4257 110.0000 0.0000 0.0000 5.6953 0.0000 0.0000 27.6459 -2.8289 -14.5633 110.0000 0.0000 0.0000 6.4679 0.0000 0.0000 0.0000 0.0000 0.0000 83.2881 -18.5457 20.8085 -7.0543 55.0275 43.3475 659.5116 -17.3936 51.3741 -49.6842 -14.3254 17.1945 11.6502 0.0000 0.0000 10.2390 0.0000 0.0000 -1.2497 4.7800 24.9111 7.6602 0.0000 0.0000 4.7066 0.0000 0.0000 -3.8551 0.9897 33.5597 11.2089 0.0000 0.0000 4.1702 0.0000 0.0000 -5.0673 -3.5044 33.2072 18.5521 0.0000 0.0000 4.9967 0.0000 0.0000 -16.5685 -6.9312 36.6052 21.4683 0.0000 0.0000 6.1217 0.0000 0.0000 0.0000 0.0000 0.0000 0.0000 0.0000 0.0000 0.0000 0.0000 0.0000 0.0000 0.0000 0.0000 0.0000 0.0000 0.0000 0.0000 0.0000 0.0000
0.0000 95.0000 0.0000 0.0000 0.0000 0.0000 0.0000 0.0000 0.0000 0.0000 0.0000 0.0000 0.0000 0.0000 0.0000 0.0000 0.0000 0.0000 0.0000 0.0000 0.0000 0.0000 0.0000 0.0000 -76.6184 4.5428 5.7485 -5.7514 1.8751 -1.9950 -10.5784 -2.5385 -6.5503 61.4756 -13.1083 -2.1610 16.1725 0.0000 0.0000 8.7056 0.0000 0.0000 7.4921 6.9242 -28.7853 110.0000 0.0000 0.0000 8.9426 0.0000 0.0000 23.9920 6.3909 -34.2147 110.0000 0.0000 0.0000 8.1380 0.0000 0.0000 29.5517 1.2825 -24.4257 110.0000 0.0000 0.0000 5.6953 0.0000 0.0000 27.6459 -2.8289 -14.5633 110.0000 0.0000 0.0000 6.4679 0.0000 0.0000 0.0000 0.0000 0.0000 86.5369 -13.2800 14.0998 -0.3798 27.9787 27.0011 677.4507 14.7120 72.1325 -49.6842 -14.3254 17.1945 11.6502 0.0000 0.0000 10.2390 0.0000 0.0000 -1.2497 4.7800 24.9111 7.6602 0.0000 0.0000 4.7066 0.0000 0.0000 -3.8551 0.9897 33.5597 11.2089 0.0000 0.0000 4.1702 0.0000 0.0000 -5.0673 -3.5044 33.2072 18.5521 0.0000 0.0000 4.9967 0.0000 0.0000 -16.5685 -6.9312 36.6052 21.4683 0.0000 0.0000 6.1217 0.0000 0.0000 0.0000 0.0000 0.0000 0.0000 0.0000 0.0000 0.0000 0.0000 0.0000 0.0000 0.0000 0.0000 0.0000 0.0000 0.0000 0.0000 0.0000 0.0000
0.0000 95.0000 0.0000 0.0000 0.0000 0.0000 0.0000 0.0000 0.0000 0.0000 0.0000 0.0000 0.0000 0.0000 0.0000 0.0000 0.0000 0.0000 0.0000 0.0000 0.0000 0.0000 0.0000 0.0000 -76.4774 3.4079 4.3238 -7.7215 -0.7811 1.7934 -9.0792 -0.5182 -8.7502 61.4756 -13.1083 -2.1610 16.1725 0.0000 0.0000 8.7056 0.0000 0.0000 7.4921 6.9242 -28.7853 110.0000 0.0000 0.0000 8.9426 0.0000 0.0000 23.9920 6.3909 -34.2147 110.0000 0.0000 0.0000 8.1380 0.0000 0.0000 29.5517 1.2825 -24.4257 110.0000 0.0000 0.0000 5.6953 0.0000 0.0000 27.6459 -2.8289 -14.5633 110.0000 0.0000 0.0000 6.4679 0.0000 0.0000 0.0000 0.0000 0.0000 88.0481 -9.4669 9.7935 -0.8202 14.6917 14.3278 694.5654 21.7037 93.7170 -49.6842 -14.3254 17.1945 11.6502 0.0000 0.0000 10.2390 0.0000 0.0000 -1.2497 4.7800 24.9111 7.6602 0.0000 0.0000 4.7066 0.0000 0.0000 -3.8551 0.9897 33.5597 11.2089 0.0000 0.0000 4.1702 0.0000 0.0000 -5.0673 -3.5044 33.2072 18.5521 0.0000 0.0000 4.9967 0.0000 0.0000 -16.5685 -6.9312 36.6052 21.4683 0.0000 0.0000 6.1217 0.0000 0.0000 0.0000 0.0000 0.0000 0.0000 0.0000 0.0000 0.0000 0.0000 0.0000 0.0000 0.0000 0.0000 0.0000 0.0000 0.0000 0.0000 0.0000 0.0000
0.0000 95.0000 0.0000 0.0000 0.0000 0.0000 0.0000 0.0000 0.0000 0.0000 0.0000 0.0000 0.0000 0.0000 0.0000 0.0000 0.0000 0.0000 0.0000 0.0000 0.0000 0.0000 0.0000 0.0000 -76.1549 3.4325 4.3804 -9.1679 -2.9175 5.1887 -8.5548 2.3030 -11.8028 61.4756 -13.1083 -2.1610 16.1725 0.0000 0.0000 8.7056 0.0000 0.0000 7.4921 6.9242 -28.7853 110.0000 0.0000 0.0000 8.9426 0.0000 0.0000 23.9920 6.3909 -34.2147 110.0000 0.0000 0.0000 8.1380 0.0000 0.0000 29.5517 1.2825 -24.4257 110.0000 0.0000 0.0000 5.6953 0.0000 0.0000 27.6459 -2.8289 -14.5633 110.0000 0.0000 0.0000 6.4679 0.0000 0.0000 0.0000 0.0000 0.0000 88.9862 -5.8779 5.9827 -2.0040 8.7287 8.2654 704.5696 20.4921 107.1956 -49.6842 -14.3254 17.1945 11.6502 0.0000 0.0000 10.2390 0.0000 0.0000 -1.2497 4.7800 24.9111 7.6602 0.0000 0.0000 4.7066 0.0000 0.0000 -3.8551 0.9897 33.5597 11.2089 0.0000 0.0000 4.1702 0.0000 0.0000 -5.0673 -3.5044 33.2072 18.5521 0.0000 0.0000 4.9967 0.0000 0.0000 -16.5685 -6.9312 36.6052 21.4683 0.0000 0.0000 6.1217 0.0000 0.0000 0.0000 0.0000 0.0000 0.0000 0.0000 0.0000 0.0000 0.0000 0.0000 0.0000 0.0000 0.0000 0.0000 0.0000 0.0000 0.0000 0.0000 0.0000
0.0000 95.0000 0.0000 0.0000 0.0000 0.0000 0.0000 0.0000 0.0000 0.0000 0.0000 0.0000 0.0000 0.0000 0.0000 0.0000 0.0000 0.0000 0.0000 0.0000 0.0000 0.0000 0.0000 0.0000 -76.2371 2.1947 2.7969 -10.0998 -3.6794 6.2029 -7.6128 1.9218 -11.2842 61.4756 -13.1083 -2.1610 16.1725 0.0000 0.0000 8.7056 0.0000 0.0000 7.4921 6.9242 -28.7853 110.0000 0.0000 0.0000 8.9426 0.0000 0.0000 23.9920 6.3909 -34.2147 110.0000 0.0000 0.0000 8.1380 0.0000 0.0000 29.5517 1.2825 -24.4257 110.0000 0.0000 0.0000 5.6953 0.0000 0.0000 27.6459 -2.8289 -14.5633 110.0000 0.0000 0.0000 6.4679 0.0000 0.0000 0.0000 0.0000 0.0000 88.9691 -3.6936 3.7606 -3.2749 7.3246 6.7933 707.4820 18.2008 112.0480 -49.6842 -14.3254 17.1945 11.6502 0.0000 0.0000 10.2390 0.0000 0.0000 -1.2497 4.7800 24.9111 7.6602 0.0000 0.0000 4.7066 0.0000 0.0000 -3.8551 0.9897 33.5597 11.2089 0.0000 0.0000 4.1702 0.0000 0.0000 -5.0673 -3.5044 33.2072 18.5521 0.0000 0.0000 4.9967 0.0000 0.0000 -16.5685 -6.9312 36.6052 21.4683 0.0000 0.0000 6.1217 0.0000 0.0000 0.0000 0.0000 0.0000 0.0000 0.0000 0.0000 0.0000 0.0000 0.0000 0.0000 0.0000 0.0000 0.0000 0.0000 0.0000 0.0000 0.0000 0.0000
0.0000 95.0000 0.0000 0.0000 0.0000 0.0000 0.0000 0.0000 0.0000 0.0000 0.0000 0.0000 0.0000 0.0000 0.0000 0.0000 0.0000 0.0000 0.0000 0.0000 0.0000 0.0000 0.0000 0.0000 -75.9764 1.2729 1.6298 -11.1436 -4.8857 8.0455 -7.1261 2.4808 -11.8275 61.4756 -13.1083 -2.1610 16.1725 0.0000 0.0000 8.7056 0.0000 0.0000 7.4921 6.9242 -28.7853 110.0000 0.0000 0.0000 8.9426 0.0000 0.0000 23.9920 6.3909 -34.2147 110.0000 0.0000 0.0000 8.1380 0.0000 0.0000 29.5517 1.2825 -24.4257 110.0000 0.0000 0.0000 5.6953 0.0000 0.0000 27.6459 -2.8289 -14.5633 110.0000 0.0000 0.0000 6.4679 0.0000 0.0000 0.0000 0.0000 0.0000 88.6920 -1.8880 1.9316 -3.9512 7.5977 7.1084 708.3586 16.7014 113.9895 -49.6842 -14.3254 17.1945 11.6502 0.0000 0.0000 10.2390 0.0000 0.0000 -1.2497 4.7800 24.9111 7.6602 0.0000 0.0000 4.7066 0.0000 0.0000 -3.8551 0.9897 33.5597 11.2089 0.0000 0.0000 4.1702 0.0000 0.0000 -5.0673 -3.5044 33.2072 18.5521 0.0000 0.0000 4.9967 0.0000 0.0000 -16.5685 -6.9312 36.6052 21.4683 0.0000 0.0000 6.1217 0.0000 0.0000 0.0000 0.0000 0.0000 0.0000 0.0000 0.0000 0.0000 0.0000 0.0000 0.0000 0.0000 0.0000 0.0000 0.0000 0.0000 0.0000 0.0000 0.0000
0.0000 95.0000 0.0000 0.0000 0.0000 0.0000 0.0000 0.0000 0.0000 0.0000 0.0000 0.0000 0.0000 0.0000 0.0000 0.0000 0.0000 0.0000 0.0000 0.0000 0.0000 0.0000 0.0000 0.0000 -76.1438 1.4309 1.8267 -10.9814 -5.1929 8.5099 -7.2717 3.0184 -12.4181 61.4756 -13.1083 -2.1610 16.1725 0.0000 0.0000 8.7056 0.0000 0.0000 7.4921 6.9242 -28.7853 110.0000 0.0000 0.0000 8.9426 0.0000 0.0000 23.9920 6.3909 -34.2147 110.0000 0.0000 0.0000 8.1380 0.0000 0.0000 29.5517 1.2825 -24.4257 110.0000 0.0000 0.0000 5.6953 0.0000 0.0000 27.6459 -2.8289 -14.5633 110.0000 0.0000 0.0000 6.4679 0.0000 0.0000 0.0000 0.0000 0.0000 88.7234 -0.8148 0.8331 -4.3653 8.3042 7.8000 708.4599 16.1197 114.4638 -49.6842 -14.3254 17.1945 11.6502 0.0000 0.0000 10.2390 0.0000 0.0000 -1.2497 4.7800 24.9111 7.6602 0.0000 0.0000 4.7066 0.0000 0.0000 -3.8551 0.9897 33.5597 11.2089 0.0000 0.0000 4.1702 0.0000 0.0000 -5.0673 -3.5044 33.2072 18.5521 0.0000 0.0000 4.9967 0.0000 0.0000 -16.5685 -6.9312 36.6052 21.4683 0.0000 0.0000 6.1217 0.0000 0.0000 0.0000 0.0000 0.0000 0.0000 0.0000 0.0000 0.0000 0.0000 0.0000 0.0000 0.0000 0.0000 0.0000 0.0000 0.0000 0.0000 0.0000 0.0000
0.0000 95.0000 0.0000 0.0000 0.0000 0.0000 0.0000 0.0000 0.0000 0.0000 0.0000 0.0000 0.0000 0.0000 0.0000 0.0000 0.0000 0.0000 0.0000 0.0000 0.0000 0.0000 0.0000 0.0000 -76.3228 0.9326 1.1868 -11.2097 -5.4952 8.8578 -6.8788 2.8281 -12.1667 61.4756 -13.1083 -2.1610 16.1725 0.0000 0.0000 8.7056 0.0000 0.0000 7.4921 6.9242 -28.7853 110.0000 0.0000 0.0000 8.9426 0.0000 0.0000 23.9920 6.3909 -34.2147 110.0000 0.0000 0.0000 8.1380 0.0000 0.0000 29.5517 1.2825 -24.4257 110.0000 0.0000 0.0000 5.6953 0.0000 0.0000 27.6459 -2.8289 -14.5633 110.0000 0.0000 0.0000 6.4679 0.0000 0.0000 0.0000 0.0000 0.0000 89.0071 0.2653 -0.2700 -4.0275 9.1479 8.6989 708.9108 16.4577 114.7916 -49.6842 -14.3254 17.1945 11.6502 0.0000 0.0000 10.2390 0.0000 0.0000 -1.2497 4.7800 24.9111 7.6602 0.0000 0.0000 4.7066 0.0000 0.0000 -3.8551 0.9897 33.5597 11.2089 0.0000 0.0000 4.1702 0.0000 0.0000 -5.0673 -3.5044 33.2072 18.5521 0.0000 0.0000 4.9967 0.0000 0.0000 -16.5685 -6.9312 36.6052 21.4683 0.0000 0.0000 6.1217 0.0000 0.0000 0.0000 0.0000 0.0000 0.0000 0.0000 0.0000 0.0000 0.0000 0.0000 0.0000 0.0000 0.0000 0.0000 0.0000 0.0000 0.0000 0.0000 0.0000
0.0000 95.0000 0.0000 0.0000 0.0000 0.0000 0.0000 0.0000 0.0000 0.0000 0.0000 0.0000 0.0000 0.0000 0.0000 0.0000 0.0000 0.0000 0.0000 0.0000 0.0000 0.0000 0.0000 0.0000 -76.7286 0.5633 0.7117 -11.0229 -5.4685 8.6125 -6.5457 2.3040 -11.5735 61.4756 -13.1083 -2.1610 16.1725 0.0000 0.0000 8.7056 0.0000 0.0000 7.4921 6.9242 -28.7853 110.0000 0.0000 0.0000 8.9426 0.0000 0.0000 23.9920 6.3909 -34.2147 110.0000 0.0000 0.0000 8.1380 0.0000 0.0000 29.5517 1.2825 -24.4257 110.0000 0.0000 0.0000 5.6953 0.0000 0.0000 27.6459 -2.8289 -14.5633 110.0000 0.0000 0.0000 6.4679 0.0000 0.0000 0.0000 0.0000 0.0000 89.1652 -0.0591 0.0600 -3.9703 9.9822 9.4480 707.9439 16.9609 113.3393 -49.6842 -14.3254 17.1945 11.6502 0.0000 0.0000 10.2390 0.0000 0.0000 -1.2497 4.7800 24.9111 7.6602 0.0000 0.0000 4.7066 0.0000 0.0000 -3.8551 0.9897 33.5597 11.2089 0.0000 0.0000 4.1702 0.0000 0.0000 -5.0673 -3.5044 33.2072 18.5521 0.0000 0.0000 4.9967 0.0000 0.0000 -16.5685 -6.9312 36.6052 21.4683 0.0000 0.0000 6.1217 0.0000 0.0000 0.0000 0.0000 0.0000 0.0000 0.0000 0.0000 0.0000 0.0000 0.0000 0.0000 0.0000 0.0000 0.0000 0.0000 0.0000 0.0000 0.0000 0.0000
