HIERARCHY
ROOT Hips
{
  OFFSET 0.000000 95.000000 0.000000
  CHANNELS 6 Xposition Yposition Zposition Zrotation Xrotation Yrotation
  JOINT Spine
  {
    OFFSET 0.000000 10.000000 0.000000
    CHANNELS 3 Zrotation Xrotation Yrotation
    JOINT Spine1
    {
      OFFSET 0.000000 12.000000 0.000000
      CHANNELS 3 Zrotation Xrotation Yrotation
      JOINT Spine2
      {
        OFFSET 0.000000 12.000000 0.000000
        CHANNELS 3 Zrotation Xrotation Yrotation
        JOINT Neck
        {
          OFFSET 0.000000 10.000000 0.000000
          CHANNELS 3 Zrotation Xrotation Yrotation
          JOINT Head
          {
            OFFSET 0.000000 8.000000 0.000000
            CHANNELS 3 Zrotation Xrotation Yrotation
            End Site
            {
              OFFSET 0.000000 10.000000 0.000000
            }
          }
        }
        JOINT LeftShoulder
        {
          OFFSET 6.000000 8.000000 0.000000
          CHANNELS 3 Zrotation Xrotation Yrotation
          JOINT LeftArm
          {
            OFFSET 12.000000 0.000000 0.000000
            CHANNELS 3 Zrotation Xrotation Yrotation
            JOINT LeftForeArm
            {
              OFFSET 24.000000 0.000000 0.000000
              CHANNELS 3 Zrotation Xrotation Yrotation
              JOINT LeftHand
              {
                OFFSET 22.000000 0.000000 0.000000
                CHANNELS 3 Zrotation Xrotation Yrotation
                JOINT LeftHandThumb1
                {
                  OFFSET 1.800000 -1.400000 0.500000
                  CHANNELS 3 Zrotation Xrotation Yrotation
                  JOINT LeftHandThumb2
                  {
                    OFFSET 2.400000 0.000000 0.000000
                    CHANNELS 3 Zrotation Xrotation Yrotation
                    JOINT LeftHandThumb3
                    {
                      OFFSET 1.900000 0.000000 0.000000
                      CHANNELS 3 Zrotation Xrotation Yrotation
                      End Site
                      {
                        OFFSET 1.600000 0.000000 0.000000
                      }
                    }
                  }
                }
                JOINT LeftHandIndex1
                {
                  OFFSET 6.600000 1.200000 0.300000
                  CHANNELS 3 Zrotation Xrotation Yrotation
                  JOINT LeftHandIndex2
                  {
                    OFFSET 2.000000 0.000000 0.000000
                    CHANNELS 3 Zrotation Xrotation Yrotation
                    JOINT LeftHandIndex3
                    {
                      OFFSET 1.200000 0.000000 0.000000
                      CHANNELS 3 Zrotation Xrotation Yrotation
                      End Site
                      {
                        OFFSET 1.000000 0.000000 0.000000
                      }
                    }
                  }
                }
                JOINT LeftHandMiddle1
                {
                  OFFSET 7.200000 0.000000 0.300000
                  CHANNELS 3 Zrotation Xrotation Yrotation
                  JOINT LeftHandMiddle2
                  {
                    OFFSET 3.000000 0.000000 0.000000
                    CHANNELS 3 Zrotation Xrotation Yrotation
                    JOINT LeftHandMiddle3
                    {
                      OFFSET 2.000000 0.000000 0.000000
                      CHANNELS 3 Zrotation Xrotation Yrotation
                      End Site
                      {
                        OFFSET 1.600000 0.000000 0.000000
                      }
                    }
                  }
                }
                JOINT LeftHandRing1
                {
                  OFFSET 7.100000 -1.000000 0.400000
                  CHANNELS 3 Zrotation Xrotation Yrotation
                  JOINT LeftHandRing2
                  {
                    OFFSET 2.600000 0.000000 0.000000
                    CHANNELS 3 Zrotation Xrotation Yrotation
                    JOINT LeftHandRing3
                    {
                      OFFSET 1.600000 0.000000 0.000000
                      CHANNELS 3 Zrotation Xrotation Yrotation
                      End Site
                      {
                        OFFSET 1.300000 0.000000 0.000000
                      }
                    }
                  }
                }
                JOINT LeftHandPinky1
                {
                  OFFSET 6.500000 -2.000000 0.500000
                  CHANNELS 3 Zrotation Xrotation Yrotation
                  JOINT LeftHandPinky2
                  {
                    OFFSET 1.900000 0.000000 0.000000
                    CHANNELS 3 Zrotation Xrotation Yrotation
                    JOINT LeftHandPinky3
                    {
                      OFFSET 1.400000 0.000000 0.000000
                      CHANNELS 3 Zrotation Xrotation Yrotation
                      End Site
                      {
                        OFFSET 1.300000 0.000000 0.000000
                      }
                    }
                  }
                }
              }
            }
          }
        }
        JOINT RightShoulder
        {
          OFFSET -6.000000 8.000000 0.000000
          CHANNELS 3 Zrotation Xrotation Yrotation
          JOINT RightArm
          {
            OFFSET -12.000000 0.000000 0.000000
            CHANNELS 3 Zrotation Xrotation Yrotation
            JOINT RightForeArm
            {
              OFFSET -24.000000 0.000000 0.000000
              CHANNELS 3 Zrotation Xrotation Yrotation
              JOINT RightHand
              {
                OFFSET -22.000000 0.000000 0.000000
                CHANNELS 3 Zrotation Xrotation Yrotation
                JOINT RightHandThumb1
                {
                  OFFSET -1.800000 -1.400000 0.500000
                  CHANNELS 3 Zrotation Xrotation Yrotation
                  JOINT RightHandThumb2
                  {
                    OFFSET -2.400000 0.000000 0.000000
                    CHANNELS 3 Zrotation Xrotation Yrotation
                    JOINT RightHandThumb3
                    {
                      OFFSET -1.900000 0.000000 0.000000
                      CHANNELS 3 Zrotation Xrotation Yrotation
                      End Site
                      {
                        OFFSET -1.600000 0.000000 0.000000
                      }
                    }
                  }
                }
                JOINT RightHandIndex1
                {
                  OFFSET -6.600000 1.200000 0.300000
                  CHANNELS 3 Zrotation Xrotation Yrotation
                  JOINT RightHandIndex2
                  {
                    OFFSET -2.000000 0.000000 0.000000
                    CHANNELS 3 Zrotation Xrotation Yrotation
                    JOINT RightHandIndex3
                    {
                      OFFSET -1.200000 0.000000 0.000000
                      CHANNELS 3 Zrotation Xrotation Yrotation
                      End Site
                      {
                        OFFSET -1.000000 0.000000 0.000000
                      }
                    }
                  }
                }
                JOINT RightHandMiddle1
                {
                  OFFSET -7.200000 0.000000 0.300000
                  CHANNELS 3 Zrotation Xrotation Yrotation
                  JOINT RightHandMiddle2
                  {
                    OFFSET -3.000000 0.000000 0.000000
                    CHANNELS 3 Zrotation Xrotation Yrotation
                    JOINT RightHandMiddle3
                    {
                      OFFSET -2.000000 0.000000 0.000000
                      CHANNELS 3 Zrotation Xrotation Yrotation
                      End Site
                      {
                        OFFSET -1.600000 0.000000 0.000000
                      }
                    }
                  }
                }
                JOINT RightHandRing1
                {
                  OFFSET -7.100000 -1.000000 0.400000
                  CHANNELS 3 Zrotation Xrotation Yrotation
                  JOINT RightHandRing2
                  {
                    OFFSET -2.600000 0.000000 0.000000
                    CHANNELS 3 Zrotation Xrotation Yrotation
                    JOINT RightHandRing3
                    {
                      OFFSET -1.600000 0.000000 0.000000
                      CHANNELS 3 Zrotation Xrotation Yrotation
                      End Site
                      {
                        OFFSET -1.300000 0.000000 0.000000
                      }
                    }
                  }
                }
                JOINT RightHandPinky1
                {
                  OFFSET -6.500000 -2.000000 0.500000
                  CHANNELS 3 Zrotation Xrotation Yrotation
                  JOINT RightHandPinky2
                  {
                    OFFSET -1.900000 0.000000 0.000000
                    CHANNELS 3 Zrotation Xrotation Yrotation
                    JOINT RightHandPinky3
                    {
                      OFFSET -1.400000 0.000000 0.000000
                      CHANNELS 3 Zrotation Xrotation Yrotation
                      End Site
                      {
                        OFFSET -1.300000 0.000000 0.000000
                      }
                    }
                  }
                }
              }
            }
          }
        }
      }
    }
  }
  JOINT LeftUpLeg
  {
    OFFSET 10.000000 -5.000000 0.000000
    CHANNELS 3 Zrotation Xrotation Yrotation
    JOINT LeftLeg
    {
      OFFSET 0.000000 -42.000000 0.000000
      CHANNELS 3 Zrotation Xrotation Yrotation
      JOINT LeftFoot
      {
        OFFSET 0.000000 -42.000000 4.000000
        CHANNELS 3 Zrotation Xrotation Yrotation
        End Site
        {
          OFFSET 0.000000 0.000000 12.000000
        }
      }
    }
  }
  JOINT RightUpLeg
  {
    OFFSET -10.000000 -5.000000 0.000000
    CHANNELS 3 Zrotation Xrotation Yrotation
    JOINT RightLeg
    {
      OFFSET 0.000000 -42.000000 0.000000
      CHANNELS 3 Zrotation Xrotation Yrotation
      JOINT RightFoot
      {
        OFFSET 0.000000 -42.000000 4.000000
        CHANNELS 3 Zrotation Xrotation Yrotation
        End Site
        {
          OFFSET 0.000000 0.000000 12.000000
        }
      }
    }
  }
}
MOTION
Frames: 60
Frame Time: 0.033333
0.0000 95.0000 0.0000 0.0000 0.0000 0.0000 0.0000 0.0000 0.0000 0.0000 0.0000 0.0000 0.0000 0.0000 0.0000 0.0000 0.0000 0.0000 0.0000 0.0000 0.0000 0.0000 0.0000 0.0000 -76.0655 3.3569 4.2907 -10.0074 -2.0774 4.0506 66.9539 -38.9691 -164.5821 65.2498 -14.3215 -11.5256 68.5525 0.0000 0.0000 24.6135 0.0000 0.0000 -60.4791 -5.9052 -23.6644 85.5140 0.0000 0.0000 83.1115 0.0000 0.0000 -53.2798 -7.0570 -18.7874 102.0479 0.0000 0.0000 74.5369 0.0000 0.0000 -44.0540 -7.0903 -17.0464 110.0000 0.0000 0.0000 90.0000 0.0000 0.0000 -44.1636 -5.4956 -11.7795 36.0097 0.0000 0.0000 90.0000 0.0000 0.0000 0.0000 0.0000 0.0000 81.9846 -3.6125 4.1563 3.9203 8.0400 10.1282 11.1159 20.4809 164.9634 -56.9418 -9.9538 -14.4714 2.9589 0.0000 0.0000 7.8688 0.0000 0.0000 12.9394 0.0757 -7.4970 5.0050 0.0000 0.0000 5.1650 0.0000 0.0000 1.6247 0.1167 -3.4427 6.3455 0.0000 0.0000 6.3076 0.0000 0.0000 -7.8473 -0.1110 -4.5781 8.1050 0.0000 0.0000 7.6471 0.0000 0.0000 -21.4821 -1.0500 -4.7788 8.0362 0.0000 0.0000 7.3521 0.0000 0.0000 0.0000 0.0000 0.0000 0.0000 0.0000 0.0000 0.0000 0.0000 0.0000 0.0000 0.0000 0.0000 0.0000 0.0000 0.0000 0.0000 0.0000 0.0000
0.0000 95.0000 0.0000 0.0000 0.0000 0.0000 0.0000 0.0000 0.0000 0.0000 0.0000 0.0000 0.0000 0.0000 0.0000 0.0000 0.0000 0.0000 0.0000 0.0000 0.0000 0.0000 0.0000 0.0000 -76.1948 3.2907 4.1964 -10.0054 -2.1440 4.1247 66.8158 -38.9199 -164.4901 65.2498 -14.3215 -11.5256 68.5525 0.0000 0.0000 24.6135 0.0000 0.0000 -60.4791 -5.9052 -23.6644 85.5140 0.0000 0.0000 83.1115 0.0000 0.0000 -53.2798 -7.0570 -18.7874 102.0479 0.0000 0.0000 74.5369 0.0000 0.0000 -44.0540 -7.0903 -17.0464 110.0000 0.0000 0.0000 90.0000 0.0000 0.0000 -44.1636 -5.4956 -11.7795 36.0097 0.0000 0.0000 90.0000 0.0000 0.0000 0.0000 0.0000 0.0000 82.0601 -3.6894 4.2392 4.0630 8.1704 10.3135 11.2600 20.7302 164.7446 -56.9418 -9.9538 -14.4714 2.9589 0.0000 0.0000 7.8688 0.0000 0.0000 12.9394 0.0757 -7.4970 5.0050 0.0000 0.0000 5.1650 0.0000 0.0000 1.6247 0.1167 -3.4427 6.3455 0.0000 0.0000 6.3076 0.0000 0.0000 -7.8473 -0.1110 -4.5781 8.1050 0.0000 0.0000 7.6471 0.0000 0.0000 -21.4821 -1.0500 -4.7788 8.0362 0.0000 0.0000 7.3521 0.0000 0.0000 0.0000 0.0000 0.0000 0.0000 0.0000 0.0000 0.0000 0.0000 0.0000 0.0000 0.0000 0.0000 0.0000 0.0000 0.0000 0.0000 0.0000 0.0000
0.0000 95.0000 0.0000 0.0000 0.0000 0.0000 0.0000 0.0000 0.0000 0.0000 0.0000 0.0000 0.0000 0.0000 0.0000 0.0000 0.0000 0.0000 0.0000 0.0000 0.0000 0.0000 0.0000 0.0000 -76.0950 3.3321 4.2569 -10.6263 -2.2486 4.4049 66.1021 -38.9903 -164.3385 65.2498 -14.3215 -11.5256 68.5525 0.0000 0.0000 24.6135 0.0000 0.0000 -60.4791 -5.9052 -23.6644 85.5140 0.0000 0.0000 83.1115 0.0000 0.0000 -53.2798 -7.0570 -18.7874 102.0479 0.0000 0.0000 74.5369 0.0000 0.0000 -44.0540 -7.0903 -17.0464 110.0000 0.0000 0.0000 90.0000 0.0000 0.0000 -44.1636 -5.4956 -11.7795 36.0097 0.0000 0.0000 90.0000 0.0000 0.0000 0.0000 0.0000 0.0000 82.0353 -3.6905 4.2423 4.4943 8.3536 10.6537 11.5694 21.0326 164.5353 -56.9418 -9.9538 -14.4714 2.9589 0.0000 0.0000 7.8688 0.0000 0.0000 12.9394 0.0757 -7.4970 5.0050 0.0000 0.0000 5.1650 0.0000 0.0000 1.6247 0.1167 -3.4427 6.3455 0.0000 0.0000 6.3076 0.0000 0.0000 -7.8473 -0.1110 -4.5781 8.1050 0.0000 0.0000 7.6471 0.0000 0.0000 -21.4821 -1.0500 -4.7788 8.0362 0.0000 0.0000 7.3521 0.0000 0.0000 0.0000 0.0000 0.0000 0.0000 0.0000 0.0000 0.0000 0.0000 0.0000 0.0000 0.0000 0.0000 0.0000 0.0000 0.0000 0.0000 0.0000 0.0000
0.0000 95.0000 0.0000 0.0000 0.0000 0.0000 0.0000 0.0000 0.0000 0.0000 0.0000 0.0000 0.0000 0.0000 0.0000 0.0000 0.0000 0.0000 0.0000 0.0000 0.0000 0.0000 0.0000 0.0000 -76.2532 3.3562 4.2755 -10.5393 -2.2461 4.3791 66.0126 -38.9699 -164.2908 65.2498 -14.3215 -11.5256 68.5525 0.0000 0.0000 24.6135 0.0000 0.0000 -60.4791 -5.9052 -23.6644 85.5140 0.0000 0.0000 83.1115 0.0000 0.0000 -53.2798 -7.0570 -18.7874 102.0479 0.0000 0.0000 74.5369 0.0000 0.0000 -44.0540 -7.0903 -17.0464 110.0000 0.0000 0.0000 90.0000 0.0000 0.0000 -44.1636 -5.4956 -11.7795 36.0097 0.0000 0.0000 90.0000 0.0000 0.0000 0.0000 0.0000 0.0000 82.0857 -3.7074 4.2580 4.6131 8.6082 10.9883 11.6099 21.3395 164.2140 -56.9418 -9.9538 -14.4714 2.9589 0.0000 0.0000 7.8688 0.0000 0.0000 12.9394 0.0757 -7.4970 5.0050 0.0000 0.0000 5.1650 0.0000 0.0000 1.6247 0.1167 -3.4427 6.3455 0.0000 0.0000 6.3076 0.0000 0.0000 -7.8473 -0.1110 -4.5781 8.1050 0.0000 0.0000 7.6471 0.0000 0.0000 -21.4821 -1.0500 -4.7788 8.0362 0.0000 0.0000 7.3521 0.0000 0.0000 0.0000 0.0000 0.0000 0.0000 0.0000 0.0000 0.0000 0.0000 0.0000 0.0000 0.0000 0.0000 0.0000 0.0000 0.0000 0.0000 0.0000 0.0000
0.0000 95.0000 0.0000 0.0000 0.0000 0.0000 0.0000 0.0000 0.0000 0.0000 0.0000 0.0000 0.0000 0.0000 0.0000 0.0000 0.0000 0.0000 0.0000 0.0000 0.0000 0.0000 0.0000 0.0000 -76.4221 3.4985 4.4432 -10.4574 -2.2504 4.3946 65.8368 -39.0913 -164.3554 65.2498 -14.3215 -11.5256 68.5525 0.0000 0.0000 24.6135 0.0000 0.0000 -60.4791 -5.9052 -23.6644 85.5140 0.0000 0.0000 83.1115 0.0000 0.0000 -53.2798 -7.0570 -18.7874 102.0479 0.0000 0.0000 74.5369 0.0000 0.0000 -44.0540 -7.0903 -17.0464 110.0000 0.0000 0.0000 90.0000 0.0000 0.0000 -44.1636 -5.4956 -11.7795 36.0097 0.0000 0.0000 90.0000 0.0000 0.0000 0.0000 0.0000 0.0000 81.8887 -3.8912 4.4846 5.5437 8.7750 11.5045 12.1796 21.9671 163.7618 -56.9418 -9.9538 -14.4714 2.9589 0.0000 0.0000 7.8688 0.0000 0.0000 12.9394 0.0757 -7.4970 5.0050 0.0000 0.0000 5.1650 0.0000 0.0000 1.6247 0.1167 -3.4427 6.3455 0.0000 0.0000 6.3076 0.0000 0.0000 -7.8473 -0.1110 -4.5781 8.1050 0.0000 0.0000 7.6471 0.0000 0.0000 -21.4821 -1.0500 -4.7788 8.0362 0.0000 0.0000 7.3521 0.0000 0.0000 0.0000 0.0000 0.0000 0.0000 0.0000 0.0000 0.0000 0.0000 0.0000 0.0000 0.0000 0.0000 0.0000 0.0000 0.0000 0.0000 0.0000 0.0000
0.0000 95.0000 0.0000 0.0000 0.0000 0.0000 0.0000 0.0000 0.0000 0.0000 0.0000 0.0000 0.0000 0.0000 0.0000 0.0000 0.0000 0.0000 0.0000 0.0000 0.0000 0.0000 0.0000 0.0000 -76.7252 3.0822 3.8935 -10.1400 -2.2027 4.1385 66.1200 -38.4939 -163.8569 65.2498 -14.3215 -11.5256 68.5525 0.0000 0.0000 24.6135 0.0000 0.0000 -60.4791 -5.9052 -23.6644 85.5140 0.0000 0.0000 83.1115 0.0000 0.0000 -53.2798 -7.0570 -18.7874 102.0479 0.0000 0.0000 74.5369 0.0000 0.0000 -44.0540 -7.0903 -17.0464 110.0000 0.0000 0.0000 90.0000 0.0000 0.0000 -44.1636 -5.4956 -11.7795 36.0097 0.0000 0.0000 90.0000 0.0000 0.0000 0.0000 0.0000 0.0000 81.3950 -3.5127 4.0839 6.2151 10.3385 13.7516 11.4864 23.3509 161.9485 -56.9418 -9.9538 -14.4714 2.9589 0.0000 0.0000 7.8688 0.0000 0.0000 12.9394 0.0757 -7.4970 5.0050 0.0000 0.0000 5.1650 0.0000 0.0000 1.6247 0.1167 -3.4427 6.3455 0.0000 0.0000 6.3076 0.0000 0.0000 -7.8473 -0.1110 -4.5781 8.1050 0.0000 0.0000 7.6471 0.0000 0.0000 -21.4821 -1.0500 -4.7788 8.0362 0.0000 0.0000 7.3521 0.0000 0.0000 0.0000 0.0000 0.0000 0.0000 0.0000 0.0000 0.0000 0.0000 0.0000 0.0000 0.0000 0.0000 0.0000 0.0000 0.0000 0.0000 0.0000 0.0000
0.0000 95.0000 0.0000 0.0000 0.0000 0.0000 0.0000 0.0000 0.0000 0.0000 0.0000 0.0000 0.0000 0.0000 0.0000 0.0000 0.0000 0.0000 0.0000 0.0000 0.0000 0.0000 0.0000 0.0000 -76.6945 3.2102 4.0573 -10.1020 -2.1037 4.0176 66.1701 -38.5456 -163.9226 65.2498 -14.3215 -11.5256 68.5525 0.0000 0.0000 24.6135 0.0000 0.0000 -60.4791 -5.9052 -23.6644 85.5140 0.0000 0.0000 83.1115 0.0000 0.0000 -53.2798 -7.0570 -18.7874 102.0479 0.0000 0.0000 74.5369 0.0000 0.0000 -44.0540 -7.0903 -17.0464 110.0000 0.0000 0.0000 90.0000 0.0000 0.0000 -44.1636 -5.4956 -11.7795 36.0097 0.0000 0.0000 90.0000 0.0000 0.0000 0.0000 0.0000 0.0000 81.0695 -3.6253 4.2390 6.4149 12.3721 16.5034 9.8947 25.5292 158.7761 -56.9418 -9.9538 -14.4714 2.9589 0.0000 0.0000 7.8688 0.0000 0.0000 12.9394 0.0757 -7.4970 5.0050 0.0000 0.0000 5.1650 0.0000 0.0000 1.6247 0.1167 -3.4427 6.3455 0.0000 0.0000 6.3076 0.0000 0.0000 -7.8473 -0.1110 -4.5781 8.1050 0.0000 0.0000 7.6471 0.0000 0.0000 -21.4821 -1.0500 -4.7788 8.0362 0.0000 0.0000 7.3521 0.0000 0.0000 0.0000 0.0000 0.0000 0.0000 0.0000 0.0000 0.0000 0.0000 0.0000 0.0000 0.0000 0.0000 0.0000 0.0000 0.0000 0.0000 0.0000 0.0000
0.0000 95.0000 0.0000 0.0000 0.0000 0.0000 0.0000 0.0000 0.0000 0.0000 0.0000 0.0000 0.0000 0.0000 0.0000 0.0000 0.0000 0.0000 0.0000 0.0000 0.0000 0.0000 0.0000 0.0000 -76.2180 4.2518 5.4192 -9.6191 -2.3397 4.5860 66.6940 -40.3560 -165.8845 65.2498 -14.3215 -11.5256 68.5525 0.0000 0.0000 24.6135 0.0000 0.0000 -60.4791 -5.9052 -23.6644 85.5140 0.0000 0.0000 83.1115 0.0000 0.0000 -53.2798 -7.0570 -18.7874 102.0479 0.0000 0.0000 74.5369 0.0000 0.0000 -44.0540 -7.0903 -17.0464 110.0000 0.0000 0.0000 90.0000 0.0000 0.0000 -44.1636 -5.4956 -11.7795 36.0097 0.0000 0.0000 90.0000 0.0000 0.0000 0.0000 0.0000 0.0000 79.3760 -5.9501 7.1670 8.0108 19.0782 26.6229 1.4445 34.0338 143.5054 -56.9418 -9.9538 -14.4714 2.9589 0.0000 0.0000 7.8688 0.0000 0.0000 12.9394 0.0757 -7.4970 5.0050 0.0000 0.0000 5.1650 0.0000 0.0000 1.6247 0.1167 -3.4427 6.3455 0.0000 0.0000 6.3076 0.0000 0.0000 -7.8473 -0.1110 -4.5781 8.1050 0.0000 0.0000 7.6471 0.0000 0.0000 -21.4821 -1.0500 -4.7788 8.0362 0.0000 0.0000 7.3521 0.0000 0.0000 0.0000 0.0000 0.0000 0.0000 0.0000 0.0000 0.0000 0.0000 0.0000 0.0000 0.0000 0.0000 0.0000 0.0000 0.0000 0.0000 0.0000 0.0000
0.0000 95.0000 0.0000 0.0000 0.0000 0.0000 0.0000 0.0000 0.0000 0.0000 0.0000 0.0000 0.0000 0.0000 0.0000 0.0000 0.0000 0.0000 0.0000 0.0000 0.0000 0.0000 0.0000 0.0000 -75.5030 5.6218 7.2563 -9.0831 -1.3799 3.4090 67.8047 -41.1789 -167.1018 65.2498 -14.3215 -11.5256 68.5525 0.0000 0.0000 24.6135 0.0000 0.0000 -60.4791 -5.9052 -23.6644 85.5140 0.0000 0.0000 83.1115 0.0000 0.0000 -53.2798 -7.0570 -18.7874 102.0479 0.0000 0.0000 74.5369 0.0000 0.0000 -44.0540 -7.0903 -17.0464 110.0000 0.0000 0.0000 90.0000 0.0000 0.0000 -44.1636 -5.4956 -11.7795 36.0097 0.0000 0.0000 90.0000 0.0000 0.0000 0.0000 0.0000 0.0000 78.2744 -8.8582 10.8745 8.1652 30.3951 41.0864 -19.2935 39.6906 116.0932 -56.9418 -9.9538 -14.4714 2.9589 0.0000 0.0000 7.8688 0.0000 0.0000 12.9394 0.0757 -7.4970 5.0050 0.0000 0.0000 5.1650 0.0000 0.0000 1.6247 0.1167 -3.4427 6.3455 0.0000 0.0000 6.3076 0.0000 0.0000 -7.8473 -0.1110 -4.5781 8.1050 0.0000 0.0000 7.6471 0.0000 0.0000 -21.4821 -1.0500 -4.7788 8.0362 0.0000 0.0000 7.3521 0.0000 0.0000 0.0000 0.0000 0.0000 0.0000 0.0000 0.0000 0.0000 0.0000 0.0000 0.0000 0.0000 0.0000 0.0000 0.0000 0.0000 0.0000 0.0000 0.0000
0.0000 95.0000 0.0000 0.0000 0.0000 0.0000 0.0000 0.0000 0.0000 0.0000 0.0000 0.0000 0.0000 0.0000 0.0000 0.0000 0.0000 0.0000 0.0000 0.0000 0.0000 0.0000 0.0000 0.0000 -74.7301 7.2625 9.5018 -8.4060 -0.5264 2.3866 68.9876 -42.4573 -168.8686 65.2498 -14.3215 -11.5256 68.5525 0.0000 0.0000 24.6135 0.0000 0.0000 -60.4791 -5.9052 -23.6644 85.5140 0.0000 0.0000 83.1115 0.0000 0.0000 -53.2798 -7.0570 -18.7874 102.0479 0.0000 0.0000 74.5369 0.0000 0.0000 -44.0540 -7.0903 -17.0464 110.0000 0.0000 0.0000 90.0000 0.0000 0.0000 -44.1636 -5.4956 -11.7795 36.0097 0.0000 0.0000 90.0000 0.0000 0.0000 0.0000 0.0000 0.0000 75.8484 -11.6767 14.9530 1.0830 43.1545 49.1470 -43.5753 31.1065 92.9882 -56.9418 -9.9538 -14.4714 2.9589 0.0000 0.0000 7.8688 0.0000 0.0000 12.9394 0.0757 -7.4970 5.0050 0.0000 0.0000 5.1650 0.0000 0.0000 1.6247 0.1167 -3.4427 6.3455 0.0000 0.0000 6.3076 0.0000 0.0000 -7.8473 -0.1110 -4.5781 8.1050 0.0000 0.0000 7.6471 0.0000 0.0000 -21.4821 -1.0500 -4.7788 8.0362 0.0000 0.0000 7.3521 0.0000 0.0000 0.0000 0.0000 0.0000 0.0000 0.0000 0.0000 0.0000 0.0000 0.0000 0.0000 0.0000 0.0000 0.0000 0.0000 0.0000 0.0000 0.0000 0.0000
0.0000 95.0000 0.0000 0.0000 0.0000 0.0000 0.0000 0.0000 0.0000 0.0000 0.0000 0.0000 0.0000 0.0000 0.0000 0.0000 0.0000 0.0000 0.0000 0.0000 0.0000 0.0000 0.0000 0.0000 -73.2450 10.7232 14.3931 -11.4295 14.7798 -21.3304 75.2231 -28.7024 -155.9511 65.2498 -14.3215 -11.5256 68.5525 0.0000 0.0000 24.6135 0.0000 0.0000 -60.4791 -5.9052 -23.6644 85.5140 0.0000 0.0000 83.1115 0.0000 0.0000 -53.2798 -7.0570 -18.7874 102.0479 0.0000 0.0000 74.5369 0.0000 0.0000 -44.0540 -7.0903 -17.0464 110.0000 0.0000 0.0000 90.0000 0.0000 0.0000 -44.1636 -5.4956 -11.7795 36.0097 0.0000 0.0000 90.0000 0.0000 0.0000 0.0000 0.0000 0.0000 73.2908 -15.2880 20.4541 -8.9976 62.5933 55.8333 -65.0955 10.8278 74.1715 -56.9418 -9.9538 -14.4714 2.9589 0.0000 0.0000 7.8688 0.0000 0.0000 12.9394 0.0757 -7.4970 5.0050 0.0000 0.0000 5.1650 0.0000 0.0000 1.6247 0.1167 -3.4427 6.3455 0.0000 0.0000 6.3076 0.0000 0.0000 -7.8473 -0.1110 -4.5781 8.1050 0.0000 0.0000 7.6471 0.0000 0.0000 -21.4821 -1.0500 -4.7788 8.0362 0.0000 0.0000 7.3521 0.0000 0.0000 0.0000 0.0000 0.0000 0.0000 0.0000 0.0000 0.0000 0.0000 0.0000 0.0000 0.0000 0.0000 0.0000 0.0000 0.0000 0.0000 0.0000 0.0000
0.0000 95.0000 0.0000 0.0000 0.0000 0.0000 0.0000 0.0000 0.0000 0.0000 0.0000 0.0000 0.0000 0.0000 0.0000 0.0000 0.0000 0.0000 0.0000 0.0000 0.0000 0.0000 0.0000 0.0000 -72.1075 12.4841 17.0894 -11.7133 16.4469 -24.1117 76.3635 -29.0946 -156.5652 65.2498 -14.3215 -11.5256 68.5525 0.0000 0.0000 24.6135 0.0000 0.0000 -60.4791 -5.9052 -23.6644 85.5140 0.0000 0.0000 83.1115 0.0000 0.0000 -53.2798 -7.0570 -18.7874 102.0479 0.0000 0.0000 74.5369 0.0000 0.0000 -44.0540 -7.0903 -17.0464 110.0000 0.0000 0.0000 90.0000 0.0000 0.0000 -44.1636 -5.4956 -11.7795 36.0097 0.0000 0.0000 90.0000 0.0000 0.0000 0.0000 0.0000 0.0000 71.2956 -17.4257 24.1234 -36.7926 76.6737 38.7067 -76.7341 -7.5535 70.7046 -56.9418 -9.9538 -14.4714 2.9589 0.0000 0.0000 7.8688 0.0000 0.0000 12.9394 0.0757 -7.4970 5.0050 0.0000 0.0000 5.1650 0.0000 0.0000 1.6247 0.1167 -3.4427 6.3455 0.0000 0.0000 6.3076 0.0000 0.0000 -7.8473 -0.1110 -4.5781 8.1050 0.0000 0.0000 7.6471 0.0000 0.0000 -21.4821 -1.0500 -4.7788 8.0362 0.0000 0.0000 7.3521 0.0000 0.0000 0.0000 0.0000 0.0000 0.0000 0.0000 0.0000 0.0000 0.0000 0.0000 0.0000 0.0000 0.0000 0.0000 0.0000 0.0000 0.0000 0.0000 0.0000
0.0000 95.0000 0.0000 0.0000 0.0000 0.0000 0.0000 0.0000 0.0000 0.0000 0.0000 0.0000 0.0000 0.0000 0.0000 0.0000 0.0000 0.0000 0.0000 0.0000 0.0000 0.0000 0.0000 0.0000 -75.5328 4.6683 6.0234 -6.4060 9.1230 -12.5282 77.3288 -29.4216 -157.0963 65.2498 -14.3215 -11.5256 68.5525 0.0000 0.0000 24.6135 0.0000 0.0000 -60.4791 -5.9052 -23.6644 85.5140 0.0000 0.0000 83.1115 0.0000 0.0000 -53.2798 -7.0570 -18.7874 102.0479 0.0000 0.0000 74.5369 0.0000 0.0000 -44.0540 -7.0903 -17.0464 110.0000 0.0000 0.0000 90.0000 0.0000 0.0000 -44.1636 -5.4956 -11.7795 36.0097 0.0000 0.0000 90.0000 0.0000 0.0000 0.0000 0.0000 0.0000 68.7066 -18.6145 26.9664 -118.4695 77.1884 -33.0735 -85.1330 -30.3891 69.6554 -58.6022 -10.7797 -12.2072 3.8597 0.0000 0.0000 13.2008 0.0000 0.0000 9.8724 0.3151 -1.3620 3.2332 0.0000 0.0000 1.5687 0.0000 0.0000 -2.1832 -0.0701 1.0946 0.7063 0.0000 0.0000 0.7048 0.0000 0.0000 -10.6908 -0.6626 1.4329 1.4105 0.0000 0.0000 2.7352 0.0000 0.0000 -19.5579 -1.6301 1.4705 4.1014 0.0000 0.0000 3.2148 0.0000 0.0000 0.0000 0.0000 0.0000 0.0000 0.0000 0.0000 0.0000 0.0000 0.0000 0.0000 0.0000 0.0000 0.0000 0.0000 0.0000 0.0000 0.0000 0.0000
0.0000 95.0000 0.0000 0.0000 0.0000 0.0000 0.0000 0.0000 0.0000 0.0000 0.0000 0.0000 0.0000 0.0000 0.0000 0.0000 0.0000 0.0000 0.0000 0.0000 0.0000 0.0000 0.0000 0.0000 -75.7410 4.7051 6.0482 -5.3370 9.2141 -12.4786 78.2472 -29.7278 -157.6105 65.2498 -14.3215 -11.5256 68.5525 0.0000 0.0000 24.6135 0.0000 0.0000 -60.4791 -5.9052 -23.6644 85.5140 0.0000 0.0000 83.1115 0.0000 0.0000 -53.2798 -7.0570 -18.7874 102.0479 0.0000 0.0000 74.5369 0.0000 0.0000 -44.0540 -7.0903 -17.0464 110.0000 0.0000 0.0000 90.0000 0.0000 0.0000 -44.1636 -5.4956 -11.7795 36.0097 0.0000 0.0000 90.0000 0.0000 0.0000 0.0000 0.0000 0.0000 66.6413 -19.4061 29.1592 -139.4348 68.3131 -49.1521 -94.2006 -41.0567 76.8304 -60.5118 -11.1537 -13.6925 5.5214 0.0000 0.0000 10.7928 0.0000 0.0000 8.3565 0.1680 -1.9347 2.8180 0.0000 0.0000 1.9222 0.0000 0.0000 -3.0009 -0.1118 0.5072 0.3256 0.0000 0.0000 1.1864 0.0000 0.0000 -10.7059 -0.6283 0.6767 1.7577 0.0000 0.0000 2.4409 0.0000 0.0000 -19.3053 -1.4341 0.0732 3.7491 0.0000 0.0000 2.9703 0.0000 0.0000 0.0000 0.0000 0.0000 0.0000 0.0000 0.0000 0.0000 0.0000 0.0000 0.0000 0.0000 0.0000 0.0000 0.0000 0.0000 0.0000 0.0000 0.0000
0.0000 95.0000 0.0000 0.0000 0.0000 0.0000 0.0000 0.0000 0.0000 0.0000 0.0000 0.0000 0.0000 0.0000 0.0000 0.0000 0.0000 0.0000 0.0000 0.0000 0.0000 0.0000 0.0000 0.0000 -75.9780 4.7302 6.0546 -4.7405 9.2605 -12.4172 78.6203 -29.8702 -157.8442 65.2498 -14.3215 -11.5256 68.5525 0.0000 0.0000 24.6135 0.0000 0.0000 -60.4791 -5.9052 -23.6644 85.5140 0.0000 0.0000 83.1115 0.0000 0.0000 -53.2798 -7.0570 -18.7874 102.0479 0.0000 0.0000 74.5369 0.0000 0.0000 -44.0540 -7.0903 -17.0464 110.0000 0.0000 0.0000 90.0000 0.0000 0.0000 -44.1636 -5.4956 -11.7795 36.0097 0.0000 0.0000 90.0000 0.0000 0.0000 0.0000 0.0000 0.0000 64.9268 -19.7646 30.6289 -143.9339 62.8495 -51.3267 -103.1821 -44.9556 86.7055 -61.9516 -11.4805 -14.6976 4.1584 0.0000 0.0000 9.1218 0.0000 0.0000 9.3194 0.1535 -2.6806 2.4304 0.0000 0.0000 1.4557 0.0000 0.0000 -2.9618 -0.1188 0.1783 0.1871 0.0000 0.0000 0.5668 0.0000 0.0000 -11.5216 -0.6581 0.4064 0.8630 0.0000 0.0000 3.4228 0.0000 0.0000 -19.8513 -1.4717 0.0648 2.7061 0.0000 0.0000 4.0161 0.0000 0.0000 0.0000 0.0000 0.0000 0.0000 0.0000 0.0000 0.0000 0.0000 0.0000 0.0000 0.0000 0.0000 0.0000 0.0000 0.0000 0.0000 0.0000 0.0000
0.0000 95.0000 0.0000 0.0000 0.0000 0.0000 0.0000 0.0000 0.0000 0.0000 0.0000 0.0000 0.0000 0.0000 0.0000 0.0000 0.0000 0.0000 0.0000 0.0000 0.0000 0.0000 0.0000 0.0000 -76.0895 4.7486 6.0660 -4.5512 9.2963 -12.4181 78.7070 -29.8954 -157.8897 65.2498 -14.3215 -11.5256 68.5525 0.0000 0.0000 24.6135 0.0000 0.0000 -60.4791 -5.9052 -23.6644 85.5140 0.0000 0.0000 83.1115 0.0000 0.0000 -53.2798 -7.0570 -18.7874 102.0479 0.0000 0.0000 74.5369 0.0000 0.0000 -44.0540 -7.0903 -17.0464 110.0000 0.0000 0.0000 90.0000 0.0000 0.0000 -44.1636 -5.4956 -11.7795 36.0097 0.0000 0.0000 90.0000 0.0000 0.0000 0.0000 0.0000 0.0000 63.5081 -20.0160 31.8289 -146.3065 59.3117 -52.2840 -109.3450 -48.3981 92.3934 -62.2184 -11.5210 -15.1064 3.2161 0.0000 0.0000 8.4995 0.0000 0.0000 9.9548 0.2094 -2.5450 3.9378 0.0000 0.0000 2.5776 0.0000 0.0000 -2.8873 -0.1081 0.4863 1.1465 0.0000 0.0000 0.5620 0.0000 0.0000 -12.0568 -0.7021 0.8807 1.6620 0.0000 0.0000 3.0367 0.0000 0.0000 -19.9621 -1.5081 0.2953 1.9700 0.0000 0.0000 3.3876 0.0000 0.0000 0.0000 0.0000 0.0000 0.0000 0.0000 0.0000 0.0000 0.0000 0.0000 0.0000 0.0000 0.0000 0.0000 0.0000 0.0000 0.0000 0.0000 0.0000
0.0000 95.0000 0.0000 0.0000 0.0000 0.0000 0.0000 0.0000 0.0000 0.0000 0.0000 0.0000 0.0000 0.0000 0.0000 0.0000 0.0000 0.0000 0.0000 0.0000 0.0000 0.0000 0.0000 0.0000 -76.1470 4.7631 6.0783 -4.4258 9.3205 -12.4228 78.7819 -29.9183 -157.9305 65.2498 -14.3215 -11.5256 68.5525 0.0000 0.0000 24.6135 0.0000 0.0000 -60.4791 -5.9052 -23.6644 85.5140 0.0000 0.0000 83.1115 0.0000 0.0000 -53.2798 -7.0570 -18.7874 102.0479 0.0000 0.0000 74.5369 0.0000 0.0000 -44.0540 -7.0903 -17.0464 110.0000 0.0000 0.0000 90.0000 0.0000 0.0000 -44.1636 -5.4956 -11.7795 36.0097 0.0000 0.0000 90.0000 0.0000 0.0000 0.0000 0.0000 0.0000 62.7728 -20.1427 32.4636 -148.5074 56.8189 -53.2626 -116.1668 -48.4808 99.2483 -62.8515 -11.7322 -14.9685 3.3777 0.0000 0.0000 7.4597 0.0000 0.0000 9.7177 0.1730 -2.7603 2.7605 0.0000 0.0000 2.2188 0.0000 0.0000 -3.1952 -0.1224 0.3853 0.9373 0.0000 0.0000 0.8640 0.0000 0.0000 -11.7981 -0.6838 0.7194 1.7040 0.0000 0.0000 3.3944 0.0000 0.0000 -20.1811 -1.4968 0.0789 1.7467 0.0000 0.0000 4.1706 0.0000 0.0000 0.0000 0.0000 0.0000 0.0000 0.0000 0.0000 0.0000 0.0000 0.0000 0.0000 0.0000 0.0000 0.0000 0.0000 0.0000 0.0000 0.0000 0.0000
0.0000 95.0000 0.0000 0.0000 0.0000 0.0000 0.0000 0.0000 0.0000 0.0000 0.0000 0.0000 0.0000 0.0000 0.0000 0.0000 0.0000 0.0000 0.0000 0.0000 0.0000 0.0000 0.0000 0.0000 -76.4843 4.7764 6.0584 -3.8623 9.3660 -12.3437 79.0154 -30.0076 -158.0790 65.2498 -14.3215 -11.5256 68.5525 0.0000 0.0000 24.6135 0.0000 0.0000 -60.4791 -5.9052 -23.6644 85.5140 0.0000 0.0000 83.1115 0.0000 0.0000 -53.2798 -7.0570 -18.7874 102.0479 0.0000 0.0000 74.5369 0.0000 0.0000 -44.0540 -7.0903 -17.0464 110.0000 0.0000 0.0000 90.0000 0.0000 0.0000 -44.1636 -5.4956 -11.7795 36.0097 0.0000 0.0000 90.0000 0.0000 0.0000 0.0000 0.0000 0.0000 62.1889 -20.2872 33.0461 -149.4310 55.3106 -53.6738 -121.6273 -46.5817 105.3029 -62.4775 -11.7255 -13.8724 4.1770 0.0000 0.0000 9.7239 0.0000 0.0000 9.4744 0.0557 -3.7900 4.5389 0.0000 0.0000 2.1775 0.0000 0.0000 -3.4062 -0.1485 -0.2206 1.2843 0.0000 0.0000 1.0778 0.0000 0.0000 -12.2414 -0.6861 0.1255 1.6677 0.0000 0.0000 3.0103 0.0000 0.0000 -20.2860 -1.4323 -0.5144 2.4013 0.0000 0.0000 3.5083 0.0000 0.0000 0.0000 0.0000 0.0000 0.0000 0.0000 0.0000 0.0000 0.0000 0.0000 0.0000 0.0000 0.0000 0.0000 0.0000 0.0000 0.0000 0.0000 0.0000
0.0000 95.0000 0.0000 0.0000 0.0000 0.0000 0.0000 0.0000 0.0000 0.0000 0.0000 0.0000 0.0000 0.0000 0.0000 0.0000 0.0000 0.0000 0.0000 0.0000 0.0000 0.0000 0.0000 0.0000 -76.6264 4.7847 6.0535 -3.7731 9.3861 -12.3286 78.9579 -29.9913 -158.0489 65.2498 -14.3215 -11.5256 68.5525 0.0000 0.0000 24.6135 0.0000 0.0000 -60.4791 -5.9052 -23.6644 85.5140 0.0000 0.0000 83.1115 0.0000 0.0000 -53.2798 -7.0570 -18.7874 102.0479 0.0000 0.0000 74.5369 0.0000 0.0000 -44.0540 -7.0903 -17.0464 110.0000 0.0000 0.0000 90.0000 0.0000 0.0000 -44.1636 -5.4956 -11.7795 36.0097 0.0000 0.0000 90.0000 0.0000 0.0000 0.0000 0.0000 0.0000 61.4275 -20.3563 33.6302 -149.7760 55.4630 -54.0323 -114.4431 -52.7308 96.1846 -62.3605 -11.4175 -16.5572 3.7692 0.0000 0.0000 4.8091 0.0000 0.0000 11.6663 0.3147 -2.6601 3.0461 0.0000 0.0000 2.7282 0.0000 0.0000 -1.3169 -0.0483 0.5748 0.8981 0.0000 0.0000 1.0186 0.0000 0.0000 -11.1935 -0.6587 0.8258 1.3264 0.0000 0.0000 2.1167 0.0000 0.0000 -19.9613 -1.4573 -0.1145 2.8317 0.0000 0.0000 2.4932 0.0000 0.0000 0.0000 0.0000 0.0000 0.0000 0.0000 0.0000 0.0000 0.0000 0.0000 0.0000 0.0000 0.0000 0.0000 0.0000 0.0000 0.0000 0.0000 0.0000
0.0000 95.0000 0.0000 0.0000 0.0000 0.0000 0.0000 0.0000 0.0000 0.0000 0.0000 0.0000 0.0000 0.0000 0.0000 0.0000 0.0000 0.0000 0.0000 0.0000 0.0000 0.0000 0.0000 0.0000 -76.5651 4.7677 6.0387 -3.6546 9.3405 -12.2680 79.1291 -30.0780 -158.1828 65.2498 -14.3215 -11.5256 68.5525 0.0000 0.0000 24.6135 0.0000 0.0000 -60.4791 -5.9052 -23.6644 85.5140 0.0000 0.0000 83.1115 0.0000 0.0000 -53.2798 -7.0570 -18.7874 102.0479 0.0000 0.0000 74.5369 0.0000 0.0000 -44.0540 -7.0903 -17.0464 110.0000 0.0000 0.0000 90.0000 0.0000 0.0000 -44.1636 -5.4956 -11.7795 36.0097 0.0000 0.0000 90.0000 0.0000 0.0000 0.0000 0.0000 0.0000 61.3808 -20.9309 34.5739 -152.7168 54.5189 -56.7524 -42.2690 -39.1882 -5.4673 -37.8677 -5.5314 -9.2518 12.7419 0.0000 0.0000 6.3967 0.0000 0.0000 17.7935 0.9586 6.8409 6.9180 0.0000 0.0000 2.4214 0.0000 0.0000 7.9194 -0.2993 9.0931 4.0977 0.0000 0.0000 3.4634 0.0000 0.0000 -1.2031 -1.2060 8.7693 2.2685 0.0000 0.0000 3.4893 0.0000 0.0000 -10.7154 -3.0144 10.7077 5.1984 0.0000 0.0000 1.8328 0.0000 0.0000 0.0000 0.0000 0.0000 0.0000 0.0000 0.0000 0.0000 0.0000 0.0000 0.0000 0.0000 0.0000 0.0000 0.0000 0.0000 0.0000 0.0000 0.0000
0.0000 95.0000 0.0000 0.0000 0.0000 0.0000 0.0000 0.0000 0.0000 0.0000 0.0000 0.0000 0.0000 0.0000 0.0000 0.0000 0.0000 0.0000 0.0000 0.0000 0.0000 0.0000 0.0000 0.0000 -76.6367 4.7710 6.0350 -3.3662 9.3430 -12.2226 79.3512 -30.1661 -158.3292 65.2498 -14.3215 -11.5256 68.5525 0.0000 0.0000 24.6135 0.0000 0.0000 -60.4791 -5.9052 -23.6644 85.5140 0.0000 0.0000 83.1115 0.0000 0.0000 -53.2798 -7.0570 -18.7874 102.0479 0.0000 0.0000 74.5369 0.0000 0.0000 -44.0540 -7.0903 -17.0464 110.0000 0.0000 0.0000 90.0000 0.0000 0.0000 -44.1636 -5.4956 -11.7795 36.0097 0.0000 0.0000 90.0000 0.0000 0.0000 0.0000 0.0000 0.0000 61.4030 -21.2938 35.1351 -154.8670 54.5438 -58.8613 -34.5831 -8.0003 -32.7920 -42.5502 -7.9933 -5.3175 8.9290 0.0000 0.0000 19.9047 0.0000 0.0000 14.7238 0.8429 3.6277 5.5343 0.0000 0.0000 3.3494 0.0000 0.0000 4.2842 -0.0597 6.3691 4.7687 0.0000 0.0000 3.2179 0.0000 0.0000 -3.1397 -0.9768 7.1052 1.6505 0.0000 0.0000 4.7800 0.0000 0.0000 -13.8382 -2.4310 7.8513 1.8119 0.0000 0.0000 1.3615 0.0000 0.0000 0.0000 0.0000 0.0000 0.0000 0.0000 0.0000 0.0000 0.0000 0.0000 0.0000 0.0000 0.0000 0.0000 0.0000 0.0000 0.0000 0.0000 0.0000
0.0000 95.0000 0.0000 0.0000 0.0000 0.0000 0.0000 0.0000 0.0000 0.0000 0.0000 0.0000 0.0000 0.0000 0.0000 0.0000 0.0000 0.0000 0.0000 0.0000 0.0000 0.0000 0.0000 0.0000 -76.6393 4.7576 6.0178 -3.2028 9.3127 -12.1638 79.5072 -30.2404 -158.4473 65.2498 -14.3215 -11.5256 68.5525 0.0000 0.0000 24.6135 0.0000 0.0000 -60.4791 -5.9052 -23.6644 85.5140 0.0000 0.0000 83.1115 0.0000 0.0000 -53.2798 -7.0570 -18.7874 102.0479 0.0000 0.0000 74.5369 0.0000 0.0000 -44.0540 -7.0903 -17.0464 110.0000 0.0000 0.0000 90.0000 0.0000 0.0000 -44.1636 -5.4956 -11.7795 36.0097 0.0000 0.0000 90.0000 0.0000 0.0000 0.0000 0.0000 0.0000 61.2875 -21.6936 35.8451 -155.7689 54.3762 -60.1335 -39.5579 -35.9507 -10.8206 -39.5251 -5.1597 -11.8558 8.6585 0.0000 0.0000 4.0407 0.0000 0.0000 18.1157 0.9389 6.1579 2.7126 0.0000 0.0000 3.2904 0.0000 0.0000 9.2347 -0.2652 8.0550 2.0738 0.0000 0.0000 3.6786 0.0000 0.0000 0.8517 -0.8048 5.7560 1.0991 0.0000 0.0000 4.4147 0.0000 0.0000 -8.6404 -1.5530 3.9937 4.7710 0.0000 0.0000 2.3365 0.0000 0.0000 0.0000 0.0000 0.0000 0.0000 0.0000 0.0000 0.0000 0.0000 0.0000 0.0000 0.0000 0.0000 0.0000 0.0000 0.0000 0.0000 0.0000 0.0000
0.0000 95.0000 0.0000 0.0000 0.0000 0.0000 0.0000 0.0000 0.0000 0.0000 0.0000 0.0000 0.0000 0.0000 0.0000 0.0000 0.0000 0.0000 0.0000 0.0000 0.0000 0.0000 0.0000 0.0000 -76.5708 4.7516 6.0177 -3.2000 9.2935 -12.1529 79.5779 -30.2720 -158.4984 65.2498 -14.3215 -11.5256 68.5525 0.0000 0.0000 24.6135 0.0000 0.0000 -60.4791 -5.9052 -23.6644 85.5140 0.0000 0.0000 83.1115 0.0000 0.0000 -53.2798 -7.0570 -18.7874 102.0479 0.0000 0.0000 74.5369 0.0000 0.0000 -44.0540 -7.0903 -17.0464 110.0000 0.0000 0.0000 90.0000 0.0000 0.0000 -44.1636 -5.4956 -11.7795 36.0097 0.0000 0.0000 90.0000 0.0000 0.0000 0.0000 0.0000 0.0000 61.5394 -21.9228 36.0388 -157.2204 54.2164 -61.4879 -41.2698 -39.8804 -8.6614 -39.9866 -4.9812 -12.8520 8.1573 0.0000 0.0000 8.3362 0.0000 0.0000 19.4834 0.9336 7.0037 2.9394 0.0000 0.0000 3.5345 0.0000 0.0000 8.4923 -0.2348 7.9335 1.8213 0.0000 0.0000 2.9683 0.0000 0.0000 -0.4470 -0.9264 6.5993 1.7805 0.0000 0.0000 3.6652 0.0000 0.0000 -11.4986 -1.4023 2.7091 2.6463 0.0000 0.0000 2.4615 0.0000 0.0000 0.0000 0.0000 0.0000 0.0000 0.0000 0.0000 0.0000 0.0000 0.0000 0.0000 0.0000 0.0000 0.0000 0.0000 0.0000 0.0000 0.0000 0.0000
0.0000 95.0000 0.0000 0.0000 0.0000 0.0000 0.0000 0.0000 0.0000 0.0000 0.0000 0.0000 0.0000 0.0000 0.0000 0.0000 0.0000 0.0000 0.0000 0.0000 0.0000 0.0000 0.0000 0.0000 -76.3811 4.7296 6.0102 -3.4771 9.2477 -12.1650 79.4814 -30.2427 -158.4446 65.2498 -14.3215 -11.5256 68.5525 0.0000 0.0000 24.6135 0.0000 0.0000 -60.4791 -5.9052 -23.6644 85.5140 0.0000 0.0000 83.1115 0.0000 0.0000 -53.2798 -7.0570 -18.7874 102.0479 0.0000 0.0000 74.5369 0.0000 0.0000 -44.0540 -7.0903 -17.0464 110.0000 0.0000 0.0000 90.0000 0.0000 0.0000 -44.1636 -5.4956 -11.7795 36.0097 0.0000 0.0000 90.0000 0.0000 0.0000 0.0000 0.0000 0.0000 62.0604 -21.9848 35.7893 -159.1903 53.2165 -62.6130 -35.5885 -31.3470 -16.8891 -39.5057 -4.7434 -13.1029 9.8502 0.0000 0.0000 7.0964 0.0000 0.0000 17.3244 0.9431 6.0339 3.4809 0.0000 0.0000 3.6801 0.0000 0.0000 7.0543 -0.1610 7.3833 2.8255 0.0000 0.0000 3.6917 0.0000 0.0000 -1.0724 -0.7855 5.5342 2.9992 0.0000 0.0000 4.7959 0.0000 0.0000 -11.0564 -1.5819 3.6966 2.4958 0.0000 0.0000 2.4014 0.0000 0.0000 0.0000 0.0000 0.0000 0.0000 0.0000 0.0000 0.0000 0.0000 0.0000 0.0000 0.0000 0.0000 0.0000 0.0000 0.0000 0.0000 0.0000 0.0000
0.0000 95.0000 0.0000 0.0000 0.0000 0.0000 0.0000 0.0000 0.0000 0.0000 0.0000 0.0000 0.0000 0.0000 0.0000 0.0000 0.0000 0.0000 0.0000 0.0000 0.0000 0.0000 0.0000 0.0000 -76.5039 4.7447 6.0161 -3.1545 9.2884 -12.1562 79.7021 -30.3045 -158.5619 65.2498 -14.3215 -11.5256 68.5525 0.0000 0.0000 24.6135 0.0000 0.0000 -60.4791 -5.9052 -23.6644 85.5140 0.0000 0.0000 83.1115 0.0000 0.0000 -53.2798 -7.0570 -18.7874 102.0479 0.0000 0.0000 74.5369 0.0000 0.0000 -44.0540 -7.0903 -17.0464 110.0000 0.0000 0.0000 90.0000 0.0000 0.0000 -44.1636 -5.4956 -11.7795 36.0097 0.0000 0.0000 90.0000 0.0000 0.0000 0.0000 0.0000 0.0000 62.6899 -21.9918 35.3868 -160.7637 52.3378 -63.3974 -34.0514 -32.0430 -18.1424 -40.3076 -4.9969 -13.1245 9.6145 0.0000 0.0000 7.0917 0.0000 0.0000 17.0550 0.9508 6.2076 4.0802 0.0000 0.0000 3.1638 0.0000 0.0000 6.5406 -0.1678 7.7072 2.8355 0.0000 0.0000 3.4262 0.0000 0.0000 -1.4946 -0.8313 5.8714 3.0534 0.0000 0.0000 4.3304 0.0000 0.0000 -10.5693 -1.9537 5.5787 3.2283 0.0000 0.0000 1.9944 0.0000 0.0000 0.0000 0.0000 0.0000 0.0000 0.0000 0.0000 0.0000 0.0000 0.0000 0.0000 0.0000 0.0000 0.0000 0.0000 0.0000 0.0000 0.0000 0.0000
0.0000 95.0000 0.0000 0.0000 0.0000 0.0000 0.0000 0.0000 0.0000 0.0000 0.0000 0.0000 0.0000 0.0000 0.0000 0.0000 0.0000 0.0000 0.0000 0.0000 0.0000 0.0000 0.0000 0.0000 -76.3129 4.7295 6.0174 -3.2877 9.2601 -12.1757 79.7672 -30.3187 -158.5918 65.2498 -14.3215 -11.5256 68.5525 0.0000 0.0000 24.6135 0.0000 0.0000 -60.4791 -5.9052 -23.6644 85.5140 0.0000 0.0000 83.1115 0.0000 0.0000 -53.2798 -7.0570 -18.7874 102.0479 0.0000 0.0000 74.5369 0.0000 0.0000 -44.0540 -7.0903 -17.0464 110.0000 0.0000 0.0000 90.0000 0.0000 0.0000 -44.1636 -5.4956 -11.7795 36.0097 0.0000 0.0000 90.0000 0.0000 0.0000 0.0000 0.0000 0.0000 63.4396 -22.1516 35.1468 -161.9514 51.2330 -64.0977 -38.1526 -45.3073 -7.7633 -40.6328 -5.5606 -11.6774 7.5464 0.0000 0.0000 6.4954 0.0000 0.0000 17.1996 0.9434 6.0083 2.4950 0.0000 0.0000 2.8838 0.0000 0.0000 6.6202 -0.1606 7.5483 1.4900 0.0000 0.0000 2.8554 0.0000 0.0000 -2.4159 -0.8553 6.0417 2.1416 0.0000 0.0000 3.1087 0.0000 0.0000 -13.9079 -1.3723 1.8869 2.9562 0.0000 0.0000 2.1067 0.0000 0.0000 0.0000 0.0000 0.0000 0.0000 0.0000 0.0000 0.0000 0.0000 0.0000 0.0000 0.0000 0.0000 0.0000 0.0000 0.0000 0.0000 0.0000 0.0000
0.0000 95.0000 0.0000 0.0000 0.0000 0.0000 0.0000 0.0000 0.0000 0.0000 0.0000 0.0000 0.0000 0.0000 0.0000 0.0000 0.0000 0.0000 0.0000 0.0000 0.0000 0.0000 0.0000 0.0000 -72.5535 13.1295 17.8225 -7.8928 17.1880 -24.4572 79.9144 -30.3791 -158.6931 65.2498 -14.3215 -11.5256 68.5525 0.0000 0.0000 24.6135 0.0000 0.0000 -60.4791 -5.9052 -23.6644 85.5140 0.0000 0.0000 83.1115 0.0000 0.0000 -53.2798 -7.0570 -18.7874 102.0479 0.0000 0.0000 74.5369 0.0000 0.0000 -44.0540 -7.0903 -17.0464 110.0000 0.0000 0.0000 90.0000 0.0000 0.0000 -44.1636 -5.4956 -11.7795 36.0097 0.0000 0.0000 90.0000 0.0000 0.0000 0.0000 0.0000 0.0000 63.6524 -22.3864 35.3672 -161.7082 51.2355 -64.3599 -38.7874 -46.6738 -7.9204 -41.1644 -5.9198 -11.0448 6.6771 0.0000 0.0000 5.4444 0.0000 0.0000 18.3151 1.0101 9.8729 1.5071 0.0000 0.0000 3.3073 0.0000 0.0000 7.2006 -0.3613 10.5094 1.4292 0.0000 0.0000 2.4911 0.0000 0.0000 -1.8148 -1.1508 8.4320 1.3404 0.0000 0.0000 2.6807 0.0000 0.0000 -13.9054 -1.4147 2.1258 3.1829 0.0000 0.0000 2.3828 0.0000 0.0000 0.0000 0.0000 0.0000 0.0000 0.0000 0.0000 0.0000 0.0000 0.0000 0.0000 0.0000 0.0000 0.0000 0.0000 0.0000 0.0000 0.0000 0.0000
0.0000 95.0000 0.0000 0.0000 0.0000 0.0000 0.0000 0.0000 0.0000 0.0000 0.0000 0.0000 0.0000 0.0000 0.0000 0.0000 0.0000 0.0000 0.0000 0.0000 0.0000 0.0000 0.0000 0.0000 -72.5111 13.1266 17.8322 -7.7973 17.1828 -24.4562 80.0594 -30.4272 -158.7797 65.2498 -14.3215 -11.5256 68.5525 0.0000 0.0000 24.6135 0.0000 0.0000 -60.4791 -5.9052 -23.6644 85.5140 0.0000 0.0000 83.1115 0.0000 0.0000 -53.2798 -7.0570 -18.7874 102.0479 0.0000 0.0000 74.5369 0.0000 0.0000 -44.0540 -7.0903 -17.0464 110.0000 0.0000 0.0000 90.0000 0.0000 0.0000 -44.1636 -5.4956 -11.7795 36.0097 0.0000 0.0000 90.0000 0.0000 0.0000 0.0000 0.0000 0.0000 63.7953 -22.4467 35.3665 -161.3894 52.0003 -64.5494 -37.7075 -46.3285 -8.2697 -41.3617 -6.2320 -10.2179 5.9776 0.0000 0.0000 3.0481 0.0000 0.0000 17.6442 1.0409 9.9715 1.3756 0.0000 0.0000 3.1359 0.0000 0.0000 6.2240 -0.3294 10.8245 0.5111 0.0000 0.0000 2.6353 0.0000 0.0000 -2.7080 -1.1769 8.7992 3.0574 0.0000 0.0000 2.6744 0.0000 0.0000 -13.0372 -1.5249 2.9692 4.8982 0.0000 0.0000 2.2790 0.0000 0.0000 0.0000 0.0000 0.0000 0.0000 0.0000 0.0000 0.0000 0.0000 0.0000 0.0000 0.0000 0.0000 0.0000 0.0000 0.0000 0.0000 0.0000 0.0000
0.0000 95.0000 0.0000 0.0000 0.0000 0.0000 0.0000 0.0000 0.0000 0.0000 0.0000 0.0000 0.0000 0.0000 0.0000 0.0000 0.0000 0.0000 0.0000 0.0000 0.0000 0.0000 0.0000 0.0000 -75.9401 4.6956 6.0144 -3.2217 9.1919 -12.1598 80.2329 -30.4719 -158.8688 65.2498 -14.3215 -11.5256 68.5525 0.0000 0.0000 24.6135 0.0000 0.0000 -60.4791 -5.9052 -23.6644 85.5140 0.0000 0.0000 83.1115 0.0000 0.0000 -53.2798 -7.0570 -18.7874 102.0479 0.0000 0.0000 74.5369 0.0000 0.0000 -44.0540 -7.0903 -17.0464 110.0000 0.0000 0.0000 90.0000 0.0000 0.0000 -44.1636 -5.4956 -11.7795 36.0097 0.0000 0.0000 90.0000 0.0000 0.0000 0.0000 0.0000 0.0000 64.1652 -22.2645 34.8543 -162.1498 52.0425 -64.7847 -43.1478 -51.2405 -0.9062 -41.4288 -6.5067 -9.3777 4.6369 0.0000 0.0000 2.0473 0.0000 0.0000 18.6783 0.9855 9.3151 1.0137 0.0000 0.0000 2.9601 0.0000 0.0000 7.1116 -0.3025 9.6375 0.8509 0.0000 0.0000 2.3935 0.0000 0.0000 -2.3993 -1.0361 7.5605 2.6861 0.0000 0.0000 2.0756 0.0000 0.0000 -12.5549 -1.3112 1.9613 5.5278 0.0000 0.0000 3.1034 0.0000 0.0000 0.0000 0.0000 0.0000 0.0000 0.0000 0.0000 0.0000 0.0000 0.0000 0.0000 0.0000 0.0000 0.0000 0.0000 0.0000 0.0000 0.0000 0.0000
0.0000 95.0000 0.0000 0.0000 0.0000 0.0000 0.0000 0.0000 0.0000 0.0000 0.0000 0.0000 0.0000 0.0000 0.0000 0.0000 0.0000 0.0000 0.0000 0.0000 0.0000 0.0000 0.0000 0.0000 -76.0526 4.7131 6.0247 -3.1509 9.2342 -12.1837 80.1991 -30.4455 -158.8306 65.2498 -14.3215 -11.5256 68.5525 0.0000 0.0000 24.6135 0.0000 0.0000 -60.4791 -5.9052 -23.6644 85.5140 0.0000 0.0000 83.1115 0.0000 0.0000 -53.2798 -7.0570 -18.7874 102.0479 0.0000 0.0000 74.5369 0.0000 0.0000 -44.0540 -7.0903 -17.0464 110.0000 0.0000 0.0000 90.0000 0.0000 0.0000 -44.1636 -5.4956 -11.7795 36.0097 0.0000 0.0000 90.0000 0.0000 0.0000 0.0000 0.0000 0.0000 64.5452 -22.1524 34.4460 -162.8690 51.4706 -64.8749 -38.2279 -47.3865 -6.9082 -42.0718 -6.5438 -9.8646 5.6334 0.0000 0.0000 2.0556 0.0000 0.0000 18.0396 1.0096 9.3258 1.4476 0.0000 0.0000 2.8732 0.0000 0.0000 6.8416 -0.3161 10.0561 1.0316 0.0000 0.0000 2.8676 0.0000 0.0000 -2.1613 -1.0269 7.4633 2.6551 0.0000 0.0000 2.8014 0.0000 0.0000 -11.5518 -1.3515 2.4411 5.7171 0.0000 0.0000 2.5744 0.0000 0.0000 0.0000 0.0000 0.0000 0.0000 0.0000 0.0000 0.0000 0.0000 0.0000 0.0000 0.0000 0.0000 0.0000 0.0000 0.0000 0.0000 0.0000 0.0000
0.0000 95.0000 0.0000 0.0000 0.0000 0.0000 0.0000 0.0000 0.0000 0.0000 0.0000 0.0000 0.0000 0.0000 0.0000 0.0000 0.0000 0.0000 0.0000 0.0000 0.0000 0.0000 0.0000 0.0000 -76.0029 4.7148 6.0321 -3.1212 9.2392 -12.1979 80.2896 -30.4663 -158.8742 65.2498 -14.3215 -11.5256 68.5525 0.0000 0.0000 24.6135 0.0000 0.0000 -60.4791 -5.9052 -23.6644 85.5140 0.0000 0.0000 83.1115 0.0000 0.0000 -53.2798 -7.0570 -18.7874 102.0479 0.0000 0.0000 74.5369 0.0000 0.0000 -44.0540 -7.0903 -17.0464 110.0000 0.0000 0.0000 90.0000 0.0000 0.0000 -44.1636 -5.4956 -11.7795 36.0097 0.0000 0.0000 90.0000 0.0000 0.0000 0.0000 0.0000 0.0000 65.0347 -22.1636 34.1578 -163.3537 51.0582 -65.0913 -38.7396 -46.6503 -7.9119 -40.7293 -6.1813 -9.7872 6.2496 0.0000 0.0000 1.5195 0.0000 0.0000 18.1056 0.9812 8.1195 3.7615 0.0000 0.0000 2.8617 0.0000 0.0000 6.8264 -0.2546 9.0389 2.8243 0.0000 0.0000 2.8096 0.0000 0.0000 -1.4546 -0.9135 6.5177 4.5305 0.0000 0.0000 3.3108 0.0000 0.0000 -11.1068 -1.3242 2.4181 5.2394 0.0000 0.0000 2.5098 0.0000 0.0000 0.0000 0.0000 0.0000 0.0000 0.0000 0.0000 0.0000 0.0000 0.0000 0.0000 0.0000 0.0000 0.0000 0.0000 0.0000 0.0000 0.0000 0.0000
0.0000 95.0000 0.0000 0.0000 0.0000 0.0000 0.0000 0.0000 0.0000 0.0000 0.0000 0.0000 0.0000 0.0000 0.0000 0.0000 0.0000 0.0000 0.0000 0.0000 0.0000 0.0000 0.0000 0.0000 -75.7158 4.7005 6.0449 -3.1731 9.2128 -12.2322 80.5514 -30.5333 -159.0089 65.2498 -14.3215 -11.5256 68.5525 0.0000 0.0000 24.6135 0.0000 0.0000 -60.4791 -5.9052 -23.6644 85.5140 0.0000 0.0000 83.1115 0.0000 0.0000 -53.2798 -7.0570 -18.7874 102.0479 0.0000 0.0000 74.5369 0.0000 0.0000 -44.0540 -7.0903 -17.0464 110.0000 0.0000 0.0000 90.0000 0.0000 0.0000 -44.1636 -5.4956 -11.7795 36.0097 0.0000 0.0000 90.0000 0.0000 0.0000 0.0000 0.0000 0.0000 65.1854 -22.0871 33.9510 -163.6810 50.8424 -65.1021 -35.7233 -45.8866 -10.2427 -41.8582 -6.3722 -10.2325 5.7431 0.0000 0.0000 2.0087 0.0000 0.0000 18.0418 1.0231 9.9387 2.1343 0.0000 0.0000 3.0795 0.0000 0.0000 6.3398 -0.3266 10.6642 1.0454 0.0000 0.0000 2.8891 0.0000 0.0000 -2.0153 -1.1397 8.3716 3.2367 0.0000 0.0000 3.0523 0.0000 0.0000 -10.4297 -1.4324 3.1004 6.3990 0.0000 0.0000 3.9394 0.0000 0.0000 0.0000 0.0000 0.0000 0.0000 0.0000 0.0000 0.0000 0.0000 0.0000 0.0000 0.0000 0.0000 0.0000 0.0000 0.0000 0.0000 0.0000 0.0000
0.0000 95.0000 0.0000 0.0000 0.0000 0.0000 0.0000 0.0000 0.0000 0.0000 0.0000 0.0000 0.0000 0.0000 0.0000 0.0000 0.0000 0.0000 0.0000 0.0000 0.0000 0.0000 0.0000 0.0000 -75.6300 4.7023 6.0566 -3.3714 9.2100 -12.2697 80.4358 -30.4888 -158.9317 65.2498 -14.3215 -11.5256 68.5525 0.0000 0.0000 24.6135 0.0000 0.0000 -60.4791 -5.9052 -23.6644 85.5140 0.0000 0.0000 83.1115 0.0000 0.0000 -53.2798 -7.0570 -18.7874 102.0479 0.0000 0.0000 74.5369 0.0000 0.0000 -44.0540 -7.0903 -17.0464 110.0000 0.0000 0.0000 90.0000 0.0000 0.0000 -44.1636 -5.4956 -11.7795 36.0097 0.0000 0.0000 90.0000 0.0000 0.0000 0.0000 0.0000 0.0000 65.3956 -22.1311 33.8871 -164.0959 50.2304 -65.2231 -38.3920 -47.7492 -6.9280 -41.8934 -6.1353 -11.0556 6.5999 0.0000 0.0000 3.5056 0.0000 0.0000 18.3523 1.0006 9.4654 1.8506 0.0000 0.0000 3.1640 0.0000 0.0000 6.9691 -0.3272 10.1416 1.1523 0.0000 0.0000 2.9189 0.0000 0.0000 -2.0520 -1.0879 7.9535 1.8575 0.0000 0.0000 3.2455 0.0000 0.0000 -13.8508 -1.2689 1.3252 3.9681 0.0000 0.0000 1.6391 0.0000 0.0000 0.0000 0.0000 0.0000 0.0000 0.0000 0.0000 0.0000 0.0000 0.0000 0.0000 0.0000 0.0000 0.0000 0.0000 0.0000 0.0000 0.0000 0.0000
0.0000 95.0000 0.0000 0.0000 0.0000 0.0000 0.0000 0.0000 0.0000 0.0000 0.0000 0.0000 0.0000 0.0000 0.0000 0.0000 0.0000 0.0000 0.0000 0.0000 0.0000 0.0000 0.0000 0.0000 -75.6011 4.7026 6.0602 -3.4389 9.2099 -12.2836 80.3968 -30.4726 -158.9042 65.2498 -14.3215 -11.5256 68.5525 0.0000 0.0000 24.6135 0.0000 0.0000 -60.4791 -5.9052 -23.6644 85.5140 0.0000 0.0000 83.1115 0.0000 0.0000 -53.2798 -7.0570 -18.7874 102.0479 0.0000 0.0000 74.5369 0.0000 0.0000 -44.0540 -7.0903 -17.0464 110.0000 0.0000 0.0000 90.0000 0.0000 0.0000 -44.1636 -5.4956 -11.7795 36.0097 0.0000 0.0000 90.0000 0.0000 0.0000 0.0000 0.0000 0.0000 65.5965 -22.1662 33.8160 -164.1070 50.2369 -65.3101 -39.5504 -47.9526 -5.9679 -40.3917 -5.7380 -10.8837 6.7746 0.0000 0.0000 3.1471 0.0000 0.0000 20.0546 0.9308 8.5758 2.5292 0.0000 0.0000 3.3852 0.0000 0.0000 8.1093 -0.3072 9.1038 1.2273 0.0000 0.0000 2.9971 0.0000 0.0000 0.1672 -1.1060 7.8548 1.6384 0.0000 0.0000 3.6902 0.0000 0.0000 -9.6266 -1.2932 2.6251 5.1546 0.0000 0.0000 3.1886 0.0000 0.0000 0.0000 0.0000 0.0000 0.0000 0.0000 0.0000 0.0000 0.0000 0.0000 0.0000 0.0000 0.0000 0.0000 0.0000 0.0000 0.0000 0.0000 0.0000
0.0000 95.0000 0.0000 0.0000 0.0000 0.0000 0.0000 0.0000 0.0000 0.0000 0.0000 0.0000 0.0000 0.0000 0.0000 0.0000 0.0000 0.0000 0.0000 0.0000 0.0000 0.0000 0.0000 0.0000 -75.5282 4.6895 6.0512 -3.3877 9.1864 -12.2626 80.5255 -30.5191 -158.9866 65.2498 -14.3215 -11.5256 68.5525 0.0000 0.0000 24.6135 0.0000 0.0000 -60.4791 -5.9052 -23.6644 85.5140 0.0000 0.0000 83.1115 0.0000 0.0000 -53.2798 -7.0570 -18.7874 102.0479 0.0000 0.0000 74.5369 0.0000 0.0000 -44.0540 -7.0903 -17.0464 110.0000 0.0000 0.0000 90.0000 0.0000 0.0000 -44.1636 -5.4956 -11.7795 36.0097 0.0000 0.0000 90.0000 0.0000 0.0000 0.0000 0.0000 0.0000 65.8704 -22.2103 33.7139 -164.4673 49.7894 -65.4650 -41.9281 -50.7226 -2.8817 -40.7118 -6.0659 -10.1414 5.9904 0.0000 0.0000 1.9495 0.0000 0.0000 20.3420 0.9227 8.9266 2.0940 0.0000 0.0000 3.5437 0.0000 0.0000 8.5624 -0.3516 9.4657 0.8892 0.0000 0.0000 2.9679 0.0000 0.0000 0.1337 -1.1264 8.0018 2.5612 0.0000 0.0000 3.7864 0.0000 0.0000 -11.1179 -1.2287 1.9449 4.8258 0.0000 0.0000 2.7373 0.0000 0.0000 0.0000 0.0000 0.0000 0.0000 0.0000 0.0000 0.0000 0.0000 0.0000 0.0000 0.0000 0.0000 0.0000 0.0000 0.0000 0.0000 0.0000 0.0000
0.0000 95.0000 0.0000 0.0000 0.0000 0.0000 0.0000 0.0000 0.0000 0.0000 0.0000 0.0000 0.0000 0.0000 0.0000 0.0000 0.0000 0.0000 0.0000 0.0000 0.0000 0.0000 0.0000 0.0000 -75.8165 4.7123 6.0492 -3.1719 9.2351 -12.2395 80.4466 -30.4982 -158.9451 65.2498 -14.3215 -11.5256 68.5525 0.0000 0.0000 24.6135 0.0000 0.0000 -60.4791 -5.9052 -23.6644 85.5140 0.0000 0.0000 83.1115 0.0000 0.0000 -53.2798 -7.0570 -18.7874 102.0479 0.0000 0.0000 74.5369 0.0000 0.0000 -44.0540 -7.0903 -17.0464 110.0000 0.0000 0.0000 90.0000 0.0000 0.0000 -44.1636 -5.4956 -11.7795 36.0097 0.0000 0.0000 90.0000 0.0000 0.0000 0.0000 0.0000 0.0000 65.9201 -22.2102 33.6836 -164.4873 49.7019 -65.4450 -39.4284 -45.7538 -7.4327 -40.3976 -5.8666 -10.4825 6.6311 0.0000 0.0000 2.3291 0.0000 0.0000 19.1272 0.9561 8.3054 2.3822 0.0000 0.0000 3.8253 0.0000 0.0000 7.6940 -0.2514 8.5096 1.5431 0.0000 0.0000 3.2157 0.0000 0.0000 -0.3550 -1.0316 7.3645 1.9927 0.0000 0.0000 4.2575 0.0000 0.0000 -12.1198 -1.1282 1.1419 4.0197 0.0000 0.0000 2.0194 0.0000 0.0000 0.0000 0.0000 0.0000 0.0000 0.0000 0.0000 0.0000 0.0000 0.0000 0.0000 0.0000 0.0000 0.0000 0.0000 0.0000 0.0000 0.0000 0.0000
0.0000 95.0000 0.0000 0.0000 0.0000 0.0000 0.0000 0.0000 0.0000 0.0000 0.0000 0.0000 0.0000 0.0000 0.0000 0.0000 0.0000 0.0000 0.0000 0.0000 0.0000 0.0000 0.0000 0.0000 -75.9623 4.7179 6.0405 -3.3286 9.2391 -12.2298 80.1142 -30.4053 -158.7654 65.2498 -14.3215 -11.5256 68.5525 0.0000 0.0000 24.6135 0.0000 0.0000 -60.4791 -5.9052 -23.6644 85.5140 0.0000 0.0000 83.1115 0.0000 0.0000 -53.2798 -7.0570 -18.7874 102.0479 0.0000 0.0000 74.5369 0.0000 0.0000 -44.0540 -7.0903 -17.0464 110.0000 0.0000 0.0000 90.0000 0.0000 0.0000 -44.1636 -5.4956 -11.7795 36.0097 0.0000 0.0000 90.0000 0.0000 0.0000 0.0000 0.0000 0.0000 65.7379 -22.2433 33.8431 -164.0658 49.8371 -65.2596 -37.3828 -41.9354 -10.6619 -40.4080 -5.8280 -10.6145 6.1014 0.0000 0.0000 1.8324 0.0000 0.0000 18.8300 0.9622 8.1516 3.3101 0.0000 0.0000 3.8311 0.0000 0.0000 7.1101 -0.1923 7.8668 2.1305 0.0000 0.0000 3.0413 0.0000 0.0000 -0.7697 -0.8758 6.2261 2.9141 0.0000 0.0000 4.2008 0.0000 0.0000 -10.7058 -0.9896 0.9011 4.2151 0.0000 0.0000 2.6617 0.0000 0.0000 0.0000 0.0000 0.0000 0.0000 0.0000 0.0000 0.0000 0.0000 0.0000 0.0000 0.0000 0.0000 0.0000 0.0000 0.0000 0.0000 0.0000 0.0000
0.0000 95.0000 0.0000 0.0000 0.0000 0.0000 0.0000 0.0000 0.0000 0.0000 0.0000 0.0000 0.0000 0.0000 0.0000 0.0000 0.0000 0.0000 0.0000 0.0000 0.0000 0.0000 0.0000 0.0000 -76.1336 4.7201 6.0248 -3.1057 9.2514 -12.1836 80.1627 -30.4314 -158.8063 65.2498 -14.3215 -11.5256 68.5525 0.0000 0.0000 24.6135 0.0000 0.0000 -60.4791 -5.9052 -23.6644 85.5140 0.0000 0.0000 83.1115 0.0000 0.0000 -53.2798 -7.0570 -18.7874 102.0479 0.0000 0.0000 74.5369 0.0000 0.0000 -44.0540 -7.0903 -17.0464 110.0000 0.0000 0.0000 90.0000 0.0000 0.0000 -44.1636 -5.4956 -11.7795 36.0097 0.0000 0.0000 90.0000 0.0000 0.0000 0.0000 0.0000 0.0000 65.7009 -22.2649 33.8976 -163.8280 50.1480 -65.2636 -36.2852 -40.6326 -11.6686 -41.5913 -5.9163 -11.4773 6.1691 0.0000 0.0000 2.8439 0.0000 0.0000 18.0162 0.9842 8.1482 2.5911 0.0000 0.0000 3.0810 0.0000 0.0000 6.8575 -0.1977 8.0706 2.3280 0.0000 0.0000 3.1409 0.0000 0.0000 -0.8675 -0.8680 6.1667 3.5439 0.0000 0.0000 4.4958 0.0000 0.0000 -10.8115 -0.9879 0.8595 4.1253 0.0000 0.0000 3.2066 0.0000 0.0000 0.0000 0.0000 0.0000 0.0000 0.0000 0.0000 0.0000 0.0000 0.0000 0.0000 0.0000 0.0000 0.0000 0.0000 0.0000 0.0000 0.0000 0.0000
0.0000 95.0000 0.0000 0.0000 0.0000 0.0000 0.0000 0.0000 0.0000 0.0000 0.0000 0.0000 0.0000 0.0000 0.0000 0.0000 0.0000 0.0000 0.0000 0.0000 0.0000 0.0000 0.0000 0.0000 -76.1758 4.7235 6.0245 -3.1477 9.2551 -12.1839 80.0709 -30.4048 -158.7558 65.2498 -14.3215 -11.5256 68.5525 0.0000 0.0000 24.6135 0.0000 0.0000 -60.4791 -5.9052 -23.6644 85.5140 0.0000 0.0000 83.1115 0.0000 0.0000 -53.2798 -7.0570 -18.7874 102.0479 0.0000 0.0000 74.5369 0.0000 0.0000 -44.0540 -7.0903 -17.0464 110.0000 0.0000 0.0000 90.0000 0.0000 0.0000 -44.1636 -5.4956 -11.7795 36.0097 0.0000 0.0000 90.0000 0.0000 0.0000 0.0000 0.0000 0.0000 65.5657 -22.3541 34.1120 -163.1633 50.4834 -65.0958 -30.9210 -31.9328 -19.6369 -40.4365 -5.9827 -10.1504 6.8703 0.0000 0.0000 4.6480 0.0000 0.0000 14.8653 1.0791 8.3337 3.4626 0.0000 0.0000 3.6618 0.0000 0.0000 3.5287 -0.1330 9.0885 2.5708 0.0000 0.0000 2.8573 0.0000 0.0000 -3.6656 -1.0608 7.9179 4.0007 0.0000 0.0000 3.5627 0.0000 0.0000 -11.9985 -1.5068 3.1208 5.7892 0.0000 0.0000 2.7957 0.0000 0.0000 0.0000 0.0000 0.0000 0.0000 0.0000 0.0000 0.0000 0.0000 0.0000 0.0000 0.0000 0.0000 0.0000 0.0000 0.0000 0.0000 0.0000 0.0000
0.0000 95.0000 0.0000 0.0000 0.0000 0.0000 0.0000 0.0000 0.0000 0.0000 0.0000 0.0000 0.0000 0.0000 0.0000 0.0000 0.0000 0.0000 0.0000 0.0000 0.0000 0.0000 0.0000 0.0000 -76.2242 4.7324 6.0306 -3.2763 9.2653 -12.2009 79.8820 -30.3445 -158.6457 65.2498 -14.3215 -11.5256 68.5525 0.0000 0.0000 24.6135 0.0000 0.0000 -60.4791 -5.9052 -23.6644 85.5140 0.0000 0.0000 83.1115 0.0000 0.0000 -53.2798 -7.0570 -18.7874 102.0479 0.0000 0.0000 74.5369 0.0000 0.0000 -44.0540 -7.0903 -17.0464 110.0000 0.0000 0.0000 90.0000 0.0000 0.0000 -44.1636 -5.4956 -11.7795 36.0097 0.0000 0.0000 90.0000 0.0000 0.0000 0.0000 0.0000 0.0000 65.7000 -22.2601 33.8911 -163.3271 50.3842 -65.0109 -33.1722 -35.8278 -15.7897 -40.2069 -5.6850 -10.8758 7.0778 0.0000 0.0000 2.2120 0.0000 0.0000 16.4562 1.0077 7.6222 2.9291 0.0000 0.0000 3.2204 0.0000 0.0000 5.1311 -0.1360 7.8073 2.3637 0.0000 0.0000 3.0689 0.0000 0.0000 -3.0307 -0.9215 6.6114 3.8836 0.0000 0.0000 3.7071 0.0000 0.0000 -11.9804 -1.1997 1.5523 5.3951 0.0000 0.0000 3.6459 0.0000 0.0000 0.0000 0.0000 0.0000 0.0000 0.0000 0.0000 0.0000 0.0000 0.0000 0.0000 0.0000 0.0000 0.0000 0.0000 0.0000 0.0000 0.0000 0.0000
0.0000 95.0000 0.0000 0.0000 0.0000 0.0000 0.0000 0.0000 0.0000 0.0000 0.0000 0.0000 0.0000 0.0000 0.0000 0.0000 0.0000 0.0000 0.0000 0.0000 0.0000 0.0000 0.0000 0.0000 -76.1465 4.7228 6.0269 -3.5963 9.2349 -12.2132 79.6165 -30.2675 -158.5010 65.2498 -14.3215 -11.5256 68.5525 0.0000 0.0000 24.6135 0.0000 0.0000 -60.4791 -5.9052 -23.6644 85.5140 0.0000 0.0000 83.1115 0.0000 0.0000 -53.2798 -7.0570 -18.7874 102.0479 0.0000 0.0000 74.5369 0.0000 0.0000 -44.0540 -7.0903 -17.0464 110.0000 0.0000 0.0000 90.0000 0.0000 0.0000 -44.1636 -5.4956 -11.7795 36.0097 0.0000 0.0000 90.0000 0.0000 0.0000 0.0000 0.0000 0.0000 65.5171 -22.2453 33.9814 -163.1029 50.5634 -64.8927 -37.8105 -42.2538 -7.4866 -39.9864 -6.2245 -8.9764 6.0239 0.0000 0.0000 4.3151 0.0000 0.0000 17.4990 0.9262 5.4594 3.0020 0.0000 0.0000 3.1008 0.0000 0.0000 6.5826 -0.0981 6.4772 3.4640 0.0000 0.0000 3.7864 0.0000 0.0000 -1.2855 -0.7443 5.2038 3.5826 0.0000 0.0000 4.9248 0.0000 0.0000 -11.0315 -0.5920 -1.1467 6.6622 0.0000 0.0000 4.3480 0.0000 0.0000 0.0000 0.0000 0.0000 0.0000 0.0000 0.0000 0.0000 0.0000 0.0000 0.0000 0.0000 0.0000 0.0000 0.0000 0.0000 0.0000 0.0000 0.0000
0.0000 95.0000 0.0000 0.0000 0.0000 0.0000 0.0000 0.0000 0.0000 0.0000 0.0000 0.0000 0.0000 0.0000 0.0000 0.0000 0.0000 0.0000 0.0000 0.0000 0.0000 0.0000 0.0000 0.0000 -76.0970 4.7111 6.0172 -3.9183 9.2019 -12.2162 79.3171 -30.1816 -158.3404 65.2498 -14.3215 -11.5256 68.5525 0.0000 0.0000 24.6135 0.0000 0.0000 -60.4791 -5.9052 -23.6644 85.5140 0.0000 0.0000 83.1115 0.0000 0.0000 -53.2798 -7.0570 -18.7874 102.0479 0.0000 0.0000 74.5369 0.0000 0.0000 -44.0540 -7.0903 -17.0464 110.0000 0.0000 0.0000 90.0000 0.0000 0.0000 -44.1636 -5.4956 -11.7795 36.0097 0.0000 0.0000 90.0000 0.0000 0.0000 0.0000 0.0000 0.0000 65.8015 -22.1312 33.6395 -163.7217 50.4854 -65.1046 -32.8836 -27.6110 -19.2110 -40.7605 -6.3251 -9.3528 6.5613 0.0000 0.0000 1.7609 0.0000 0.0000 14.1789 0.8132 3.2159 4.4225 0.0000 0.0000 1.9127 0.0000 0.0000 4.0543 -0.0180 5.2815 4.8678 0.0000 0.0000 3.2077 0.0000 0.0000 -3.5488 -0.7926 5.4403 4.5352 0.0000 0.0000 4.7705 0.0000 0.0000 -12.7834 -1.2474 1.5552 5.4563 0.0000 0.0000 2.8730 0.0000 0.0000 0.0000 0.0000 0.0000 0.0000 0.0000 0.0000 0.0000 0.0000 0.0000 0.0000 0.0000 0.0000 0.0000 0.0000 0.0000 0.0000 0.0000 0.0000
0.0000 95.0000 0.0000 0.0000 0.0000 0.0000 0.0000 0.0000 0.0000 0.0000 0.0000 0.0000 0.0000 0.0000 0.0000 0.0000 0.0000 0.0000 0.0000 0.0000 0.0000 0.0000 0.0000 0.0000 -72.2912 13.1562 17.9430 -8.9644 17.1615 -24.6625 79.0648 -30.1042 -158.2002 65.2498 -14.3215 -11.5256 68.5525 0.0000 0.0000 24.6135 0.0000 0.0000 -60.4791 -5.9052 -23.6644 85.5140 0.0000 0.0000 83.1115 0.0000 0.0000 -53.2798 -7.0570 -18.7874 102.0479 0.0000 0.0000 74.5369 0.0000 0.0000 -44.0540 -7.0903 -17.0464 110.0000 0.0000 0.0000 90.0000 0.0000 0.0000 -44.1636 -5.4956 -11.7795 36.0097 0.0000 0.0000 90.0000 0.0000 0.0000 0.0000 0.0000 0.0000 66.0118 -21.8819 33.1467 -164.2648 50.6099 -65.1098 -35.9875 -28.0074 -19.8959 -42.8658 -6.8177 -9.7028 5.7043 0.0000 0.0000 1.4765 0.0000 0.0000 15.3159 0.7438 1.3092 5.4818 0.0000 0.0000 1.1849 0.0000 0.0000 6.5724 0.0865 3.2662 6.1247 0.0000 0.0000 2.8661 0.0000 0.0000 -0.2149 -0.5143 3.6198 3.4258 0.0000 0.0000 4.3762 0.0000 0.0000 -8.6335 -0.9676 1.4022 3.6978 0.0000 0.0000 3.5966 0.0000 0.0000 0.0000 0.0000 0.0000 0.0000 0.0000 0.0000 0.0000 0.0000 0.0000 0.0000 0.0000 0.0000 0.0000 0.0000 0.0000 0.0000 0.0000 0.0000
0.0000 95.0000 0.0000 0.0000 0.0000 0.0000 0.0000 0.0000 0.0000 0.0000 0.0000 0.0000 0.0000 0.0000 0.0000 0.0000 0.0000 0.0000 0.0000 0.0000 0.0000 0.0000 0.0000 0.0000 -76.0119 4.7062 6.0203 -4.0924 9.1910 -12.2401 79.2254 -30.1458 -158.2805 65.2498 -14.3215 -11.5256 68.5525 0.0000 0.0000 24.6135 0.0000 0.0000 -60.4791 -5.9052 -23.6644 85.5140 0.0000 0.0000 83.1115 0.0000 0.0000 -53.2798 -7.0570 -18.7874 102.0479 0.0000 0.0000 74.5369 0.0000 0.0000 -44.0540 -7.0903 -17.0464 110.0000 0.0000 0.0000 90.0000 0.0000 0.0000 -44.1636 -5.4956 -11.7795 36.0097 0.0000 0.0000 90.0000 0.0000 0.0000 0.0000 0.0000 0.0000 66.1200 -21.7186 32.8427 -165.0941 50.6241 -65.4101 -36.8143 -28.7888 -19.3106 -43.1360 -7.1464 -8.8190 3.6160 0.0000 0.0000 3.0254 0.0000 0.0000 14.8606 0.7320 1.3707 6.7316 0.0000 0.0000 0.5525 0.0000 0.0000 6.5697 0.0720 3.5166 6.8036 0.0000 0.0000 2.3160 0.0000 0.0000 0.2599 -0.5003 3.6018 4.7992 0.0000 0.0000 3.7775 0.0000 0.0000 -7.9575 -0.6755 0.3234 3.8858 0.0000 0.0000 4.0091 0.0000 0.0000 0.0000 0.0000 0.0000 0.0000 0.0000 0.0000 0.0000 0.0000 0.0000 0.0000 0.0000 0.0000 0.0000 0.0000 0.0000 0.0000 0.0000 0.0000
0.0000 95.0000 0.0000 0.0000 0.0000 0.0000 0.0000 0.0000 0.0000 0.0000 0.0000 0.0000 0.0000 0.0000 0.0000 0.0000 0.0000 0.0000 0.0000 0.0000 0.0000 0.0000 0.0000 0.0000 -76.0686 4.7232 6.0357 -4.0265 9.2208 -12.2598 79.2416 -30.1434 -158.2809 65.2498 -14.3215 -11.5256 68.5525 0.0000 0.0000 24.6135 0.0000 0.0000 -60.4791 -5.9052 -23.6644 85.5140 0.0000 0.0000 83.1115 0.0000 0.0000 -53.2798 -7.0570 -18.7874 102.0479 0.0000 0.0000 74.5369 0.0000 0.0000 -44.0540 -7.0903 -17.0464 110.0000 0.0000 0.0000 90.0000 0.0000 0.0000 -44.1636 -5.4956 -11.7795 36.0097 0.0000 0.0000 90.0000 0.0000 0.0000 0.0000 0.0000 0.0000 65.8034 -21.5952 32.8494 -165.3634 51.9176 -65.9144 -31.8007 -16.7338 -33.7092 -41.4865 -6.3715 -9.8782 3.5266 0.0000 0.0000 5.7847 0.0000 0.0000 14.3512 0.9436 5.5663 8.1300 0.0000 0.0000 1.3791 0.0000 0.0000 4.2135 -0.1447 8.7032 6.2773 0.0000 0.0000 2.8836 0.0000 0.0000 -2.5801 -1.2555 9.4436 6.0349 0.0000 0.0000 4.6774 0.0000 0.0000 -12.0032 -2.6230 8.8548 4.1720 0.0000 0.0000 2.8555 0.0000 0.0000 0.0000 0.0000 0.0000 0.0000 0.0000 0.0000 0.0000 0.0000 0.0000 0.0000 0.0000 0.0000 0.0000 0.0000 0.0000 0.0000 0.0000 0.0000
0.0000 95.0000 0.0000 0.0000 0.0000 0.0000 0.0000 0.0000 0.0000 0.0000 0.0000 0.0000 0.0000 0.0000 0.0000 0.0000 0.0000 0.0000 0.0000 0.0000 0.0000 0.0000 0.0000 0.0000 -75.8704 4.7019 6.0301 -4.3304 9.1796 -12.2835 79.1299 -30.1022 -158.2109 65.2498 -14.3215 -11.5256 68.5525 0.0000 0.0000 24.6135 0.0000 0.0000 -60.4791 -5.9052 -23.6644 85.5140 0.0000 0.0000 83.1115 0.0000 0.0000 -53.2798 -7.0570 -18.7874 102.0479 0.0000 0.0000 74.5369 0.0000 0.0000 -44.0540 -7.0903 -17.0464 110.0000 0.0000 0.0000 90.0000 0.0000 0.0000 -44.1636 -5.4956 -11.7795 36.0097 0.0000 0.0000 90.0000 0.0000 0.0000 0.0000 0.0000 0.0000 65.9638 -21.3490 32.3921 -166.4970 54.8362 -67.6145 -29.9409 11.7794 -53.3614 -41.7057 -6.8898 -8.3589 2.6644 0.0000 0.0000 0.6450 0.0000 0.0000 7.1679 1.3303 8.5739 7.0104 0.0000 0.0000 1.8877 0.0000 0.0000 -5.0088 0.1632 8.5024 7.2962 0.0000 0.0000 2.4177 0.0000 0.0000 -13.0461 -0.9283 7.8614 8.4591 0.0000 0.0000 3.5746 0.0000 0.0000 -23.7500 -2.3987 7.3047 11.1988 0.0000 0.0000 5.9702 0.0000 0.0000 0.0000 0.0000 0.0000 0.0000 0.0000 0.0000 0.0000 0.0000 0.0000 0.0000 0.0000 0.0000 0.0000 0.0000 0.0000 0.0000 0.0000 0.0000
0.0000 95.0000 0.0000 0.0000 0.0000 0.0000 0.0000 0.0000 0.0000 0.0000 0.0000 0.0000 0.0000 0.0000 0.0000 0.0000 0.0000 0.0000 0.0000 0.0000 0.0000 0.0000 0.0000 0.0000 -76.1652 4.7351 6.0405 -4.2448 9.2497 -12.3022 78.9167 -30.0202 -158.0741 65.2498 -14.3215 -11.5256 68.5525 0.0000 0.0000 24.6135 0.0000 0.0000 -60.4791 -5.9052 -23.6644 85.5140 0.0000 0.0000 83.1115 0.0000 0.0000 -53.2798 -7.0570 -18.7874 102.0479 0.0000 0.0000 74.5369 0.0000 0.0000 -44.0540 -7.0903 -17.0464 110.0000 0.0000 0.0000 90.0000 0.0000 0.0000 -44.1636 -5.4956 -11.7795 36.0097 0.0000 0.0000 90.0000 0.0000 0.0000 0.0000 0.0000 0.0000 65.5237 -20.9730 32.0939 -167.5789 62.1908 -71.1145 -36.4432 13.3712 -58.4072 -41.7057 -6.8898 -8.3589 2.6644 0.0000 0.0000 0.6450 0.0000 0.0000 7.1679 1.3303 8.5739 7.0104 0.0000 0.0000 1.8877 0.0000 0.0000 -5.0088 0.1632 8.5024 7.2962 0.0000 0.0000 2.4177 0.0000 0.0000 -13.0461 -0.9283 7.8614 8.4591 0.0000 0.0000 3.5746 0.0000 0.0000 -23.7500 -2.3987 7.3047 11.1988 0.0000 0.0000 5.9702 0.0000 0.0000 0.0000 0.0000 0.0000 0.0000 0.0000 0.0000 0.0000 0.0000 0.0000 0.0000 0.0000 0.0000 0.0000 0.0000 0.0000 0.0000 0.0000 0.0000
0.0000 95.0000 0.0000 0.0000 0.0000 0.0000 0.0000 0.0000 0.0000 0.0000 0.0000 0.0000 0.0000 0.0000 0.0000 0.0000 0.0000 0.0000 0.0000 0.0000 0.0000 0.0000 0.0000 0.0000 -76.1355 4.7390 6.0487 -4.7002 9.2481 -12.3586 78.4705 -29.8622 -157.8061 65.2498 -14.3215 -11.5256 68.5525 0.0000 0.0000 24.6135 0.0000 0.0000 -60.4791 -5.9052 -23.6644 85.5140 0.0000 0.0000 83.1115 0.0000 0.0000 -53.2798 -7.0570 -18.7874 102.0479 0.0000 0.0000 74.5369 0.0000 0.0000 -44.0540 -7.0903 -17.0464 110.0000 0.0000 0.0000 90.0000 0.0000 0.0000 -44.1636 -5.4956 -11.7795 36.0097 0.0000 0.0000 90.0000 0.0000 0.0000 0.0000 0.0000 0.0000 66.0898 -20.5537 31.1484 -173.8818 72.6484 -81.1809 -47.2631 14.4035 -66.2006 -41.7057 -6.8898 -8.3589 2.6644 0.0000 0.0000 0.6450 0.0000 0.0000 7.1679 1.3303 8.5739 7.0104 0.0000 0.0000 1.8877 0.0000 0.0000 -5.0088 0.1632 8.5024 7.2962 0.0000 0.0000 2.4177 0.0000 0.0000 -13.0461 -0.9283 7.8614 8.4591 0.0000 0.0000 3.5746 0.0000 0.0000 -23.7500 -2.3987 7.3047 11.1988 0.0000 0.0000 5.9702 0.0000 0.0000 0.0000 0.0000 0.0000 0.0000 0.0000 0.0000 0.0000 0.0000 0.0000 0.0000 0.0000 0.0000 0.0000 0.0000 0.0000 0.0000 0.0000 0.0000
0.0000 95.0000 0.0000 0.0000 0.0000 0.0000 0.0000 0.0000 0.0000 0.0000 0.0000 0.0000 0.0000 0.0000 0.0000 0.0000 0.0000 0.0000 0.0000 0.0000 0.0000 0.0000 0.0000 0.0000 -76.0762 4.7135 6.0226 -5.5668 9.1974 -12.4049 77.6145 -29.5690 -157.3132 65.2498 -14.3215 -11.5256 68.5525 0.0000 0.0000 24.6135 0.0000 0.0000 -60.4791 -5.9052 -23.6644 85.5140 0.0000 0.0000 83.1115 0.0000 0.0000 -53.2798 -7.0570 -18.7874 102.0479 0.0000 0.0000 74.5369 0.0000 0.0000 -44.0540 -7.0903 -17.0464 110.0000 0.0000 0.0000 90.0000 0.0000 0.0000 -44.1636 -5.4956 -11.7795 36.0097 0.0000 0.0000 90.0000 0.0000 0.0000 0.0000 0.0000 0.0000 67.2903 -19.4294 28.8511 -332.5225 87.3259 -249.8913 -70.6177 9.8167 -74.3176 -41.7057 -6.8898 -8.3589 2.6644 0.0000 0.0000 0.6450 0.0000 0.0000 7.1679 1.3303 8.5739 7.0104 0.0000 0.0000 1.8877 0.0000 0.0000 -5.0088 0.1632 8.5024 7.2962 0.0000 0.0000 2.4177 0.0000 0.0000 -13.0461 -0.9283 7.8614 8.4591 0.0000 0.0000 3.5746 0.0000 0.0000 -23.7500 -2.3987 7.3047 11.1988 0.0000 0.0000 5.9702 0.0000 0.0000 0.0000 0.0000 0.0000 0.0000 0.0000 0.0000 0.0000 0.0000 0.0000 0.0000 0.0000 0.0000 0.0000 0.0000 0.0000 0.0000 0.0000 0.0000
0.0000 95.0000 0.0000 0.0000 0.0000 0.0000 0.0000 0.0000 0.0000 0.0000 0.0000 0.0000 0.0000 0.0000 0.0000 0.0000 0.0000 0.0000 0.0000 0.0000 0.0000 0.0000 0.0000 0.0000 -72.1041 12.8050 17.5266 -11.6167 16.7578 -24.5282 76.4958 -29.1591 -156.6587 65.2498 -14.3215 -11.5256 68.5525 0.0000 0.0000 24.6135 0.0000 0.0000 -60.4791 -5.9052 -23.6644 85.5140 0.0000 0.0000 83.1115 0.0000 0.0000 -53.2798 -7.0570 -18.7874 102.0479 0.0000 0.0000 74.5369 0.0000 0.0000 -44.0540 -7.0903 -17.0464 110.0000 0.0000 0.0000 90.0000 0.0000 0.0000 -44.1636 -5.4956 -11.7795 36.0097 0.0000 0.0000 90.0000 0.0000 0.0000 0.0000 0.0000 0.0000 70.0791 -16.5294 23.4057 -335.3320 57.3392 -269.6655 -105.9849 -2.4880 -79.8074 -41.7057 -6.8898 -8.3589 2.6644 0.0000 0.0000 0.6450 0.0000 0.0000 7.1679 1.3303 8.5739 7.0104 0.0000 0.0000 1.8877 0.0000 0.0000 -5.0088 0.1632 8.5024 7.2962 0.0000 0.0000 2.4177 0.0000 0.0000 -13.0461 -0.9283 7.8614 8.4591 0.0000 0.0000 3.5746 0.0000 0.0000 -23.7500 -2.3987 7.3047 11.1988 0.0000 0.0000 5.9702 0.0000 0.0000 0.0000 0.0000 0.0000 0.0000 0.0000 0.0000 0.0000 0.0000 0.0000 0.0000 0.0000 0.0000 0.0000 0.0000 0.0000 0.0000 0.0000 0.0000
0.0000 95.0000 0.0000 0.0000 0.0000 0.0000 0.0000 0.0000 0.0000 0.0000 0.0000 0.0000 0.0000 0.0000 0.0000 0.0000 0.0000 0.0000 0.0000 0.0000 0.0000 0.0000 0.0000 0.0000 -74.4650 9.0178 11.8487 -6.9134 1.1050 -0.0231 70.8129 -42.8359 -169.9866 65.2498 -14.3215 -11.5256 68.5525 0.0000 0.0000 24.6135 0.0000 0.0000 -60.4791 -5.9052 -23.6644 85.5140 0.0000 0.0000 83.1115 0.0000 0.0000 -53.2798 -7.0570 -18.7874 102.0479 0.0000 0.0000 74.5369 0.0000 0.0000 -44.0540 -7.0903 -17.0464 110.0000 0.0000 0.0000 90.0000 0.0000 0.0000 -44.1636 -5.4956 -11.7795 36.0097 0.0000 0.0000 90.0000 0.0000 0.0000 0.0000 0.0000 0.0000 71.4622 -14.3350 19.8306 -335.6479 38.8995 -286.9400 -132.5027 -9.4551 -70.6022 -41.7057 -6.8898 -8.3589 2.6644 0.0000 0.0000 0.6450 0.0000 0.0000 7.1679 1.3303 8.5739 7.0104 0.0000 0.0000 1.8877 0.0000 0.0000 -5.0088 0.1632 8.5024 7.2962 0.0000 0.0000 2.4177 0.0000 0.0000 -13.0461 -0.9283 7.8614 8.4591 0.0000 0.0000 3.5746 0.0000 0.0000 -23.7500 -2.3987 7.3047 11.1988 0.0000 0.0000 5.9702 0.0000 0.0000 0.0000 0.0000 0.0000 0.0000 0.0000 0.0000 0.0000 0.0000 0.0000 0.0000 0.0000 0.0000 0.0000 0.0000 0.0000 0.0000 0.0000 0.0000
0.0000 95.0000 0.0000 0.0000 0.0000 0.0000 0.0000 0.0000 0.0000 0.0000 0.0000 0.0000 0.0000 0.0000 0.0000 0.0000 0.0000 0.0000 0.0000 0.0000 0.0000 0.0000 0.0000 0.0000 -75.8942 5.3963 6.9168 -8.1711 -0.3282 1.6036 68.9883 -39.7092 -165.9920 65.2498 -14.3215 -11.5256 68.5525 0.0000 0.0000 24.6135 0.0000 0.0000 -60.4791 -5.9052 -23.6644 85.5140 0.0000 0.0000 83.1115 0.0000 0.0000 -53.2798 -7.0570 -18.7874 102.0479 0.0000 0.0000 74.5369 0.0000 0.0000 -44.0540 -7.0903 -17.0464 110.0000 0.0000 0.0000 90.0000 0.0000 0.0000 -44.1636 -5.4956 -11.7795 36.0097 0.0000 0.0000 90.0000 0.0000 0.0000 0.0000 0.0000 0.0000 73.2914 -12.2659 16.4381 -336.5448 26.6770 -304.6869 -154.9201 -8.1321 -55.8566 -41.7057 -6.8898 -8.3589 2.6644 0.0000 0.0000 0.6450 0.0000 0.0000 7.1679 1.3303 8.5739 7.0104 0.0000 0.0000 1.8877 0.0000 0.0000 -5.0088 0.1632 8.5024 7.2962 0.0000 0.0000 2.4177 0.0000 0.0000 -13.0461 -0.9283 7.8614 8.4591 0.0000 0.0000 3.5746 0.0000 0.0000 -23.7500 -2.3987 7.3047 11.1988 0.0000 0.0000 5.9702 0.0000 0.0000 0.0000 0.0000 0.0000 0.0000 0.0000 0.0000 0.0000 0.0000 0.0000 0.0000 0.0000 0.0000 0.0000 0.0000 0.0000 0.0000 0.0000 0.0000
0.0000 95.0000 0.0000 0.0000 0.0000 0.0000 0.0000 0.0000 0.0000 0.0000 0.0000 0.0000 0.0000 0.0000 0.0000 0.0000 0.0000 0.0000 0.0000 0.0000 0.0000 0.0000 0.0000 0.0000 -76.4092 2.8282 3.5929 -8.9936 -1.7340 3.2362 68.2032 -38.0541 -164.0471 65.2498 -14.3215 -11.5256 68.5525 0.0000 0.0000 24.6135 0.0000 0.0000 -60.4791 -5.9052 -23.6644 85.5140 0.0000 0.0000 83.1115 0.0000 0.0000 -53.2798 -7.0570 -18.7874 102.0479 0.0000 0.0000 74.5369 0.0000 0.0000 -44.0540 -7.0903 -17.0464 110.0000 0.0000 0.0000 90.0000 0.0000 0.0000 -44.1636 -5.4956 -11.7795 36.0097 0.0000 0.0000 90.0000 0.0000 0.0000 0.0000 0.0000 0.0000 74.9521 -10.4891 13.6549 -338.1164 18.0632 -320.9900 -170.7884 -0.7670 -42.3769 -41.7057 -6.8898 -8.3589 2.6644 0.0000 0.0000 0.6450 0.0000 0.0000 7.1679 1.3303 8.5739 7.0104 0.0000 0.0000 1.8877 0.0000 0.0000 -5.0088 0.1632 8.5024 7.2962 0.0000 0.0000 2.4177 0.0000 0.0000 -13.0461 -0.9283 7.8614 8.4591 0.0000 0.0000 3.5746 0.0000 0.0000 -23.7500 -2.3987 7.3047 11.1988 0.0000 0.0000 5.9702 0.0000 0.0000 0.0000 0.0000 0.0000 0.0000 0.0000 0.0000 0.0000 0.0000 0.0000 0.0000 0.0000 0.0000 0.0000 0.0000 0.0000 0.0000 0.0000 0.0000
0.0000 95.0000 0.0000 0.0000 0.0000 0.0000 0.0000 0.0000 0.0000 0.0000 0.0000 0.0000 0.0000 0.0000 0.0000 0.0000 0.0000 0.0000 0.0000 0.0000 0.0000 0.0000 0.0000 0.0000 -76.5266 2.4647 3.1247 -9.9366 -2.2106 3.9830 66.9260 -37.9147 -163.5267 65.2498 -14.3215 -11.5256 68.5525 0.0000 0.0000 24.6135 0.0000 0.0000 -60.4791 -5.9052 -23.6644 85.5140 0.0000 0.0000 83.1115 0.0000 0.0000 -53.2798 -7.0570 -18.7874 102.0479 0.0000 0.0000 74.5369 0.0000 0.0000 -44.0540 -7.0903 -17.0464 110.0000 0.0000 0.0000 90.0000 0.0000 0.0000 -44.1636 -5.4956 -11.7795 36.0097 0.0000 0.0000 90.0000 0.0000 0.0000 0.0000 0.0000 0.0000 76.4552 -8.5877 10.8898 -340.1605 13.9741 -330.9286 -177.9974 6.7170 -33.7497 -41.7057 -6.8898 -8.3589 2.6644 0.0000 0.0000 0.6450 0.0000 0.0000 7.1679 1.3303 8.5739 7.0104 0.0000 0.0000 1.8877 0.0000 0.0000 -5.0088 0.1632 8.5024 7.2962 0.0000 0.0000 2.4177 0.0000 0.0000 -13.0461 -0.9283 7.8614 8.4591 0.0000 0.0000 3.5746 0.0000 0.0000 -23.7500 -2.3987 7.3047 11.1988 0.0000 0.0000 5.9702 0.0000 0.0000 0.0000 0.0000 0.0000 0.0000 0.0000 0.0000 0.0000 0.0000 0.0000 0.0000 0.0000 0.0000 0.0000 0.0000 0.0000 0.0000 0.0000 0.0000
0.0000 95.0000 0.0000 0.0000 0.0000 0.0000 0.0000 0.0000 0.0000 0.0000 0.0000 0.0000 0.0000 0.0000 0.0000 0.0000 0.0000 0.0000 0.0000 0.0000 0.0000 0.0000 0.0000 0.0000 -76.3804 2.3447 2.9803 -10.5006 -2.3758 4.2934 66.4099 -37.8882 -163.3493 65.2498 -14.3215 -11.5256 68.5525 0.0000 0.0000 24.6135 0.0000 0.0000 -60.4791 -5.9052 -23.6644 85.5140 0.0000 0.0000 83.1115 0.0000 0.0000 -53.2798 -7.0570 -18.7874 102.0479 0.0000 0.0000 74.5369 0.0000 0.0000 -44.0540 -7.0903 -17.0464 110.0000 0.0000 0.0000 90.0000 0.0000 0.0000 -44.1636 -5.4956 -11.7795 36.0097 0.0000 0.0000 90.0000 0.0000 0.0000 0.0000 0.0000 0.0000 77.9212 -7.5687 9.3526 -342.9884 11.1221 -338.4608 -181.3350 12.8799 -27.6524 -41.7057 -6.8898 -8.3589 2.6644 0.0000 0.0000 0.6450 0.0000 0.0000 7.1679 1.3303 8.5739 7.0104 0.0000 0.0000 1.8877 0.0000 0.0000 -5.0088 0.1632 8.5024 7.2962 0.0000 0.0000 2.4177 0.0000 0.0000 -13.0461 -0.9283 7.8614 8.4591 0.0000 0.0000 3.5746 0.0000 0.0000 -23.7500 -2.3987 7.3047 11.1988 0.0000 0.0000 5.9702 0.0000 0.0000 0.0000 0.0000 0.0000 0.0000 0.0000 0.0000 0.0000 0.0000 0.0000 0.0000 0.0000 0.0000 0.0000 0.0000 0.0000 0.0000 0.0000 0.0000
0.0000 95.0000 0.0000 0.0000 0.0000 0.0000 0.0000 0.0000 0.0000 0.0000 0.0000 0.0000 0.0000 0.0000 0.0000 0.0000 0.0000 0.0000 0.0000 0.0000 0.0000 0.0000 0.0000 0.0000 -76.2470 2.0757 2.6448 -11.5452 -2.6901 4.8663 65.3198 -37.7380 -162.8890 65.2498 -14.3215 -11.5256 68.5525 0.0000 0.0000 24.6135 0.0000 0.0000 -60.4791 -5.9052 -23.6644 85.5140 0.0000 0.0000 83.1115 0.0000 0.0000 -53.2798 -7.0570 -18.7874 102.0479 0.0000 0.0000 74.5369 0.0000 0.0000 -44.0540 -7.0903 -17.0464 110.0000 0.0000 0.0000 90.0000 0.0000 0.0000 -44.1636 -5.4956 -11.7795 36.0097 0.0000 0.0000 90.0000 0.0000 0.0000 0.0000 0.0000 0.0000 78.9537 -6.8125 8.2664 -345.1273 9.3255 -342.9784 -182.6728 17.0121 -23.7174 -41.7057 -6.8898 -8.3589 2.6644 0.0000 0.0000 0.6450 0.0000 0.0000 7.1679 1.3303 8.5739 7.0104 0.0000 0.0000 1.8877 0.0000 0.0000 -5.0088 0.1632 8.5024 7.2962 0.0000 0.0000 2.4177 0.0000 0.0000 -13.0461 -0.9283 7.8614 8.4591 0.0000 0.0000 3.5746 0.0000 0.0000 -23.7500 -2.3987 7.3047 11.1988 0.0000 0.0000 5.9702 0.0000 0.0000 0.0000 0.0000 0.0000 0.0000 0.0000 0.0000 0.0000 0.0000 0.0000 0.0000 0.0000 0.0000 0.0000 0.0000 0.0000 0.0000 0.0000 0.0000
0.0000 95.0000 0.0000 0.0000 0.0000 0.0000 0.0000 0.0000 0.0000 0.0000 0.0000 0.0000 0.0000 0.0000 0.0000 0.0000 0.0000 0.0000 0.0000 0.0000 0.0000 0.0000 0.0000 0.0000 -76.2386 2.1873 2.7874 -11.9139 -2.6901 4.9550 64.8212 -37.7800 -162.7872 65.2498 -14.3215 -11.5256 68.5525 0.0000 0.0000 24.6135 0.0000 0.0000 -60.4791 -5.9052 -23.6644 85.5140 0.0000 0.0000 83.1115 0.0000 0.0000 -53.2798 -7.0570 -18.7874 102.0479 0.0000 0.0000 74.5369 0.0000 0.0000 -44.0540 -7.0903 -17.0464 110.0000 0.0000 0.0000 90.0000 0.0000 0.0000 -44.1636 -5.4956 -11.7795 36.0097 0.0000 0.0000 90.0000 0.0000 0.0000 0.0000 0.0000 0.0000 80.1916 -6.0038 7.1281 -347.4731 8.2932 -346.0883 -183.0248 20.2523 -20.5392 -41.7057 -6.8898 -8.3589 2.6644 0.0000 0.0000 0.6450 0.0000 0.0000 7.1679 1.3303 8.5739 7.0104 0.0000 0.0000 1.8877 0.0000 0.0000 -5.0088 0.1632 8.5024 7.2962 0.0000 0.0000 2.4177 0.0000 0.0000 -13.0461 -0.9283 7.8614 8.4591 0.0000 0.0000 3.5746 0.0000 0.0000 -23.7500 -2.3987 7.3047 11.1988 0.0000 0.0000 5.9702 0.0000 0.0000 0.0000 0.0000 0.0000 0.0000 0.0000 0.0000 0.0000 0.0000 0.0000 0.0000 0.0000 0.0000 0.0000 0.0000 0.0000 0.0000 0.0000 0.0000
0.0000 95.0000 0.0000 0.0000 0.0000 0.0000 0.0000 0.0000 0.0000 0.0000 0.0000 0.0000 0.0000 0.0000 0.0000 0.0000 0.0000 0.0000 0.0000 0.0000 0.0000 0.0000 0.0000 0.0000 -76.2569 2.3725 3.0224 -12.2190 -2.8555 5.3204 64.2598 -38.1297 -162.9588 65.2498 -14.3215 -11.5256 68.5525 0.0000 0.0000 24.6135 0.0000 0.0000 -60.4791 -5.9052 -23.6644 85.5140 0.0000 0.0000 83.1115 0.0000 0.0000 -53.2798 -7.0570 -18.7874 102.0479 0.0000 0.0000 74.5369 0.0000 0.0000 -44.0540 -7.0903 -17.0464 110.0000 0.0000 0.0000 90.0000 0.0000 0.0000 -44.1636 -5.4956 -11.7795 36.0097 0.0000 0.0000 90.0000 0.0000 0.0000 0.0000 0.0000 0.0000 81.1188 -5.6007 6.5419 -349.4673 7.6860 -347.9747 -182.6926 22.1899 -18.4699 -41.7057 -6.8898 -8.3589 2.6644 0.0000 0.0000 0.6450 0.0000 0.0000 7.1679 1.3303 8.5739 7.0104 0.0000 0.0000 1.8877 0.0000 0.0000 -5.0088 0.1632 8.5024 7.2962 0.0000 0.0000 2.4177 0.0000 0.0000 -13.0461 -0.9283 7.8614 8.4591 0.0000 0.0000 3.5746 0.0000 0.0000 -23.7500 -2.3987 7.3047 11.1988 0.0000 0.0000 5.9702 0.0000 0.0000 0.0000 0.0000 0.0000 0.0000 0.0000 0.0000 0.0000 0.0000 0.0000 0.0000 0.0000 0.0000 0.0000 0.0000 0.0000 0.0000 0.0000 0.0000
0.0000 95.0000 0.0000 0.0000 0.0000 0.0000 0.0000 0.0000 0.0000 0.0000 0.0000 0.0000 0.0000 0.0000 0.0000 0.0000 0.0000 0.0000 0.0000 0.0000 0.0000 0.0000 0.0000 0.0000 -76.2460 2.5937 3.3047 -12.4442 -2.8671 5.4476 63.8668 -38.3637 -163.0662 65.2498 -14.3215 -11.5256 68.5525 0.0000 0.0000 24.6135 0.0000 0.0000 -60.4791 -5.9052 -23.6644 85.5140 0.0000 0.0000 83.1115 0.0000 0.0000 -53.2798 -7.0570 -18.7874 102.0479 0.0000 0.0000 74.5369 0.0000 0.0000 -44.0540 -7.0903 -17.0464 110.0000 0.0000 0.0000 90.0000 0.0000 0.0000 -44.1636 -5.4956 -11.7795 36.0097 0.0000 0.0000 90.0000 0.0000 0.0000 0.0000 0.0000 0.0000 81.6228 -5.0152 5.8065 -350.6742 7.7678 -348.4725 -182.1872 23.1980 -17.2646 -41.7057 -6.8898 -8.3589 2.6644 0.0000 0.0000 0.6450 0.0000 0.0000 7.1679 1.3303 8.5739 7.0104 0.0000 0.0000 1.8877 0.0000 0.0000 -5.0088 0.1632 8.5024 7.2962 0.0000 0.0000 2.4177 0.0000 0.0000 -13.0461 -0.9283 7.8614 8.4591 0.0000 0.0000 3.5746 0.0000 0.0000 -23.7500 -2.3987 7.3047 11.1988 0.0000 0.0000 5.9702 0.0000 0.0000 0.0000 0.0000 0.0000 0.0000 0.0000 0.0000 0.0000 0.0000 0.0000 0.0000 0.0000 0.0000 0.0000 0.0000 0.0000 0.0000 0.0000 0.0000
0.0000 95.0000 0.0000 0.0000 0.0000 0.0000 0.0000 0.0000 0.0000 0.0000 0.0000 0.0000 0.0000 0.0000 0.0000 0.0000 0.0000 0.0000 0.0000 0.0000 0.0000 0.0000 0.0000 0.0000 -76.3163 2.5230 3.2106 -12.3553 -2.6958 5.1299 64.0034 -38.0486 -162.8088 65.2498 -14.3215 -11.5256 68.5525 0.0000 0.0000 24.6135 0.0000 0.0000 -60.4791 -5.9052 -23.6644 85.5140 0.0000 0.0000 83.1115 0.0000 0.0000 -53.2798 -7.0570 -18.7874 102.0479 0.0000 0.0000 74.5369 0.0000 0.0000 -44.0540 -7.0903 -17.0464 110.0000 0.0000 0.0000 90.0000 0.0000 0.0000 -44.1636 -5.4956 -11.7795 36.0097 0.0000 0.0000 90.0000 0.0000 0.0000 0.0000 0.0000 0.0000 81.9160 -4.2629 4.9105 -351.4922 8.1362 -348.4161 -181.6887 23.9158 -16.3430 -41.7057 -6.8898 -8.3589 2.6644 0.0000 0.0000 0.6450 0.0000 0.0000 7.1679 1.3303 8.5739 7.0104 0.0000 0.0000 1.8877 0.0000 0.0000 -5.0088 0.1632 8.5024 7.2962 0.0000 0.0000 2.4177 0.0000 0.0000 -13.0461 -0.9283 7.8614 8.4591 0.0000 0.0000 3.5746 0.0000 0.0000 -23.7500 -2.3987 7.3047 11.1988 0.0000 0.0000 5.9702 0.0000 0.0000 0.0000 0.0000 0.0000 0.0000 0.0000 0.0000 0.0000 0.0000 0.0000 0.0000 0.0000 0.0000 0.0000 0.0000 0.0000 0.0000 0.0000 0.0000
