HIERARCHY
ROOT Hips
{
  OFFSET 0.000000 95.000000 0.000000
  CHANNELS 6 Xposition Yposition Zposition Zrotation Xrotation Yrotation
  JOINT Spine
  {
    OFFSET 0.000000 10.000000 0.000000
    CHANNELS 3 Zrotation Xrotation Yrotation
    JOINT Spine1
    {
      OFFSET 0.000000 12.000000 0.000000
      CHANNELS 3 Zrotation Xrotation Yrotation
      JOINT Spine2
      {
        OFFSET 0.000000 12.000000 0.000000
        CHANNELS 3 Zrotation Xrotation Yrotation
        JOINT Neck
        {
          OFFSET 0.000000 10.000000 0.000000
          CHANNELS 3 Zrotation Xrotation Yrotation
          JOINT Head
          {
            OFFSET 0.000000 8.000000 0.000000
            CHANNELS 3 Zrotation Xrotation Yrotation
            End Site
            {
              OFFSET 0.000000 10.000000 0.000000
            }
          }
        }
        JOINT LeftShoulder
        {
          OFFSET 6.000000 8.000000 0.000000
          CHANNELS 3 Zrotation Xrotation Yrotation
          JOINT LeftArm
          {
            OFFSET 12.000000 0.000000 0.000000
            CHANNELS 3 Zrotation Xrotation Yrotation
            JOINT LeftForeArm
            {
              OFFSET 24.000000 0.000000 0.000000
              CHANNELS 3 Zrotation Xrotation Yrotation
              JOINT LeftHand
              {
                OFFSET 22.000000 0.000000 0.000000
                CHANNELS 3 Zrotation Xrotation Yrotation
                JOINT LeftHandThumb1
                {
                  OFFSET 1.800000 -1.400000 0.500000
                  CHANNELS 3 Zrotation Xrotation Yrotation
                  JOINT LeftHandThumb2
                  {
                    OFFSET 2.400000 0.000000 0.000000
                    CHANNELS 3 Zrotation Xrotation Yrotation
                    JOINT LeftHandThumb3
                    {
                      OFFSET 1.900000 0.000000 0.000000
                      CHANNELS 3 Zrotation Xrotation Yrotation
                      End Site
                      {
                        OFFSET 1.600000 0.000000 0.000000
                      }
                    }
                  }
                }
                JOINT LeftHandIndex1
                {
                  OFFSET 6.600000 1.200000 0.300000
                  CHANNELS 3 Zrotation Xrotation Yrotation
                  JOINT LeftHandIndex2
                  {
                    OFFSET 2.000000 0.000000 0.000000
                    CHANNELS 3 Zrotation Xrotation Yrotation
                    JOINT LeftHandIndex3
                    {
                      OFFSET 1.200000 0.000000 0.000000
                      CHANNELS 3 Zrotation Xrotation Yrotation
                      End Site
                      {
                        OFFSET 1.000000 0.000000 0.000000
                      }
                    }
                  }
                }
                JOINT LeftHandMiddle1
                {
                  OFFSET 7.200000 0.000000 0.300000
                  CHANNELS 3 Zrotation Xrotation Yrotation
                  JOINT LeftHandMiddle2
                  {
                    OFFSET 3.000000 0.000000 0.000000
                    CHANNELS 3 Zrotation Xrotation Yrotation
                    JOINT LeftHandMiddle3
                    {
                      OFFSET 2.000000 0.000000 0.000000
                      CHANNELS 3 Zrotation Xrotation Yrotation
                      End Site
                      {
                        OFFSET 1.600000 0.000000 0.000000
                      }
                    }
                  }
                }
                JOINT LeftHandRing1
                {
                  OFFSET 7.100000 -1.000000 0.400000
                  CHANNELS 3 Zrotation Xrotation Yrotation
                  JOINT LeftHandRing2
                  {
                    OFFSET 2.600000 0.000000 0.000000
                    CHANNELS 3 Zrotation Xrotation Yrotation
                    JOINT LeftHandRing3
                    {
                      OFFSET 1.600000 0.000000 0.000000
                      CHANNELS 3 Zrotation Xrotation Yrotation
                      End Site
                      {
                        OFFSET 1.300000 0.000000 0.000000
                      }
                    }
                  }
                }
                JOINT LeftHandPinky1
                {
                  OFFSET 6.500000 -2.000000 0.500000
                  CHANNELS 3 Zrotation Xrotation Yrotation
                  JOINT LeftHandPinky2
                  {
                    OFFSET 1.900000 0.000000 0.000000
                    CHANNELS 3 Zrotation Xrotation Yrotation
                    JOINT LeftHandPinky3
                    {
                      OFFSET 1.400000 0.000000 0.000000
                      CHANNELS 3 Zrotation Xrotation Yrotation
                      End Site
                      {
                        OFFSET 1.300000 0.000000 0.000000
                      }
                    }
                  }
                }
              }
            }
          }
        }
        JOINT RightShoulder
        {
          OFFSET -6.000000 8.000000 0.000000
          CHANNELS 3 Zrotation Xrotation Yrotation
          JOINT RightArm
          {
            OFFSET -12.000000 0.000000 0.000000
            CHANNELS 3 Zrotation Xrotation Yrotation
            JOINT RightForeArm
            {
              OFFSET -24.000000 0.000000 0.000000
              CHANNELS 3 Zrotation Xrotation Yrotation
              JOINT RightHand
              {
                OFFSET -22.000000 0.000000 0.000000
                CHANNELS 3 Zrotation Xrotation Yrotation
                JOINT RightHandThumb1
                {
                  OFFSET -1.800000 -1.400000 0.500000
                  CHANNELS 3 Zrotation Xrotation Yrotation
                  JOINT RightHandThumb2
                  {
                    OFFSET -2.400000 0.000000 0.000000
                    CHANNELS 3 Zrotation Xrotation Yrotation
                    JOINT RightHandThumb3
                    {
                      OFFSET -1.900000 0.000000 0.000000
                      CHANNELS 3 Zrotation Xrotation Yrotation
                      End Site
                      {
                        OFFSET -1.600000 0.000000 0.000000
                      }
                    }
                  }
                }
                JOINT RightHandIndex1
                {
                  OFFSET -6.600000 1.200000 0.300000
                  CHANNELS 3 Zrotation Xrotation Yrotation
                  JOINT RightHandIndex2
                  {
                    OFFSET -2.000000 0.000000 0.000000
                    CHANNELS 3 Zrotation Xrotation Yrotation
                    JOINT RightHandIndex3
                    {
                      OFFSET -1.200000 0.000000 0.000000
                      CHANNELS 3 Zrotation Xrotation Yrotation
                      End Site
                      {
                        OFFSET -1.000000 0.000000 0.000000
                      }
                    }
                  }
                }
                JOINT RightHandMiddle1
                {
                  OFFSET -7.200000 0.000000 0.300000
                  CHANNELS 3 Zrotation Xrotation Yrotation
                  JOINT RightHandMiddle2
                  {
                    OFFSET -3.000000 0.000000 0.000000
                    CHANNELS 3 Zrotation Xrotation Yrotation
                    JOINT RightHandMiddle3
                    {
                      OFFSET -2.000000 0.000000 0.000000
                      CHANNELS 3 Zrotation Xrotation Yrotation
                      End Site
                      {
                        OFFSET -1.600000 0.000000 0.000000
                      }
                    }
                  }
                }
                JOINT RightHandRing1
                {
                  OFFSET -7.100000 -1.000000 0.400000
                  CHANNELS 3 Zrotation Xrotation Yrotation
                  JOINT RightHandRing2
                  {
                    OFFSET -2.600000 0.000000 0.000000
                    CHANNELS 3 Zrotation Xrotation Yrotation
                    JOINT RightHandRing3
                    {
                      OFFSET -1.600000 0.000000 0.000000
                      CHANNELS 3 Zrotation Xrotation Yrotation
                      End Site
                      {
                        OFFSET -1.300000 0.000000 0.000000
                      }
                    }
                  }
                }
                JOINT RightHandPinky1
                {
                  OFFSET -6.500000 -2.000000 0.500000
                  CHANNELS 3 Zrotation Xrotation Yrotation
                  JOINT RightHandPinky2
                  {
                    OFFSET -1.900000 0.000000 0.000000
                    CHANNELS 3 Zrotation Xrotation Yrotation
                    JOINT RightHandPinky3
                    {
                      OFFSET -1.400000 0.000000 0.000000
                      CHANNELS 3 Zrotation Xrotation Yrotation
                      End Site
                      {
                        OFFSET -1.300000 0.000000 0.000000
                      }
                    }
                  }
                }
              }
            }
          }
        }
      }
    }
  }
  JOINT LeftUpLeg
  {
    OFFSET 10.000000 -5.000000 0.000000
    CHANNELS 3 Zrotation Xrotation Yrotation
    JOINT LeftLeg
    {
      OFFSET 0.000000 -42.000000 0.000000
      CHANNELS 3 Zrotation Xrotation Yrotation
      JOINT LeftFoot
      {
        OFFSET 0.000000 -42.000000 4.000000
        CHANNELS 3 Zrotation Xrotation Yrotation
        End Site
        {
          OFFSET 0.000000 0.000000 12.000000
        }
      }
    }
  }
  JOINT RightUpLeg
  {
    OFFSET -10.000000 -5.000000 0.000000
    CHANNELS 3 Zrotation Xrotation Yrotation
    JOINT RightLeg
    {
      OFFSET 0.000000 -42.000000 0.000000
      CHANNELS 3 Zrotation Xrotation Yrotation
      JOINT RightFoot
      {
        OFFSET 0.000000 -42.000000 4.000000
        CHANNELS 3 Zrotation Xrotation Yrotation
        End Site
        {
          OFFSET 0.000000 0.000000 12.000000
        }
      }
    }
  }
}
MOTION
Frames: 60
Frame Time: 0.033333
0.0000 95.0000 0.0000 0.0000 0.0000 0.0000 0.0000 0.0000 0.0000 0.0000 0.0000 0.0000 0.0000 0.0000 0.0000 0.0000 0.0000 0.0000 0.0000 0.0000 0.0000 0.0000 0.0000 0.0000 -79.5090 3.1901 3.8346 -13.2148 -1.5293 3.3811 -138.3828 -51.0616 143.0122 28.3601 -4.3846 5.4264 5.8584 0.0000 0.0000 4.3728 0.0000 0.0000 -33.3105 -0.3210 -16.0746 134.7101 0.0000 0.0000 27.2549 0.0000 0.0000 -21.8623 -2.5498 -17.9183 132.1754 0.0000 0.0000 30.8687 0.0000 0.0000 -12.7233 -3.9642 -18.3071 134.6521 0.0000 0.0000 33.8994 0.0000 0.0000 -2.7983 -5.8840 -18.3097 129.2964 0.0000 0.0000 30.2780 0.0000 0.0000 0.0000 0.0000 0.0000 84.5423 -1.4653 1.6119 -0.5079 12.8504 13.9376 -171.6089 -2.9251 167.6612 -51.8199 -7.6616 -17.7468 4.5546 0.0000 0.0000 3.0335 0.0000 0.0000 15.0226 0.4233 -5.0831 9.5341 0.0000 0.0000 7.5845 0.0000 0.0000 5.0708 0.3300 -2.6709 12.3465 0.0000 0.0000 6.8104 0.0000 0.0000 -1.1527 0.2579 -2.4682 12.2477 0.0000 0.0000 6.0561 0.0000 0.0000 -5.0720 0.1273 -1.9713 7.5783 0.0000 0.0000 5.1618 0.0000 0.0000 0.0000 0.0000 0.0000 0.0000 0.0000 0.0000 0.0000 0.0000 0.0000 0.0000 0.0000 0.0000 0.0000 0.0000 0.0000 0.0000 0.0000 0.0000
0.0000 95.0000 0.0000 0.0000 0.0000 0.0000 0.0000 0.0000 0.0000 0.0000 0.0000 0.0000 0.0000 0.0000 0.0000 0.0000 0.0000 0.0000 0.0000 0.0000 0.0000 0.0000 0.0000 0.0000 -79.7912 3.0009 3.5892 -13.2442 -1.2260 2.8446 -139.4145 -50.6900 144.4327 28.3601 -4.3846 5.4264 5.8584 0.0000 0.0000 4.3728 0.0000 0.0000 -33.3105 -0.3210 -16.0746 134.7101 0.0000 0.0000 27.2549 0.0000 0.0000 -21.8623 -2.5498 -17.9183 132.1754 0.0000 0.0000 30.8687 0.0000 0.0000 -12.7233 -3.9642 -18.3071 134.6521 0.0000 0.0000 33.8994 0.0000 0.0000 -2.7983 -5.8840 -18.3097 129.2964 0.0000 0.0000 30.2780 0.0000 0.0000 0.0000 0.0000 0.0000 84.8243 -1.5924 1.7431 -0.6449 13.0262 14.0156 -171.5464 -2.6867 167.3762 -51.8199 -7.6616 -17.7468 4.5546 0.0000 0.0000 3.0335 0.0000 0.0000 15.0226 0.4233 -5.0831 9.5341 0.0000 0.0000 7.5845 0.0000 0.0000 5.0708 0.3300 -2.6709 12.3465 0.0000 0.0000 6.8104 0.0000 0.0000 -1.1527 0.2579 -2.4682 12.2477 0.0000 0.0000 6.0561 0.0000 0.0000 -5.0720 0.1273 -1.9713 7.5783 0.0000 0.0000 5.1618 0.0000 0.0000 0.0000 0.0000 0.0000 0.0000 0.0000 0.0000 0.0000 0.0000 0.0000 0.0000 0.0000 0.0000 0.0000 0.0000 0.0000 0.0000 0.0000 0.0000
0.0000 95.0000 0.0000 0.0000 0.0000 0.0000 0.0000 0.0000 0.0000 0.0000 0.0000 0.0000 0.0000 0.0000 0.0000 0.0000 0.0000 0.0000 0.0000 0.0000 0.0000 0.0000 0.0000 0.0000 -80.1092 2.9078 3.4584 -13.0396 -1.3502 2.9586 -139.5459 -50.7466 144.5272 28.3601 -4.3846 5.4264 5.8584 0.0000 0.0000 4.3728 0.0000 0.0000 -33.3105 -0.3210 -16.0746 134.7101 0.0000 0.0000 27.2549 0.0000 0.0000 -21.8623 -2.5498 -17.9183 132.1754 0.0000 0.0000 30.8687 0.0000 0.0000 -12.7233 -3.9642 -18.3071 134.6521 0.0000 0.0000 33.8994 0.0000 0.0000 -2.7983 -5.8840 -18.3097 129.2964 0.0000 0.0000 30.2780 0.0000 0.0000 0.0000 0.0000 0.0000 84.7392 -1.8383 2.0153 -1.0514 12.9045 13.7820 -171.9958 -2.6462 167.3633 -51.8199 -7.6616 -17.7468 4.5546 0.0000 0.0000 3.0335 0.0000 0.0000 15.0226 0.4233 -5.0831 9.5341 0.0000 0.0000 7.5845 0.0000 0.0000 5.0708 0.3300 -2.6709 12.3465 0.0000 0.0000 6.8104 0.0000 0.0000 -1.1527 0.2579 -2.4682 12.2477 0.0000 0.0000 6.0561 0.0000 0.0000 -5.0720 0.1273 -1.9713 7.5783 0.0000 0.0000 5.1618 0.0000 0.0000 0.0000 0.0000 0.0000 0.0000 0.0000 0.0000 0.0000 0.0000 0.0000 0.0000 0.0000 0.0000 0.0000 0.0000 0.0000 0.0000 0.0000 0.0000
0.0000 95.0000 0.0000 0.0000 0.0000 0.0000 0.0000 0.0000 0.0000 0.0000 0.0000 0.0000 0.0000 0.0000 0.0000 0.0000 0.0000 0.0000 0.0000 0.0000 0.0000 0.0000 0.0000 0.0000 -80.4383 2.5183 2.9778 -13.0718 -1.3456 2.8139 -140.4723 -50.4836 145.7341 28.3601 -4.3846 5.4264 5.8584 0.0000 0.0000 4.3728 0.0000 0.0000 -33.3105 -0.3210 -16.0746 134.7101 0.0000 0.0000 27.2549 0.0000 0.0000 -21.8623 -2.5498 -17.9183 132.1754 0.0000 0.0000 30.8687 0.0000 0.0000 -12.7233 -3.9642 -18.3071 134.6521 0.0000 0.0000 33.8994 0.0000 0.0000 -2.7983 -5.8840 -18.3097 129.2964 0.0000 0.0000 30.2780 0.0000 0.0000 0.0000 0.0000 0.0000 84.6662 -2.1210 2.3282 -1.2052 12.7349 13.5599 -172.1849 -2.5653 167.2819 -51.8199 -7.6616 -17.7468 4.5546 0.0000 0.0000 3.0335 0.0000 0.0000 15.0226 0.4233 -5.0831 9.5341 0.0000 0.0000 7.5845 0.0000 0.0000 5.0708 0.3300 -2.6709 12.3465 0.0000 0.0000 6.8104 0.0000 0.0000 -1.1527 0.2579 -2.4682 12.2477 0.0000 0.0000 6.0561 0.0000 0.0000 -5.0720 0.1273 -1.9713 7.5783 0.0000 0.0000 5.1618 0.0000 0.0000 0.0000 0.0000 0.0000 0.0000 0.0000 0.0000 0.0000 0.0000 0.0000 0.0000 0.0000 0.0000 0.0000 0.0000 0.0000 0.0000 0.0000 0.0000
0.0000 95.0000 0.0000 0.0000 0.0000 0.0000 0.0000 0.0000 0.0000 0.0000 0.0000 0.0000 0.0000 0.0000 0.0000 0.0000 0.0000 0.0000 0.0000 0.0000 0.0000 0.0000 0.0000 0.0000 -80.5602 1.8767 2.2144 -13.1587 -2.3917 4.1775 -140.1594 -50.9816 144.9911 28.3601 -4.3846 5.4264 5.8584 0.0000 0.0000 4.3728 0.0000 0.0000 -33.3105 -0.3210 -16.0746 134.7101 0.0000 0.0000 27.2549 0.0000 0.0000 -21.8623 -2.5498 -17.9183 132.1754 0.0000 0.0000 30.8687 0.0000 0.0000 -12.7233 -3.9642 -18.3071 134.6521 0.0000 0.0000 33.8994 0.0000 0.0000 -2.7983 -5.8840 -18.3097 129.2964 0.0000 0.0000 30.2780 0.0000 0.0000 0.0000 0.0000 0.0000 84.5075 -2.0313 2.2360 -1.6429 12.0419 12.7497 -172.4400 -3.3511 168.2381 -51.8199 -7.6616 -17.7468 4.5546 0.0000 0.0000 3.0335 0.0000 0.0000 15.0226 0.4233 -5.0831 9.5341 0.0000 0.0000 7.5845 0.0000 0.0000 5.0708 0.3300 -2.6709 12.3465 0.0000 0.0000 6.8104 0.0000 0.0000 -1.1527 0.2579 -2.4682 12.2477 0.0000 0.0000 6.0561 0.0000 0.0000 -5.0720 0.1273 -1.9713 7.5783 0.0000 0.0000 5.1618 0.0000 0.0000 0.0000 0.0000 0.0000 0.0000 0.0000 0.0000 0.0000 0.0000 0.0000 0.0000 0.0000 0.0000 0.0000 0.0000 0.0000 0.0000 0.0000 0.0000
0.0000 95.0000 0.0000 0.0000 0.0000 0.0000 0.0000 0.0000 0.0000 0.0000 0.0000 0.0000 0.0000 0.0000 0.0000 0.0000 0.0000 0.0000 0.0000 0.0000 0.0000 0.0000 0.0000 0.0000 -80.3780 2.2203 2.6283 -13.4013 -2.5341 4.5466 -139.6284 -51.5658 143.9437 28.3601 -4.3846 5.4264 5.8584 0.0000 0.0000 4.3728 0.0000 0.0000 -33.3105 -0.3210 -16.0746 134.7101 0.0000 0.0000 27.2549 0.0000 0.0000 -21.8623 -2.5498 -17.9183 132.1754 0.0000 0.0000 30.8687 0.0000 0.0000 -12.7233 -3.9642 -18.3071 134.6521 0.0000 0.0000 33.8994 0.0000 0.0000 -2.7983 -5.8840 -18.3097 129.2964 0.0000 0.0000 30.2780 0.0000 0.0000 0.0000 0.0000 0.0000 83.7285 -1.9273 2.1507 -1.0994 11.4674 12.4492 -172.4806 -3.8315 168.8147 -51.8199 -7.6616 -17.7468 4.5546 0.0000 0.0000 3.0335 0.0000 0.0000 15.0226 0.4233 -5.0831 9.5341 0.0000 0.0000 7.5845 0.0000 0.0000 5.0708 0.3300 -2.6709 12.3465 0.0000 0.0000 6.8104 0.0000 0.0000 -1.1527 0.2579 -2.4682 12.2477 0.0000 0.0000 6.0561 0.0000 0.0000 -5.0720 0.1273 -1.9713 7.5783 0.0000 0.0000 5.1618 0.0000 0.0000 0.0000 0.0000 0.0000 0.0000 0.0000 0.0000 0.0000 0.0000 0.0000 0.0000 0.0000 0.0000 0.0000 0.0000 0.0000 0.0000 0.0000 0.0000
0.0000 95.0000 0.0000 0.0000 0.0000 0.0000 0.0000 0.0000 0.0000 0.0000 0.0000 0.0000 0.0000 0.0000 0.0000 0.0000 0.0000 0.0000 0.0000 0.0000 0.0000 0.0000 0.0000 0.0000 -80.1020 2.3174 2.7566 -13.6399 -2.9954 5.3364 -138.7816 -52.1570 142.5478 28.3601 -4.3846 5.4264 5.8584 0.0000 0.0000 4.3728 0.0000 0.0000 -33.3105 -0.3210 -16.0746 134.7101 0.0000 0.0000 27.2549 0.0000 0.0000 -21.8623 -2.5498 -17.9183 132.1754 0.0000 0.0000 30.8687 0.0000 0.0000 -12.7233 -3.9642 -18.3071 134.6521 0.0000 0.0000 33.8994 0.0000 0.0000 -2.7983 -5.8840 -18.3097 129.2964 0.0000 0.0000 30.2780 0.0000 0.0000 0.0000 0.0000 0.0000 82.7829 -1.6200 1.8381 -0.2509 10.7317 12.0633 -172.3178 -4.6049 169.7172 -51.8199 -7.6616 -17.7468 4.5546 0.0000 0.0000 3.0335 0.0000 0.0000 15.0226 0.4233 -5.0831 9.5341 0.0000 0.0000 7.5845 0.0000 0.0000 5.0708 0.3300 -2.6709 12.3465 0.0000 0.0000 6.8104 0.0000 0.0000 -1.1527 0.2579 -2.4682 12.2477 0.0000 0.0000 6.0561 0.0000 0.0000 -5.0720 0.1273 -1.9713 7.5783 0.0000 0.0000 5.1618 0.0000 0.0000 0.0000 0.0000 0.0000 0.0000 0.0000 0.0000 0.0000 0.0000 0.0000 0.0000 0.0000 0.0000 0.0000 0.0000 0.0000 0.0000 0.0000 0.0000
0.0000 95.0000 0.0000 0.0000 0.0000 0.0000 0.0000 0.0000 0.0000 0.0000 0.0000 0.0000 0.0000 0.0000 0.0000 0.0000 0.0000 0.0000 0.0000 0.0000 0.0000 0.0000 0.0000 0.0000 -79.5495 2.3053 2.7692 -14.8798 -3.2515 5.9887 -139.1722 -52.9271 142.3449 28.3601 -4.3846 5.4264 5.8584 0.0000 0.0000 4.3728 0.0000 0.0000 -33.3105 -0.3210 -16.0746 134.7101 0.0000 0.0000 27.2549 0.0000 0.0000 -21.8623 -2.5498 -17.9183 132.1754 0.0000 0.0000 30.8687 0.0000 0.0000 -12.7233 -3.9642 -18.3071 134.6521 0.0000 0.0000 33.8994 0.0000 0.0000 -2.7983 -5.8840 -18.3097 129.2964 0.0000 0.0000 30.2780 0.0000 0.0000 0.0000 0.0000 0.0000 81.7545 -1.0991 1.2698 0.7797 10.6878 12.4945 -172.3063 -4.9132 170.0821 -51.8199 -7.6616 -17.7468 4.5546 0.0000 0.0000 3.0335 0.0000 0.0000 15.0226 0.4233 -5.0831 9.5341 0.0000 0.0000 7.5845 0.0000 0.0000 5.0708 0.3300 -2.6709 12.3465 0.0000 0.0000 6.8104 0.0000 0.0000 -1.1527 0.2579 -2.4682 12.2477 0.0000 0.0000 6.0561 0.0000 0.0000 -5.0720 0.1273 -1.9713 7.5783 0.0000 0.0000 5.1618 0.0000 0.0000 0.0000 0.0000 0.0000 0.0000 0.0000 0.0000 0.0000 0.0000 0.0000 0.0000 0.0000 0.0000 0.0000 0.0000 0.0000 0.0000 0.0000 0.0000
0.0000 95.0000 0.0000 0.0000 0.0000 0.0000 0.0000 0.0000 0.0000 0.0000 0.0000 0.0000 0.0000 0.0000 0.0000 0.0000 0.0000 0.0000 0.0000 0.0000 0.0000 0.0000 0.0000 0.0000 -77.9047 1.7356 2.1469 -20.1458 -1.5194 3.7486 -146.8834 -52.5475 150.7091 28.3601 -4.3846 5.4264 5.8584 0.0000 0.0000 4.3728 0.0000 0.0000 -33.3105 -0.3210 -16.0746 134.7101 0.0000 0.0000 27.2549 0.0000 0.0000 -21.8623 -2.5498 -17.9183 132.1754 0.0000 0.0000 30.8687 0.0000 0.0000 -12.7233 -3.9642 -18.3071 134.6521 0.0000 0.0000 33.8994 0.0000 0.0000 -2.7983 -5.8840 -18.3097 129.2964 0.0000 0.0000 30.2780 0.0000 0.0000 0.0000 0.0000 0.0000 80.0518 -0.4127 0.4914 2.3162 13.5889 16.8201 -173.8259 -2.3864 167.1901 -51.8199 -7.6616 -17.7468 4.5546 0.0000 0.0000 3.0335 0.0000 0.0000 15.0226 0.4233 -5.0831 9.5341 0.0000 0.0000 7.5845 0.0000 0.0000 5.0708 0.3300 -2.6709 12.3465 0.0000 0.0000 6.8104 0.0000 0.0000 -1.1527 0.2579 -2.4682 12.2477 0.0000 0.0000 6.0561 0.0000 0.0000 -5.0720 0.1273 -1.9713 7.5783 0.0000 0.0000 5.1618 0.0000 0.0000 0.0000 0.0000 0.0000 0.0000 0.0000 0.0000 0.0000 0.0000 0.0000 0.0000 0.0000 0.0000 0.0000 0.0000 0.0000 0.0000 0.0000 0.0000
0.0000 95.0000 0.0000 0.0000 0.0000 0.0000 0.0000 0.0000 0.0000 0.0000 0.0000 0.0000 0.0000 0.0000 0.0000 0.0000 0.0000 0.0000 0.0000 0.0000 0.0000 0.0000 0.0000 0.0000 -76.6194 1.0438 1.3212 -24.1974 1.2449 -1.7298 -154.3848 -48.6103 161.1059 28.3601 -4.3846 5.4264 5.8584 0.0000 0.0000 4.3728 0.0000 0.0000 -33.3105 -0.3210 -16.0746 134.7101 0.0000 0.0000 27.2549 0.0000 0.0000 -21.8623 -2.5498 -17.9183 132.1754 0.0000 0.0000 30.8687 0.0000 0.0000 -12.7233 -3.9642 -18.3071 134.6521 0.0000 0.0000 33.8994 0.0000 0.0000 -2.7983 -5.8840 -18.3097 129.2964 0.0000 0.0000 30.2780 0.0000 0.0000 0.0000 0.0000 0.0000 78.2616 -3.6421 4.4759 2.6915 24.7583 31.2080 -184.8910 9.9093 149.7247 -51.8199 -7.6616 -17.7468 4.5546 0.0000 0.0000 3.0335 0.0000 0.0000 15.0226 0.4233 -5.0831 9.5341 0.0000 0.0000 7.5845 0.0000 0.0000 5.0708 0.3300 -2.6709 12.3465 0.0000 0.0000 6.8104 0.0000 0.0000 -1.1527 0.2579 -2.4682 12.2477 0.0000 0.0000 6.0561 0.0000 0.0000 -5.0720 0.1273 -1.9713 7.5783 0.0000 0.0000 5.1618 0.0000 0.0000 0.0000 0.0000 0.0000 0.0000 0.0000 0.0000 0.0000 0.0000 0.0000 0.0000 0.0000 0.0000 0.0000 0.0000 0.0000 0.0000 0.0000 0.0000
0.0000 95.0000 0.0000 0.0000 0.0000 0.0000 0.0000 0.0000 0.0000 0.0000 0.0000 0.0000 0.0000 0.0000 0.0000 0.0000 0.0000 0.0000 0.0000 0.0000 0.0000 0.0000 0.0000 0.0000 -76.2108 -0.0415 -0.0530 -28.0474 5.2085 -11.6605 -161.2256 -39.9401 173.8097 28.3601 -4.3846 5.4264 5.8584 0.0000 0.0000 4.3728 0.0000 0.0000 -33.3105 -0.3210 -16.0746 134.7101 0.0000 0.0000 27.2549 0.0000 0.0000 -21.8623 -2.5498 -17.9183 132.1754 0.0000 0.0000 30.8687 0.0000 0.0000 -12.7233 -3.9642 -18.3071 134.6521 0.0000 0.0000 33.8994 0.0000 0.0000 -2.7983 -5.8840 -18.3097 129.2964 0.0000 0.0000 30.2780 0.0000 0.0000 0.0000 0.0000 0.0000 76.5614 -6.8266 8.6438 -1.0054 43.3099 49.4332 -211.5599 15.8240 124.4296 -51.8199 -7.6616 -17.7468 4.5546 0.0000 0.0000 3.0335 0.0000 0.0000 15.0226 0.4233 -5.0831 9.5341 0.0000 0.0000 7.5845 0.0000 0.0000 5.0708 0.3300 -2.6709 12.3465 0.0000 0.0000 6.8104 0.0000 0.0000 -1.1527 0.2579 -2.4682 12.2477 0.0000 0.0000 6.0561 0.0000 0.0000 -5.0720 0.1273 -1.9713 7.5783 0.0000 0.0000 5.1618 0.0000 0.0000 0.0000 0.0000 0.0000 0.0000 0.0000 0.0000 0.0000 0.0000 0.0000 0.0000 0.0000 0.0000 0.0000 0.0000 0.0000 0.0000 0.0000 0.0000
0.0000 95.0000 0.0000 0.0000 0.0000 0.0000 0.0000 0.0000 0.0000 0.0000 0.0000 0.0000 0.0000 0.0000 0.0000 0.0000 0.0000 0.0000 0.0000 0.0000 0.0000 0.0000 0.0000 0.0000 -75.8010 -0.4768 -0.6125 -35.5959 5.9995 -16.9547 -169.8292 -35.9231 183.3483 28.3601 -4.3846 5.4264 5.8584 0.0000 0.0000 4.3728 0.0000 0.0000 -33.3105 -0.3210 -16.0746 134.7101 0.0000 0.0000 27.2549 0.0000 0.0000 -21.8623 -2.5498 -17.9183 132.1754 0.0000 0.0000 30.8687 0.0000 0.0000 -12.7233 -3.9642 -18.3071 134.6521 0.0000 0.0000 33.8994 0.0000 0.0000 -2.7983 -5.8840 -18.3097 129.2964 0.0000 0.0000 30.2780 0.0000 0.0000 0.0000 0.0000 0.0000 72.8465 -8.8297 11.9464 -3.7982 62.7372 67.4357 -229.2275 17.6786 114.0858 -76.9849 -16.4164 -24.6616 8.6155 0.0000 0.0000 12.2559 0.0000 0.0000 5.4859 -1.3659 -12.0592 8.5309 0.0000 0.0000 5.8802 0.0000 0.0000 4.2889 0.6042 -11.2596 20.4968 0.0000 0.0000 4.4644 0.0000 0.0000 4.5615 1.6185 -7.4420 4.8310 0.0000 0.0000 6.5899 0.0000 0.0000 16.4125 2.0292 -1.4740 14.0224 0.0000 0.0000 5.9997 0.0000 0.0000 0.0000 0.0000 0.0000 0.0000 0.0000 0.0000 0.0000 0.0000 0.0000 0.0000 0.0000 0.0000 0.0000 0.0000 0.0000 0.0000 0.0000 0.0000
0.0000 95.0000 0.0000 0.0000 0.0000 0.0000 0.0000 0.0000 0.0000 0.0000 0.0000 0.0000 0.0000 0.0000 0.0000 0.0000 0.0000 0.0000 0.0000 0.0000 0.0000 0.0000 0.0000 0.0000 -75.6163 -2.2750 -2.9318 -42.8911 7.4675 -29.3617 -167.5251 4.3304 184.4222 32.2342 -6.0451 3.7680 13.8798 0.0000 0.0000 2.5370 0.0000 0.0000 -24.9352 0.9715 -3.5548 5.6515 0.0000 0.0000 2.3586 0.0000 0.0000 -12.8784 -0.0570 -5.2771 3.8520 0.0000 0.0000 2.3910 0.0000 0.0000 -5.9493 -0.5334 -4.4902 0.1666 0.0000 0.0000 2.3328 0.0000 0.0000 -1.9083 -0.8526 -3.0725 3.9173 0.0000 0.0000 2.1041 0.0000 0.0000 0.0000 0.0000 0.0000 69.2599 -10.0469 14.5069 -26.6258 78.8341 60.3637 -67.5249 49.0658 282.8202 -83.2518 -17.7741 -13.0078 4.6152 0.0000 0.0000 53.5539 0.0000 0.0000 -13.8849 6.4612 22.8124 76.2213 0.0000 0.0000 17.6902 0.0000 0.0000 -17.0070 -2.0538 -8.9006 7.7226 0.0000 0.0000 9.5189 0.0000 0.0000 -9.4403 -0.1757 -6.1010 35.5825 0.0000 0.0000 29.3754 0.0000 0.0000 9.0481 5.3322 -11.5099 12.3336 0.0000 0.0000 8.5525 0.0000 0.0000 0.0000 0.0000 0.0000 0.0000 0.0000 0.0000 0.0000 0.0000 0.0000 0.0000 0.0000 0.0000 0.0000 0.0000 0.0000 0.0000 0.0000 0.0000
0.0000 95.0000 0.0000 0.0000 0.0000 0.0000 0.0000 0.0000 0.0000 0.0000 0.0000 0.0000 0.0000 0.0000 0.0000 0.0000 0.0000 0.0000 0.0000 0.0000 0.0000 0.0000 0.0000 0.0000 -75.6761 -3.0379 -3.9104 -52.0321 7.1472 -42.0774 -166.2712 17.4296 187.1405 24.8606 -5.2193 1.6481 10.1633 0.0000 0.0000 3.9298 0.0000 0.0000 -29.8686 0.7784 -6.7180 5.0610 0.0000 0.0000 1.3640 0.0000 0.0000 -19.2140 -0.7552 -9.2315 3.2652 0.0000 0.0000 2.0342 0.0000 0.0000 -12.2967 -1.3472 -8.1438 0.9791 0.0000 0.0000 1.8475 0.0000 0.0000 -7.7170 -1.8424 -6.4089 3.8051 0.0000 0.0000 2.1432 0.0000 0.0000 0.0000 0.0000 0.0000 65.3578 -11.0516 17.1529 -105.0933 80.5434 -8.8173 -58.9512 30.7687 299.2540 -56.7272 -10.2530 -12.1040 1.8463 0.0000 0.0000 30.2118 0.0000 0.0000 -5.2037 2.8742 13.5913 81.6500 0.0000 0.0000 34.2954 0.0000 0.0000 -9.8442 -0.4286 -0.2016 9.4839 0.0000 0.0000 9.0166 0.0000 0.0000 -9.4095 -0.5015 -0.4111 20.7237 0.0000 0.0000 20.2562 0.0000 0.0000 0.0514 2.2363 -7.1999 7.3965 0.0000 0.0000 7.5023 0.0000 0.0000 0.0000 0.0000 0.0000 0.0000 0.0000 0.0000 0.0000 0.0000 0.0000 0.0000 0.0000 0.0000 0.0000 0.0000 0.0000 0.0000 0.0000 0.0000
0.0000 95.0000 0.0000 0.0000 0.0000 0.0000 0.0000 0.0000 0.0000 0.0000 0.0000 0.0000 0.0000 0.0000 0.0000 0.0000 0.0000 0.0000 0.0000 0.0000 0.0000 0.0000 0.0000 0.0000 -76.6987 -3.0160 -3.8116 -62.5945 5.9000 -60.4885 -163.9247 36.5493 187.6027 13.4631 -4.2317 -1.3322 4.1300 0.0000 0.0000 7.7602 0.0000 0.0000 -38.1382 -0.0453 -11.2471 4.6175 0.0000 0.0000 0.4103 0.0000 0.0000 -29.5672 -2.5919 -14.5711 2.7018 0.0000 0.0000 1.5806 0.0000 0.0000 -22.5842 -3.2124 -12.9613 2.2682 0.0000 0.0000 1.3593 0.0000 0.0000 -17.3561 -3.7575 -10.7325 4.2911 0.0000 0.0000 2.4327 0.0000 0.0000 0.0000 0.0000 0.0000 61.6335 -11.3085 18.8475 -129.7988 74.1780 -27.9526 -57.5623 34.7726 297.3110 -59.3256 -11.2794 -9.9305 6.0641 0.0000 0.0000 4.9301 0.0000 0.0000 3.7353 -0.3795 -3.6920 6.2012 0.0000 0.0000 3.4618 0.0000 0.0000 -6.3291 -0.3374 -1.3250 30.8063 0.0000 0.0000 17.1350 0.0000 0.0000 -11.7070 -0.7352 2.2126 33.0445 0.0000 0.0000 21.4703 0.0000 0.0000 2.8713 -0.2604 1.4410 5.1764 0.0000 0.0000 4.4127 0.0000 0.0000 0.0000 0.0000 0.0000 0.0000 0.0000 0.0000 0.0000 0.0000 0.0000 0.0000 0.0000 0.0000 0.0000 0.0000 0.0000 0.0000 0.0000 0.0000
0.0000 95.0000 0.0000 0.0000 0.0000 0.0000 0.0000 0.0000 0.0000 0.0000 0.0000 0.0000 0.0000 0.0000 0.0000 0.0000 0.0000 0.0000 0.0000 0.0000 0.0000 0.0000 0.0000 0.0000 -77.7712 -3.5650 -4.4197 -69.3875 6.1394 -93.7780 -168.4683 36.2186 186.6573 25.7821 -10.2489 -9.1799 2.6603 0.0000 0.0000 4.5057 0.0000 0.0000 -28.3082 -0.3697 -23.8612 3.9739 0.0000 0.0000 1.4407 0.0000 0.0000 -16.7651 -3.1999 -26.2384 2.0349 0.0000 0.0000 0.7284 0.0000 0.0000 -8.4849 -4.4596 -22.6938 5.3620 0.0000 0.0000 2.1781 0.0000 0.0000 0.3827 -5.2857 -17.3703 8.5460 0.0000 0.0000 2.8301 0.0000 0.0000 0.0000 0.0000 0.0000 57.2947 -11.1256 20.2175 -138.8222 68.5628 -32.0283 -48.1438 33.7903 305.8129 -57.5738 -10.8626 -9.5781 10.0278 0.0000 0.0000 6.8338 0.0000 0.0000 -28.9683 8.7568 21.9580 59.6830 0.0000 0.0000 13.0441 0.0000 0.0000 -5.3172 -0.2456 -0.5132 46.9725 0.0000 0.0000 27.8056 0.0000 0.0000 -11.6363 -0.7297 2.1326 39.7049 0.0000 0.0000 23.6538 0.0000 0.0000 4.6773 0.3359 0.0813 4.5858 0.0000 0.0000 2.0601 0.0000 0.0000 0.0000 0.0000 0.0000 0.0000 0.0000 0.0000 0.0000 0.0000 0.0000 0.0000 0.0000 0.0000 0.0000 0.0000 0.0000 0.0000 0.0000 0.0000
0.0000 95.0000 0.0000 0.0000 0.0000 0.0000 0.0000 0.0000 0.0000 0.0000 0.0000 0.0000 0.0000 0.0000 0.0000 0.0000 0.0000 0.0000 0.0000 0.0000 0.0000 0.0000 0.0000 0.0000 -78.8136 -3.9144 -4.7635 -76.0603 14.6721 -158.3811 -11.9813 42.7511 344.4876 24.6487 -4.6847 2.6834 21.6625 0.0000 0.0000 7.5121 0.0000 0.0000 -48.4761 -0.9631 -12.5865 6.7494 0.0000 0.0000 0.9472 0.0000 0.0000 -36.0820 -2.5583 -12.6154 6.1280 0.0000 0.0000 2.6953 0.0000 0.0000 -26.7144 -2.2620 -9.8372 2.9223 0.0000 0.0000 3.5257 0.0000 0.0000 -18.8823 -2.4153 -7.9428 6.4622 0.0000 0.0000 2.2332 0.0000 0.0000 0.0000 0.0000 0.0000 52.8322 -11.0331 22.0047 -142.4802 65.4530 -32.6953 -44.1074 39.4046 306.4360 -56.8237 -10.9131 -7.9182 13.0566 0.0000 0.0000 10.3988 0.0000 0.0000 -29.6772 9.1377 22.4907 61.6151 0.0000 0.0000 13.8817 0.0000 0.0000 -2.5065 -0.0895 0.6835 54.7684 0.0000 0.0000 27.0684 0.0000 0.0000 -11.3501 -0.7602 3.1448 51.3705 0.0000 0.0000 22.6245 0.0000 0.0000 5.7773 0.5606 -0.2988 8.9098 0.0000 0.0000 2.6858 0.0000 0.0000 0.0000 0.0000 0.0000 0.0000 0.0000 0.0000 0.0000 0.0000 0.0000 0.0000 0.0000 0.0000 0.0000 0.0000 0.0000 0.0000 0.0000 0.0000
0.0000 95.0000 0.0000 0.0000 0.0000 0.0000 0.0000 0.0000 0.0000 0.0000 0.0000 0.0000 0.0000 0.0000 0.0000 0.0000 0.0000 0.0000 0.0000 0.0000 0.0000 0.0000 0.0000 0.0000 -79.7454 -4.3351 -5.1887 -95.8248 25.0944 -232.1666 -116.1093 -76.2743 502.5402 105.8748 -17.2135 -11.7554 26.0871 0.0000 0.0000 39.0280 0.0000 0.0000 -46.9925 18.3391 61.3643 13.4627 0.0000 0.0000 9.3385 0.0000 0.0000 -46.2997 17.8498 35.5639 7.1421 0.0000 0.0000 1.6191 0.0000 0.0000 -41.4377 18.9394 28.9852 6.7696 0.0000 0.0000 4.2605 0.0000 0.0000 -34.6553 16.6195 19.4338 11.2036 0.0000 0.0000 2.4343 0.0000 0.0000 0.0000 0.0000 0.0000 50.6602 -11.4645 23.9467 -143.2072 68.2778 -34.0767 -50.3821 47.4409 300.9466 -57.8930 -11.6078 -4.8179 18.9193 0.0000 0.0000 8.5898 0.0000 0.0000 -46.3055 16.1565 27.9988 42.1573 0.0000 0.0000 14.0989 0.0000 0.0000 -15.9792 0.2516 6.5642 57.9493 0.0000 0.0000 19.6731 0.0000 0.0000 -6.6417 -0.5760 2.4971 37.2420 0.0000 0.0000 17.9479 0.0000 0.0000 -8.6168 -6.0932 24.0691 108.2739 0.0000 0.0000 18.2721 0.0000 0.0000 0.0000 0.0000 0.0000 0.0000 0.0000 0.0000 0.0000 0.0000 0.0000 0.0000 0.0000 0.0000 0.0000 0.0000 0.0000 0.0000 0.0000 0.0000
0.0000 95.0000 0.0000 0.0000 0.0000 0.0000 0.0000 0.0000 0.0000 0.0000 0.0000 0.0000 0.0000 0.0000 0.0000 0.0000 0.0000 0.0000 0.0000 0.0000 0.0000 0.0000 0.0000 0.0000 -80.5205 -6.8287 -8.0597 -108.2427 30.9703 -245.3095 -162.0229 -61.6826 546.7498 100.3806 -13.3114 -26.6647 43.5444 0.0000 0.0000 41.7304 0.0000 0.0000 -41.8275 17.6783 71.3703 10.4500 0.0000 0.0000 6.9310 0.0000 0.0000 -45.7639 22.8837 46.4691 5.8630 0.0000 0.0000 2.9052 0.0000 0.0000 -42.9507 27.7246 42.0946 8.2060 0.0000 0.0000 3.8071 0.0000 0.0000 -40.4018 31.4599 35.2393 5.7394 0.0000 0.0000 2.6236 0.0000 0.0000 0.0000 0.0000 0.0000 49.3592 -13.1346 28.1304 -139.6473 73.6553 -35.2996 -48.5976 41.7655 318.6534 -53.1350 -11.0775 -1.9264 22.8242 0.0000 0.0000 2.4231 0.0000 0.0000 9.5027 0.6653 2.4621 45.7769 0.0000 0.0000 33.2054 0.0000 0.0000 6.5261 0.5604 -5.0336 80.7609 0.0000 0.0000 26.3407 0.0000 0.0000 3.3448 0.3483 -0.9303 100.0899 0.0000 0.0000 16.3774 0.0000 0.0000 8.8212 2.5542 -4.6906 15.0685 0.0000 0.0000 19.9381 0.0000 0.0000 0.0000 0.0000 0.0000 0.0000 0.0000 0.0000 0.0000 0.0000 0.0000 0.0000 0.0000 0.0000 0.0000 0.0000 0.0000 0.0000 0.0000 0.0000
0.0000 95.0000 0.0000 0.0000 0.0000 0.0000 0.0000 0.0000 0.0000 0.0000 0.0000 0.0000 0.0000 0.0000 0.0000 0.0000 0.0000 0.0000 0.0000 0.0000 0.0000 0.0000 0.0000 0.0000 -80.3034 -8.9763 -10.6314 -120.0172 31.6725 -260.4711 -155.8352 -63.0819 546.2636 95.2661 -16.3970 -11.9763 56.7160 0.0000 0.0000 48.7123 0.0000 0.0000 -63.0841 26.9568 56.6116 4.5220 0.0000 0.0000 7.7436 0.0000 0.0000 -66.8581 26.1691 34.0223 2.9965 0.0000 0.0000 5.7304 0.0000 0.0000 -66.0349 28.2954 26.8855 8.0660 0.0000 0.0000 1.3392 0.0000 0.0000 -61.4668 23.9756 15.8360 9.1383 0.0000 0.0000 5.1076 0.0000 0.0000 0.0000 0.0000 0.0000 48.1701 -13.8301 30.3594 -131.3139 80.9577 -29.9036 -56.4126 63.3826 307.4919 -75.1070 -15.1322 5.3589 10.2732 0.0000 0.0000 5.6866 0.0000 0.0000 -29.3722 17.3752 39.6273 36.0864 0.0000 0.0000 16.9765 0.0000 0.0000 -17.8300 0.7578 9.5999 60.2543 0.0000 0.0000 21.9310 0.0000 0.0000 -10.8087 -0.7025 2.2022 69.3979 0.0000 0.0000 17.8860 0.0000 0.0000 10.3073 5.8449 -12.1308 10.4322 0.0000 0.0000 10.1536 0.0000 0.0000 0.0000 0.0000 0.0000 0.0000 0.0000 0.0000 0.0000 0.0000 0.0000 0.0000 0.0000 0.0000 0.0000 0.0000 0.0000 0.0000 0.0000 0.0000
0.0000 95.0000 0.0000 0.0000 0.0000 0.0000 0.0000 0.0000 0.0000 0.0000 0.0000 0.0000 0.0000 0.0000 0.0000 0.0000 0.0000 0.0000 0.0000 0.0000 0.0000 0.0000 0.0000 0.0000 -79.2258 -11.1411 -13.4417 -128.0274 36.9971 -261.1802 -96.9193 -41.7663 464.5271 100.2738 -21.4468 8.0192 56.4074 0.0000 0.0000 45.1454 0.0000 0.0000 25.9447 15.7349 -38.7817 3.2080 0.0000 0.0000 3.6727 0.0000 0.0000 -31.6474 -4.8873 -21.8977 15.2652 0.0000 0.0000 13.0900 0.0000 0.0000 -19.3565 -6.4440 -23.6569 18.9444 0.0000 0.0000 23.8306 0.0000 0.0000 -14.2758 -10.2004 -25.2540 20.6291 0.0000 0.0000 22.7721 0.0000 0.0000 0.0000 0.0000 0.0000 48.6654 -14.7090 31.8600 -67.0251 86.9755 30.3653 -53.3921 51.3265 321.2835 -55.0621 -9.9112 -11.2693 6.6733 0.0000 0.0000 4.8772 0.0000 0.0000 -9.2428 3.1715 13.5058 14.9868 0.0000 0.0000 17.9752 0.0000 0.0000 -27.5017 9.9861 44.0663 41.4290 0.0000 0.0000 12.2479 0.0000 0.0000 -14.2339 -1.0472 16.6581 29.7637 0.0000 0.0000 15.1673 0.0000 0.0000 9.5335 11.4622 -25.8095 8.4552 0.0000 0.0000 4.1493 0.0000 0.0000 0.0000 0.0000 0.0000 0.0000 0.0000 0.0000 0.0000 0.0000 0.0000 0.0000 0.0000 0.0000 0.0000 0.0000 0.0000 0.0000 0.0000 0.0000
0.0000 95.0000 0.0000 0.0000 0.0000 0.0000 0.0000 0.0000 0.0000 0.0000 0.0000 0.0000 0.0000 0.0000 0.0000 0.0000 0.0000 0.0000 0.0000 0.0000 0.0000 0.0000 0.0000 0.0000 -78.2349 -12.6565 -15.5319 -132.8279 41.3591 -259.9703 -123.9281 -18.0276 487.7224 110.0175 -10.3950 -33.7044 57.4820 0.0000 0.0000 25.2972 0.0000 0.0000 -8.3886 2.5241 -20.0405 27.0669 0.0000 0.0000 7.1991 0.0000 0.0000 -40.2678 -4.0151 -15.6949 8.3782 0.0000 0.0000 7.7564 0.0000 0.0000 -30.9823 -8.1794 -23.0264 15.6181 0.0000 0.0000 6.2817 0.0000 0.0000 -30.6280 -3.2854 -9.3405 7.7949 0.0000 0.0000 11.0852 0.0000 0.0000 0.0000 0.0000 0.0000 49.4168 -15.1333 32.2063 -1.2061 84.7537 93.9944 -35.0957 35.3153 339.2516 -55.0136 -10.8389 -5.6331 8.5054 0.0000 0.0000 3.1658 0.0000 0.0000 -0.8648 2.2703 12.1937 27.5399 0.0000 0.0000 16.0931 0.0000 0.0000 -7.9510 1.9629 32.4669 62.2708 0.0000 0.0000 9.7930 0.0000 0.0000 -13.0617 -1.4016 26.2195 61.7190 0.0000 0.0000 7.5663 0.0000 0.0000 -7.4688 7.9556 -34.0862 8.4325 0.0000 0.0000 4.6361 0.0000 0.0000 0.0000 0.0000 0.0000 0.0000 0.0000 0.0000 0.0000 0.0000 0.0000 0.0000 0.0000 0.0000 0.0000 0.0000 0.0000 0.0000 0.0000 0.0000
0.0000 95.0000 0.0000 0.0000 0.0000 0.0000 0.0000 0.0000 0.0000 0.0000 0.0000 0.0000 0.0000 0.0000 0.0000 0.0000 0.0000 0.0000 0.0000 0.0000 0.0000 0.0000 0.0000 0.0000 -77.7321 -13.5874 -16.8171 -136.4117 43.4336 -260.5629 -121.8327 -12.9589 479.6548 111.9712 -15.1833 -19.1076 46.2044 0.0000 0.0000 25.3785 0.0000 0.0000 -17.5365 0.9703 -7.1300 19.8472 0.0000 0.0000 5.0302 0.0000 0.0000 -39.3691 -2.7590 -12.4740 13.2569 0.0000 0.0000 5.0786 0.0000 0.0000 -34.0043 -5.3996 -15.9890 12.4621 0.0000 0.0000 3.5765 0.0000 0.0000 -31.3955 1.7849 -1.4351 9.6140 0.0000 0.0000 16.4371 0.0000 0.0000 0.0000 0.0000 0.0000 49.8421 -15.5361 32.7243 11.5032 83.5181 105.7720 -44.1714 43.2695 328.1032 -52.3504 -9.6644 -8.5651 6.4817 0.0000 0.0000 10.6006 0.0000 0.0000 -2.2437 1.0386 5.6519 13.5414 0.0000 0.0000 16.3775 0.0000 0.0000 -16.4232 7.4783 53.5009 34.6186 0.0000 0.0000 9.2605 0.0000 0.0000 -19.5974 0.6576 52.6611 35.3837 0.0000 0.0000 9.5896 0.0000 0.0000 -2.2033 6.2881 -21.9400 4.0816 0.0000 0.0000 5.5896 0.0000 0.0000 0.0000 0.0000 0.0000 0.0000 0.0000 0.0000 0.0000 0.0000 0.0000 0.0000 0.0000 0.0000 0.0000 0.0000 0.0000 0.0000 0.0000 0.0000
0.0000 95.0000 0.0000 0.0000 0.0000 0.0000 0.0000 0.0000 0.0000 0.0000 0.0000 0.0000 0.0000 0.0000 0.0000 0.0000 0.0000 0.0000 0.0000 0.0000 0.0000 0.0000 0.0000 0.0000 -76.5903 -14.4329 -18.2205 -138.5212 49.6079 -256.1201 -137.2940 -50.6679 497.1773 111.3386 -13.8017 -23.2090 37.5451 0.0000 0.0000 36.6030 0.0000 0.0000 -32.2083 5.9939 42.0301 10.2378 0.0000 0.0000 6.3696 0.0000 0.0000 -37.9178 8.9603 20.9252 4.7247 0.0000 0.0000 1.6629 0.0000 0.0000 -32.8360 9.3241 15.9265 5.6078 0.0000 0.0000 2.2177 0.0000 0.0000 -29.5186 11.1722 13.7192 9.5250 0.0000 0.0000 5.5421 0.0000 0.0000 0.0000 0.0000 0.0000 50.5133 -15.8674 32.9141 9.2980 82.6226 102.0554 13.4892 73.7584 306.2269 -104.1082 -21.6301 -5.2040 29.5641 0.0000 0.0000 33.8017 0.0000 0.0000 43.0090 -14.0125 71.8209 13.5679 0.0000 0.0000 8.5692 0.0000 0.0000 46.1292 -22.1584 54.1644 7.9098 0.0000 0.0000 1.3748 0.0000 0.0000 44.3478 -26.8728 49.7715 11.0346 0.0000 0.0000 2.0829 0.0000 0.0000 44.0855 -24.1645 34.8576 4.4574 0.0000 0.0000 5.3447 0.0000 0.0000 0.0000 0.0000 0.0000 0.0000 0.0000 0.0000 0.0000 0.0000 0.0000 0.0000 0.0000 0.0000 0.0000 0.0000 0.0000 0.0000 0.0000 0.0000
0.0000 95.0000 0.0000 0.0000 0.0000 0.0000 0.0000 0.0000 0.0000 0.0000 0.0000 0.0000 0.0000 0.0000 0.0000 0.0000 0.0000 0.0000 0.0000 0.0000 0.0000 0.0000 0.0000 0.0000 -76.8395 -14.2259 -17.8821 -136.8687 49.0676 -254.9411 -172.7444 -62.3984 536.3564 102.3547 -15.0026 -19.5166 21.8056 0.0000 0.0000 42.6366 0.0000 0.0000 -39.5370 14.5942 66.4292 14.7621 0.0000 0.0000 7.4476 0.0000 0.0000 -40.6021 18.3925 42.5005 3.5694 0.0000 0.0000 5.1384 0.0000 0.0000 -37.3854 21.3101 36.2056 5.1126 0.0000 0.0000 3.9933 0.0000 0.0000 -32.2343 18.5281 23.4403 11.9344 0.0000 0.0000 4.3395 0.0000 0.0000 0.0000 0.0000 0.0000 51.7767 -15.6039 31.5312 5.0531 85.9003 99.4361 -27.6605 -19.7105 376.6462 -43.9704 -10.3946 2.4227 40.8993 0.0000 0.0000 11.6219 0.0000 0.0000 39.4960 -2.1257 23.1281 11.2081 0.0000 0.0000 8.0619 0.0000 0.0000 24.2482 -3.7614 22.1533 13.8128 0.0000 0.0000 8.0109 0.0000 0.0000 10.5207 -3.5138 17.4418 13.6523 0.0000 0.0000 6.3936 0.0000 0.0000 26.7643 -8.2779 17.9659 13.1995 0.0000 0.0000 6.6269 0.0000 0.0000 0.0000 0.0000 0.0000 0.0000 0.0000 0.0000 0.0000 0.0000 0.0000 0.0000 0.0000 0.0000 0.0000 0.0000 0.0000 0.0000 0.0000 0.0000
0.0000 95.0000 0.0000 0.0000 0.0000 0.0000 0.0000 0.0000 0.0000 0.0000 0.0000 0.0000 0.0000 0.0000 0.0000 0.0000 0.0000 0.0000 0.0000 0.0000 0.0000 0.0000 0.0000 0.0000 -77.3543 -14.0174 -17.4623 -133.5461 50.1959 -249.8884 -215.7765 52.7657 475.4813 55.9019 -10.3666 9.9090 9.3722 0.0000 0.0000 0.5846 0.0000 0.0000 49.1283 1.4245 -5.7711 13.9299 0.0000 0.0000 5.8616 0.0000 0.0000 53.3390 -0.5318 -3.7132 11.1479 0.0000 0.0000 2.9470 0.0000 0.0000 55.7135 -1.1595 -5.5751 4.4551 0.0000 0.0000 3.4889 0.0000 0.0000 63.7860 -2.5213 -7.8312 3.1796 0.0000 0.0000 4.8049 0.0000 0.0000 0.0000 0.0000 0.0000 53.2386 -15.4458 30.2816 -105.8051 86.7123 -10.2026 -28.0502 -36.1717 373.4167 -63.1468 -13.1656 -0.1327 7.8416 0.0000 0.0000 24.0828 0.0000 0.0000 0.6811 1.3598 7.5767 10.2935 0.0000 0.0000 3.6957 0.0000 0.0000 28.3384 -7.2206 32.8351 8.2038 0.0000 0.0000 5.0012 0.0000 0.0000 30.9216 -11.7947 31.1811 13.4230 0.0000 0.0000 16.9338 0.0000 0.0000 2.5950 -8.7270 26.8719 108.2188 0.0000 0.0000 28.1762 0.0000 0.0000 0.0000 0.0000 0.0000 0.0000 0.0000 0.0000 0.0000 0.0000 0.0000 0.0000 0.0000 0.0000 0.0000 0.0000 0.0000 0.0000 0.0000 0.0000
0.0000 95.0000 0.0000 0.0000 0.0000 0.0000 0.0000 0.0000 0.0000 0.0000 0.0000 0.0000 0.0000 0.0000 0.0000 0.0000 0.0000 0.0000 0.0000 0.0000 0.0000 0.0000 0.0000 0.0000 -77.5402 -13.4140 -16.6598 -125.5211 52.3577 -238.7300 -341.5562 48.1266 341.7960 45.1637 -13.5869 -14.6055 8.2711 0.0000 0.0000 2.7069 0.0000 0.0000 -6.5663 5.9227 -44.2671 4.8731 0.0000 0.0000 3.1897 0.0000 0.0000 6.9056 2.7539 -48.2149 6.5660 0.0000 0.0000 2.9547 0.0000 0.0000 13.3154 -1.8803 -47.0733 4.5561 0.0000 0.0000 3.0010 0.0000 0.0000 19.0854 -7.4586 -44.9125 8.2809 0.0000 0.0000 3.3956 0.0000 0.0000 0.0000 0.0000 0.0000 56.0235 -15.2010 28.1626 -131.3816 76.7350 -34.3611 -49.9587 -54.5514 383.2975 -52.6899 -11.0033 -1.8548 8.7142 0.0000 0.0000 18.2032 0.0000 0.0000 5.9378 0.6888 3.2778 3.6417 0.0000 0.0000 5.0497 0.0000 0.0000 12.3431 -1.6303 19.7637 6.9401 0.0000 0.0000 5.3394 0.0000 0.0000 8.8199 -4.4432 22.3958 10.9824 0.0000 0.0000 6.0089 0.0000 0.0000 -13.2353 -4.3246 18.1669 78.0225 0.0000 0.0000 31.6217 0.0000 0.0000 0.0000 0.0000 0.0000 0.0000 0.0000 0.0000 0.0000 0.0000 0.0000 0.0000 0.0000 0.0000 0.0000 0.0000 0.0000 0.0000 0.0000 0.0000
0.0000 95.0000 0.0000 0.0000 0.0000 0.0000 0.0000 0.0000 0.0000 0.0000 0.0000 0.0000 0.0000 0.0000 0.0000 0.0000 0.0000 0.0000 0.0000 0.0000 0.0000 0.0000 0.0000 0.0000 -77.8184 -12.4556 -15.3990 -112.6124 52.2452 -222.2754 -368.8339 37.7850 315.8265 39.3126 -11.8642 -9.7915 2.7007 0.0000 0.0000 2.3966 0.0000 0.0000 -19.7992 1.0942 -31.2436 9.2394 0.0000 0.0000 4.8049 0.0000 0.0000 -6.3164 -1.6311 -33.7050 8.5388 0.0000 0.0000 6.0855 0.0000 0.0000 0.0645 -4.5649 -32.1897 4.2633 0.0000 0.0000 6.3199 0.0000 0.0000 4.0155 -8.7384 -31.2207 8.7348 0.0000 0.0000 5.1686 0.0000 0.0000 0.0000 0.0000 0.0000 60.0472 -15.1170 25.8631 -133.7985 65.0598 -35.7225 -122.3202 -60.1113 455.9207 -49.5765 -9.9852 -3.7483 8.4350 0.0000 0.0000 10.7683 0.0000 0.0000 2.7576 -0.2311 -2.2648 1.7116 0.0000 0.0000 5.2887 0.0000 0.0000 2.9195 -0.0874 8.2008 5.0918 0.0000 0.0000 2.4713 0.0000 0.0000 2.8492 -1.7609 11.5795 2.4246 0.0000 0.0000 4.1354 0.0000 0.0000 -16.3441 -2.9622 11.2402 53.1279 0.0000 0.0000 64.7608 0.0000 0.0000 0.0000 0.0000 0.0000 0.0000 0.0000 0.0000 0.0000 0.0000 0.0000 0.0000 0.0000 0.0000 0.0000 0.0000 0.0000 0.0000 0.0000 0.0000
0.0000 95.0000 0.0000 0.0000 0.0000 0.0000 0.0000 0.0000 0.0000 0.0000 0.0000 0.0000 0.0000 0.0000 0.0000 0.0000 0.0000 0.0000 0.0000 0.0000 0.0000 0.0000 0.0000 0.0000 -77.6370 -12.5183 -15.5258 -93.1181 54.4731 -190.3769 -391.3675 15.4720 309.7929 33.5790 -8.2603 -1.3432 10.6380 0.0000 0.0000 5.4453 0.0000 0.0000 -27.7221 0.7537 -7.6182 11.2183 0.0000 0.0000 3.7826 0.0000 0.0000 -17.1493 -1.0837 -11.9497 13.2047 0.0000 0.0000 8.0934 0.0000 0.0000 -8.6802 -1.6307 -9.7170 9.2683 0.0000 0.0000 10.1666 0.0000 0.0000 -4.6115 -2.3799 -7.7998 14.1908 0.0000 0.0000 8.1857 0.0000 0.0000 0.0000 0.0000 0.0000 63.9693 -15.2978 24.2731 -130.0996 56.1410 -33.0646 -147.1214 -39.6333 483.6653 -56.7275 -11.6230 -2.9787 6.7512 0.0000 0.0000 5.4956 0.0000 0.0000 -5.5492 -0.7585 -2.1655 2.3815 0.0000 0.0000 5.4999 0.0000 0.0000 0.3356 -0.0020 5.4383 4.6426 0.0000 0.0000 1.9078 0.0000 0.0000 3.2477 -0.9209 6.5133 5.0459 0.0000 0.0000 4.3813 0.0000 0.0000 -15.5471 -2.5281 8.4302 39.7064 0.0000 0.0000 94.8445 0.0000 0.0000 0.0000 0.0000 0.0000 0.0000 0.0000 0.0000 0.0000 0.0000 0.0000 0.0000 0.0000 0.0000 0.0000 0.0000 0.0000 0.0000 0.0000 0.0000
0.0000 95.0000 0.0000 0.0000 0.0000 0.0000 0.0000 0.0000 0.0000 0.0000 0.0000 0.0000 0.0000 0.0000 0.0000 0.0000 0.0000 0.0000 0.0000 0.0000 0.0000 0.0000 0.0000 0.0000 -77.5465 -12.0463 -14.9668 -77.2496 51.9769 -164.5068 -413.3940 7.4344 317.5991 42.5393 -7.1663 8.1851 11.7250 0.0000 0.0000 4.6657 0.0000 0.0000 -8.2949 -0.9711 12.3655 10.9995 0.0000 0.0000 4.6303 0.0000 0.0000 2.8373 -0.3640 9.8452 14.7609 0.0000 0.0000 6.0909 0.0000 0.0000 9.5186 -0.0200 8.9658 17.5248 0.0000 0.0000 6.4447 0.0000 0.0000 14.6578 0.5177 9.2975 16.3570 0.0000 0.0000 8.7080 0.0000 0.0000 0.0000 0.0000 0.0000 68.6098 -16.1305 23.4659 -131.6208 49.2766 -34.9515 -147.1159 -38.2580 484.5553 -64.3342 -12.8147 -7.2690 5.0888 0.0000 0.0000 16.5885 0.0000 0.0000 -10.2493 -2.6996 -8.0175 4.4539 0.0000 0.0000 5.4596 0.0000 0.0000 2.1111 0.0924 -0.2420 6.7300 0.0000 0.0000 3.8283 0.0000 0.0000 -10.1938 0.5386 -21.3463 146.6772 0.0000 0.0000 9.9790 0.0000 0.0000 -32.6438 -2.1388 -18.4273 140.7028 0.0000 0.0000 7.7789 0.0000 0.0000 0.0000 0.0000 0.0000 0.0000 0.0000 0.0000 0.0000 0.0000 0.0000 0.0000 0.0000 0.0000 0.0000 0.0000 0.0000 0.0000 0.0000 0.0000
0.0000 95.0000 0.0000 0.0000 0.0000 0.0000 0.0000 0.0000 0.0000 0.0000 0.0000 0.0000 0.0000 0.0000 0.0000 0.0000 0.0000 0.0000 0.0000 0.0000 0.0000 0.0000 0.0000 0.0000 -76.4860 -10.1173 -12.8167 -59.9372 37.6208 -128.6958 -453.8422 -48.7495 472.7505 62.2148 -13.3197 -3.1859 12.0650 0.0000 0.0000 7.8107 0.0000 0.0000 -5.8025 0.3875 -0.9701 19.7104 0.0000 0.0000 8.6893 0.0000 0.0000 -0.6620 0.0261 -0.2558 15.9028 0.0000 0.0000 4.7865 0.0000 0.0000 6.4118 -0.0899 3.1957 18.6825 0.0000 0.0000 5.6226 0.0000 0.0000 13.8547 0.2950 7.3773 12.5407 0.0000 0.0000 6.9652 0.0000 0.0000 0.0000 0.0000 0.0000 70.3313 -15.3699 21.6852 -136.9392 52.7228 -38.0017 -137.4426 -29.6720 494.8966 -55.3202 -11.4607 -2.1994 0.3261 0.0000 0.0000 2.2296 0.0000 0.0000 13.7355 0.3799 -3.9047 84.0627 0.0000 0.0000 49.1174 0.0000 0.0000 10.6063 0.4641 -0.2249 6.2705 0.0000 0.0000 3.3822 0.0000 0.0000 -17.4215 -0.9231 3.5935 117.4061 0.0000 0.0000 34.5405 0.0000 0.0000 -38.4576 -2.5147 6.7592 94.5896 0.0000 0.0000 41.1000 0.0000 0.0000 0.0000 0.0000 0.0000 0.0000 0.0000 0.0000 0.0000 0.0000 0.0000 0.0000 0.0000 0.0000 0.0000 0.0000 0.0000 0.0000 0.0000 0.0000
0.0000 95.0000 0.0000 0.0000 0.0000 0.0000 0.0000 0.0000 0.0000 0.0000 0.0000 0.0000 0.0000 0.0000 0.0000 0.0000 0.0000 0.0000 0.0000 0.0000 0.0000 0.0000 0.0000 0.0000 -75.6312 -8.9963 -11.5758 -54.0829 29.1230 -108.7328 -615.3097 -25.9076 475.5764 67.6715 -14.3102 -7.5321 8.9119 0.0000 0.0000 7.1972 0.0000 0.0000 -11.4282 0.9645 -5.6585 16.0062 0.0000 0.0000 9.7089 0.0000 0.0000 -3.0514 0.0599 -2.5236 18.2814 0.0000 0.0000 9.9716 0.0000 0.0000 14.7389 -0.9231 -9.4752 75.6710 0.0000 0.0000 42.0777 0.0000 0.0000 25.5506 -2.2573 -5.2383 78.0495 0.0000 0.0000 50.6254 0.0000 0.0000 0.0000 0.0000 0.0000 72.2424 -15.2994 20.8564 -140.2945 53.7701 -40.7332 -137.4722 -32.2162 486.4526 -58.4950 -11.9122 -3.5054 2.2379 0.0000 0.0000 4.9880 0.0000 0.0000 11.0413 0.3669 -1.5301 14.5635 0.0000 0.0000 11.1045 0.0000 0.0000 7.7581 0.1803 2.1133 2.9860 0.0000 0.0000 2.7040 0.0000 0.0000 -11.1652 -0.6632 0.9660 17.7551 0.0000 0.0000 4.7859 0.0000 0.0000 -35.3026 -2.5441 0.9173 86.4578 0.0000 0.0000 43.9245 0.0000 0.0000 0.0000 0.0000 0.0000 0.0000 0.0000 0.0000 0.0000 0.0000 0.0000 0.0000 0.0000 0.0000 0.0000 0.0000 0.0000 0.0000 0.0000 0.0000
0.0000 95.0000 0.0000 0.0000 0.0000 0.0000 0.0000 0.0000 0.0000 0.0000 0.0000 0.0000 0.0000 0.0000 0.0000 0.0000 0.0000 0.0000 0.0000 0.0000 0.0000 0.0000 0.0000 0.0000 -75.7920 -7.6857 -9.8645 -52.6081 19.9816 -89.2101 -725.5336 -58.2566 385.4401 79.6977 -15.2880 -12.7385 25.6311 0.0000 0.0000 5.9892 0.0000 0.0000 -4.4507 -2.1790 16.5510 19.9556 0.0000 0.0000 12.2076 0.0000 0.0000 2.0375 -0.4066 17.8000 20.0641 0.0000 0.0000 4.3179 0.0000 0.0000 9.7179 0.6396 21.0607 20.3270 0.0000 0.0000 5.6138 0.0000 0.0000 18.1097 2.3338 25.2882 15.2798 0.0000 0.0000 7.7622 0.0000 0.0000 0.0000 0.0000 0.0000 74.3607 -15.2594 20.0311 -142.7579 52.0674 -42.2254 -139.7085 -33.0194 482.5942 -61.9516 -12.5599 -4.1470 4.5630 0.0000 0.0000 9.4968 0.0000 0.0000 8.7783 0.3880 -0.0609 2.2709 0.0000 0.0000 4.4011 0.0000 0.0000 5.3081 0.0635 3.4025 0.2193 0.0000 0.0000 2.2229 0.0000 0.0000 -4.6478 -0.2109 -0.4979 4.1232 0.0000 0.0000 2.3874 0.0000 0.0000 -31.4307 -2.1911 -3.9910 76.6882 0.0000 0.0000 47.9204 0.0000 0.0000 0.0000 0.0000 0.0000 0.0000 0.0000 0.0000 0.0000 0.0000 0.0000 0.0000 0.0000 0.0000 0.0000 0.0000 0.0000 0.0000 0.0000 0.0000
0.0000 95.0000 0.0000 0.0000 0.0000 0.0000 0.0000 0.0000 0.0000 0.0000 0.0000 0.0000 0.0000 0.0000 0.0000 0.0000 0.0000 0.0000 0.0000 0.0000 0.0000 0.0000 0.0000 0.0000 -75.1055 -6.2571 -8.1333 -52.9838 14.4850 -77.2986 -716.3712 -52.1512 379.6618 69.9718 -14.4792 -4.7709 6.9087 0.0000 0.0000 10.9502 0.0000 0.0000 -7.1359 -0.6518 8.2046 19.0319 0.0000 0.0000 8.9194 0.0000 0.0000 0.0342 -0.0050 11.7640 17.6147 0.0000 0.0000 3.9580 0.0000 0.0000 7.8449 0.6991 15.7163 17.1026 0.0000 0.0000 4.4971 0.0000 0.0000 15.5130 2.0748 19.2676 12.2095 0.0000 0.0000 4.2747 0.0000 0.0000 0.0000 0.0000 0.0000 75.7057 -15.2695 19.5725 -145.2607 51.7579 -44.0776 -132.6261 -35.0894 481.4101 -68.6629 -13.8219 -7.7070 9.4005 0.0000 0.0000 4.5417 0.0000 0.0000 14.8064 0.6223 -0.7701 6.1682 0.0000 0.0000 1.4205 0.0000 0.0000 -3.3969 -0.1734 -1.0711 9.4282 0.0000 0.0000 2.8241 0.0000 0.0000 -30.7256 -2.1320 -3.2668 110.8676 0.0000 0.0000 33.2789 0.0000 0.0000 -46.2223 -3.5418 -2.0283 93.0265 0.0000 0.0000 44.4327 0.0000 0.0000 0.0000 0.0000 0.0000 0.0000 0.0000 0.0000 0.0000 0.0000 0.0000 0.0000 0.0000 0.0000 0.0000 0.0000 0.0000 0.0000 0.0000 0.0000
0.0000 95.0000 0.0000 0.0000 0.0000 0.0000 0.0000 0.0000 0.0000 0.0000 0.0000 0.0000 0.0000 0.0000 0.0000 0.0000 0.0000 0.0000 0.0000 0.0000 0.0000 0.0000 0.0000 0.0000 -74.1679 -5.0326 -6.6549 -53.9164 11.0937 -69.7148 -713.2449 -47.8600 376.3102 74.6256 -15.0336 -8.3732 12.0353 0.0000 0.0000 6.5808 0.0000 0.0000 -8.4010 -0.2767 6.1052 19.0577 0.0000 0.0000 9.5680 0.0000 0.0000 -0.8866 0.1091 9.2547 18.7394 0.0000 0.0000 3.0906 0.0000 0.0000 6.9130 0.6620 13.0377 15.8099 0.0000 0.0000 3.2935 0.0000 0.0000 15.7223 1.7091 17.4254 12.1109 0.0000 0.0000 3.5546 0.0000 0.0000 0.0000 0.0000 0.0000 76.3804 -15.3821 19.4824 -147.8727 52.4263 -46.3864 -123.9655 -43.2159 468.5751 -65.2474 -12.6583 -12.4672 4.1825 0.0000 0.0000 7.6298 0.0000 0.0000 20.8271 0.9437 -7.6870 26.2141 0.0000 0.0000 11.7648 0.0000 0.0000 7.6630 0.0079 4.6534 3.3277 0.0000 0.0000 1.5173 0.0000 0.0000 -5.8866 -0.3647 0.3964 7.4375 0.0000 0.0000 1.7837 0.0000 0.0000 -28.4310 -1.6156 -9.2022 58.0657 0.0000 0.0000 62.6300 0.0000 0.0000 0.0000 0.0000 0.0000 0.0000 0.0000 0.0000 0.0000 0.0000 0.0000 0.0000 0.0000 0.0000 0.0000 0.0000 0.0000 0.0000 0.0000 0.0000
0.0000 95.0000 0.0000 0.0000 0.0000 0.0000 0.0000 0.0000 0.0000 0.0000 0.0000 0.0000 0.0000 0.0000 0.0000 0.0000 0.0000 0.0000 0.0000 0.0000 0.0000 0.0000 0.0000 0.0000 -73.5173 -4.1880 -5.6047 -55.2353 8.3660 -62.8222 -708.7758 -35.2504 372.3962 75.1932 -15.0942 -8.0989 12.9355 0.0000 0.0000 6.6145 0.0000 0.0000 -8.3035 -0.2440 5.7146 22.0444 0.0000 0.0000 9.1386 0.0000 0.0000 -1.1277 0.1306 8.4353 19.4622 0.0000 0.0000 3.5608 0.0000 0.0000 6.3676 0.6821 12.1867 16.9477 0.0000 0.0000 3.6786 0.0000 0.0000 13.1874 2.0207 15.9803 11.3151 0.0000 0.0000 4.8681 0.0000 0.0000 0.0000 0.0000 0.0000 75.7602 -15.5299 19.8845 -148.4172 54.7103 -47.7211 -137.1405 -32.9754 488.0155 -63.4382 -12.9858 -2.8319 1.2580 0.0000 0.0000 11.4257 0.0000 0.0000 18.7736 0.7175 -7.5098 3.7737 0.0000 0.0000 8.7676 0.0000 0.0000 10.9032 0.2936 1.6959 4.6736 0.0000 0.0000 2.2889 0.0000 0.0000 -11.0214 -0.7392 2.8712 16.8245 0.0000 0.0000 11.1533 0.0000 0.0000 -36.8665 -2.5367 5.1450 64.4286 0.0000 0.0000 46.9643 0.0000 0.0000 0.0000 0.0000 0.0000 0.0000 0.0000 0.0000 0.0000 0.0000 0.0000 0.0000 0.0000 0.0000 0.0000 0.0000 0.0000 0.0000 0.0000 0.0000
0.0000 95.0000 0.0000 0.0000 0.0000 0.0000 0.0000 0.0000 0.0000 0.0000 0.0000 0.0000 0.0000 0.0000 0.0000 0.0000 0.0000 0.0000 0.0000 0.0000 0.0000 0.0000 0.0000 0.0000 -73.1379 -3.5753 -4.8183 -55.8293 7.3054 -59.0469 -707.3610 -29.3618 368.5728 76.8092 -15.1774 -10.6228 14.3624 0.0000 0.0000 6.4184 0.0000 0.0000 -7.4505 -0.4102 6.4467 23.7200 0.0000 0.0000 10.1829 0.0000 0.0000 -0.6663 0.0819 9.2442 21.6587 0.0000 0.0000 3.8406 0.0000 0.0000 6.6595 0.6976 12.9433 19.2424 0.0000 0.0000 3.9968 0.0000 0.0000 13.1238 2.1604 16.6309 12.8134 0.0000 0.0000 5.8239 0.0000 0.0000 0.0000 0.0000 0.0000 75.2044 -15.5540 20.1116 -148.8238 56.3293 -48.5263 -138.1869 -34.6264 488.6992 -64.1004 -13.3231 -0.2375 2.2841 0.0000 0.0000 9.6247 0.0000 0.0000 12.2716 0.0082 -7.4114 1.1006 0.0000 0.0000 11.0185 0.0000 0.0000 7.3925 0.0811 3.5160 3.5610 0.0000 0.0000 3.2963 0.0000 0.0000 -9.9071 -0.8071 4.7839 8.2760 0.0000 0.0000 6.3307 0.0000 0.0000 -29.8805 -2.4851 8.5956 51.9796 0.0000 0.0000 39.3345 0.0000 0.0000 0.0000 0.0000 0.0000 0.0000 0.0000 0.0000 0.0000 0.0000 0.0000 0.0000 0.0000 0.0000 0.0000 0.0000 0.0000 0.0000 0.0000 0.0000
0.0000 95.0000 0.0000 0.0000 0.0000 0.0000 0.0000 0.0000 0.0000 0.0000 0.0000 0.0000 0.0000 0.0000 0.0000 0.0000 0.0000 0.0000 0.0000 0.0000 0.0000 0.0000 0.0000 0.0000 -72.8547 -3.0024 -4.0675 -56.7798 6.4392 -56.4253 -705.6237 -21.0645 370.0379 71.1112 -14.6433 -5.7508 8.2138 0.0000 0.0000 13.4602 0.0000 0.0000 -8.7349 -0.0512 4.2625 26.2423 0.0000 0.0000 11.7936 0.0000 0.0000 -3.0664 0.3238 7.2802 22.6941 0.0000 0.0000 4.9337 0.0000 0.0000 3.4598 0.9938 10.7035 21.1948 0.0000 0.0000 6.1677 0.0000 0.0000 10.0580 2.3586 14.3788 14.7998 0.0000 0.0000 7.4237 0.0000 0.0000 0.0000 0.0000 0.0000 74.9123 -15.4794 20.1197 -147.6236 58.3206 -48.3052 -137.7359 -31.9357 486.9423 -62.5349 -13.1026 0.3364 3.8952 0.0000 0.0000 6.9430 0.0000 0.0000 9.0699 -0.1861 -5.8630 5.0478 0.0000 0.0000 12.8455 0.0000 0.0000 7.4563 0.1702 2.1604 3.1526 0.0000 0.0000 3.7098 0.0000 0.0000 -8.6561 -0.6613 2.7719 4.8952 0.0000 0.0000 6.4324 0.0000 0.0000 -33.5746 -2.4541 5.2925 55.6183 0.0000 0.0000 56.3269 0.0000 0.0000 0.0000 0.0000 0.0000 0.0000 0.0000 0.0000 0.0000 0.0000 0.0000 0.0000 0.0000 0.0000 0.0000 0.0000 0.0000 0.0000 0.0000 0.0000
0.0000 95.0000 0.0000 0.0000 0.0000 0.0000 0.0000 0.0000 0.0000 0.0000 0.0000 0.0000 0.0000 0.0000 0.0000 0.0000 0.0000 0.0000 0.0000 0.0000 0.0000 0.0000 0.0000 0.0000 -72.4235 -2.8147 -3.8435 -57.0373 5.7700 -54.1520 -702.3270 -21.9558 366.9355 72.5240 -14.8185 -6.6507 5.7624 0.0000 0.0000 12.0618 0.0000 0.0000 -8.6061 -0.1475 5.0744 22.0633 0.0000 0.0000 10.3831 0.0000 0.0000 -1.8604 0.2101 8.1128 22.9147 0.0000 0.0000 4.4020 0.0000 0.0000 3.9278 0.9392 10.8549 20.1169 0.0000 0.0000 5.2799 0.0000 0.0000 10.6611 2.3220 14.7888 15.7196 0.0000 0.0000 5.7955 0.0000 0.0000 0.0000 0.0000 0.0000 75.2576 -15.2290 19.6762 -147.2098 59.2715 -48.1471 -129.1946 -36.9334 477.2375 -65.7359 -13.3926 -3.5532 1.7931 0.0000 0.0000 7.3589 0.0000 0.0000 12.2905 0.3583 -2.6408 1.2126 0.0000 0.0000 8.0682 0.0000 0.0000 5.3044 0.0777 3.0950 3.2963 0.0000 0.0000 3.4265 0.0000 0.0000 -16.6676 -0.9298 -0.5341 39.8662 0.0000 0.0000 44.2965 0.0000 0.0000 -37.8237 -2.8036 -2.1689 74.9841 0.0000 0.0000 57.3851 0.0000 0.0000 0.0000 0.0000 0.0000 0.0000 0.0000 0.0000 0.0000 0.0000 0.0000 0.0000 0.0000 0.0000 0.0000 0.0000 0.0000 0.0000 0.0000 0.0000
0.0000 95.0000 0.0000 0.0000 0.0000 0.0000 0.0000 0.0000 0.0000 0.0000 0.0000 0.0000 0.0000 0.0000 0.0000 0.0000 0.0000 0.0000 0.0000 0.0000 0.0000 0.0000 0.0000 0.0000 -72.0687 -2.6318 -3.6172 -57.3845 5.3958 -53.4219 -701.6336 -20.4051 366.8351 72.2099 -14.8071 -9.7837 5.6095 0.0000 0.0000 9.2312 0.0000 0.0000 -10.2681 0.0744 4.2655 23.6310 0.0000 0.0000 10.3782 0.0000 0.0000 -4.4725 0.4390 6.4347 22.2421 0.0000 0.0000 4.4639 0.0000 0.0000 1.9347 1.0657 9.4357 18.5488 0.0000 0.0000 5.4451 0.0000 0.0000 9.5038 2.4174 14.1298 15.8243 0.0000 0.0000 7.1759 0.0000 0.0000 0.0000 0.0000 0.0000 75.3417 -15.0976 19.4787 -148.4756 59.7635 -49.0842 -134.6235 -32.2911 485.2810 -60.5697 -12.6813 -0.4429 2.9980 0.0000 0.0000 11.2816 0.0000 0.0000 18.0098 0.7410 -2.7356 3.5195 0.0000 0.0000 5.3945 0.0000 0.0000 7.3203 0.1496 2.4342 3.2071 0.0000 0.0000 2.3054 0.0000 0.0000 -6.1876 -0.5350 2.1972 4.9474 0.0000 0.0000 3.9334 0.0000 0.0000 -32.5356 -2.4294 5.3087 35.0824 0.0000 0.0000 10.0867 0.0000 0.0000 0.0000 0.0000 0.0000 0.0000 0.0000 0.0000 0.0000 0.0000 0.0000 0.0000 0.0000 0.0000 0.0000 0.0000 0.0000 0.0000 0.0000 0.0000
0.0000 95.0000 0.0000 0.0000 0.0000 0.0000 0.0000 0.0000 0.0000 0.0000 0.0000 0.0000 0.0000 0.0000 0.0000 0.0000 0.0000 0.0000 0.0000 0.0000 0.0000 0.0000 0.0000 0.0000 -71.9245 -2.7841 -3.8366 -56.8824 5.7702 -55.1040 -704.5784 -26.7234 365.4079 75.8222 -15.0471 -12.8998 13.5522 0.0000 0.0000 6.4261 0.0000 0.0000 -7.9156 -0.2154 5.1292 26.7058 0.0000 0.0000 10.9482 0.0000 0.0000 -1.0173 0.1197 8.6439 23.6169 0.0000 0.0000 3.8298 0.0000 0.0000 6.0466 0.7328 12.1637 21.0853 0.0000 0.0000 5.1010 0.0000 0.0000 12.7258 2.2532 16.6444 15.2903 0.0000 0.0000 6.0427 0.0000 0.0000 0.0000 0.0000 0.0000 75.3601 -15.0118 19.3625 -149.3847 60.0955 -49.7555 -132.0656 -35.7729 481.0522 -62.5275 -12.9430 -1.3620 2.4453 0.0000 0.0000 9.9960 0.0000 0.0000 15.3855 0.4910 -4.3067 2.8424 0.0000 0.0000 7.1291 0.0000 0.0000 5.8551 0.0195 4.3913 1.7158 0.0000 0.0000 2.8848 0.0000 0.0000 -6.5481 -0.6302 3.1914 2.8814 0.0000 0.0000 4.4614 0.0000 0.0000 -32.7853 -2.4050 2.5198 64.8896 0.0000 0.0000 62.6533 0.0000 0.0000 0.0000 0.0000 0.0000 0.0000 0.0000 0.0000 0.0000 0.0000 0.0000 0.0000 0.0000 0.0000 0.0000 0.0000 0.0000 0.0000 0.0000 0.0000
0.0000 95.0000 0.0000 0.0000 0.0000 0.0000 0.0000 0.0000 0.0000 0.0000 0.0000 0.0000 0.0000 0.0000 0.0000 0.0000 0.0000 0.0000 0.0000 0.0000 0.0000 0.0000 0.0000 0.0000 -71.8646 -2.4702 -3.4079 -56.8400 5.8173 -54.0539 -706.9680 -21.8724 364.0555 77.4184 -15.1370 -13.0518 15.8103 0.0000 0.0000 6.4937 0.0000 0.0000 -5.7273 -0.6187 6.6941 26.3027 0.0000 0.0000 12.7167 0.0000 0.0000 0.1246 -0.0157 9.6303 25.1048 0.0000 0.0000 3.5125 0.0000 0.0000 6.7768 0.6622 12.7578 23.5454 0.0000 0.0000 3.5711 0.0000 0.0000 13.4066 2.1607 16.9677 16.3996 0.0000 0.0000 4.4727 0.0000 0.0000 0.0000 0.0000 0.0000 75.1566 -14.8875 19.2728 -149.3410 60.7893 -49.7611 -136.1565 -32.3925 487.8823 -64.2412 -13.4981 1.6998 2.1121 0.0000 0.0000 7.8094 0.0000 0.0000 11.4994 0.3954 -1.5042 3.4505 0.0000 0.0000 7.5709 0.0000 0.0000 5.0223 0.0066 4.6205 2.8065 0.0000 0.0000 2.9528 0.0000 0.0000 -7.0233 -0.9623 7.2614 1.9473 0.0000 0.0000 3.2510 0.0000 0.0000 -32.4384 -2.5214 12.0915 45.3943 0.0000 0.0000 56.8322 0.0000 0.0000 0.0000 0.0000 0.0000 0.0000 0.0000 0.0000 0.0000 0.0000 0.0000 0.0000 0.0000 0.0000 0.0000 0.0000 0.0000 0.0000 0.0000 0.0000
0.0000 95.0000 0.0000 0.0000 0.0000 0.0000 0.0000 0.0000 0.0000 0.0000 0.0000 0.0000 0.0000 0.0000 0.0000 0.0000 0.0000 0.0000 0.0000 0.0000 0.0000 0.0000 0.0000 0.0000 -72.0548 -2.5953 -3.5680 -55.5580 6.6635 -54.6772 -706.5834 -18.2564 366.6520 75.5935 -14.9656 -16.1321 10.0499 0.0000 0.0000 7.0804 0.0000 0.0000 -6.5445 -0.3141 4.9273 30.4139 0.0000 0.0000 17.3023 0.0000 0.0000 -3.0820 0.3248 7.2556 28.4766 0.0000 0.0000 7.8347 0.0000 0.0000 1.7584 0.9156 8.0592 24.8845 0.0000 0.0000 5.6119 0.0000 0.0000 9.0168 2.1482 12.5241 16.6905 0.0000 0.0000 7.2780 0.0000 0.0000 0.0000 0.0000 0.0000 74.8490 -14.8133 19.2822 -149.3337 61.1050 -49.6629 -137.0240 -41.2259 485.2859 -59.2497 -12.6758 1.4378 5.9130 0.0000 0.0000 8.0356 0.0000 0.0000 12.4973 0.8251 3.7657 2.9407 0.0000 0.0000 5.2376 0.0000 0.0000 8.4597 -0.3602 9.6390 3.2977 0.0000 0.0000 2.9559 0.0000 0.0000 -2.4294 -1.3044 9.8199 4.1691 0.0000 0.0000 3.9300 0.0000 0.0000 -33.3812 -2.4648 7.9927 41.9938 0.0000 0.0000 44.5037 0.0000 0.0000 0.0000 0.0000 0.0000 0.0000 0.0000 0.0000 0.0000 0.0000 0.0000 0.0000 0.0000 0.0000 0.0000 0.0000 0.0000 0.0000 0.0000 0.0000
0.0000 95.0000 0.0000 0.0000 0.0000 0.0000 0.0000 0.0000 0.0000 0.0000 0.0000 0.0000 0.0000 0.0000 0.0000 0.0000 0.0000 0.0000 0.0000 0.0000 0.0000 0.0000 0.0000 0.0000 -71.8888 -2.3372 -3.2230 -54.7646 6.8829 -53.0039 -711.2872 -16.7977 362.3932 70.5567 -14.9096 -21.1205 6.1661 0.0000 0.0000 26.9866 0.0000 0.0000 -8.6972 0.1747 2.0711 37.1873 0.0000 0.0000 17.7574 0.0000 0.0000 0.8881 -0.1101 9.3631 40.1379 0.0000 0.0000 7.7430 0.0000 0.0000 9.2474 0.3558 14.5839 43.4048 0.0000 0.0000 7.8646 0.0000 0.0000 16.7997 1.5282 17.8561 26.9116 0.0000 0.0000 14.8796 0.0000 0.0000 0.0000 0.0000 0.0000 74.4052 -15.1055 19.8151 -149.2041 61.9902 -50.2198 -136.5633 -60.1138 485.2207 -57.5425 -13.4444 9.1481 6.8433 0.0000 0.0000 4.9230 0.0000 0.0000 12.6336 1.8884 19.0074 4.9312 0.0000 0.0000 6.2684 0.0000 0.0000 5.9686 -0.9753 23.3167 3.9044 0.0000 0.0000 3.0227 0.0000 0.0000 -3.7945 -2.6944 23.1184 3.6217 0.0000 0.0000 2.7741 0.0000 0.0000 -22.3991 -3.8213 21.3160 9.3900 0.0000 0.0000 5.4724 0.0000 0.0000 0.0000 0.0000 0.0000 0.0000 0.0000 0.0000 0.0000 0.0000 0.0000 0.0000 0.0000 0.0000 0.0000 0.0000 0.0000 0.0000 0.0000 0.0000
0.0000 95.0000 0.0000 0.0000 0.0000 0.0000 0.0000 0.0000 0.0000 0.0000 0.0000 0.0000 0.0000 0.0000 0.0000 0.0000 0.0000 0.0000 0.0000 0.0000 0.0000 0.0000 0.0000 0.0000 -71.9273 -2.3608 -3.2533 -52.5129 7.7947 -51.5134 -698.0169 43.9327 354.1699 99.6537 -6.6298 -54.4986 3.9281 0.0000 0.0000 16.2326 0.0000 0.0000 -18.1260 0.6428 7.6709 50.4096 0.0000 0.0000 20.0297 0.0000 0.0000 -12.5325 -0.5080 -9.3959 43.4383 0.0000 0.0000 11.9558 0.0000 0.0000 -7.1328 -2.4038 -13.7238 44.5036 0.0000 0.0000 8.2298 0.0000 0.0000 -3.4334 -4.0907 -12.8414 44.0806 0.0000 0.0000 9.6714 0.0000 0.0000 0.0000 0.0000 0.0000 74.1108 -15.3294 20.2116 -150.0357 64.0319 -51.9429 -141.6215 -85.7286 495.5710 -65.4491 -15.3178 26.6678 7.2631 0.0000 0.0000 4.0694 0.0000 0.0000 0.8905 6.8646 38.4285 9.5699 0.0000 0.0000 9.3193 0.0000 0.0000 -6.1888 2.1179 42.5245 9.6005 0.0000 0.0000 5.9410 0.0000 0.0000 -14.6898 -1.3167 42.8890 9.6621 0.0000 0.0000 4.5340 0.0000 0.0000 -27.5188 -4.5573 43.6829 8.6705 0.0000 0.0000 3.7723 0.0000 0.0000 0.0000 0.0000 0.0000 0.0000 0.0000 0.0000 0.0000 0.0000 0.0000 0.0000 0.0000 0.0000 0.0000 0.0000 0.0000 0.0000 0.0000 0.0000
0.0000 95.0000 0.0000 0.0000 0.0000 0.0000 0.0000 0.0000 0.0000 0.0000 0.0000 0.0000 0.0000 0.0000 0.0000 0.0000 0.0000 0.0000 0.0000 0.0000 0.0000 0.0000 0.0000 0.0000 -72.0817 -1.2505 -1.7185 -50.9007 8.6010 -47.7033 -540.8772 0.8175 416.8320 56.3077 -10.8799 7.2979 1.5832 0.0000 0.0000 7.6263 0.0000 0.0000 -2.6358 7.6688 -46.0864 66.4528 0.0000 0.0000 16.1390 0.0000 0.0000 20.1173 14.2533 -75.1285 46.3614 0.0000 0.0000 10.1428 0.0000 0.0000 22.0665 4.2660 -86.8482 41.2189 0.0000 0.0000 11.1576 0.0000 0.0000 30.6927 -4.0457 -58.7596 44.6378 0.0000 0.0000 13.1568 0.0000 0.0000 0.0000 0.0000 0.0000 73.4274 -15.8730 21.1774 -148.1655 68.1265 -52.7860 -20.2054 -56.0383 372.8483 -71.5781 -14.8106 14.2373 3.3199 0.0000 0.0000 9.0698 0.0000 0.0000 -9.6706 5.1775 20.7348 12.5514 0.0000 0.0000 5.3802 0.0000 0.0000 -20.7106 3.8289 25.5048 11.7208 0.0000 0.0000 0.9223 0.0000 0.0000 -28.3471 1.2789 26.1392 19.2274 0.0000 0.0000 4.9621 0.0000 0.0000 -40.0410 -1.4644 26.9467 17.0815 0.0000 0.0000 4.8509 0.0000 0.0000 0.0000 0.0000 0.0000 0.0000 0.0000 0.0000 0.0000 0.0000 0.0000 0.0000 0.0000 0.0000 0.0000 0.0000 0.0000 0.0000 0.0000 0.0000
0.0000 95.0000 0.0000 0.0000 0.0000 0.0000 0.0000 0.0000 0.0000 0.0000 0.0000 0.0000 0.0000 0.0000 0.0000 0.0000 0.0000 0.0000 0.0000 0.0000 0.0000 0.0000 0.0000 0.0000 -72.0265 -1.3843 -1.9043 -46.2860 10.2530 -46.0776 -702.8372 59.5441 388.7186 72.6447 -14.9139 -27.2631 25.2513 0.0000 0.0000 10.9909 0.0000 0.0000 -7.7223 1.6082 -11.1920 72.8783 0.0000 0.0000 29.8737 0.0000 0.0000 -1.0045 -0.0532 -10.8312 70.6075 0.0000 0.0000 31.5491 0.0000 0.0000 1.7018 -0.8974 -6.3925 67.8014 0.0000 0.0000 25.3198 0.0000 0.0000 8.4491 -1.5743 -4.1185 49.2488 0.0000 0.0000 31.5307 0.0000 0.0000 0.0000 0.0000 0.0000 73.1445 -15.7399 21.1077 -147.3977 73.6037 -54.1579 -25.7712 -32.7214 375.0650 -68.3053 -14.4166 8.4888 1.7901 0.0000 0.0000 15.1448 0.0000 0.0000 19.1423 1.0463 15.5576 34.6151 0.0000 0.0000 17.0716 0.0000 0.0000 8.5477 -1.0035 18.1389 24.5747 0.0000 0.0000 35.8774 0.0000 0.0000 9.7969 -3.8251 19.1100 53.5811 0.0000 0.0000 5.6453 0.0000 0.0000 -4.5419 -6.4473 23.1286 46.9310 0.0000 0.0000 12.2664 0.0000 0.0000 0.0000 0.0000 0.0000 0.0000 0.0000 0.0000 0.0000 0.0000 0.0000 0.0000 0.0000 0.0000 0.0000 0.0000 0.0000 0.0000 0.0000 0.0000
0.0000 95.0000 0.0000 0.0000 0.0000 0.0000 0.0000 0.0000 0.0000 0.0000 0.0000 0.0000 0.0000 0.0000 0.0000 0.0000 0.0000 0.0000 0.0000 0.0000 0.0000 0.0000 0.0000 0.0000 -72.4175 -1.0478 -1.4311 -42.0405 11.3235 -42.0236 -663.1769 80.9468 435.0406 62.5919 -14.9434 -20.6394 22.9152 0.0000 0.0000 11.0981 0.0000 0.0000 -6.2170 1.5789 -10.3097 64.4053 0.0000 0.0000 48.6623 0.0000 0.0000 2.9451 0.2463 -14.3319 60.8949 0.0000 0.0000 44.3540 0.0000 0.0000 8.8369 -1.2968 -12.8503 58.7951 0.0000 0.0000 38.2657 0.0000 0.0000 17.6928 -3.2261 -13.3467 51.6847 0.0000 0.0000 46.0923 0.0000 0.0000 0.0000 0.0000 0.0000 73.2264 -14.8331 19.8737 -123.3798 82.8269 -34.9699 -30.2913 -22.5737 374.2350 -68.3053 -14.4166 8.4888 1.7901 0.0000 0.0000 15.1448 0.0000 0.0000 19.1423 1.0463 15.5576 34.6151 0.0000 0.0000 17.0716 0.0000 0.0000 8.5477 -1.0035 18.1389 24.5747 0.0000 0.0000 35.8774 0.0000 0.0000 9.7969 -3.8251 19.1100 53.5811 0.0000 0.0000 5.6453 0.0000 0.0000 -4.5419 -6.4473 23.1286 46.9310 0.0000 0.0000 12.2664 0.0000 0.0000 0.0000 0.0000 0.0000 0.0000 0.0000 0.0000 0.0000 0.0000 0.0000 0.0000 0.0000 0.0000 0.0000 0.0000 0.0000 0.0000 0.0000 0.0000
0.0000 95.0000 0.0000 0.0000 0.0000 0.0000 0.0000 0.0000 0.0000 0.0000 0.0000 0.0000 0.0000 0.0000 0.0000 0.0000 0.0000 0.0000 0.0000 0.0000 0.0000 0.0000 0.0000 0.0000 -72.0490 -0.6778 -0.9321 -38.6329 11.2300 -37.3453 -536.0470 87.2816 566.1425 54.8758 -13.7714 -12.8313 18.0931 0.0000 0.0000 3.6990 0.0000 0.0000 -9.6719 0.5347 -1.0541 12.0811 0.0000 0.0000 4.1647 0.0000 0.0000 1.2222 -0.0163 -3.2431 17.0631 0.0000 0.0000 1.2868 0.0000 0.0000 8.3971 -0.6308 -2.4334 16.6330 0.0000 0.0000 4.7375 0.0000 0.0000 16.4895 -1.4036 -1.1677 12.0009 0.0000 0.0000 9.6073 0.0000 0.0000 0.0000 0.0000 0.0000 74.2091 -13.5765 17.8861 -7.7928 79.0741 71.4940 -38.0441 -5.5614 373.7340 -68.3053 -14.4166 8.4888 1.7901 0.0000 0.0000 15.1448 0.0000 0.0000 19.1423 1.0463 15.5576 34.6151 0.0000 0.0000 17.0716 0.0000 0.0000 8.5477 -1.0035 18.1389 24.5747 0.0000 0.0000 35.8774 0.0000 0.0000 9.7969 -3.8251 19.1100 53.5811 0.0000 0.0000 5.6453 0.0000 0.0000 -4.5419 -6.4473 23.1286 46.9310 0.0000 0.0000 12.2664 0.0000 0.0000 0.0000 0.0000 0.0000 0.0000 0.0000 0.0000 0.0000 0.0000 0.0000 0.0000 0.0000 0.0000 0.0000 0.0000 0.0000 0.0000 0.0000 0.0000
0.0000 95.0000 0.0000 0.0000 0.0000 0.0000 0.0000 0.0000 0.0000 0.0000 0.0000 0.0000 0.0000 0.0000 0.0000 0.0000 0.0000 0.0000 0.0000 0.0000 0.0000 0.0000 0.0000 0.0000 -71.6957 -0.2720 -0.3764 -37.2545 9.7616 -31.2381 -547.2566 81.9697 550.7049 54.8758 -13.7714 -12.8313 18.0931 0.0000 0.0000 3.6990 0.0000 0.0000 -9.6719 0.5347 -1.0541 12.0811 0.0000 0.0000 4.1647 0.0000 0.0000 1.2222 -0.0163 -3.2431 17.0631 0.0000 0.0000 1.2868 0.0000 0.0000 8.3971 -0.6308 -2.4334 16.6330 0.0000 0.0000 4.7375 0.0000 0.0000 16.4895 -1.4036 -1.1677 12.0009 0.0000 0.0000 9.6073 0.0000 0.0000 0.0000 0.0000 0.0000 74.8157 -11.7177 15.2841 10.0197 61.7199 76.9407 -47.6487 15.2862 373.3258 -68.3053 -14.4166 8.4888 1.7901 0.0000 0.0000 15.1448 0.0000 0.0000 19.1423 1.0463 15.5576 34.6151 0.0000 0.0000 17.0716 0.0000 0.0000 8.5477 -1.0035 18.1389 24.5747 0.0000 0.0000 35.8774 0.0000 0.0000 9.7969 -3.8251 19.1100 53.5811 0.0000 0.0000 5.6453 0.0000 0.0000 -4.5419 -6.4473 23.1286 46.9310 0.0000 0.0000 12.2664 0.0000 0.0000 0.0000 0.0000 0.0000 0.0000 0.0000 0.0000 0.0000 0.0000 0.0000 0.0000 0.0000 0.0000 0.0000 0.0000 0.0000 0.0000 0.0000 0.0000
0.0000 95.0000 0.0000 0.0000 0.0000 0.0000 0.0000 0.0000 0.0000 0.0000 0.0000 0.0000 0.0000 0.0000 0.0000 0.0000 0.0000 0.0000 0.0000 0.0000 0.0000 0.0000 0.0000 0.0000 -70.7586 0.5745 0.8091 -37.4361 7.2375 -22.8363 -552.5836 73.9051 539.5220 54.8758 -13.7714 -12.8313 18.0931 0.0000 0.0000 3.6990 0.0000 0.0000 -9.6719 0.5347 -1.0541 12.0811 0.0000 0.0000 4.1647 0.0000 0.0000 1.2222 -0.0163 -3.2431 17.0631 0.0000 0.0000 1.2868 0.0000 0.0000 8.3971 -0.6308 -2.4334 16.6330 0.0000 0.0000 4.7375 0.0000 0.0000 16.4895 -1.4036 -1.1677 12.0009 0.0000 0.0000 9.6073 0.0000 0.0000 0.0000 0.0000 0.0000 76.0103 -8.2303 10.5209 18.1278 39.8824 64.3992 -62.1245 45.0743 373.4257 -68.3053 -14.4166 8.4888 1.7901 0.0000 0.0000 15.1448 0.0000 0.0000 19.1423 1.0463 15.5576 34.6151 0.0000 0.0000 17.0716 0.0000 0.0000 8.5477 -1.0035 18.1389 24.5747 0.0000 0.0000 35.8774 0.0000 0.0000 9.7969 -3.8251 19.1100 53.5811 0.0000 0.0000 5.6453 0.0000 0.0000 -4.5419 -6.4473 23.1286 46.9310 0.0000 0.0000 12.2664 0.0000 0.0000 0.0000 0.0000 0.0000 0.0000 0.0000 0.0000 0.0000 0.0000 0.0000 0.0000 0.0000 0.0000 0.0000 0.0000 0.0000 0.0000 0.0000 0.0000
0.0000 95.0000 0.0000 0.0000 0.0000 0.0000 0.0000 0.0000 0.0000 0.0000 0.0000 0.0000 0.0000 0.0000 0.0000 0.0000 0.0000 0.0000 0.0000 0.0000 0.0000 0.0000 0.0000 0.0000 -70.7633 1.3830 1.9472 -35.4686 5.4268 -14.6264 -548.5474 66.3267 537.3555 54.8758 -13.7714 -12.8313 18.0931 0.0000 0.0000 3.6990 0.0000 0.0000 -9.6719 0.5347 -1.0541 12.0811 0.0000 0.0000 4.1647 0.0000 0.0000 1.2222 -0.0163 -3.2431 17.0631 0.0000 0.0000 1.2868 0.0000 0.0000 8.3971 -0.6308 -2.4334 16.6330 0.0000 0.0000 4.7375 0.0000 0.0000 16.4895 -1.4036 -1.1677 12.0009 0.0000 0.0000 9.6073 0.0000 0.0000 0.0000 0.0000 0.0000 76.2705 -6.3825 8.1244 17.5752 25.6659 44.8205 -68.0840 67.4466 382.3410 -68.3053 -14.4166 8.4888 1.7901 0.0000 0.0000 15.1448 0.0000 0.0000 19.1423 1.0463 15.5576 34.6151 0.0000 0.0000 17.0716 0.0000 0.0000 8.5477 -1.0035 18.1389 24.5747 0.0000 0.0000 35.8774 0.0000 0.0000 9.7969 -3.8251 19.1100 53.5811 0.0000 0.0000 5.6453 0.0000 0.0000 -4.5419 -6.4473 23.1286 46.9310 0.0000 0.0000 12.2664 0.0000 0.0000 0.0000 0.0000 0.0000 0.0000 0.0000 0.0000 0.0000 0.0000 0.0000 0.0000 0.0000 0.0000 0.0000 0.0000 0.0000 0.0000 0.0000 0.0000
0.0000 95.0000 0.0000 0.0000 0.0000 0.0000 0.0000 0.0000 0.0000 0.0000 0.0000 0.0000 0.0000 0.0000 0.0000 0.0000 0.0000 0.0000 0.0000 0.0000 0.0000 0.0000 0.0000 0.0000 -70.2230 2.3374 3.3238 -33.1723 3.5654 -6.9921 -542.7896 59.1143 536.5633 54.8758 -13.7714 -12.8313 18.0931 0.0000 0.0000 3.6990 0.0000 0.0000 -9.6719 0.5347 -1.0541 12.0811 0.0000 0.0000 4.1647 0.0000 0.0000 1.2222 -0.0163 -3.2431 17.0631 0.0000 0.0000 1.2868 0.0000 0.0000 8.3971 -0.6308 -2.4334 16.6330 0.0000 0.0000 4.7375 0.0000 0.0000 16.4895 -1.4036 -1.1677 12.0009 0.0000 0.0000 9.6073 0.0000 0.0000 0.0000 0.0000 0.0000 76.9321 -5.2085 6.5533 15.5905 18.7500 32.2747 -54.1757 78.7760 406.0387 -68.3053 -14.4166 8.4888 1.7901 0.0000 0.0000 15.1448 0.0000 0.0000 19.1423 1.0463 15.5576 34.6151 0.0000 0.0000 17.0716 0.0000 0.0000 8.5477 -1.0035 18.1389 24.5747 0.0000 0.0000 35.8774 0.0000 0.0000 9.7969 -3.8251 19.1100 53.5811 0.0000 0.0000 5.6453 0.0000 0.0000 -4.5419 -6.4473 23.1286 46.9310 0.0000 0.0000 12.2664 0.0000 0.0000 0.0000 0.0000 0.0000 0.0000 0.0000 0.0000 0.0000 0.0000 0.0000 0.0000 0.0000 0.0000 0.0000 0.0000 0.0000 0.0000 0.0000 0.0000
0.0000 95.0000 0.0000 0.0000 0.0000 0.0000 0.0000 0.0000 0.0000 0.0000 0.0000 0.0000 0.0000 0.0000 0.0000 0.0000 0.0000 0.0000 0.0000 0.0000 0.0000 0.0000 0.0000 0.0000 -71.1574 2.2029 3.0791 -29.5489 2.2115 -3.1016 -537.8672 56.2713 538.2742 54.8758 -13.7714 -12.8313 18.0931 0.0000 0.0000 3.6990 0.0000 0.0000 -9.6719 0.5347 -1.0541 12.0811 0.0000 0.0000 4.1647 0.0000 0.0000 1.2222 -0.0163 -3.2431 17.0631 0.0000 0.0000 1.2868 0.0000 0.0000 8.3971 -0.6308 -2.4334 16.6330 0.0000 0.0000 4.7375 0.0000 0.0000 16.4895 -1.4036 -1.1677 12.0009 0.0000 0.0000 9.6073 0.0000 0.0000 0.0000 0.0000 0.0000 77.6112 -4.6755 5.8122 12.4329 15.8473 25.4717 -25.5929 80.6271 440.1491 -68.3053 -14.4166 8.4888 1.7901 0.0000 0.0000 15.1448 0.0000 0.0000 19.1423 1.0463 15.5576 34.6151 0.0000 0.0000 17.0716 0.0000 0.0000 8.5477 -1.0035 18.1389 24.5747 0.0000 0.0000 35.8774 0.0000 0.0000 9.7969 -3.8251 19.1100 53.5811 0.0000 0.0000 5.6453 0.0000 0.0000 -4.5419 -6.4473 23.1286 46.9310 0.0000 0.0000 12.2664 0.0000 0.0000 0.0000 0.0000 0.0000 0.0000 0.0000 0.0000 0.0000 0.0000 0.0000 0.0000 0.0000 0.0000 0.0000 0.0000 0.0000 0.0000 0.0000 0.0000
0.0000 95.0000 0.0000 0.0000 0.0000 0.0000 0.0000 0.0000 0.0000 0.0000 0.0000 0.0000 0.0000 0.0000 0.0000 0.0000 0.0000 0.0000 0.0000 0.0000 0.0000 0.0000 0.0000 0.0000 -71.6206 2.3134 3.2060 -26.4110 1.0197 -0.0983 -533.2925 53.7027 539.8589 54.8758 -13.7714 -12.8313 18.0931 0.0000 0.0000 3.6990 0.0000 0.0000 -9.6719 0.5347 -1.0541 12.0811 0.0000 0.0000 4.1647 0.0000 0.0000 1.2222 -0.0163 -3.2431 17.0631 0.0000 0.0000 1.2868 0.0000 0.0000 8.3971 -0.6308 -2.4334 16.6330 0.0000 0.0000 4.7375 0.0000 0.0000 16.4895 -1.4036 -1.1677 12.0009 0.0000 0.0000 9.6073 0.0000 0.0000 0.0000 0.0000 0.0000 78.3082 -4.4112 5.4162 9.7701 14.0132 21.1182 -7.0189 79.5574 462.3200 -68.3053 -14.4166 8.4888 1.7901 0.0000 0.0000 15.1448 0.0000 0.0000 19.1423 1.0463 15.5576 34.6151 0.0000 0.0000 17.0716 0.0000 0.0000 8.5477 -1.0035 18.1389 24.5747 0.0000 0.0000 35.8774 0.0000 0.0000 9.7969 -3.8251 19.1100 53.5811 0.0000 0.0000 5.6453 0.0000 0.0000 -4.5419 -6.4473 23.1286 46.9310 0.0000 0.0000 12.2664 0.0000 0.0000 0.0000 0.0000 0.0000 0.0000 0.0000 0.0000 0.0000 0.0000 0.0000 0.0000 0.0000 0.0000 0.0000 0.0000 0.0000 0.0000 0.0000 0.0000
0.0000 95.0000 0.0000 0.0000 0.0000 0.0000 0.0000 0.0000 0.0000 0.0000 0.0000 0.0000 0.0000 0.0000 0.0000 0.0000 0.0000 0.0000 0.0000 0.0000 0.0000 0.0000 0.0000 0.0000 -72.0548 2.5451 3.4990 -24.0790 0.0484 2.1083 -530.2424 51.5665 540.5082 54.8758 -13.7714 -12.8313 18.0931 0.0000 0.0000 3.6990 0.0000 0.0000 -9.6719 0.5347 -1.0541 12.0811 0.0000 0.0000 4.1647 0.0000 0.0000 1.2222 -0.0163 -3.2431 17.0631 0.0000 0.0000 1.2868 0.0000 0.0000 8.3971 -0.6308 -2.4334 16.6330 0.0000 0.0000 4.7375 0.0000 0.0000 16.4895 -1.4036 -1.1677 12.0009 0.0000 0.0000 9.6073 0.0000 0.0000 0.0000 0.0000 0.0000 79.2980 -4.0709 4.9114 7.2092 12.5064 17.5580 4.6087 77.7683 477.0668 -68.3053 -14.4166 8.4888 1.7901 0.0000 0.0000 15.1448 0.0000 0.0000 19.1423 1.0463 15.5576 34.6151 0.0000 0.0000 17.0716 0.0000 0.0000 8.5477 -1.0035 18.1389 24.5747 0.0000 0.0000 35.8774 0.0000 0.0000 9.7969 -3.8251 19.1100 53.5811 0.0000 0.0000 5.6453 0.0000 0.0000 -4.5419 -6.4473 23.1286 46.9310 0.0000 0.0000 12.2664 0.0000 0.0000 0.0000 0.0000 0.0000 0.0000 0.0000 0.0000 0.0000 0.0000 0.0000 0.0000 0.0000 0.0000 0.0000 0.0000 0.0000 0.0000 0.0000 0.0000
0.0000 95.0000 0.0000 0.0000 0.0000 0.0000 0.0000 0.0000 0.0000 0.0000 0.0000 0.0000 0.0000 0.0000 0.0000 0.0000 0.0000 0.0000 0.0000 0.0000 0.0000 0.0000 0.0000 0.0000 -72.8901 1.5329 2.0757 -21.0796 -1.2401 3.6286 -526.6175 51.2558 543.2944 54.8758 -13.7714 -12.8313 18.0931 0.0000 0.0000 3.6990 0.0000 0.0000 -9.6719 0.5347 -1.0541 12.0811 0.0000 0.0000 4.1647 0.0000 0.0000 1.2222 -0.0163 -3.2431 17.0631 0.0000 0.0000 1.2868 0.0000 0.0000 8.3971 -0.6308 -2.4334 16.6330 0.0000 0.0000 4.7375 0.0000 0.0000 16.4895 -1.4036 -1.1677 12.0009 0.0000 0.0000 9.6073 0.0000 0.0000 0.0000 0.0000 0.0000 79.9140 -3.9775 4.7466 5.6742 11.5355 15.5185 9.1676 76.5311 483.3572 -68.3053 -14.4166 8.4888 1.7901 0.0000 0.0000 15.1448 0.0000 0.0000 19.1423 1.0463 15.5576 34.6151 0.0000 0.0000 17.0716 0.0000 0.0000 8.5477 -1.0035 18.1389 24.5747 0.0000 0.0000 35.8774 0.0000 0.0000 9.7969 -3.8251 19.1100 53.5811 0.0000 0.0000 5.6453 0.0000 0.0000 -4.5419 -6.4473 23.1286 46.9310 0.0000 0.0000 12.2664 0.0000 0.0000 0.0000 0.0000 0.0000 0.0000 0.0000 0.0000 0.0000 0.0000 0.0000 0.0000 0.0000 0.0000 0.0000 0.0000 0.0000 0.0000 0.0000 0.0000
0.0000 95.0000 0.0000 0.0000 0.0000 0.0000 0.0000 0.0000 0.0000 0.0000 0.0000 0.0000 0.0000 0.0000 0.0000 0.0000 0.0000 0.0000 0.0000 0.0000 0.0000 0.0000 0.0000 0.0000 -73.5475 1.4844 1.9860 -19.0287 -1.9161 4.6055 -524.4517 50.3233 544.2975 54.8758 -13.7714 -12.8313 18.0931 0.0000 0.0000 3.6990 0.0000 0.0000 -9.6719 0.5347 -1.0541 12.0811 0.0000 0.0000 4.1647 0.0000 0.0000 1.2222 -0.0163 -3.2431 17.0631 0.0000 0.0000 1.2868 0.0000 0.0000 8.3971 -0.6308 -2.4334 16.6330 0.0000 0.0000 4.7375 0.0000 0.0000 16.4895 -1.4036 -1.1677 12.0009 0.0000 0.0000 9.6073 0.0000 0.0000 0.0000 0.0000 0.0000 80.8396 -3.9206 4.6028 3.8148 11.1687 14.1719 10.2499 75.4491 485.5739 -68.3053 -14.4166 8.4888 1.7901 0.0000 0.0000 15.1448 0.0000 0.0000 19.1423 1.0463 15.5576 34.6151 0.0000 0.0000 17.0716 0.0000 0.0000 8.5477 -1.0035 18.1389 24.5747 0.0000 0.0000 35.8774 0.0000 0.0000 9.7969 -3.8251 19.1100 53.5811 0.0000 0.0000 5.6453 0.0000 0.0000 -4.5419 -6.4473 23.1286 46.9310 0.0000 0.0000 12.2664 0.0000 0.0000 0.0000 0.0000 0.0000 0.0000 0.0000 0.0000 0.0000 0.0000 0.0000 0.0000 0.0000 0.0000 0.0000 0.0000 0.0000 0.0000 0.0000 0.0000
0.0000 95.0000 0.0000 0.0000 0.0000 0.0000 0.0000 0.0000 0.0000 0.0000 0.0000 0.0000 0.0000 0.0000 0.0000 0.0000 0.0000 0.0000 0.0000 0.0000 0.0000 0.0000 0.0000 0.0000 -74.0680 0.7270 0.9635 -18.0811 -2.6305 5.3463 -523.6399 50.4537 545.1333 54.8758 -13.7714 -12.8313 18.0931 0.0000 0.0000 3.6990 0.0000 0.0000 -9.6719 0.5347 -1.0541 12.0811 0.0000 0.0000 4.1647 0.0000 0.0000 1.2222 -0.0163 -3.2431 17.0631 0.0000 0.0000 1.2868 0.0000 0.0000 8.3971 -0.6308 -2.4334 16.6330 0.0000 0.0000 4.7375 0.0000 0.0000 16.4895 -1.4036 -1.1677 12.0009 0.0000 0.0000 9.6073 0.0000 0.0000 0.0000 0.0000 0.0000 81.4362 -3.8971 4.5273 2.5643 10.7670 13.1442 11.1586 74.6535 487.3535 -68.3053 -14.4166 8.4888 1.7901 0.0000 0.0000 15.1448 0.0000 0.0000 19.1423 1.0463 15.5576 34.6151 0.0000 0.0000 17.0716 0.0000 0.0000 8.5477 -1.0035 18.1389 24.5747 0.0000 0.0000 35.8774 0.0000 0.0000 9.7969 -3.8251 19.1100 53.5811 0.0000 0.0000 5.6453 0.0000 0.0000 -4.5419 -6.4473 23.1286 46.9310 0.0000 0.0000 12.2664 0.0000 0.0000 0.0000 0.0000 0.0000 0.0000 0.0000 0.0000 0.0000 0.0000 0.0000 0.0000 0.0000 0.0000 0.0000 0.0000 0.0000 0.0000 0.0000 0.0000
0.0000 95.0000 0.0000 0.0000 0.0000 0.0000 0.0000 0.0000 0.0000 0.0000 0.0000 0.0000 0.0000 0.0000 0.0000 0.0000 0.0000 0.0000 0.0000 0.0000 0.0000 0.0000 0.0000 0.0000 -74.8002 -0.3326 -0.4350 -16.6544 -3.6323 6.3674 -522.3645 50.5986 546.4043 54.8758 -13.7714 -12.8313 18.0931 0.0000 0.0000 3.6990 0.0000 0.0000 -9.6719 0.5347 -1.0541 12.0811 0.0000 0.0000 4.1647 0.0000 0.0000 1.2222 -0.0163 -3.2431 17.0631 0.0000 0.0000 1.2868 0.0000 0.0000 8.3971 -0.6308 -2.4334 16.6330 0.0000 0.0000 4.7375 0.0000 0.0000 16.4895 -1.4036 -1.1677 12.0009 0.0000 0.0000 9.6073 0.0000 0.0000 0.0000 0.0000 0.0000 82.0774 -4.2122 4.8382 1.6203 11.3665 13.4015 8.0953 74.7762 483.6871 -68.3053 -14.4166 8.4888 1.7901 0.0000 0.0000 15.1448 0.0000 0.0000 19.1423 1.0463 15.5576 34.6151 0.0000 0.0000 17.0716 0.0000 0.0000 8.5477 -1.0035 18.1389 24.5747 0.0000 0.0000 35.8774 0.0000 0.0000 9.7969 -3.8251 19.1100 53.5811 0.0000 0.0000 5.6453 0.0000 0.0000 -4.5419 -6.4473 23.1286 46.9310 0.0000 0.0000 12.2664 0.0000 0.0000 0.0000 0.0000 0.0000 0.0000 0.0000 0.0000 0.0000 0.0000 0.0000 0.0000 0.0000 0.0000 0.0000 0.0000 0.0000 0.0000 0.0000 0.0000
