HIERARCHY
ROOT Hips
{
  OFFSET 0.000000 95.000000 0.000000
  CHANNELS 6 Xposition Yposition Zposition Zrotation Xrotation Yrotation
  JOINT Spine
  {
    OFFSET 0.000000 10.000000 0.000000
    CHANNELS 3 Zrotation Xrotation Yrotation
    JOINT Spine1
    {
      OFFSET 0.000000 12.000000 0.000000
      CHANNELS 3 Zrotation Xrotation Yrotation
      JOINT Spine2
      {
        OFFSET 0.000000 12.000000 0.000000
        CHANNELS 3 Zrotation Xrotation Yrotation
        JOINT Neck
        {
          OFFSET 0.000000 10.000000 0.000000
          CHANNELS 3 Zrotation Xrotation Yrotation
          JOINT Head
          {
            OFFSET 0.000000 8.000000 0.000000
            CHANNELS 3 Zrotation Xrotation Yrotation
            End Site
            {
              OFFSET 0.000000 10.000000 0.000000
            }
          }
        }
        JOINT LeftShoulder
        {
          OFFSET 6.000000 8.000000 0.000000
          CHANNELS 3 Zrotation Xrotation Yrotation
          JOINT LeftArm
          {
            OFFSET 12.000000 0.000000 0.000000
            CHANNELS 3 Zrotation Xrotation Yrotation
            JOINT LeftForeArm
            {
              OFFSET 24.000000 0.000000 0.000000
              CHANNELS 3 Zrotation Xrotation Yrotation
              JOINT LeftHand
              {
                OFFSET 22.000000 0.000000 0.000000
                CHANNELS 3 Zrotation Xrotation Yrotation
                JOINT LeftHandThumb1
                {
                  OFFSET 1.800000 -1.400000 0.500000
                  CHANNELS 3 Zrotation Xrotation Yrotation
                  JOINT LeftHandThumb2
                  {
                    OFFSET 2.400000 0.000000 0.000000
                    CHANNELS 3 Zrotation Xrotation Yrotation
                    JOINT LeftHandThumb3
                    {
                      OFFSET 1.900000 0.000000 0.000000
                      CHANNELS 3 Zrotation Xrotation Yrotation
                      End Site
                      {
                        OFFSET 1.600000 0.000000 0.000000
                      }
                    }
                  }
                }
                JOINT LeftHandIndex1
                {
                  OFFSET 6.600000 1.200000 0.300000
                  CHANNELS 3 Zrotation Xrotation Yrotation
                  JOINT LeftHandIndex2
                  {
                    OFFSET 2.000000 0.000000 0.000000
                    CHANNELS 3 Zrotation Xrotation Yrotation
                    JOINT LeftHandIndex3
                    {
                      OFFSET 1.200000 0.000000 0.000000
                      CHANNELS 3 Zrotation Xrotation Yrotation
                      End Site
                      {
                        OFFSET 1.000000 0.000000 0.000000
                      }
                    }
                  }
                }
                JOINT LeftHandMiddle1
                {
                  OFFSET 7.200000 0.000000 0.300000
                  CHANNELS 3 Zrotation Xrotation Yrotation
                  JOINT LeftHandMiddle2
                  {
                    OFFSET 3.000000 0.000000 0.000000
                    CHANNELS 3 Zrotation Xrotation Yrotation
                    JOINT LeftHandMiddle3
                    {
                      OFFSET 2.000000 0.000000 0.000000
                      CHANNELS 3 Zrotation Xrotation Yrotation
                      End Site
                      {
                        OFFSET 1.600000 0.000000 0.000000
                      }
                    }
                  }
                }
                JOINT LeftHandRing1
                {
                  OFFSET 7.100000 -1.000000 0.400000
                  CHANNELS 3 Zrotation Xrotation Yrotation
                  JOINT LeftHandRing2
                  {
                    OFFSET 2.600000 0.000000 0.000000
                    CHANNELS 3 Zrotation Xrotation Yrotation
                    JOINT LeftHandRing3
                    {
                      OFFSET 1.600000 0.000000 0.000000
                      CHANNELS 3 Zrotation Xrotation Yrotation
                      End Site
                      {
                        OFFSET 1.300000 0.000000 0.000000
                      }
                    }
                  }
                }
                JOINT LeftHandPinky1
                {
                  OFFSET 6.500000 -2.000000 0.500000
                  CHANNELS 3 Zrotation Xrotation Yrotation
                  JOINT LeftHandPinky2
                  {
                    OFFSET 1.900000 0.000000 0.000000
                    CHANNELS 3 Zrotation Xrotation Yrotation
                    JOINT LeftHandPinky3
                    {
                      OFFSET 1.400000 0.000000 0.000000
                      CHANNELS 3 Zrotation Xrotation Yrotation
                      End Site
                      {
                        OFFSET 1.300000 0.000000 0.000000
                      }
                    }
                  }
                }
              }
            }
          }
        }
        JOINT RightShoulder
        {
          OFFSET -6.000000 8.000000 0.000000
          CHANNELS 3 Zrotation Xrotation Yrotation
          JOINT RightArm
          {
            OFFSET -12.000000 0.000000 0.000000
            CHANNELS 3 Zrotation Xrotation Yrotation
            JOINT RightForeArm
            {
              OFFSET -24.000000 0.000000 0.000000
              CHANNELS 3 Zrotation Xrotation Yrotation
              JOINT RightHand
              {
                OFFSET -22.000000 0.000000 0.000000
                CHANNELS 3 Zrotation Xrotation Yrotation
                JOINT RightHandThumb1
                {
                  OFFSET -1.800000 -1.400000 0.500000
                  CHANNELS 3 Zrotation Xrotation Yrotation
                  JOINT RightHandThumb2
                  {
                    OFFSET -2.400000 0.000000 0.000000
                    CHANNELS 3 Zrotation Xrotation Yrotation
                    JOINT RightHandThumb3
                    {
                      OFFSET -1.900000 0.000000 0.000000
                      CHANNELS 3 Zrotation Xrotation Yrotation
                      End Site
                      {
                        OFFSET -1.600000 0.000000 0.000000
                      }
                    }
                  }
                }
                JOINT RightHandIndex1
                {
                  OFFSET -6.600000 1.200000 0.300000
                  CHANNELS 3 Zrotation Xrotation Yrotation
                  JOINT RightHandIndex2
                  {
                    OFFSET -2.000000 0.000000 0.000000
                    CHANNELS 3 Zrotation Xrotation Yrotation
                    JOINT RightHandIndex3
                    {
                      OFFSET -1.200000 0.000000 0.000000
                      CHANNELS 3 Zrotation Xrotation Yrotation
                      End Site
                      {
                        OFFSET -1.000000 0.000000 0.000000
                      }
                    }
                  }
                }
                JOINT RightHandMiddle1
                {
                  OFFSET -7.200000 0.000000 0.300000
                  CHANNELS 3 Zrotation Xrotation Yrotation
                  JOINT RightHandMiddle2
                  {
                    OFFSET -3.000000 0.000000 0.000000
                    CHANNELS 3 Zrotation Xrotation Yrotation
                    JOINT RightHandMiddle3
                    {
                      OFFSET -2.000000 0.000000 0.000000
                      CHANNELS 3 Zrotation Xrotation Yrotation
                      End Site
                      {
                        OFFSET -1.600000 0.000000 0.000000
                      }
                    }
                  }
                }
                JOINT RightHandRing1
                {
                  OFFSET -7.100000 -1.000000 0.400000
                  CHANNELS 3 Zrotation Xrotation Yrotation
                  JOINT RightHandRing2
                  {
                    OFFSET -2.600000 0.000000 0.000000
                    CHANNELS 3 Zrotation Xrotation Yrotation
                    JOINT RightHandRing3
                    {
                      OFFSET -1.600000 0.000000 0.000000
                      CHANNELS 3 Zrotation Xrotation Yrotation
                      End Site
                      {
                        OFFSET -1.300000 0.000000 0.000000
                      }
                    }
                  }
                }
                JOINT RightHandPinky1
                {
                  OFFSET -6.500000 -2.000000 0.500000
                  CHANNELS 3 Zrotation Xrotation Yrotation
                  JOINT RightHandPinky2
                  {
                    OFFSET -1.900000 0.000000 0.000000
                    CHANNELS 3 Zrotation Xrotation Yrotation
                    JOINT RightHandPinky3
                    {
                      OFFSET -1.400000 0.000000 0.000000
                      CHANNELS 3 Zrotation Xrotation Yrotation
                      End Site
                      {
                        OFFSET -1.300000 0.000000 0.000000
                      }
                    }
                  }
                }
              }
            }
          }
        }
      }
    }
  }
  JOINT LeftUpLeg
  {
    OFFSET 10.000000 -5.000000 0.000000
    CHANNELS 3 Zrotation Xrotation Yrotation
    JOINT LeftLeg
    {
      OFFSET 0.000000 -42.000000 0.000000
      CHANNELS 3 Zrotation Xrotation Yrotation
      JOINT LeftFoot
      {
        OFFSET 0.000000 -42.000000 4.000000
        CHANNELS 3 Zrotation Xrotation Yrotation
        End Site
        {
          OFFSET 0.000000 0.000000 12.000000
        }
      }
    }
  }
  JOINT RightUpLeg
  {
    OFFSET -10.000000 -5.000000 0.000000
    CHANNELS 3 Zrotation Xrotation Yrotation
    JOINT RightLeg
    {
      OFFSET 0.000000 -42.000000 0.000000
      CHANNELS 3 Zrotation Xrotation Yrotation
      JOINT RightFoot
      {
        OFFSET 0.000000 -42.000000 4.000000
        CHANNELS 3 Zrotation Xrotation Yrotation
        End Site
        {
          OFFSET 0.000000 0.000000 12.000000
        }
      }
    }
  }
}
MOTION
Frames: 60
Frame Time: 0.033333
0.0000 95.0000 0.0000 0.0000 0.0000 0.0000 0.0000 0.0000 0.0000 0.0000 0.0000 0.0000 0.0000 0.0000 0.0000 0.0000 0.0000 0.0000 0.0000 0.0000 0.0000 0.0000 0.0000 0.0000 -75.7645 -1.1450 -1.4718 -15.9568 -6.4795 10.7442 23.4558 10.1782 -17.7766 69.1418 -14.0928 3.2927 39.6996 0.0000 0.0000 17.0002 0.0000 0.0000 -20.8168 0.9033 -10.4408 110.0000 0.0000 0.0000 8.9673 0.0000 0.0000 -16.0295 -2.1855 -20.2012 110.0000 0.0000 0.0000 12.5030 0.0000 0.0000 -9.4959 -6.0069 -28.7046 110.0000 0.0000 0.0000 22.2006 0.0000 0.0000 1.4830 -5.8496 -19.6253 110.0000 0.0000 0.0000 20.5089 0.0000 0.0000 0.0000 0.0000 0.0000 85.3477 -4.8378 5.2469 2.7593 7.9243 9.1813 109.3826 26.0784 178.3143 -58.8341 -11.3461 -8.4258 58.2216 0.0000 0.0000 27.0928 0.0000 0.0000 59.8929 1.7293 2.7596 46.8289 0.0000 0.0000 41.1005 0.0000 0.0000 58.5545 -0.5593 5.7695 104.8386 0.0000 0.0000 56.2237 0.0000 0.0000 50.8090 -0.2198 5.3095 110.0000 0.0000 0.0000 34.6450 0.0000 0.0000 41.2128 -1.5378 6.8391 110.0000 0.0000 0.0000 21.9826 0.0000 0.0000 0.0000 0.0000 0.0000 0.0000 0.0000 0.0000 0.0000 0.0000 0.0000 0.0000 0.0000 0.0000 0.0000 0.0000 0.0000 0.0000 0.0000 0.0000
0.0000 95.0000 0.0000 0.0000 0.0000 0.0000 0.0000 0.0000 0.0000 0.0000 0.0000 0.0000 0.0000 0.0000 0.0000 0.0000 0.0000 0.0000 0.0000 0.0000 0.0000 0.0000 0.0000 0.0000 -75.6831 -1.1395 -1.4667 -15.9289 -6.4120 10.6415 23.3862 10.0767 -17.7020 69.1418 -14.0928 3.2927 39.6996 0.0000 0.0000 17.0002 0.0000 0.0000 -20.8168 0.9033 -10.4408 110.0000 0.0000 0.0000 8.9673 0.0000 0.0000 -16.0295 -2.1855 -20.2012 110.0000 0.0000 0.0000 12.5030 0.0000 0.0000 -9.4959 -6.0069 -28.7046 110.0000 0.0000 0.0000 22.2006 0.0000 0.0000 1.4830 -5.8496 -19.6253 110.0000 0.0000 0.0000 20.5089 0.0000 0.0000 0.0000 0.0000 0.0000 85.3207 -4.9505 5.3716 2.8314 7.6808 8.9344 109.4878 25.9475 178.4771 -58.8341 -11.3461 -8.4258 58.2216 0.0000 0.0000 27.0928 0.0000 0.0000 59.8929 1.7293 2.7596 46.8289 0.0000 0.0000 41.1005 0.0000 0.0000 58.5545 -0.5593 5.7695 104.8386 0.0000 0.0000 56.2237 0.0000 0.0000 50.8090 -0.2198 5.3095 110.0000 0.0000 0.0000 34.6450 0.0000 0.0000 41.2128 -1.5378 6.8391 110.0000 0.0000 0.0000 21.9826 0.0000 0.0000 0.0000 0.0000 0.0000 0.0000 0.0000 0.0000 0.0000 0.0000 0.0000 0.0000 0.0000 0.0000 0.0000 0.0000 0.0000 0.0000 0.0000 0.0000
0.0000 95.0000 0.0000 0.0000 0.0000 0.0000 0.0000 0.0000 0.0000 0.0000 0.0000 0.0000 0.0000 0.0000 0.0000 0.0000 0.0000 0.0000 0.0000 0.0000 0.0000 0.0000 0.0000 0.0000 -75.6871 -1.4759 -1.8997 -15.6873 -6.7102 10.9667 23.1367 9.9312 -17.6463 69.1418 -14.0928 3.2927 39.6996 0.0000 0.0000 17.0002 0.0000 0.0000 -20.8168 0.9033 -10.4408 110.0000 0.0000 0.0000 8.9673 0.0000 0.0000 -16.0295 -2.1855 -20.2012 110.0000 0.0000 0.0000 12.5030 0.0000 0.0000 -9.4959 -6.0069 -28.7046 110.0000 0.0000 0.0000 22.2006 0.0000 0.0000 1.4830 -5.8496 -19.6253 110.0000 0.0000 0.0000 20.5089 0.0000 0.0000 0.0000 0.0000 0.0000 85.2655 -4.8246 5.2402 2.4623 7.6834 8.8514 109.0210 25.8201 178.4966 -58.8341 -11.3461 -8.4258 58.2216 0.0000 0.0000 27.0928 0.0000 0.0000 59.8929 1.7293 2.7596 46.8289 0.0000 0.0000 41.1005 0.0000 0.0000 58.5545 -0.5593 5.7695 104.8386 0.0000 0.0000 56.2237 0.0000 0.0000 50.8090 -0.2198 5.3095 110.0000 0.0000 0.0000 34.6450 0.0000 0.0000 41.2128 -1.5378 6.8391 110.0000 0.0000 0.0000 21.9826 0.0000 0.0000 0.0000 0.0000 0.0000 0.0000 0.0000 0.0000 0.0000 0.0000 0.0000 0.0000 0.0000 0.0000 0.0000 0.0000 0.0000 0.0000 0.0000 0.0000
0.0000 95.0000 0.0000 0.0000 0.0000 0.0000 0.0000 0.0000 0.0000 0.0000 0.0000 0.0000 0.0000 0.0000 0.0000 0.0000 0.0000 0.0000 0.0000 0.0000 0.0000 0.0000 0.0000 0.0000 -75.7348 -1.4802 -1.9035 -15.6325 -6.7654 11.0400 23.1015 9.9848 -17.7111 69.1418 -14.0928 3.2927 39.6996 0.0000 0.0000 17.0002 0.0000 0.0000 -20.8168 0.9033 -10.4408 110.0000 0.0000 0.0000 8.9673 0.0000 0.0000 -16.0295 -2.1855 -20.2012 110.0000 0.0000 0.0000 12.5030 0.0000 0.0000 -9.4959 -6.0069 -28.7046 110.0000 0.0000 0.0000 22.2006 0.0000 0.0000 1.4830 -5.8496 -19.6253 110.0000 0.0000 0.0000 20.5089 0.0000 0.0000 0.0000 0.0000 0.0000 85.3070 -4.8071 5.2174 2.1788 7.6430 8.7307 108.7687 25.7413 178.5181 -58.8341 -11.3461 -8.4258 58.2216 0.0000 0.0000 27.0928 0.0000 0.0000 59.8929 1.7293 2.7596 46.8289 0.0000 0.0000 41.1005 0.0000 0.0000 58.5545 -0.5593 5.7695 104.8386 0.0000 0.0000 56.2237 0.0000 0.0000 50.8090 -0.2198 5.3095 110.0000 0.0000 0.0000 34.6450 0.0000 0.0000 41.2128 -1.5378 6.8391 110.0000 0.0000 0.0000 21.9826 0.0000 0.0000 0.0000 0.0000 0.0000 0.0000 0.0000 0.0000 0.0000 0.0000 0.0000 0.0000 0.0000 0.0000 0.0000 0.0000 0.0000 0.0000 0.0000 0.0000
0.0000 95.0000 0.0000 0.0000 0.0000 0.0000 0.0000 0.0000 0.0000 0.0000 0.0000 0.0000 0.0000 0.0000 0.0000 0.0000 0.0000 0.0000 0.0000 0.0000 0.0000 0.0000 0.0000 0.0000 -75.6180 -1.5427 -1.9882 -15.7835 -6.8413 11.1978 23.1037 10.0359 -17.7604 69.1418 -14.0928 3.2927 39.6996 0.0000 0.0000 17.0002 0.0000 0.0000 -20.8168 0.9033 -10.4408 110.0000 0.0000 0.0000 8.9673 0.0000 0.0000 -16.0295 -2.1855 -20.2012 110.0000 0.0000 0.0000 12.5030 0.0000 0.0000 -9.4959 -6.0069 -28.7046 110.0000 0.0000 0.0000 22.2006 0.0000 0.0000 1.4830 -5.8496 -19.6253 110.0000 0.0000 0.0000 20.5089 0.0000 0.0000 0.0000 0.0000 0.0000 85.5022 -5.0807 5.4954 1.9448 7.4329 8.4171 108.7915 25.7510 178.5135 -58.8341 -11.3461 -8.4258 58.2216 0.0000 0.0000 27.0928 0.0000 0.0000 59.8929 1.7293 2.7596 46.8289 0.0000 0.0000 41.1005 0.0000 0.0000 58.5545 -0.5593 5.7695 104.8386 0.0000 0.0000 56.2237 0.0000 0.0000 50.8090 -0.2198 5.3095 110.0000 0.0000 0.0000 34.6450 0.0000 0.0000 41.2128 -1.5378 6.8391 110.0000 0.0000 0.0000 21.9826 0.0000 0.0000 0.0000 0.0000 0.0000 0.0000 0.0000 0.0000 0.0000 0.0000 0.0000 0.0000 0.0000 0.0000 0.0000 0.0000 0.0000 0.0000 0.0000 0.0000
0.0000 95.0000 0.0000 0.0000 0.0000 0.0000 0.0000 0.0000 0.0000 0.0000 0.0000 0.0000 0.0000 0.0000 0.0000 0.0000 0.0000 0.0000 0.0000 0.0000 0.0000 0.0000 0.0000 0.0000 -75.7354 -1.6870 -2.1695 -15.7744 -6.8616 11.1428 23.2727 9.8821 -17.5512 69.1418 -14.0928 3.2927 39.6996 0.0000 0.0000 17.0002 0.0000 0.0000 -20.8168 0.9033 -10.4408 110.0000 0.0000 0.0000 8.9673 0.0000 0.0000 -16.0295 -2.1855 -20.2012 110.0000 0.0000 0.0000 12.5030 0.0000 0.0000 -9.4959 -6.0069 -28.7046 110.0000 0.0000 0.0000 22.2006 0.0000 0.0000 1.4830 -5.8496 -19.6253 110.0000 0.0000 0.0000 20.5089 0.0000 0.0000 0.0000 0.0000 0.0000 85.4446 -5.0123 5.4269 2.1369 7.5132 8.5596 108.9144 25.7837 178.5090 -58.8341 -11.3461 -8.4258 58.2216 0.0000 0.0000 27.0928 0.0000 0.0000 59.8929 1.7293 2.7596 46.8289 0.0000 0.0000 41.1005 0.0000 0.0000 58.5545 -0.5593 5.7695 104.8386 0.0000 0.0000 56.2237 0.0000 0.0000 50.8090 -0.2198 5.3095 110.0000 0.0000 0.0000 34.6450 0.0000 0.0000 41.2128 -1.5378 6.8391 110.0000 0.0000 0.0000 21.9826 0.0000 0.0000 0.0000 0.0000 0.0000 0.0000 0.0000 0.0000 0.0000 0.0000 0.0000 0.0000 0.0000 0.0000 0.0000 0.0000 0.0000 0.0000 0.0000 0.0000
0.0000 95.0000 0.0000 0.0000 0.0000 0.0000 0.0000 0.0000 0.0000 0.0000 0.0000 0.0000 0.0000 0.0000 0.0000 0.0000 0.0000 0.0000 0.0000 0.0000 0.0000 0.0000 0.0000 0.0000 -75.8423 -1.3465 -1.7283 -15.5784 -6.4765 10.5667 23.2795 9.7848 -17.4537 69.1418 -14.0928 3.2927 39.6996 0.0000 0.0000 17.0002 0.0000 0.0000 -20.8168 0.9033 -10.4408 110.0000 0.0000 0.0000 8.9673 0.0000 0.0000 -16.0295 -2.1855 -20.2012 110.0000 0.0000 0.0000 12.5030 0.0000 0.0000 -9.4959 -6.0069 -28.7046 110.0000 0.0000 0.0000 22.2006 0.0000 0.0000 1.4830 -5.8496 -19.6253 110.0000 0.0000 0.0000 20.5089 0.0000 0.0000 0.0000 0.0000 0.0000 84.9505 -4.8609 5.3088 2.9324 7.6201 8.9463 109.1961 25.8775 178.4791 -58.8341 -11.3461 -8.4258 58.2216 0.0000 0.0000 27.0928 0.0000 0.0000 59.8929 1.7293 2.7596 46.8289 0.0000 0.0000 41.1005 0.0000 0.0000 58.5545 -0.5593 5.7695 104.8386 0.0000 0.0000 56.2237 0.0000 0.0000 50.8090 -0.2198 5.3095 110.0000 0.0000 0.0000 34.6450 0.0000 0.0000 41.2128 -1.5378 6.8391 110.0000 0.0000 0.0000 21.9826 0.0000 0.0000 0.0000 0.0000 0.0000 0.0000 0.0000 0.0000 0.0000 0.0000 0.0000 0.0000 0.0000 0.0000 0.0000 0.0000 0.0000 0.0000 0.0000 0.0000
0.0000 95.0000 0.0000 0.0000 0.0000 0.0000 0.0000 0.0000 0.0000 0.0000 0.0000 0.0000 0.0000 0.0000 0.0000 0.0000 0.0000 0.0000 0.0000 0.0000 0.0000 0.0000 0.0000 0.0000 -75.9676 -0.6143 -0.7868 -15.4589 -6.4304 10.7473 22.9827 10.6750 -18.4296 69.1418 -14.0928 3.2927 39.6996 0.0000 0.0000 17.0002 0.0000 0.0000 -20.8168 0.9033 -10.4408 110.0000 0.0000 0.0000 8.9673 0.0000 0.0000 -16.0295 -2.1855 -20.2012 110.0000 0.0000 0.0000 12.5030 0.0000 0.0000 -9.4959 -6.0069 -28.7046 110.0000 0.0000 0.0000 22.2006 0.0000 0.0000 1.4830 -5.8496 -19.6253 110.0000 0.0000 0.0000 20.5089 0.0000 0.0000 0.0000 0.0000 0.0000 84.8316 -4.2222 4.6209 4.0179 7.9448 9.5793 110.1184 25.6249 178.9640 -58.8341 -11.3461 -8.4258 58.2216 0.0000 0.0000 27.0928 0.0000 0.0000 59.8929 1.7293 2.7596 46.8289 0.0000 0.0000 41.1005 0.0000 0.0000 58.5545 -0.5593 5.7695 104.8386 0.0000 0.0000 56.2237 0.0000 0.0000 50.8090 -0.2198 5.3095 110.0000 0.0000 0.0000 34.6450 0.0000 0.0000 41.2128 -1.5378 6.8391 110.0000 0.0000 0.0000 21.9826 0.0000 0.0000 0.0000 0.0000 0.0000 0.0000 0.0000 0.0000 0.0000 0.0000 0.0000 0.0000 0.0000 0.0000 0.0000 0.0000 0.0000 0.0000 0.0000 0.0000
0.0000 95.0000 0.0000 0.0000 0.0000 0.0000 0.0000 0.0000 0.0000 0.0000 0.0000 0.0000 0.0000 0.0000 0.0000 0.0000 0.0000 0.0000 0.0000 0.0000 0.0000 0.0000 0.0000 0.0000 -76.3949 0.0766 0.0974 -14.0954 -6.2336 10.3238 21.9677 10.8923 -19.0141 69.1418 -14.0928 3.2927 39.6996 0.0000 0.0000 17.0002 0.0000 0.0000 -20.8168 0.9033 -10.4408 110.0000 0.0000 0.0000 8.9673 0.0000 0.0000 -16.0295 -2.1855 -20.2012 110.0000 0.0000 0.0000 12.5030 0.0000 0.0000 -9.4959 -6.0069 -28.7046 110.0000 0.0000 0.0000 22.2006 0.0000 0.0000 1.4830 -5.8496 -19.6253 110.0000 0.0000 0.0000 20.5089 0.0000 0.0000 0.0000 0.0000 0.0000 84.0021 -3.9406 4.3759 5.9871 8.4068 10.7612 111.1986 26.1072 178.7279 -58.8341 -11.3461 -8.4258 58.2216 0.0000 0.0000 27.0928 0.0000 0.0000 59.8929 1.7293 2.7596 46.8289 0.0000 0.0000 41.1005 0.0000 0.0000 58.5545 -0.5593 5.7695 104.8386 0.0000 0.0000 56.2237 0.0000 0.0000 50.8090 -0.2198 5.3095 110.0000 0.0000 0.0000 34.6450 0.0000 0.0000 41.2128 -1.5378 6.8391 110.0000 0.0000 0.0000 21.9826 0.0000 0.0000 0.0000 0.0000 0.0000 0.0000 0.0000 0.0000 0.0000 0.0000 0.0000 0.0000 0.0000 0.0000 0.0000 0.0000 0.0000 0.0000 0.0000 0.0000
0.0000 95.0000 0.0000 0.0000 0.0000 0.0000 0.0000 0.0000 0.0000 0.0000 0.0000 0.0000 0.0000 0.0000 0.0000 0.0000 0.0000 0.0000 0.0000 0.0000 0.0000 0.0000 0.0000 0.0000 -76.8088 0.3978 0.5018 -12.9546 -5.8647 9.5294 21.4199 10.4946 -18.8176 69.1418 -14.0928 3.2927 39.6996 0.0000 0.0000 17.0002 0.0000 0.0000 -20.8168 0.9033 -10.4408 110.0000 0.0000 0.0000 8.9673 0.0000 0.0000 -16.0295 -2.1855 -20.2012 110.0000 0.0000 0.0000 12.5030 0.0000 0.0000 -9.4959 -6.0069 -28.7046 110.0000 0.0000 0.0000 22.2006 0.0000 0.0000 1.4830 -5.8496 -19.6253 110.0000 0.0000 0.0000 20.5089 0.0000 0.0000 0.0000 0.0000 0.0000 82.8827 -4.1768 4.7301 9.3138 10.1864 14.2801 113.0083 28.9678 176.3235 -58.8341 -11.3461 -8.4258 58.2216 0.0000 0.0000 27.0928 0.0000 0.0000 59.8929 1.7293 2.7596 46.8289 0.0000 0.0000 41.1005 0.0000 0.0000 58.5545 -0.5593 5.7695 104.8386 0.0000 0.0000 56.2237 0.0000 0.0000 50.8090 -0.2198 5.3095 110.0000 0.0000 0.0000 34.6450 0.0000 0.0000 41.2128 -1.5378 6.8391 110.0000 0.0000 0.0000 21.9826 0.0000 0.0000 0.0000 0.0000 0.0000 0.0000 0.0000 0.0000 0.0000 0.0000 0.0000 0.0000 0.0000 0.0000 0.0000 0.0000 0.0000 0.0000 0.0000 0.0000
0.0000 95.0000 0.0000 0.0000 0.0000 0.0000 0.0000 0.0000 0.0000 0.0000 0.0000 0.0000 0.0000 0.0000 0.0000 0.0000 0.0000 0.0000 0.0000 0.0000 0.0000 0.0000 0.0000 0.0000 -76.7064 2.5109 3.1729 -10.8497 -3.8045 6.5508 19.6783 9.8880 -18.8369 69.1418 -14.0928 3.2927 39.6996 0.0000 0.0000 17.0002 0.0000 0.0000 -20.8168 0.9033 -10.4408 110.0000 0.0000 0.0000 8.9673 0.0000 0.0000 -16.0295 -2.1855 -20.2012 110.0000 0.0000 0.0000 12.5030 0.0000 0.0000 -9.4959 -6.0069 -28.7046 110.0000 0.0000 0.0000 22.2006 0.0000 0.0000 1.4830 -5.8496 -19.6253 110.0000 0.0000 0.0000 20.5089 0.0000 0.0000 0.0000 0.0000 0.0000 82.3733 -6.7247 7.6824 13.6146 20.1941 30.1362 108.7656 44.3585 158.1660 -58.8341 -11.3461 -8.4258 58.2216 0.0000 0.0000 27.0928 0.0000 0.0000 59.8929 1.7293 2.7596 46.8289 0.0000 0.0000 41.1005 0.0000 0.0000 58.5545 -0.5593 5.7695 104.8386 0.0000 0.0000 56.2237 0.0000 0.0000 50.8090 -0.2198 5.3095 110.0000 0.0000 0.0000 34.6450 0.0000 0.0000 41.2128 -1.5378 6.8391 110.0000 0.0000 0.0000 21.9826 0.0000 0.0000 0.0000 0.0000 0.0000 0.0000 0.0000 0.0000 0.0000 0.0000 0.0000 0.0000 0.0000 0.0000 0.0000 0.0000 0.0000 0.0000 0.0000 0.0000
0.0000 95.0000 0.0000 0.0000 0.0000 0.0000 0.0000 0.0000 0.0000 0.0000 0.0000 0.0000 0.0000 0.0000 0.0000 0.0000 0.0000 0.0000 0.0000 0.0000 0.0000 0.0000 0.0000 0.0000 -76.7391 4.7195 5.9591 -8.4284 -2.0425 3.9796 18.2465 10.3332 -20.6706 71.2442 -14.5190 2.9063 42.3298 0.0000 0.0000 18.0236 0.0000 0.0000 -20.6098 0.9127 -11.2592 110.0000 0.0000 0.0000 7.5493 0.0000 0.0000 -15.3655 -2.4206 -22.5734 110.0000 0.0000 0.0000 11.3704 0.0000 0.0000 -10.4350 -6.9665 -31.8347 110.0000 0.0000 0.0000 21.1299 0.0000 0.0000 -1.6595 -7.5419 -23.7677 110.0000 0.0000 0.0000 18.9844 0.0000 0.0000 0.0000 0.0000 0.0000 81.1079 -9.1430 10.6764 18.9473 31.3915 50.0373 85.4150 56.8358 123.4810 -58.8341 -11.3461 -8.4258 58.2216 0.0000 0.0000 27.0928 0.0000 0.0000 59.8929 1.7293 2.7596 46.8289 0.0000 0.0000 41.1005 0.0000 0.0000 58.5545 -0.5593 5.7695 104.8386 0.0000 0.0000 56.2237 0.0000 0.0000 50.8090 -0.2198 5.3095 110.0000 0.0000 0.0000 34.6450 0.0000 0.0000 41.2128 -1.5378 6.8391 110.0000 0.0000 0.0000 21.9826 0.0000 0.0000 0.0000 0.0000 0.0000 0.0000 0.0000 0.0000 0.0000 0.0000 0.0000 0.0000 0.0000 0.0000 0.0000 0.0000 0.0000 0.0000 0.0000 0.0000
0.0000 95.0000 0.0000 0.0000 0.0000 0.0000 0.0000 0.0000 0.0000 0.0000 0.0000 0.0000 0.0000 0.0000 0.0000 0.0000 0.0000 0.0000 0.0000 0.0000 0.0000 0.0000 0.0000 0.0000 -75.7636 8.0378 10.3208 -9.3359 12.3466 -16.9982 20.9740 -2.1508 -7.2938 73.5757 -14.9735 2.4123 45.2814 0.0000 0.0000 19.2237 0.0000 0.0000 -20.2801 0.9333 -12.3162 110.0000 0.0000 0.0000 6.4488 0.0000 0.0000 -14.3599 -2.6456 -25.5463 110.0000 0.0000 0.0000 10.4232 0.0000 0.0000 -11.3046 -8.1116 -35.5024 110.0000 0.0000 0.0000 20.0773 0.0000 0.0000 -5.1438 -9.9276 -28.8892 110.0000 0.0000 0.0000 17.5615 0.0000 0.0000 0.0000 0.0000 0.0000 79.7271 -12.2174 14.6068 21.6008 45.9533 70.2489 11.0584 62.8924 54.8331 -55.0251 -11.7266 -0.1937 58.4077 0.0000 0.0000 32.8477 0.0000 0.0000 58.6311 -2.1642 13.9475 30.2491 0.0000 0.0000 13.2241 0.0000 0.0000 60.7797 -6.2079 15.3376 38.6738 0.0000 0.0000 90.0000 0.0000 0.0000 52.7315 -6.7859 14.9494 69.3906 0.0000 0.0000 90.0000 0.0000 0.0000 44.9821 -9.3816 16.4559 110.0000 0.0000 0.0000 47.2020 0.0000 0.0000 0.0000 0.0000 0.0000 0.0000 0.0000 0.0000 0.0000 0.0000 0.0000 0.0000 0.0000 0.0000 0.0000 0.0000 0.0000 0.0000 0.0000 0.0000
0.0000 95.0000 0.0000 0.0000 0.0000 0.0000 0.0000 0.0000 0.0000 0.0000 0.0000 0.0000 0.0000 0.0000 0.0000 0.0000 0.0000 0.0000 0.0000 0.0000 0.0000 0.0000 0.0000 0.0000 -75.8010 10.3845 13.3156 -7.8620 14.7657 -19.9692 22.1895 -0.4692 -11.3361 78.9055 -15.9189 0.9766 52.2303 0.0000 0.0000 22.3700 0.0000 0.0000 -18.9294 1.0660 -15.5645 110.0000 0.0000 0.0000 5.0126 0.0000 0.0000 -10.5959 -2.7644 -33.9414 110.0000 0.0000 0.0000 8.9320 0.0000 0.0000 -12.3746 -10.8941 -44.5938 110.0000 0.0000 0.0000 18.0501 0.0000 0.0000 -12.0108 -17.2614 -42.2364 110.0000 0.0000 0.0000 15.0366 0.0000 0.0000 0.0000 0.0000 0.0000 78.3851 -14.8683 18.1840 33.6145 65.8845 102.1201 -65.2676 29.9144 -36.6313 -59.0282 -14.9656 20.6575 30.2507 0.0000 0.0000 46.9521 0.0000 0.0000 8.8203 4.8970 42.3999 66.0809 0.0000 0.0000 15.8530 0.0000 0.0000 9.4164 -4.2557 53.3355 66.8709 0.0000 0.0000 9.3576 0.0000 0.0000 1.8776 -9.6952 58.5903 63.7599 0.0000 0.0000 8.2800 0.0000 0.0000 -1.0185 -21.3639 67.0805 42.1836 0.0000 0.0000 5.9204 0.0000 0.0000 0.0000 0.0000 0.0000 0.0000 0.0000 0.0000 0.0000 0.0000 0.0000 0.0000 0.0000 0.0000 0.0000 0.0000 0.0000 0.0000 0.0000 0.0000
0.0000 95.0000 0.0000 0.0000 0.0000 0.0000 0.0000 0.0000 0.0000 0.0000 0.0000 0.0000 0.0000 0.0000 0.0000 0.0000 0.0000 0.0000 0.0000 0.0000 0.0000 0.0000 0.0000 0.0000 -75.9266 11.3355 14.4977 -6.3548 15.8201 -21.1300 22.6475 0.3537 -14.0943 81.8075 -16.3601 -0.0387 56.2052 0.0000 0.0000 24.4843 0.0000 0.0000 -17.6173 1.2523 -18.0757 110.0000 0.0000 0.0000 4.5816 0.0000 0.0000 -7.3616 -2.3076 -39.5408 110.0000 0.0000 0.0000 8.3278 0.0000 0.0000 -12.2539 -12.3501 -49.8895 110.0000 0.0000 0.0000 17.0876 0.0000 0.0000 -14.2383 -21.8485 -50.0908 104.4666 0.0000 0.0000 13.9337 0.0000 0.0000 0.0000 0.0000 0.0000 77.2201 -17.1744 21.4158 92.9871 79.4751 176.6143 -60.8968 33.8282 -67.2243 -59.7202 -11.7782 -6.7139 17.6784 0.0000 0.0000 11.6320 0.0000 0.0000 5.8906 -1.4026 -12.8074 98.5386 0.0000 0.0000 38.2003 0.0000 0.0000 -3.4585 -0.5116 -12.0537 110.0000 0.0000 0.0000 27.6771 0.0000 0.0000 -14.1186 -0.6068 -10.8600 110.0000 0.0000 0.0000 27.3104 0.0000 0.0000 -24.8076 -0.9680 -10.3621 103.7195 0.0000 0.0000 35.2691 0.0000 0.0000 0.0000 0.0000 0.0000 0.0000 0.0000 0.0000 0.0000 0.0000 0.0000 0.0000 0.0000 0.0000 0.0000 0.0000 0.0000 0.0000 0.0000 0.0000
0.0000 95.0000 0.0000 0.0000 0.0000 0.0000 0.0000 0.0000 0.0000 0.0000 0.0000 0.0000 0.0000 0.0000 0.0000 0.0000 0.0000 0.0000 0.0000 0.0000 0.0000 0.0000 0.0000 0.0000 -75.3906 12.1605 15.6970 -6.2196 16.6509 -22.4117 24.2039 1.5096 -17.5091 84.6938 -16.7244 -1.2997 60.4060 0.0000 0.0000 27.1415 0.0000 0.0000 -15.5594 1.6379 -21.4542 110.0000 0.0000 0.0000 4.2802 0.0000 0.0000 -3.0101 -1.1246 -45.7381 100.9435 0.0000 0.0000 7.7878 0.0000 0.0000 -11.4991 -13.5843 -55.3247 101.1408 0.0000 0.0000 16.1669 0.0000 0.0000 -14.7474 -26.1617 -58.1410 91.7325 0.0000 0.0000 12.9315 0.0000 0.0000 0.0000 0.0000 0.0000 75.9700 -19.1576 24.3899 152.4343 72.8506 244.2831 -57.7507 32.4728 -76.8665 -57.1983 -11.3997 -5.2038 21.4353 0.0000 0.0000 17.1488 0.0000 0.0000 3.5141 0.6581 3.3263 104.0542 0.0000 0.0000 39.1457 0.0000 0.0000 -7.7048 0.8475 17.3077 110.0000 0.0000 0.0000 11.6599 0.0000 0.0000 -21.1293 0.0991 28.0531 110.0000 0.0000 0.0000 9.9981 0.0000 0.0000 -36.3596 -1.7968 40.1032 98.9821 0.0000 0.0000 11.9949 0.0000 0.0000 0.0000 0.0000 0.0000 0.0000 0.0000 0.0000 0.0000 0.0000 0.0000 0.0000 0.0000 0.0000 0.0000 0.0000 0.0000 0.0000 0.0000 0.0000
0.0000 95.0000 0.0000 0.0000 0.0000 0.0000 0.0000 0.0000 0.0000 0.0000 0.0000 0.0000 0.0000 0.0000 0.0000 0.0000 0.0000 0.0000 0.0000 0.0000 0.0000 0.0000 0.0000 0.0000 -74.2318 13.1831 17.3642 -6.4557 17.5757 -24.1375 26.0067 2.8353 -21.9721 87.2965 -16.9535 -2.8242 64.6149 0.0000 0.0000 30.5746 0.0000 0.0000 -12.4545 2.4053 -25.8266 109.0195 0.0000 0.0000 4.0682 0.0000 0.0000 2.2111 0.9565 -51.5539 88.1119 0.0000 0.0000 7.2955 0.0000 0.0000 -10.1225 -14.3300 -60.2968 91.3911 0.0000 0.0000 15.2934 0.0000 0.0000 -13.2700 -29.2715 -65.6871 79.9219 0.0000 0.0000 12.0220 0.0000 0.0000 0.0000 0.0000 0.0000 73.9849 -21.1151 27.7919 169.7730 65.6054 264.5323 -42.4201 27.6447 -64.3735 -56.4915 -11.7512 -1.7947 18.3274 0.0000 0.0000 11.2899 0.0000 0.0000 4.3782 0.7185 3.6581 48.7106 0.0000 0.0000 28.2598 0.0000 0.0000 -11.2773 1.4584 19.4626 110.0000 0.0000 0.0000 13.6693 0.0000 0.0000 -23.0860 0.4766 28.0661 110.0000 0.0000 0.0000 14.4946 0.0000 0.0000 -31.4984 -2.9015 27.6057 94.1966 0.0000 0.0000 16.4561 0.0000 0.0000 0.0000 0.0000 0.0000 0.0000 0.0000 0.0000 0.0000 0.0000 0.0000 0.0000 0.0000 0.0000 0.0000 0.0000 0.0000 0.0000 0.0000 0.0000
0.0000 95.0000 0.0000 0.0000 0.0000 0.0000 0.0000 0.0000 0.0000 0.0000 0.0000 0.0000 0.0000 0.0000 0.0000 0.0000 0.0000 0.0000 0.0000 0.0000 0.0000 0.0000 0.0000 0.0000 -74.9033 12.1825 15.8624 -5.2243 16.6121 -22.4239 32.6575 7.3318 -35.2163 89.8400 -16.7972 -6.5258 70.9586 0.0000 0.0000 41.5941 0.0000 0.0000 -3.5402 5.5906 -35.5682 80.6426 0.0000 0.0000 3.7895 0.0000 0.0000 11.5226 5.5939 -56.4457 62.2826 0.0000 0.0000 6.4070 0.0000 0.0000 -7.1136 -13.9686 -65.0021 72.4356 0.0000 0.0000 13.7079 0.0000 0.0000 -7.1562 -29.9091 -74.6804 60.6973 0.0000 0.0000 10.4419 0.0000 0.0000 0.0000 0.0000 0.0000 72.7269 -22.8616 30.7116 175.0556 61.2464 269.8374 -35.1299 30.7125 -70.2893 -57.1698 -11.7019 -3.0547 14.4566 0.0000 0.0000 3.5907 0.0000 0.0000 -2.4481 2.1227 10.9674 30.6551 0.0000 0.0000 17.1060 0.0000 0.0000 -33.3230 11.6810 42.5114 102.2271 0.0000 0.0000 14.6657 0.0000 0.0000 -46.5968 18.0924 69.0351 84.5192 0.0000 0.0000 17.5231 0.0000 0.0000 -61.1817 14.3919 70.8378 75.1630 0.0000 0.0000 21.3492 0.0000 0.0000 0.0000 0.0000 0.0000 0.0000 0.0000 0.0000 0.0000 0.0000 0.0000 0.0000 0.0000 0.0000 0.0000 0.0000 0.0000 0.0000 0.0000 0.0000
0.0000 95.0000 0.0000 0.0000 0.0000 0.0000 0.0000 0.0000 0.0000 0.0000 0.0000 0.0000 0.0000 0.0000 0.0000 0.0000 0.0000 0.0000 0.0000 0.0000 0.0000 0.0000 0.0000 0.0000 -75.2335 11.2386 14.5530 -4.7473 15.6669 -20.9889 36.3126 10.4110 -45.0884 88.6754 -16.4056 -8.4665 70.6933 0.0000 0.0000 51.0840 0.0000 0.0000 -0.1488 7.0587 -38.2531 65.1491 0.0000 0.0000 3.6815 0.0000 0.0000 13.0715 6.0333 -54.1751 51.4579 0.0000 0.0000 5.9948 0.0000 0.0000 -7.1702 -13.3788 -62.6289 63.8664 0.0000 0.0000 13.0036 0.0000 0.0000 -5.5644 -28.1347 -73.2612 53.2172 0.0000 0.0000 9.7502 0.0000 0.0000 0.0000 0.0000 0.0000 71.8109 -24.0453 32.7823 176.3895 58.5330 270.9950 -30.9807 33.0890 -58.5850 -61.1327 -12.9039 0.7186 20.9745 0.0000 0.0000 4.6698 0.0000 0.0000 -3.2917 2.4532 12.3124 26.5258 0.0000 0.0000 7.9721 0.0000 0.0000 -27.8259 11.7583 49.9161 92.7546 0.0000 0.0000 14.3373 0.0000 0.0000 -37.2352 15.1617 80.0647 72.7216 0.0000 0.0000 18.7324 0.0000 0.0000 -50.2802 10.7767 86.0464 62.2144 0.0000 0.0000 17.6286 0.0000 0.0000 0.0000 0.0000 0.0000 0.0000 0.0000 0.0000 0.0000 0.0000 0.0000 0.0000 0.0000 0.0000 0.0000 0.0000 0.0000 0.0000 0.0000 0.0000
0.0000 95.0000 0.0000 0.0000 0.0000 0.0000 0.0000 0.0000 0.0000 0.0000 0.0000 0.0000 0.0000 0.0000 0.0000 0.0000 0.0000 0.0000 0.0000 0.0000 0.0000 0.0000 0.0000 0.0000 -75.2788 10.3438 13.3879 -4.6144 14.7487 -19.7457 38.9671 13.7768 -57.7213 85.4913 -15.9128 -10.1769 64.5551 0.0000 0.0000 65.6921 0.0000 0.0000 0.3368 7.1843 -38.1364 51.6453 0.0000 0.0000 3.5777 0.0000 0.0000 11.5305 4.7274 -49.2451 42.5476 0.0000 0.0000 5.5969 0.0000 0.0000 -9.4340 -12.8865 -56.3654 56.1151 0.0000 0.0000 12.3623 0.0000 0.0000 -6.9652 -26.0210 -66.8277 46.8664 0.0000 0.0000 9.1110 0.0000 0.0000 0.0000 0.0000 0.0000 70.6989 -24.9894 34.6978 178.0716 56.7677 272.1634 -19.7057 20.8616 -38.2230 -60.8270 -14.0919 12.3829 10.6414 0.0000 0.0000 4.8434 0.0000 0.0000 -6.0441 6.5335 28.5019 20.6429 0.0000 0.0000 5.6958 0.0000 0.0000 -13.1209 11.2822 86.0894 55.6407 0.0000 0.0000 15.8405 0.0000 0.0000 -19.2524 2.4415 97.4004 55.1249 0.0000 0.0000 24.1014 0.0000 0.0000 -29.3875 -7.5564 103.4646 42.2029 0.0000 0.0000 26.1203 0.0000 0.0000 0.0000 0.0000 0.0000 0.0000 0.0000 0.0000 0.0000 0.0000 0.0000 0.0000 0.0000 0.0000 0.0000 0.0000 0.0000 0.0000 0.0000 0.0000
0.0000 95.0000 0.0000 0.0000 0.0000 0.0000 0.0000 0.0000 0.0000 0.0000 0.0000 0.0000 0.0000 0.0000 0.0000 0.0000 0.0000 0.0000 0.0000 0.0000 0.0000 0.0000 0.0000 0.0000 -74.4090 11.1223 14.6171 -5.1555 15.4645 -21.0699 39.2515 16.3095 -72.7664 80.7693 -15.4444 -11.3384 49.5357 0.0000 0.0000 85.4913 0.0000 0.0000 -1.9370 6.0180 -35.4578 40.9897 0.0000 0.0000 3.4714 0.0000 0.0000 7.7595 2.6460 -42.3829 35.3628 0.0000 0.0000 5.2103 0.0000 0.0000 -13.5537 -12.0111 -46.9247 49.1906 0.0000 0.0000 11.7854 0.0000 0.0000 -11.3005 -23.5053 -56.3713 41.4129 0.0000 0.0000 8.5169 0.0000 0.0000 0.0000 0.0000 0.0000 70.0937 -25.5440 35.8186 180.6370 56.3062 273.7461 -29.2710 30.4837 -61.7860 -57.5776 -11.9364 -1.9641 15.7583 0.0000 0.0000 3.4867 0.0000 0.0000 -2.0596 2.6091 13.4948 30.6888 0.0000 0.0000 17.9601 0.0000 0.0000 -39.4673 23.0852 64.0801 76.7366 0.0000 0.0000 18.3182 0.0000 0.0000 -45.2074 21.7667 81.2395 70.7074 0.0000 0.0000 23.7905 0.0000 0.0000 -58.6150 17.1812 84.6280 64.2078 0.0000 0.0000 29.1522 0.0000 0.0000 0.0000 0.0000 0.0000 0.0000 0.0000 0.0000 0.0000 0.0000 0.0000 0.0000 0.0000 0.0000 0.0000 0.0000 0.0000 0.0000 0.0000 0.0000
0.0000 95.0000 0.0000 0.0000 0.0000 0.0000 0.0000 0.0000 0.0000 0.0000 0.0000 0.0000 0.0000 0.0000 0.0000 0.0000 0.0000 0.0000 0.0000 0.0000 0.0000 0.0000 0.0000 0.0000 -73.6617 12.1139 16.1280 -5.7891 16.4104 -22.7074 33.2631 18.3370 -102.8297 70.8362 -14.7150 -11.1509 30.8510 0.0000 0.0000 85.9950 0.0000 0.0000 -7.5261 3.3637 -26.2276 26.8438 0.0000 0.0000 3.2382 0.0000 0.0000 1.3886 0.2769 -27.3270 24.8774 0.0000 0.0000 4.4641 0.0000 0.0000 -19.7107 -7.4935 -26.6635 37.5391 0.0000 0.0000 10.8267 0.0000 0.0000 -19.7536 -15.6518 -33.8674 32.4712 0.0000 0.0000 7.4497 0.0000 0.0000 0.0000 0.0000 0.0000 69.2733 -25.5997 36.4103 184.3226 56.9841 276.4502 -30.3380 30.4805 -66.2155 -55.7235 -11.2348 -4.1520 10.0839 0.0000 0.0000 7.3385 0.0000 0.0000 -2.3657 2.3507 12.1105 27.4885 0.0000 0.0000 12.2837 0.0000 0.0000 -37.1111 20.0276 60.2637 90.2628 0.0000 0.0000 16.7200 0.0000 0.0000 -44.6509 17.7244 71.5480 86.0118 0.0000 0.0000 20.5440 0.0000 0.0000 -58.1078 9.8916 61.6992 85.7930 0.0000 0.0000 23.5950 0.0000 0.0000 0.0000 0.0000 0.0000 0.0000 0.0000 0.0000 0.0000 0.0000 0.0000 0.0000 0.0000 0.0000 0.0000 0.0000 0.0000 0.0000 0.0000 0.0000
0.0000 95.0000 0.0000 0.0000 0.0000 0.0000 0.0000 0.0000 0.0000 0.0000 0.0000 0.0000 0.0000 0.0000 0.0000 0.0000 0.0000 0.0000 0.0000 0.0000 0.0000 0.0000 0.0000 0.0000 -73.1811 12.9803 17.4236 -6.2065 17.2491 -24.0984 29.1359 17.7295 -114.4655 66.9127 -14.3658 -10.0994 30.2784 0.0000 0.0000 68.1938 0.0000 0.0000 -8.6790 2.6836 -21.9074 22.1899 0.0000 0.0000 3.1088 0.0000 0.0000 0.6227 0.0909 -21.3872 21.0100 0.0000 0.0000 4.1038 0.0000 0.0000 -19.7912 -5.0165 -19.0741 32.6166 0.0000 0.0000 10.4435 0.0000 0.0000 -20.9161 -11.5672 -25.5238 28.7230 0.0000 0.0000 6.9801 0.0000 0.0000 0.0000 0.0000 0.0000 68.9219 -25.3063 36.2287 187.1801 58.0063 278.7845 -33.1752 31.5165 -67.1477 -59.8129 -12.4280 -1.4491 19.2600 0.0000 0.0000 17.6520 0.0000 0.0000 -6.6219 3.9202 17.4266 26.1147 0.0000 0.0000 10.0738 0.0000 0.0000 -44.8664 23.8740 59.0031 81.2270 0.0000 0.0000 16.9905 0.0000 0.0000 -52.2125 24.4989 75.2457 74.1568 0.0000 0.0000 22.9529 0.0000 0.0000 -68.6254 17.2028 65.9311 75.9880 0.0000 0.0000 26.6255 0.0000 0.0000 0.0000 0.0000 0.0000 0.0000 0.0000 0.0000 0.0000 0.0000 0.0000 0.0000 0.0000 0.0000 0.0000 0.0000 0.0000 0.0000 0.0000 0.0000
0.0000 95.0000 0.0000 0.0000 0.0000 0.0000 0.0000 0.0000 0.0000 0.0000 0.0000 0.0000 0.0000 0.0000 0.0000 0.0000 0.0000 0.0000 0.0000 0.0000 0.0000 0.0000 0.0000 0.0000 -76.3978 4.7322 6.0116 -1.9391 9.4094 -12.2065 25.3331 16.8112 -123.4662 63.7156 -13.9947 -8.8328 29.3771 0.0000 0.0000 52.6670 0.0000 0.0000 -8.9270 2.2918 -18.4873 18.5518 0.0000 0.0000 2.9710 0.0000 0.0000 0.9354 0.0998 -16.9492 17.7847 0.0000 0.0000 3.7529 0.0000 0.0000 -18.6250 -3.1251 -13.4964 28.1696 0.0000 0.0000 10.1226 0.0000 0.0000 -20.5618 -8.2726 -19.3046 25.3400 0.0000 0.0000 6.5640 0.0000 0.0000 0.0000 0.0000 0.0000 68.4438 -24.6147 35.5687 191.2210 59.2555 282.6326 -34.3784 31.0415 -71.3723 -57.0786 -11.4303 -4.8085 13.5294 0.0000 0.0000 23.9302 0.0000 0.0000 4.4329 1.3369 8.0158 29.7270 0.0000 0.0000 14.0926 0.0000 0.0000 -24.9111 8.3406 41.3088 110.0000 0.0000 0.0000 13.2387 0.0000 0.0000 -40.3925 12.0647 61.6378 97.7672 0.0000 0.0000 16.8636 0.0000 0.0000 -62.0609 11.9357 61.5295 86.4959 0.0000 0.0000 17.9038 0.0000 0.0000 0.0000 0.0000 0.0000 0.0000 0.0000 0.0000 0.0000 0.0000 0.0000 0.0000 0.0000 0.0000 0.0000 0.0000 0.0000 0.0000 0.0000 0.0000
0.0000 95.0000 0.0000 0.0000 0.0000 0.0000 0.0000 0.0000 0.0000 0.0000 0.0000 0.0000 0.0000 0.0000 0.0000 0.0000 0.0000 0.0000 0.0000 0.0000 0.0000 0.0000 0.0000 0.0000 -76.3685 4.7328 6.0156 -2.1837 9.4296 -12.2674 19.2829 15.0923 -135.5183 58.7956 -13.2168 -6.3562 26.3343 0.0000 0.0000 33.3673 0.0000 0.0000 -8.2712 1.8829 -14.0082 13.2678 0.0000 0.0000 2.6725 0.0000 0.0000 2.7036 0.1582 -11.4687 12.7435 0.0000 0.0000 3.0883 0.0000 0.0000 -15.1660 -0.9827 -6.6608 20.4014 0.0000 0.0000 9.6610 0.0000 0.0000 -18.0888 -4.0380 -11.2635 19.4748 0.0000 0.0000 5.9578 0.0000 0.0000 0.0000 0.0000 0.0000 67.2266 -22.5103 33.3330 201.3817 62.4920 292.8468 -44.7549 44.3001 -78.0549 -55.4193 -10.6979 -7.0821 22.5224 0.0000 0.0000 20.6683 0.0000 0.0000 10.5436 1.6360 13.2474 110.0000 0.0000 0.0000 7.3850 0.0000 0.0000 -2.7628 0.6587 31.5875 110.0000 0.0000 0.0000 8.4552 0.0000 0.0000 -16.9066 -0.5579 45.8365 110.0000 0.0000 0.0000 11.0299 0.0000 0.0000 -40.0320 -0.7324 40.2422 110.0000 0.0000 0.0000 11.8760 0.0000 0.0000 0.0000 0.0000 0.0000 0.0000 0.0000 0.0000 0.0000 0.0000 0.0000 0.0000 0.0000 0.0000 0.0000 0.0000 0.0000 0.0000 0.0000 0.0000
0.0000 95.0000 0.0000 0.0000 0.0000 0.0000 0.0000 0.0000 0.0000 0.0000 0.0000 0.0000 0.0000 0.0000 0.0000 0.0000 0.0000 0.0000 0.0000 0.0000 0.0000 0.0000 0.0000 0.0000 -76.4232 4.7424 6.0219 -2.3774 9.4547 -12.3103 16.8987 14.4103 -139.5931 56.8290 -12.8305 -5.2740 24.6297 0.0000 0.0000 27.6303 0.0000 0.0000 -7.7901 1.7613 -12.5879 11.2910 0.0000 0.0000 2.5136 0.0000 0.0000 3.6528 0.1614 -9.8293 10.7593 0.0000 0.0000 2.7818 0.0000 0.0000 -13.4722 -0.4427 -4.6270 16.9710 0.0000 0.0000 9.5182 0.0000 0.0000 -16.6833 -2.7530 -8.6511 16.9497 0.0000 0.0000 5.8106 0.0000 0.0000 0.0000 0.0000 0.0000 66.3700 -21.0507 31.7186 211.2193 64.2898 302.2748 -34.8830 22.4207 -60.1258 -55.9035 -11.2288 -4.4392 17.8585 0.0000 0.0000 12.5789 0.0000 0.0000 20.1746 0.9525 15.9086 56.7011 0.0000 0.0000 34.2839 0.0000 0.0000 -0.7743 0.1078 20.6286 92.7312 0.0000 0.0000 23.8071 0.0000 0.0000 -7.8512 -8.9032 95.5427 60.4220 0.0000 0.0000 7.9949 0.0000 0.0000 -21.5049 -18.0248 110.8710 46.3628 0.0000 0.0000 6.0186 0.0000 0.0000 0.0000 0.0000 0.0000 0.0000 0.0000 0.0000 0.0000 0.0000 0.0000 0.0000 0.0000 0.0000 0.0000 0.0000 0.0000 0.0000 0.0000 0.0000
0.0000 95.0000 0.0000 0.0000 0.0000 0.0000 0.0000 0.0000 0.0000 0.0000 0.0000 0.0000 0.0000 0.0000 0.0000 0.0000 0.0000 0.0000 0.0000 0.0000 0.0000 0.0000 0.0000 0.0000 -76.2891 4.7341 6.0259 -2.5702 9.4454 -12.3502 15.0390 13.6919 -142.8020 55.0980 -12.4558 -4.3117 22.9631 0.0000 0.0000 23.3838 0.0000 0.0000 -7.3204 1.6679 -11.5173 9.6189 0.0000 0.0000 2.3495 0.0000 0.0000 4.5264 0.1529 -8.6405 9.0649 0.0000 0.0000 2.5003 0.0000 0.0000 -11.9304 -0.1025 -3.1612 13.8025 0.0000 0.0000 9.4340 0.0000 0.0000 -15.3480 -1.8170 -6.6324 14.7044 0.0000 0.0000 5.7963 0.0000 0.0000 0.0000 0.0000 0.0000 66.3988 -20.1128 30.3274 220.0890 64.6542 310.3491 -33.3211 7.4916 -49.4172 -53.8555 -11.0742 -2.7606 11.5307 0.0000 0.0000 3.2394 0.0000 0.0000 10.5549 0.8492 4.2887 40.8758 0.0000 0.0000 24.4953 0.0000 0.0000 -3.5000 0.5773 23.4995 104.1406 0.0000 0.0000 18.0956 0.0000 0.0000 -17.2920 -0.1207 67.2149 68.2072 0.0000 0.0000 16.0065 0.0000 0.0000 -38.4633 0.5351 76.2181 36.3401 0.0000 0.0000 9.2572 0.0000 0.0000 0.0000 0.0000 0.0000 0.0000 0.0000 0.0000 0.0000 0.0000 0.0000 0.0000 0.0000 0.0000 0.0000 0.0000 0.0000 0.0000 0.0000 0.0000
0.0000 95.0000 0.0000 0.0000 0.0000 0.0000 0.0000 0.0000 0.0000 0.0000 0.0000 0.0000 0.0000 0.0000 0.0000 0.0000 0.0000 0.0000 0.0000 0.0000 0.0000 0.0000 0.0000 0.0000 -76.7423 4.7635 6.0142 -1.7140 9.5561 -12.2977 13.8795 12.8114 -145.3284 53.5611 -12.0973 -3.4616 21.3828 0.0000 0.0000 20.1457 0.0000 0.0000 -6.8883 1.5942 -10.6986 8.1853 0.0000 0.0000 2.1813 0.0000 0.0000 5.3055 0.1389 -7.7687 7.6365 0.0000 0.0000 2.2526 0.0000 0.0000 -10.5535 0.1086 -2.0964 10.9014 0.0000 0.0000 9.4096 0.0000 0.0000 -14.1212 -1.1263 -5.0461 12.7771 0.0000 0.0000 5.9288 0.0000 0.0000 0.0000 0.0000 0.0000 67.4634 -19.4577 28.8017 224.3653 63.3374 314.6213 -48.1925 -45.1797 8.7845 -41.1148 -9.8293 2.0852 13.2738 0.0000 0.0000 7.1300 0.0000 0.0000 7.0594 -0.3955 -5.9903 11.8189 0.0000 0.0000 3.1718 0.0000 0.0000 10.4001 -1.2390 18.3225 50.8419 0.0000 0.0000 37.2406 0.0000 0.0000 13.0744 -9.0545 37.1568 31.1195 0.0000 0.0000 26.3005 0.0000 0.0000 3.7801 -14.2568 41.7711 15.9241 0.0000 0.0000 36.3819 0.0000 0.0000 0.0000 0.0000 0.0000 0.0000 0.0000 0.0000 0.0000 0.0000 0.0000 0.0000 0.0000 0.0000 0.0000 0.0000 0.0000 0.0000 0.0000 0.0000
0.0000 95.0000 0.0000 0.0000 0.0000 0.0000 0.0000 0.0000 0.0000 0.0000 0.0000 0.0000 0.0000 0.0000 0.0000 0.0000 0.0000 0.0000 0.0000 0.0000 0.0000 0.0000 0.0000 0.0000 -73.2783 13.0477 17.4830 -5.7905 17.4165 -24.2515 11.8750 11.5157 -149.1999 50.9556 -11.4371 -2.0500 18.5465 0.0000 0.0000 15.5827 0.0000 0.0000 -6.1596 1.4869 -9.5625 5.8625 0.0000 0.0000 1.8362 0.0000 0.0000 6.5910 0.1076 -6.6396 5.5804 0.0000 0.0000 1.9056 0.0000 0.0000 -8.2513 0.3099 -0.7458 6.2954 0.0000 0.0000 9.5500 0.0000 0.0000 -12.0113 -0.2168 -2.7545 10.1767 0.0000 0.0000 6.6364 0.0000 0.0000 0.0000 0.0000 0.0000 70.6506 -19.4074 27.1307 221.8809 59.8420 313.0937 -120.5960 -50.2489 102.9079 -43.9464 -9.5323 -0.8273 13.8175 0.0000 0.0000 11.4031 0.0000 0.0000 -18.6135 -5.5467 -12.9712 0.6571 0.0000 0.0000 8.9341 0.0000 0.0000 -1.4069 0.0178 6.2236 8.2302 0.0000 0.0000 1.4541 0.0000 0.0000 0.3335 -1.2990 9.1850 5.4114 0.0000 0.0000 7.2345 0.0000 0.0000 -13.3695 -3.4135 13.2489 19.4262 0.0000 0.0000 8.7512 0.0000 0.0000 0.0000 0.0000 0.0000 0.0000 0.0000 0.0000 0.0000 0.0000 0.0000 0.0000 0.0000 0.0000 0.0000 0.0000 0.0000 0.0000 0.0000 0.0000
0.0000 95.0000 0.0000 0.0000 0.0000 0.0000 0.0000 0.0000 0.0000 0.0000 0.0000 0.0000 0.0000 0.0000 0.0000 0.0000 0.0000 0.0000 0.0000 0.0000 0.0000 0.0000 0.0000 0.0000 -72.9890 12.7013 17.1106 -6.1608 17.0207 -23.8749 10.8331 11.0941 -150.7408 49.8444 -11.1366 -1.4640 17.2928 0.0000 0.0000 13.9288 0.0000 0.0000 -5.8589 1.4474 -9.1633 4.9199 0.0000 0.0000 1.6610 0.0000 0.0000 7.1162 0.0935 -6.2762 4.9921 0.0000 0.0000 1.8324 0.0000 0.0000 -7.2921 0.3480 -0.3250 5.2436 0.0000 0.0000 9.7215 0.0000 0.0000 -11.1133 0.0851 -1.9132 9.6856 0.0000 0.0000 7.1879 0.0000 0.0000 0.0000 0.0000 0.0000 72.2157 -19.8256 26.9464 218.8849 58.4985 310.3952 -121.1344 -49.8170 104.9036 -55.3820 -11.4023 -2.6432 6.0462 0.0000 0.0000 6.8005 0.0000 0.0000 -12.8280 -3.6402 -10.0575 1.2950 0.0000 0.0000 9.2764 0.0000 0.0000 1.2261 -0.0312 7.6830 5.5656 0.0000 0.0000 1.3257 0.0000 0.0000 -2.7445 -1.1773 8.8095 2.8741 0.0000 0.0000 4.2903 0.0000 0.0000 -15.6404 -3.0255 11.5071 11.5735 0.0000 0.0000 3.6991 0.0000 0.0000 0.0000 0.0000 0.0000 0.0000 0.0000 0.0000 0.0000 0.0000 0.0000 0.0000 0.0000 0.0000 0.0000 0.0000 0.0000 0.0000 0.0000 0.0000
0.0000 95.0000 0.0000 0.0000 0.0000 0.0000 0.0000 0.0000 0.0000 0.0000 0.0000 0.0000 0.0000 0.0000 0.0000 0.0000 0.0000 0.0000 0.0000 0.0000 0.0000 0.0000 0.0000 0.0000 -72.5209 13.1591 17.8728 -6.3988 17.4325 -24.6694 14.6384 6.8913 -153.4490 42.1846 -9.2899 0.4716 17.4766 0.0000 0.0000 11.7572 0.0000 0.0000 -17.3818 0.9879 -7.6601 6.8946 0.0000 0.0000 4.8566 0.0000 0.0000 4.9118 0.0755 -6.5328 4.2664 0.0000 0.0000 2.8339 0.0000 0.0000 5.8621 -0.5873 -2.9201 5.4019 0.0000 0.0000 5.1999 0.0000 0.0000 0.3677 -0.6823 -2.1531 4.8703 0.0000 0.0000 4.5995 0.0000 0.0000 0.0000 0.0000 0.0000 73.0163 -20.7110 27.7351 216.7072 59.9382 306.8755 -118.5332 -49.4320 102.1142 -66.4183 -13.5263 -3.6387 3.3133 0.0000 0.0000 8.1761 0.0000 0.0000 -4.7931 -1.6488 -6.3165 1.9509 0.0000 0.0000 8.8798 0.0000 0.0000 4.6798 -0.1880 9.3699 2.6560 0.0000 0.0000 1.4768 0.0000 0.0000 -6.5119 -1.0711 8.5237 0.5902 0.0000 0.0000 2.6798 0.0000 0.0000 -18.2876 -2.6921 9.6863 6.0080 0.0000 0.0000 1.7533 0.0000 0.0000 0.0000 0.0000 0.0000 0.0000 0.0000 0.0000 0.0000 0.0000 0.0000 0.0000 0.0000 0.0000 0.0000 0.0000 0.0000 0.0000 0.0000 0.0000
0.0000 95.0000 0.0000 0.0000 0.0000 0.0000 0.0000 0.0000 0.0000 0.0000 0.0000 0.0000 0.0000 0.0000 0.0000 0.0000 0.0000 0.0000 0.0000 0.0000 0.0000 0.0000 0.0000 0.0000 -75.9048 4.7111 6.0381 -2.0675 9.4201 -12.3454 18.1274 -2.3404 -158.5085 33.0057 -6.3363 3.4875 17.0985 0.0000 0.0000 9.3318 0.0000 0.0000 -33.0445 1.2705 -1.7866 15.5350 0.0000 0.0000 11.8950 0.0000 0.0000 1.7576 0.0288 -6.6488 4.3349 0.0000 0.0000 4.7847 0.0000 0.0000 12.2911 -0.8680 -5.6784 7.5496 0.0000 0.0000 2.9002 0.0000 0.0000 10.0351 -1.3500 -2.7971 2.5086 0.0000 0.0000 2.3254 0.0000 0.0000 0.0000 0.0000 0.0000 73.7078 -21.3424 28.2221 216.1303 60.9815 305.0009 -119.9562 -48.2069 103.2294 -65.4674 -13.4378 -2.0770 2.3294 0.0000 0.0000 7.0474 0.0000 0.0000 -6.9152 -1.6171 -5.2858 2.0945 0.0000 0.0000 8.7895 0.0000 0.0000 4.1239 -0.1501 8.9384 3.3371 0.0000 0.0000 1.7920 0.0000 0.0000 -6.0362 -1.0781 8.4983 0.7849 0.0000 0.0000 2.9519 0.0000 0.0000 -17.6276 -2.7487 10.0120 6.2737 0.0000 0.0000 1.7204 0.0000 0.0000 0.0000 0.0000 0.0000 0.0000 0.0000 0.0000 0.0000 0.0000 0.0000 0.0000 0.0000 0.0000 0.0000 0.0000 0.0000 0.0000 0.0000 0.0000
0.0000 95.0000 0.0000 0.0000 0.0000 0.0000 0.0000 0.0000 0.0000 0.0000 0.0000 0.0000 0.0000 0.0000 0.0000 0.0000 0.0000 0.0000 0.0000 0.0000 0.0000 0.0000 0.0000 0.0000 -75.9491 4.7148 6.0381 -1.6369 9.4488 -12.3246 6.7694 9.3275 -147.7279 53.2305 -12.4026 -5.4873 14.3244 0.0000 0.0000 9.0759 0.0000 0.0000 -25.7503 0.6734 -10.3745 13.1920 0.0000 0.0000 3.3555 0.0000 0.0000 7.1357 0.5082 -12.9092 4.7526 0.0000 0.0000 2.0573 0.0000 0.0000 13.1916 -1.0609 -13.3713 4.7516 0.0000 0.0000 0.8078 0.0000 0.0000 1.1201 -3.6593 -12.0899 5.8336 0.0000 0.0000 1.3592 0.0000 0.0000 0.0000 0.0000 0.0000 75.5215 -21.4944 27.5372 215.9924 58.5873 305.0570 -127.0667 -44.9951 113.2155 -63.2979 -13.2666 0.7351 0.5086 0.0000 0.0000 5.1274 0.0000 0.0000 -10.3006 -1.2233 -2.6931 2.2740 0.0000 0.0000 8.9283 0.0000 0.0000 3.2874 -0.1035 8.3788 4.6917 0.0000 0.0000 2.4663 0.0000 0.0000 -4.9444 -1.0913 8.4186 1.1961 0.0000 0.0000 3.4736 0.0000 0.0000 -16.1387 -2.8570 10.5343 6.8739 0.0000 0.0000 1.7912 0.0000 0.0000 0.0000 0.0000 0.0000 0.0000 0.0000 0.0000 0.0000 0.0000 0.0000 0.0000 0.0000 0.0000 0.0000 0.0000 0.0000 0.0000 0.0000 0.0000
0.0000 95.0000 0.0000 0.0000 0.0000 0.0000 0.0000 0.0000 0.0000 0.0000 0.0000 0.0000 0.0000 0.0000 0.0000 0.0000 0.0000 0.0000 0.0000 0.0000 0.0000 0.0000 0.0000 0.0000 -75.7702 4.7246 6.0700 -1.7287 9.4481 -12.3737 8.9774 12.5928 -143.2779 50.8709 -12.2597 -6.3103 13.7346 0.0000 0.0000 9.8871 0.0000 0.0000 -0.0765 1.7526 -9.6717 4.1939 0.0000 0.0000 2.6980 0.0000 0.0000 12.7525 0.5889 -10.0383 3.6479 0.0000 0.0000 0.7782 0.0000 0.0000 4.2264 -1.2085 -9.4284 3.7796 0.0000 0.0000 3.3852 0.0000 0.0000 -6.1130 -2.3583 -7.7502 5.1278 0.0000 0.0000 7.5575 0.0000 0.0000 0.0000 0.0000 0.0000 75.8946 -22.0639 28.0735 215.8630 58.4585 304.0891 -129.5550 -43.4565 116.0147 -62.0956 -13.1843 1.9568 0.6411 0.0000 0.0000 4.3346 0.0000 0.0000 -11.5801 -0.8880 -1.2113 2.3265 0.0000 0.0000 9.0914 0.0000 0.0000 2.9977 -0.0903 8.2230 5.2926 0.0000 0.0000 2.8076 0.0000 0.0000 -4.3433 -1.0954 8.3499 1.3962 0.0000 0.0000 3.7238 0.0000 0.0000 -15.3263 -2.9058 10.7209 7.2078 0.0000 0.0000 1.8950 0.0000 0.0000 0.0000 0.0000 0.0000 0.0000 0.0000 0.0000 0.0000 0.0000 0.0000 0.0000 0.0000 0.0000 0.0000 0.0000 0.0000 0.0000 0.0000 0.0000
0.0000 95.0000 0.0000 0.0000 0.0000 0.0000 0.0000 0.0000 0.0000 0.0000 0.0000 0.0000 0.0000 0.0000 0.0000 0.0000 0.0000 0.0000 0.0000 0.0000 0.0000 0.0000 0.0000 0.0000 -75.7092 4.7376 6.0934 -1.8244 9.4600 -12.4137 9.0640 12.0825 -143.7944 51.3393 -12.2594 -6.0100 13.7067 0.0000 0.0000 9.9727 0.0000 0.0000 -3.1974 1.6253 -9.6877 4.2013 0.0000 0.0000 2.6508 0.0000 0.0000 12.3670 0.6204 -10.4934 3.7781 0.0000 0.0000 0.5516 0.0000 0.0000 7.2028 -1.1847 -10.1766 2.8980 0.0000 0.0000 2.6713 0.0000 0.0000 -3.5288 -2.7390 -8.8493 4.7614 0.0000 0.0000 6.4819 0.0000 0.0000 0.0000 0.0000 0.0000 76.1845 -22.1791 28.0770 212.7501 59.3150 301.2502 -132.5892 -42.4415 117.8757 -60.8305 -13.1031 3.0411 1.4965 0.0000 0.0000 3.6550 0.0000 0.0000 -12.5984 -0.4833 0.3467 2.3630 0.0000 0.0000 9.2861 0.0000 0.0000 2.7866 -0.0818 8.1321 5.8332 0.0000 0.0000 3.1461 0.0000 0.0000 -3.7162 -1.0964 8.2554 1.5906 0.0000 0.0000 3.9673 0.0000 0.0000 -14.4813 -2.9489 10.8536 7.5644 0.0000 0.0000 2.0397 0.0000 0.0000 0.0000 0.0000 0.0000 0.0000 0.0000 0.0000 0.0000 0.0000 0.0000 0.0000 0.0000 0.0000 0.0000 0.0000 0.0000 0.0000 0.0000 0.0000
0.0000 95.0000 0.0000 0.0000 0.0000 0.0000 0.0000 0.0000 0.0000 0.0000 0.0000 0.0000 0.0000 0.0000 0.0000 0.0000 0.0000 0.0000 0.0000 0.0000 0.0000 0.0000 0.0000 0.0000 -75.4518 4.7352 6.1185 -2.3203 9.4153 -12.4684 8.9677 11.6322 -144.3623 51.8275 -12.2682 -5.7325 13.6747 0.0000 0.0000 10.0623 0.0000 0.0000 -6.7915 1.4738 -9.6634 4.2131 0.0000 0.0000 2.7118 0.0000 0.0000 11.9607 0.6464 -10.9361 3.9308 0.0000 0.0000 0.7133 0.0000 0.0000 9.8254 -1.1321 -10.8435 3.3113 0.0000 0.0000 2.3237 0.0000 0.0000 -1.0716 -3.0521 -9.9006 4.4957 0.0000 0.0000 5.4694 0.0000 0.0000 0.0000 0.0000 0.0000 76.0803 -22.3470 28.3372 211.7727 59.3254 300.3012 -135.9553 -47.4405 115.2766 -52.1650 -11.5932 1.8464 5.2075 0.0000 0.0000 6.0942 0.0000 0.0000 -3.9356 0.7696 4.3698 7.3270 0.0000 0.0000 8.2544 0.0000 0.0000 7.8350 -0.5306 12.5088 5.2499 0.0000 0.0000 2.2230 0.0000 0.0000 -3.2465 -1.6053 12.7372 3.5413 0.0000 0.0000 2.5622 0.0000 0.0000 -18.4097 -3.3021 14.1461 4.7568 0.0000 0.0000 1.4928 0.0000 0.0000 0.0000 0.0000 0.0000 0.0000 0.0000 0.0000 0.0000 0.0000 0.0000 0.0000 0.0000 0.0000 0.0000 0.0000 0.0000 0.0000 0.0000 0.0000
0.0000 95.0000 0.0000 0.0000 0.0000 0.0000 0.0000 0.0000 0.0000 0.0000 0.0000 0.0000 0.0000 0.0000 0.0000 0.0000 0.0000 0.0000 0.0000 0.0000 0.0000 0.0000 0.0000 0.0000 -75.6560 4.7613 6.1297 -1.8360 9.4717 -12.4417 9.4166 10.1535 -145.4554 52.8598 -12.3161 -5.2676 13.5969 0.0000 0.0000 10.2545 0.0000 0.0000 -15.8265 1.0947 -9.3781 4.2602 0.0000 0.0000 4.0674 0.0000 0.0000 11.0751 0.6810 -11.7878 4.2888 0.0000 0.0000 1.4703 0.0000 0.0000 14.1241 -0.9809 -11.9867 4.6983 0.0000 0.0000 2.0635 0.0000 0.0000 3.3957 -3.5024 -11.8336 4.2932 0.0000 0.0000 3.6896 0.0000 0.0000 0.0000 0.0000 0.0000 76.5022 -22.7328 28.6100 212.8733 59.1496 300.5189 -150.1372 -29.6190 129.6575 -18.4096 -2.5517 -3.7465 5.0869 0.0000 0.0000 4.4805 0.0000 0.0000 0.0084 1.7566 9.6783 4.2041 0.0000 0.0000 7.0987 0.0000 0.0000 12.7206 -0.4719 9.0035 3.4766 0.0000 0.0000 1.4625 0.0000 0.0000 2.6073 -1.2951 8.8059 2.7052 0.0000 0.0000 1.1902 0.0000 0.0000 -27.1566 -2.8340 14.1853 1.9207 0.0000 0.0000 1.0485 0.0000 0.0000 0.0000 0.0000 0.0000 0.0000 0.0000 0.0000 0.0000 0.0000 0.0000 0.0000 0.0000 0.0000 0.0000 0.0000 0.0000 0.0000 0.0000 0.0000
0.0000 95.0000 0.0000 0.0000 0.0000 0.0000 0.0000 0.0000 0.0000 0.0000 0.0000 0.0000 0.0000 0.0000 0.0000 0.0000 0.0000 0.0000 0.0000 0.0000 0.0000 0.0000 0.0000 0.0000 -75.7106 4.7635 6.1265 -1.5238 9.4984 -12.4294 9.7481 9.2515 -146.0119 53.4000 -12.3567 -5.0954 13.5504 0.0000 0.0000 10.3572 0.0000 0.0000 -21.5197 0.8819 -9.0197 4.3136 0.0000 0.0000 5.8008 0.0000 0.0000 10.5878 0.6892 -12.1991 4.4876 0.0000 0.0000 1.8702 0.0000 0.0000 15.8538 -0.8959 -12.4908 5.1982 0.0000 0.0000 1.9908 0.0000 0.0000 5.3800 -3.6554 -12.7077 4.3406 0.0000 0.0000 2.9477 0.0000 0.0000 0.0000 0.0000 0.0000 77.0886 -22.8021 28.4079 211.4822 58.1719 299.6167 -139.7653 -46.5811 123.5436 -62.0077 -13.5817 6.2188 6.2379 0.0000 0.0000 2.9220 0.0000 0.0000 -12.0833 -0.1905 1.2666 6.3903 0.0000 0.0000 8.9937 0.0000 0.0000 3.6009 -0.2336 12.1923 5.0559 0.0000 0.0000 2.4416 0.0000 0.0000 -0.3261 -1.8105 13.0210 3.8030 0.0000 0.0000 3.5426 0.0000 0.0000 -14.3683 -3.9019 16.3319 11.1034 0.0000 0.0000 1.3485 0.0000 0.0000 0.0000 0.0000 0.0000 0.0000 0.0000 0.0000 0.0000 0.0000 0.0000 0.0000 0.0000 0.0000 0.0000 0.0000 0.0000 0.0000 0.0000 0.0000
0.0000 95.0000 0.0000 0.0000 0.0000 0.0000 0.0000 0.0000 0.0000 0.0000 0.0000 0.0000 0.0000 0.0000 0.0000 0.0000 0.0000 0.0000 0.0000 0.0000 0.0000 0.0000 0.0000 0.0000 -75.3024 4.7352 6.1351 -2.0007 9.4137 -12.4630 9.7861 8.4062 -146.6448 53.9514 -12.4094 -4.9778 13.4983 0.0000 0.0000 10.4646 0.0000 0.0000 -28.1660 0.6909 -8.4138 4.4223 0.0000 0.0000 8.3955 0.0000 0.0000 10.0624 0.6905 -12.6031 4.6961 0.0000 0.0000 2.2610 0.0000 0.0000 17.3329 -0.8106 -12.9699 5.5643 0.0000 0.0000 1.9230 0.0000 0.0000 7.1829 -3.7711 -13.5183 4.4625 0.0000 0.0000 2.3267 0.0000 0.0000 0.0000 0.0000 0.0000 76.8570 -22.9272 28.6753 211.3495 57.7373 299.5651 -144.0884 -45.5041 128.1110 -47.6510 -11.6183 5.2129 5.5131 0.0000 0.0000 3.4509 0.0000 0.0000 -11.6860 0.9545 5.1760 6.7531 0.0000 0.0000 9.1864 0.0000 0.0000 6.6856 -0.5108 13.5005 5.7823 0.0000 0.0000 1.8166 0.0000 0.0000 -0.0107 -2.0936 14.8969 3.9964 0.0000 0.0000 3.0224 0.0000 0.0000 -16.6285 -4.1696 19.1630 9.4837 0.0000 0.0000 1.0666 0.0000 0.0000 0.0000 0.0000 0.0000 0.0000 0.0000 0.0000 0.0000 0.0000 0.0000 0.0000 0.0000 0.0000 0.0000 0.0000 0.0000 0.0000 0.0000 0.0000
0.0000 95.0000 0.0000 0.0000 0.0000 0.0000 0.0000 0.0000 0.0000 0.0000 0.0000 0.0000 0.0000 0.0000 0.0000 0.0000 0.0000 0.0000 0.0000 0.0000 0.0000 0.0000 0.0000 0.0000 -74.9814 4.7048 6.1311 -2.4436 9.3286 -12.4721 11.7591 2.0344 -148.3180 52.1804 -12.1945 -5.0877 15.8977 0.0000 0.0000 11.6870 0.0000 0.0000 -27.2216 0.8224 -6.6307 7.5285 0.0000 0.0000 8.5067 0.0000 0.0000 7.2480 0.5489 -13.4215 4.2868 0.0000 0.0000 2.5306 0.0000 0.0000 14.5879 -0.9740 -13.2989 5.4248 0.0000 0.0000 2.2020 0.0000 0.0000 5.8720 -3.4469 -11.9610 3.5281 0.0000 0.0000 2.1538 0.0000 0.0000 0.0000 0.0000 0.0000 76.2165 -23.1931 29.3237 212.2917 58.1519 299.8659 -146.9085 -44.5157 132.6614 -55.1952 -13.2017 9.0105 7.1846 0.0000 0.0000 4.7644 0.0000 0.0000 -15.0805 0.1652 2.7077 9.5607 0.0000 0.0000 11.4856 0.0000 0.0000 8.4122 -0.7179 14.5101 6.3461 0.0000 0.0000 1.9089 0.0000 0.0000 0.7329 -2.4557 16.9615 6.0420 0.0000 0.0000 3.3481 0.0000 0.0000 -13.7821 -5.0335 22.3800 10.3116 0.0000 0.0000 1.5959 0.0000 0.0000 0.0000 0.0000 0.0000 0.0000 0.0000 0.0000 0.0000 0.0000 0.0000 0.0000 0.0000 0.0000 0.0000 0.0000 0.0000 0.0000 0.0000 0.0000
0.0000 95.0000 0.0000 0.0000 0.0000 0.0000 0.0000 0.0000 0.0000 0.0000 0.0000 0.0000 0.0000 0.0000 0.0000 0.0000 0.0000 0.0000 0.0000 0.0000 0.0000 0.0000 0.0000 0.0000 -74.9262 4.6982 6.1285 -2.5956 9.3082 -12.4745 12.7646 -0.7467 -149.2409 51.4850 -12.0812 -4.9763 17.1612 0.0000 0.0000 12.2999 0.0000 0.0000 -26.7629 0.8673 -5.9206 9.4388 0.0000 0.0000 8.5507 0.0000 0.0000 5.8940 0.4562 -13.6158 4.1235 0.0000 0.0000 2.6678 0.0000 0.0000 13.3115 -1.0511 -13.2707 5.4222 0.0000 0.0000 2.3514 0.0000 0.0000 5.4225 -3.2764 -11.2280 3.2557 0.0000 0.0000 2.0657 0.0000 0.0000 0.0000 0.0000 0.0000 76.1506 -23.2338 29.4076 212.2049 57.7618 299.9053 -145.3319 -44.9019 131.5701 -60.4188 -13.7407 9.3959 3.8236 0.0000 0.0000 5.6677 0.0000 0.0000 -14.4987 0.6598 4.2314 9.6991 0.0000 0.0000 10.1092 0.0000 0.0000 7.2662 -0.6375 14.7867 6.2963 0.0000 0.0000 1.5882 0.0000 0.0000 -1.3676 -2.2657 17.0316 4.6189 0.0000 0.0000 2.6999 0.0000 0.0000 -15.6615 -4.7356 22.0410 10.1109 0.0000 0.0000 1.1678 0.0000 0.0000 0.0000 0.0000 0.0000 0.0000 0.0000 0.0000 0.0000 0.0000 0.0000 0.0000 0.0000 0.0000 0.0000 0.0000 0.0000 0.0000 0.0000 0.0000
0.0000 95.0000 0.0000 0.0000 0.0000 0.0000 0.0000 0.0000 0.0000 0.0000 0.0000 0.0000 0.0000 0.0000 0.0000 0.0000 0.0000 0.0000 0.0000 0.0000 0.0000 0.0000 0.0000 0.0000 -74.9333 4.6996 6.1296 -2.3321 9.3285 -12.4703 14.1191 -3.3972 -150.2282 50.9334 -11.9681 -4.7749 18.4688 0.0000 0.0000 12.9116 0.0000 0.0000 -26.3235 0.9009 -5.3183 11.3698 0.0000 0.0000 8.5863 0.0000 0.0000 4.5982 0.3585 -13.6832 3.9897 0.0000 0.0000 2.8064 0.0000 0.0000 12.1163 -1.1191 -13.1340 5.4683 0.0000 0.0000 2.5079 0.0000 0.0000 5.1063 -3.1095 -10.5438 3.1400 0.0000 0.0000 1.9774 0.0000 0.0000 0.0000 0.0000 0.0000 76.5209 -23.2547 29.2469 211.6147 57.1662 299.5833 -139.3889 -48.7706 118.6532 -25.7755 -6.3696 0.4269 11.2543 0.0000 0.0000 9.6413 0.0000 0.0000 10.9781 1.3690 10.4481 4.1202 0.0000 0.0000 4.5421 0.0000 0.0000 11.2944 -0.6052 10.8867 4.5202 0.0000 0.0000 2.2149 0.0000 0.0000 -8.4620 -1.2958 12.5086 3.8604 0.0000 0.0000 1.9697 0.0000 0.0000 -37.3590 -2.3170 13.1428 5.4174 0.0000 0.0000 2.2665 0.0000 0.0000 0.0000 0.0000 0.0000 0.0000 0.0000 0.0000 0.0000 0.0000 0.0000 0.0000 0.0000 0.0000 0.0000 0.0000 0.0000 0.0000 0.0000 0.0000
0.0000 95.0000 0.0000 0.0000 0.0000 0.0000 0.0000 0.0000 0.0000 0.0000 0.0000 0.0000 0.0000 0.0000 0.0000 0.0000 0.0000 0.0000 0.0000 0.0000 0.0000 0.0000 0.0000 0.0000 -74.9658 4.7212 6.1541 -2.0988 9.3728 -12.4955 15.4608 -5.7219 -151.2553 50.5306 -11.8586 -4.4998 19.8216 0.0000 0.0000 13.5209 0.0000 0.0000 -25.9099 0.9256 -4.8104 13.2741 0.0000 0.0000 8.6130 0.0000 0.0000 3.3699 0.2614 -13.6402 3.8866 0.0000 0.0000 2.9462 0.0000 0.0000 11.0076 -1.1752 -12.9060 5.5658 0.0000 0.0000 2.6719 0.0000 0.0000 4.9150 -2.9512 -9.9165 3.1735 0.0000 0.0000 1.8900 0.0000 0.0000 0.0000 0.0000 0.0000 76.6282 -23.4359 29.4168 211.8579 57.0266 299.5254 -136.0336 -46.1636 122.3317 -50.1539 -11.8172 4.5530 9.6130 0.0000 0.0000 6.3600 0.0000 0.0000 -6.9778 0.5584 3.5848 9.9031 0.0000 0.0000 13.6796 0.0000 0.0000 2.9677 -0.1841 11.8713 5.8091 0.0000 0.0000 2.3763 0.0000 0.0000 -4.8562 -1.4721 12.3070 5.2764 0.0000 0.0000 4.8095 0.0000 0.0000 -18.6271 -3.5892 16.3507 12.0391 0.0000 0.0000 2.6728 0.0000 0.0000 0.0000 0.0000 0.0000 0.0000 0.0000 0.0000 0.0000 0.0000 0.0000 0.0000 0.0000 0.0000 0.0000 0.0000 0.0000 0.0000 0.0000 0.0000
0.0000 95.0000 0.0000 0.0000 0.0000 0.0000 0.0000 0.0000 0.0000 0.0000 0.0000 0.0000 0.0000 0.0000 0.0000 0.0000 0.0000 0.0000 0.0000 0.0000 0.0000 0.0000 0.0000 0.0000 -74.9668 4.7202 6.1527 -2.2150 9.3616 -12.4934 17.7215 -9.3153 -153.3145 50.1670 -11.6637 -3.7866 22.6666 0.0000 0.0000 14.7277 0.0000 0.0000 -25.1775 0.9559 -4.0198 16.9283 0.0000 0.0000 8.6381 0.0000 0.0000 1.1273 0.0840 -13.2899 3.7748 0.0000 0.0000 3.2289 0.0000 0.0000 9.0474 -1.2478 -12.2418 5.9229 0.0000 0.0000 3.0239 0.0000 0.0000 4.8619 -2.6733 -8.8440 3.5442 0.0000 0.0000 1.7238 0.0000 0.0000 0.0000 0.0000 0.0000 76.5684 -23.1976 29.1525 213.2050 59.3231 300.0112 -120.3565 -57.8602 105.6131 -41.6635 -10.8755 5.4560 13.7716 0.0000 0.0000 8.8904 0.0000 0.0000 -9.8794 -0.4469 0.0383 5.1019 0.0000 0.0000 9.6270 0.0000 0.0000 0.7702 -0.0742 15.7775 6.7578 0.0000 0.0000 1.0323 0.0000 0.0000 -4.6687 -1.9194 16.7007 4.1916 0.0000 0.0000 3.1416 0.0000 0.0000 -21.1450 -3.7024 18.9806 10.9264 0.0000 0.0000 0.6025 0.0000 0.0000 0.0000 0.0000 0.0000 0.0000 0.0000 0.0000 0.0000 0.0000 0.0000 0.0000 0.0000 0.0000 0.0000 0.0000 0.0000 0.0000 0.0000 0.0000
0.0000 95.0000 0.0000 0.0000 0.0000 0.0000 0.0000 0.0000 0.0000 0.0000 0.0000 0.0000 0.0000 0.0000 0.0000 0.0000 0.0000 0.0000 0.0000 0.0000 0.0000 0.0000 0.0000 0.0000 -75.1912 4.7305 6.1413 -1.9214 9.3934 -12.4517 17.7810 -9.3488 -153.3362 50.1670 -11.6637 -3.7866 22.6666 0.0000 0.0000 14.7277 0.0000 0.0000 -25.1775 0.9559 -4.0198 16.9283 0.0000 0.0000 8.6381 0.0000 0.0000 1.1273 0.0840 -13.2899 3.7748 0.0000 0.0000 3.2289 0.0000 0.0000 9.0474 -1.2478 -12.2418 5.9229 0.0000 0.0000 3.0239 0.0000 0.0000 4.8619 -2.6733 -8.8440 3.5442 0.0000 0.0000 1.7238 0.0000 0.0000 0.0000 0.0000 0.0000 76.6395 -23.0677 28.9564 214.5295 62.3599 300.0486 -88.6597 -60.3737 72.4601 -45.5678 -11.7844 7.0400 18.3707 0.0000 0.0000 12.9564 0.0000 0.0000 -10.4860 -1.5802 -3.9225 4.6476 0.0000 0.0000 8.4600 0.0000 0.0000 -0.7926 0.1001 19.1748 6.5562 0.0000 0.0000 1.1740 0.0000 0.0000 -7.8282 -1.8235 19.3790 2.7938 0.0000 0.0000 2.3950 0.0000 0.0000 -26.9390 -3.1033 18.3252 10.4998 0.0000 0.0000 0.1684 0.0000 0.0000 0.0000 0.0000 0.0000 0.0000 0.0000 0.0000 0.0000 0.0000 0.0000 0.0000 0.0000 0.0000 0.0000 0.0000 0.0000 0.0000 0.0000 0.0000
0.0000 95.0000 0.0000 0.0000 0.0000 0.0000 0.0000 0.0000 0.0000 0.0000 0.0000 0.0000 0.0000 0.0000 0.0000 0.0000 0.0000 0.0000 0.0000 0.0000 0.0000 0.0000 0.0000 0.0000 -74.7968 4.6785 6.1172 -2.9192 9.2563 -12.4709 17.2140 -9.1136 -153.2312 50.1670 -11.6637 -3.7866 22.6666 0.0000 0.0000 14.7277 0.0000 0.0000 -25.1775 0.9559 -4.0198 16.9283 0.0000 0.0000 8.6381 0.0000 0.0000 1.1273 0.0840 -13.2899 3.7748 0.0000 0.0000 3.2289 0.0000 0.0000 9.0474 -1.2478 -12.2418 5.9229 0.0000 0.0000 3.0239 0.0000 0.0000 4.8619 -2.6733 -8.8440 3.5442 0.0000 0.0000 1.7238 0.0000 0.0000 0.0000 0.0000 0.0000 76.3922 -22.5089 28.3862 218.4904 69.2387 301.5560 -51.2577 -54.9601 40.1628 -52.1852 -13.5554 12.5666 21.1497 0.0000 0.0000 15.4010 0.0000 0.0000 -3.5837 -0.8170 -3.0421 8.6030 0.0000 0.0000 10.5157 0.0000 0.0000 -4.6925 0.8287 24.7925 5.4884 0.0000 0.0000 0.6315 0.0000 0.0000 -12.5296 -1.4711 25.4499 7.5879 0.0000 0.0000 4.0584 0.0000 0.0000 -32.6242 -2.6500 23.0172 13.1758 0.0000 0.0000 2.1053 0.0000 0.0000 0.0000 0.0000 0.0000 0.0000 0.0000 0.0000 0.0000 0.0000 0.0000 0.0000 0.0000 0.0000 0.0000 0.0000 0.0000 0.0000 0.0000 0.0000
0.0000 95.0000 0.0000 0.0000 0.0000 0.0000 0.0000 0.0000 0.0000 0.0000 0.0000 0.0000 0.0000 0.0000 0.0000 0.0000 0.0000 0.0000 0.0000 0.0000 0.0000 0.0000 0.0000 0.0000 -74.5124 4.6188 6.0702 -3.6945 9.0803 -12.3833 16.7157 -8.9646 -153.2091 50.1670 -11.6637 -3.7866 22.6666 0.0000 0.0000 14.7277 0.0000 0.0000 -25.1775 0.9559 -4.0198 16.9283 0.0000 0.0000 8.6381 0.0000 0.0000 1.1273 0.0840 -13.2899 3.7748 0.0000 0.0000 3.2289 0.0000 0.0000 9.0474 -1.2478 -12.2418 5.9229 0.0000 0.0000 3.0239 0.0000 0.0000 4.8619 -2.6733 -8.8440 3.5442 0.0000 0.0000 1.7238 0.0000 0.0000 0.0000 0.0000 0.0000 76.5077 -21.9137 27.5915 231.2198 77.2624 310.5751 -18.1721 -36.1121 21.0942 -66.6067 -14.9058 20.3605 27.6006 0.0000 0.0000 17.0064 0.0000 0.0000 11.7784 1.1797 8.4830 19.2505 0.0000 0.0000 15.6687 0.0000 0.0000 -8.5523 2.0605 31.8189 11.8982 0.0000 0.0000 3.1437 0.0000 0.0000 -17.9762 -0.4202 32.8130 18.0838 0.0000 0.0000 7.2303 0.0000 0.0000 -39.6384 -1.4003 29.5460 19.9252 0.0000 0.0000 7.0522 0.0000 0.0000 0.0000 0.0000 0.0000 0.0000 0.0000 0.0000 0.0000 0.0000 0.0000 0.0000 0.0000 0.0000 0.0000 0.0000 0.0000 0.0000 0.0000 0.0000
0.0000 95.0000 0.0000 0.0000 0.0000 0.0000 0.0000 0.0000 0.0000 0.0000 0.0000 0.0000 0.0000 0.0000 0.0000 0.0000 0.0000 0.0000 0.0000 0.0000 0.0000 0.0000 0.0000 0.0000 -71.7433 11.4151 15.7385 -8.8095 15.3947 -22.4142 15.2647 -8.3815 -152.9854 50.1670 -11.6637 -3.7866 22.6666 0.0000 0.0000 14.7277 0.0000 0.0000 -25.1775 0.9559 -4.0198 16.9283 0.0000 0.0000 8.6381 0.0000 0.0000 1.1273 0.0840 -13.2899 3.7748 0.0000 0.0000 3.2289 0.0000 0.0000 9.0474 -1.2478 -12.2418 5.9229 0.0000 0.0000 3.0239 0.0000 0.0000 4.8619 -2.6733 -8.8440 3.5442 0.0000 0.0000 1.7238 0.0000 0.0000 0.0000 0.0000 0.0000 77.6054 -20.1392 24.9070 342.5598 76.8773 410.9614 35.7905 7.4791 33.0682 -91.1325 -13.8903 26.4532 43.1784 0.0000 0.0000 8.1956 0.0000 0.0000 5.0824 3.0837 20.8950 6.4711 0.0000 0.0000 5.5802 0.0000 0.0000 -2.2224 0.3805 24.2030 21.0752 0.0000 0.0000 6.5225 0.0000 0.0000 -11.1342 -1.6816 24.8798 37.4059 0.0000 0.0000 14.0245 0.0000 0.0000 -28.5879 -3.2684 24.8382 32.9806 0.0000 0.0000 23.0826 0.0000 0.0000 0.0000 0.0000 0.0000 0.0000 0.0000 0.0000 0.0000 0.0000 0.0000 0.0000 0.0000 0.0000 0.0000 0.0000 0.0000 0.0000 0.0000 0.0000
0.0000 95.0000 0.0000 0.0000 0.0000 0.0000 0.0000 0.0000 0.0000 0.0000 0.0000 0.0000 0.0000 0.0000 0.0000 0.0000 0.0000 0.0000 0.0000 0.0000 0.0000 0.0000 0.0000 0.0000 -73.7421 7.7281 10.2916 -6.0313 0.8047 0.0234 9.2806 -19.8629 -166.9556 50.1670 -11.6637 -3.7866 22.6666 0.0000 0.0000 14.7277 0.0000 0.0000 -25.1775 0.9559 -4.0198 16.9283 0.0000 0.0000 8.6381 0.0000 0.0000 1.1273 0.0840 -13.2899 3.7748 0.0000 0.0000 3.2289 0.0000 0.0000 9.0474 -1.2478 -12.2418 5.9229 0.0000 0.0000 3.0239 0.0000 0.0000 4.8619 -2.6733 -8.8440 3.5442 0.0000 0.0000 1.7238 0.0000 0.0000 0.0000 0.0000 0.0000 79.3862 -16.4731 19.7857 369.4550 56.1478 424.2009 33.9610 36.1679 33.5788 -91.1325 -13.8903 26.4532 43.1784 0.0000 0.0000 8.1956 0.0000 0.0000 5.0824 3.0837 20.8950 6.4711 0.0000 0.0000 5.5802 0.0000 0.0000 -2.2224 0.3805 24.2030 21.0752 0.0000 0.0000 6.5225 0.0000 0.0000 -11.1342 -1.6816 24.8798 37.4059 0.0000 0.0000 14.0245 0.0000 0.0000 -28.5879 -3.2684 24.8382 32.9806 0.0000 0.0000 23.0826 0.0000 0.0000 0.0000 0.0000 0.0000 0.0000 0.0000 0.0000 0.0000 0.0000 0.0000 0.0000 0.0000 0.0000 0.0000 0.0000 0.0000 0.0000 0.0000 0.0000
0.0000 95.0000 0.0000 0.0000 0.0000 0.0000 0.0000 0.0000 0.0000 0.0000 0.0000 0.0000 0.0000 0.0000 0.0000 0.0000 0.0000 0.0000 0.0000 0.0000 0.0000 0.0000 0.0000 0.0000 -75.0010 4.8200 6.2789 -7.6992 -1.6797 3.4600 6.9730 -18.6723 -165.8357 50.1670 -11.6637 -3.7866 22.6666 0.0000 0.0000 14.7277 0.0000 0.0000 -25.1775 0.9559 -4.0198 16.9283 0.0000 0.0000 8.6381 0.0000 0.0000 1.1273 0.0840 -13.2899 3.7748 0.0000 0.0000 3.2289 0.0000 0.0000 9.0474 -1.2478 -12.2418 5.9229 0.0000 0.0000 3.0239 0.0000 0.0000 4.8619 -2.6733 -8.8440 3.5442 0.0000 0.0000 1.7238 0.0000 0.0000 0.0000 0.0000 0.0000 81.4258 -12.4862 14.4899 375.2334 32.0432 406.5798 48.1910 71.0626 58.3760 -91.1325 -13.8903 26.4532 43.1784 0.0000 0.0000 8.1956 0.0000 0.0000 5.0824 3.0837 20.8950 6.4711 0.0000 0.0000 5.5802 0.0000 0.0000 -2.2224 0.3805 24.2030 21.0752 0.0000 0.0000 6.5225 0.0000 0.0000 -11.1342 -1.6816 24.8798 37.4059 0.0000 0.0000 14.0245 0.0000 0.0000 -28.5879 -3.2684 24.8382 32.9806 0.0000 0.0000 23.0826 0.0000 0.0000 0.0000 0.0000 0.0000 0.0000 0.0000 0.0000 0.0000 0.0000 0.0000 0.0000 0.0000 0.0000 0.0000 0.0000 0.0000 0.0000 0.0000 0.0000
0.0000 95.0000 0.0000 0.0000 0.0000 0.0000 0.0000 0.0000 0.0000 0.0000 0.0000 0.0000 0.0000 0.0000 0.0000 0.0000 0.0000 0.0000 0.0000 0.0000 0.0000 0.0000 0.0000 0.0000 -75.2735 3.4910 4.5262 -9.0760 -4.1352 7.1242 5.2961 -19.6980 -167.0334 50.1670 -11.6637 -3.7866 22.6666 0.0000 0.0000 14.7277 0.0000 0.0000 -25.1775 0.9559 -4.0198 16.9283 0.0000 0.0000 8.6381 0.0000 0.0000 1.1273 0.0840 -13.2899 3.7748 0.0000 0.0000 3.2289 0.0000 0.0000 9.0474 -1.2478 -12.2418 5.9229 0.0000 0.0000 3.0239 0.0000 0.0000 4.8619 -2.6733 -8.8440 3.5442 0.0000 0.0000 1.7238 0.0000 0.0000 0.0000 0.0000 0.0000 82.8867 -10.0041 11.3220 372.8225 16.7489 385.2635 127.8405 71.6704 152.7753 -91.1325 -13.8903 26.4532 43.1784 0.0000 0.0000 8.1956 0.0000 0.0000 5.0824 3.0837 20.8950 6.4711 0.0000 0.0000 5.5802 0.0000 0.0000 -2.2224 0.3805 24.2030 21.0752 0.0000 0.0000 6.5225 0.0000 0.0000 -11.1342 -1.6816 24.8798 37.4059 0.0000 0.0000 14.0245 0.0000 0.0000 -28.5879 -3.2684 24.8382 32.9806 0.0000 0.0000 23.0826 0.0000 0.0000 0.0000 0.0000 0.0000 0.0000 0.0000 0.0000 0.0000 0.0000 0.0000 0.0000 0.0000 0.0000 0.0000 0.0000 0.0000 0.0000 0.0000 0.0000
0.0000 95.0000 0.0000 0.0000 0.0000 0.0000 0.0000 0.0000 0.0000 0.0000 0.0000 0.0000 0.0000 0.0000 0.0000 0.0000 0.0000 0.0000 0.0000 0.0000 0.0000 0.0000 0.0000 0.0000 -75.2221 3.1426 4.0784 -11.4240 7.3800 -10.9055 8.9918 -5.2198 -151.6294 50.1670 -11.6637 -3.7866 22.6666 0.0000 0.0000 14.7277 0.0000 0.0000 -25.1775 0.9559 -4.0198 16.9283 0.0000 0.0000 8.6381 0.0000 0.0000 1.1273 0.0840 -13.2899 3.7748 0.0000 0.0000 3.2289 0.0000 0.0000 9.0474 -1.2478 -12.2418 5.9229 0.0000 0.0000 3.0239 0.0000 0.0000 4.8619 -2.6733 -8.8440 3.5442 0.0000 0.0000 1.7238 0.0000 0.0000 0.0000 0.0000 0.0000 84.1933 -8.2724 9.1527 368.9934 11.0032 375.3843 134.3779 62.0795 168.5827 -91.1325 -13.8903 26.4532 43.1784 0.0000 0.0000 8.1956 0.0000 0.0000 5.0824 3.0837 20.8950 6.4711 0.0000 0.0000 5.5802 0.0000 0.0000 -2.2224 0.3805 24.2030 21.0752 0.0000 0.0000 6.5225 0.0000 0.0000 -11.1342 -1.6816 24.8798 37.4059 0.0000 0.0000 14.0245 0.0000 0.0000 -28.5879 -3.2684 24.8382 32.9806 0.0000 0.0000 23.0826 0.0000 0.0000 0.0000 0.0000 0.0000 0.0000 0.0000 0.0000 0.0000 0.0000 0.0000 0.0000 0.0000 0.0000 0.0000 0.0000 0.0000 0.0000 0.0000 0.0000
0.0000 95.0000 0.0000 0.0000 0.0000 0.0000 0.0000 0.0000 0.0000 0.0000 0.0000 0.0000 0.0000 0.0000 0.0000 0.0000 0.0000 0.0000 0.0000 0.0000 0.0000 0.0000 0.0000 0.0000 -75.5216 2.1209 2.7379 -11.9085 6.3775 -9.6104 8.1971 -4.7987 -151.4754 50.1670 -11.6637 -3.7866 22.6666 0.0000 0.0000 14.7277 0.0000 0.0000 -25.1775 0.9559 -4.0198 16.9283 0.0000 0.0000 8.6381 0.0000 0.0000 1.1273 0.0840 -13.2899 3.7748 0.0000 0.0000 3.2289 0.0000 0.0000 9.0474 -1.2478 -12.2418 5.9229 0.0000 0.0000 3.0239 0.0000 0.0000 4.8619 -2.6733 -8.8440 3.5442 0.0000 0.0000 1.7238 0.0000 0.0000 0.0000 0.0000 0.0000 85.1727 -6.8799 7.4838 366.3204 9.3001 371.9464 132.9414 57.9244 171.6824 -91.1325 -13.8903 26.4532 43.1784 0.0000 0.0000 8.1956 0.0000 0.0000 5.0824 3.0837 20.8950 6.4711 0.0000 0.0000 5.5802 0.0000 0.0000 -2.2224 0.3805 24.2030 21.0752 0.0000 0.0000 6.5225 0.0000 0.0000 -11.1342 -1.6816 24.8798 37.4059 0.0000 0.0000 14.0245 0.0000 0.0000 -28.5879 -3.2684 24.8382 32.9806 0.0000 0.0000 23.0826 0.0000 0.0000 0.0000 0.0000 0.0000 0.0000 0.0000 0.0000 0.0000 0.0000 0.0000 0.0000 0.0000 0.0000 0.0000 0.0000 0.0000 0.0000 0.0000 0.0000
0.0000 95.0000 0.0000 0.0000 0.0000 0.0000 0.0000 0.0000 0.0000 0.0000 0.0000 0.0000 0.0000 0.0000 0.0000 0.0000 0.0000 0.0000 0.0000 0.0000 0.0000 0.0000 0.0000 0.0000 -75.5327 1.9687 2.5410 -12.1249 6.2283 -9.4445 7.9875 -4.6764 -151.4253 50.1670 -11.6637 -3.7866 22.6666 0.0000 0.0000 14.7277 0.0000 0.0000 -25.1775 0.9559 -4.0198 16.9283 0.0000 0.0000 8.6381 0.0000 0.0000 1.1273 0.0840 -13.2899 3.7748 0.0000 0.0000 3.2289 0.0000 0.0000 9.0474 -1.2478 -12.2418 5.9229 0.0000 0.0000 3.0239 0.0000 0.0000 4.8619 -2.6733 -8.8440 3.5442 0.0000 0.0000 1.7238 0.0000 0.0000 0.0000 0.0000 0.0000 85.4551 -5.7590 6.2341 364.1656 8.4433 370.1593 130.3334 55.4261 172.2889 -91.1325 -13.8903 26.4532 43.1784 0.0000 0.0000 8.1956 0.0000 0.0000 5.0824 3.0837 20.8950 6.4711 0.0000 0.0000 5.5802 0.0000 0.0000 -2.2224 0.3805 24.2030 21.0752 0.0000 0.0000 6.5225 0.0000 0.0000 -11.1342 -1.6816 24.8798 37.4059 0.0000 0.0000 14.0245 0.0000 0.0000 -28.5879 -3.2684 24.8382 32.9806 0.0000 0.0000 23.0826 0.0000 0.0000 0.0000 0.0000 0.0000 0.0000 0.0000 0.0000 0.0000 0.0000 0.0000 0.0000 0.0000 0.0000 0.0000 0.0000 0.0000 0.0000 0.0000 0.0000
0.0000 95.0000 0.0000 0.0000 0.0000 0.0000 0.0000 0.0000 0.0000 0.0000 0.0000 0.0000 0.0000 0.0000 0.0000 0.0000 0.0000 0.0000 0.0000 0.0000 0.0000 0.0000 0.0000 0.0000 -75.5312 1.3365 1.7251 -12.6330 5.5762 -8.6600 7.4700 -4.4124 -151.3409 50.1670 -11.6637 -3.7866 22.6666 0.0000 0.0000 14.7277 0.0000 0.0000 -25.1775 0.9559 -4.0198 16.9283 0.0000 0.0000 8.6381 0.0000 0.0000 1.1273 0.0840 -13.2899 3.7748 0.0000 0.0000 3.2289 0.0000 0.0000 9.0474 -1.2478 -12.2418 5.9229 0.0000 0.0000 3.0239 0.0000 0.0000 4.8619 -2.6733 -8.8440 3.5442 0.0000 0.0000 1.7238 0.0000 0.0000 0.0000 0.0000 0.0000 85.0232 -5.1819 5.6521 363.1068 7.6068 368.9741 128.3086 53.8626 172.4228 -91.1325 -13.8903 26.4532 43.1784 0.0000 0.0000 8.1956 0.0000 0.0000 5.0824 3.0837 20.8950 6.4711 0.0000 0.0000 5.5802 0.0000 0.0000 -2.2224 0.3805 24.2030 21.0752 0.0000 0.0000 6.5225 0.0000 0.0000 -11.1342 -1.6816 24.8798 37.4059 0.0000 0.0000 14.0245 0.0000 0.0000 -28.5879 -3.2684 24.8382 32.9806 0.0000 0.0000 23.0826 0.0000 0.0000 0.0000 0.0000 0.0000 0.0000 0.0000 0.0000 0.0000 0.0000 0.0000 0.0000 0.0000 0.0000 0.0000 0.0000 0.0000 0.0000 0.0000 0.0000
0.0000 95.0000 0.0000 0.0000 0.0000 0.0000 0.0000 0.0000 0.0000 0.0000 0.0000 0.0000 0.0000 0.0000 0.0000 0.0000 0.0000 0.0000 0.0000 0.0000 0.0000 0.0000 0.0000 0.0000 -75.6672 1.1341 1.4603 -12.6621 5.3846 -8.3969 7.3029 -4.3257 -151.3130 50.1670 -11.6637 -3.7866 22.6666 0.0000 0.0000 14.7277 0.0000 0.0000 -25.1775 0.9559 -4.0198 16.9283 0.0000 0.0000 8.6381 0.0000 0.0000 1.1273 0.0840 -13.2899 3.7748 0.0000 0.0000 3.2289 0.0000 0.0000 9.0474 -1.2478 -12.2418 5.9229 0.0000 0.0000 3.0239 0.0000 0.0000 4.8619 -2.6733 -8.8440 3.5442 0.0000 0.0000 1.7238 0.0000 0.0000 0.0000 0.0000 0.0000 85.0298 -4.8676 5.3087 362.4305 7.6405 368.8328 127.2336 53.4772 172.0324 -91.1325 -13.8903 26.4532 43.1784 0.0000 0.0000 8.1956 0.0000 0.0000 5.0824 3.0837 20.8950 6.4711 0.0000 0.0000 5.5802 0.0000 0.0000 -2.2224 0.3805 24.2030 21.0752 0.0000 0.0000 6.5225 0.0000 0.0000 -11.1342 -1.6816 24.8798 37.4059 0.0000 0.0000 14.0245 0.0000 0.0000 -28.5879 -3.2684 24.8382 32.9806 0.0000 0.0000 23.0826 0.0000 0.0000 0.0000 0.0000 0.0000 0.0000 0.0000 0.0000 0.0000 0.0000 0.0000 0.0000 0.0000 0.0000 0.0000 0.0000 0.0000 0.0000 0.0000 0.0000
0.0000 95.0000 0.0000 0.0000 0.0000 0.0000 0.0000 0.0000 0.0000 0.0000 0.0000 0.0000 0.0000 0.0000 0.0000 0.0000 0.0000 0.0000 0.0000 0.0000 0.0000 0.0000 0.0000 0.0000 -75.4369 1.4746 1.9065 -13.0233 5.7027 -8.8896 7.2322 -4.2718 -151.2848 50.1670 -11.6637 -3.7866 22.6666 0.0000 0.0000 14.7277 0.0000 0.0000 -25.1775 0.9559 -4.0198 16.9283 0.0000 0.0000 8.6381 0.0000 0.0000 1.1273 0.0840 -13.2899 3.7748 0.0000 0.0000 3.2289 0.0000 0.0000 9.0474 -1.2478 -12.2418 5.9229 0.0000 0.0000 3.0239 0.0000 0.0000 4.8619 -2.6733 -8.8440 3.5442 0.0000 0.0000 1.7238 0.0000 0.0000 0.0000 0.0000 0.0000 84.6486 -4.7650 5.2316 361.6946 7.6859 368.7599 125.3989 53.3421 170.7933 -91.1325 -13.8903 26.4532 43.1784 0.0000 0.0000 8.1956 0.0000 0.0000 5.0824 3.0837 20.8950 6.4711 0.0000 0.0000 5.5802 0.0000 0.0000 -2.2224 0.3805 24.2030 21.0752 0.0000 0.0000 6.5225 0.0000 0.0000 -11.1342 -1.6816 24.8798 37.4059 0.0000 0.0000 14.0245 0.0000 0.0000 -28.5879 -3.2684 24.8382 32.9806 0.0000 0.0000 23.0826 0.0000 0.0000 0.0000 0.0000 0.0000 0.0000 0.0000 0.0000 0.0000 0.0000 0.0000 0.0000 0.0000 0.0000 0.0000 0.0000 0.0000 0.0000 0.0000 0.0000
0.0000 95.0000 0.0000 0.0000 0.0000 0.0000 0.0000 0.0000 0.0000 0.0000 0.0000 0.0000 0.0000 0.0000 0.0000 0.0000 0.0000 0.0000 0.0000 0.0000 0.0000 0.0000 0.0000 0.0000 -75.4688 0.7734 0.9994 -12.8831 5.0035 -7.9573 7.2462 -4.2912 -151.2987 50.1670 -11.6637 -3.7866 22.6666 0.0000 0.0000 14.7277 0.0000 0.0000 -25.1775 0.9559 -4.0198 16.9283 0.0000 0.0000 8.6381 0.0000 0.0000 1.1273 0.0840 -13.2899 3.7748 0.0000 0.0000 3.2289 0.0000 0.0000 9.0474 -1.2478 -12.2418 5.9229 0.0000 0.0000 3.0239 0.0000 0.0000 4.8619 -2.6733 -8.8440 3.5442 0.0000 0.0000 1.7238 0.0000 0.0000 0.0000 0.0000 0.0000 84.4062 -4.5732 5.0424 361.1980 7.5323 368.5061 124.3062 52.9348 170.4076 -91.1325 -13.8903 26.4532 43.1784 0.0000 0.0000 8.1956 0.0000 0.0000 5.0824 3.0837 20.8950 6.4711 0.0000 0.0000 5.5802 0.0000 0.0000 -2.2224 0.3805 24.2030 21.0752 0.0000 0.0000 6.5225 0.0000 0.0000 -11.1342 -1.6816 24.8798 37.4059 0.0000 0.0000 14.0245 0.0000 0.0000 -28.5879 -3.2684 24.8382 32.9806 0.0000 0.0000 23.0826 0.0000 0.0000 0.0000 0.0000 0.0000 0.0000 0.0000 0.0000 0.0000 0.0000 0.0000 0.0000 0.0000 0.0000 0.0000 0.0000 0.0000 0.0000 0.0000 0.0000
0.0000 95.0000 0.0000 0.0000 0.0000 0.0000 0.0000 0.0000 0.0000 0.0000 0.0000 0.0000 0.0000 0.0000 0.0000 0.0000 0.0000 0.0000 0.0000 0.0000 0.0000 0.0000 0.0000 0.0000 -75.3741 1.0273 1.3298 -13.3985 5.2387 -8.3423 6.9093 -4.1011 -151.2292 50.1670 -11.6637 -3.7866 22.6666 0.0000 0.0000 14.7277 0.0000 0.0000 -25.1775 0.9559 -4.0198 16.9283 0.0000 0.0000 8.6381 0.0000 0.0000 1.1273 0.0840 -13.2899 3.7748 0.0000 0.0000 3.2289 0.0000 0.0000 9.0474 -1.2478 -12.2418 5.9229 0.0000 0.0000 3.0239 0.0000 0.0000 4.8619 -2.6733 -8.8440 3.5442 0.0000 0.0000 1.7238 0.0000 0.0000 0.0000 0.0000 0.0000 84.3668 -4.3470 4.7963 361.2377 7.2469 368.2043 124.4755 52.4366 171.0895 -91.1325 -13.8903 26.4532 43.1784 0.0000 0.0000 8.1956 0.0000 0.0000 5.0824 3.0837 20.8950 6.4711 0.0000 0.0000 5.5802 0.0000 0.0000 -2.2224 0.3805 24.2030 21.0752 0.0000 0.0000 6.5225 0.0000 0.0000 -11.1342 -1.6816 24.8798 37.4059 0.0000 0.0000 14.0245 0.0000 0.0000 -28.5879 -3.2684 24.8382 32.9806 0.0000 0.0000 23.0826 0.0000 0.0000 0.0000 0.0000 0.0000 0.0000 0.0000 0.0000 0.0000 0.0000 0.0000 0.0000 0.0000 0.0000 0.0000 0.0000 0.0000 0.0000 0.0000 0.0000
0.0000 95.0000 0.0000 0.0000 0.0000 0.0000 0.0000 0.0000 0.0000 0.0000 0.0000 0.0000 0.0000 0.0000 0.0000 0.0000 0.0000 0.0000 0.0000 0.0000 0.0000 0.0000 0.0000 0.0000 -75.1749 1.1500 1.4940 -13.6940 5.3363 -8.5339 6.8396 -4.0598 -151.2132 50.1670 -11.6637 -3.7866 22.6666 0.0000 0.0000 14.7277 0.0000 0.0000 -25.1775 0.9559 -4.0198 16.9283 0.0000 0.0000 8.6381 0.0000 0.0000 1.1273 0.0840 -13.2899 3.7748 0.0000 0.0000 3.2289 0.0000 0.0000 9.0474 -1.2478 -12.2418 5.9229 0.0000 0.0000 3.0239 0.0000 0.0000 4.8619 -2.6733 -8.8440 3.5442 0.0000 0.0000 1.7238 0.0000 0.0000 0.0000 0.0000 0.0000 84.2609 -4.1255 4.5605 361.2812 7.1120 368.0782 124.4599 52.0953 171.4557 -91.1325 -13.8903 26.4532 43.1784 0.0000 0.0000 8.1956 0.0000 0.0000 5.0824 3.0837 20.8950 6.4711 0.0000 0.0000 5.5802 0.0000 0.0000 -2.2224 0.3805 24.2030 21.0752 0.0000 0.0000 6.5225 0.0000 0.0000 -11.1342 -1.6816 24.8798 37.4059 0.0000 0.0000 14.0245 0.0000 0.0000 -28.5879 -3.2684 24.8382 32.9806 0.0000 0.0000 23.0826 0.0000 0.0000 0.0000 0.0000 0.0000 0.0000 0.0000 0.0000 0.0000 0.0000 0.0000 0.0000 0.0000 0.0000 0.0000 0.0000 0.0000 0.0000 0.0000 0.0000
