HIERARCHY
ROOT Hips
{
  OFFSET 0.000000 95.000000 0.000000
  CHANNELS 6 Xposition Yposition Zposition Zrotation Xrotation Yrotation
  JOINT Spine
  {
    OFFSET 0.000000 10.000000 0.000000
    CHANNELS 3 Zrotation Xrotation Yrotation
    JOINT Spine1
    {
      OFFSET 0.000000 12.000000 0.000000
      CHANNELS 3 Zrotation Xrotation Yrotation
      JOINT Spine2
      {
        OFFSET 0.000000 12.000000 0.000000
        CHANNELS 3 Zrotation Xrotation Yrotation
        JOINT Neck
        {
          OFFSET 0.000000 10.000000 0.000000
          CHANNELS 3 Zrotation Xrotation Yrotation
          JOINT Head
          {
            OFFSET 0.000000 8.000000 0.000000
            CHANNELS 3 Zrotation Xrotation Yrotation
            End Site
            {
              OFFSET 0.000000 10.000000 0.000000
            }
          }
        }
        JOINT LeftShoulder
        {
          OFFSET 6.000000 8.000000 0.000000
          CHANNELS 3 Zrotation Xrotation Yrotation
          JOINT LeftArm
          {
            OFFSET 12.000000 0.000000 0.000000
            CHANNELS 3 Zrotation Xrotation Yrotation
            JOINT LeftForeArm
            {
              OFFSET 24.000000 0.000000 0.000000
              CHANNELS 3 Zrotation Xrotation Yrotation
              JOINT LeftHand
              {
                OFFSET 22.000000 0.000000 0.000000
                CHANNELS 3 Zrotation Xrotation Yrotation
                JOINT LeftHandThumb1
                {
                  OFFSET 1.800000 -1.400000 0.500000
                  CHANNELS 3 Zrotation Xrotation Yrotation
                  JOINT LeftHandThumb2
                  {
                    OFFSET 2.400000 0.000000 0.000000
                    CHANNELS 3 Zrotation Xrotation Yrotation
                    JOINT LeftHandThumb3
                    {
                      OFFSET 1.900000 0.000000 0.000000
                      CHANNELS 3 Zrotation Xrotation Yrotation
                      End Site
                      {
                        OFFSET 1.600000 0.000000 0.000000
                      }
                    }
                  }
                }
                JOINT LeftHandIndex1
                {
                  OFFSET 6.600000 1.200000 0.300000
                  CHANNELS 3 Zrotation Xrotation Yrotation
                  JOINT LeftHandIndex2
                  {
                    OFFSET 2.000000 0.000000 0.000000
                    CHANNELS 3 Zrotation Xrotation Yrotation
                    JOINT LeftHandIndex3
                    {
                      OFFSET 1.200000 0.000000 0.000000
                      CHANNELS 3 Zrotation Xrotation Yrotation
                      End Site
                      {
                        OFFSET 1.000000 0.000000 0.000000
                      }
                    }
                  }
                }
                JOINT LeftHandMiddle1
                {
                  OFFSET 7.200000 0.000000 0.300000
                  CHANNELS 3 Zrotation Xrotation Yrotation
                  JOINT LeftHandMiddle2
                  {
                    OFFSET 3.000000 0.000000 0.000000
                    CHANNELS 3 Zrotation Xrotation Yrotation
                    JOINT LeftHandMiddle3
                    {
                      OFFSET 2.000000 0.000000 0.000000
                      CHANNELS 3 Zrotation Xrotation Yrotation
                      End Site
                      {
                        OFFSET 1.600000 0.000000 0.000000
                      }
                    }
                  }
                }
                JOINT LeftHandRing1
                {
                  OFFSET 7.100000 -1.000000 0.400000
                  CHANNELS 3 Zrotation Xrotation Yrotation
                  JOINT LeftHandRing2
                  {
                    OFFSET 2.600000 0.000000 0.000000
                    CHANNELS 3 Zrotation Xrotation Yrotation
                    JOINT LeftHandRing3
                    {
                      OFFSET 1.600000 0.000000 0.000000
                      CHANNELS 3 Zrotation Xrotation Yrotation
                      End Site
                      {
                        OFFSET 1.300000 0.000000 0.000000
                      }
                    }
                  }
                }
                JOINT LeftHandPinky1
                {
                  OFFSET 6.500000 -2.000000 0.500000
                  CHANNELS 3 Zrotation Xrotation Yrotation
                  JOINT LeftHandPinky2
                  {
                    OFFSET 1.900000 0.000000 0.000000
                    CHANNELS 3 Zrotation Xrotation Yrotation
                    JOINT LeftHandPinky3
                    {
                      OFFSET 1.400000 0.000000 0.000000
                      CHANNELS 3 Zrotation Xrotation Yrotation
                      End Site
                      {
                        OFFSET 1.300000 0.000000 0.000000
                      }
                    }
                  }
                }
              }
            }
          }
        }
        JOINT RightShoulder
        {
          OFFSET -6.000000 8.000000 0.000000
          CHANNELS 3 Zrotation Xrotation Yrotation
          JOINT RightArm
          {
            OFFSET -12.000000 0.000000 0.000000
            CHANNELS 3 Zrotation Xrotation Yrotation
            JOINT RightForeArm
            {
              OFFSET -24.000000 0.000000 0.000000
              CHANNELS 3 Zrotation Xrotation Yrotation
              JOINT RightHand
              {
                OFFSET -22.000000 0.000000 0.000000
                CHANNELS 3 Zrotation Xrotation Yrotation
                JOINT RightHandThumb1
                {
                  OFFSET -1.800000 -1.400000 0.500000
                  CHANNELS 3 Zrotation Xrotation Yrotation
                  JOINT RightHandThumb2
                  {
                    OFFSET -2.400000 0.000000 0.000000
                    CHANNELS 3 Zrotation Xrotation Yrotation
                    JOINT RightHandThumb3
                    {
                      OFFSET -1.900000 0.000000 0.000000
                      CHANNELS 3 Zrotation Xrotation Yrotation
                      End Site
                      {
                        OFFSET -1.600000 0.000000 0.000000
                      }
                    }
                  }
                }
                JOINT RightHandIndex1
                {
                  OFFSET -6.600000 1.200000 0.300000
                  CHANNELS 3 Zrotation Xrotation Yrotation
                  JOINT RightHandIndex2
                  {
                    OFFSET -2.000000 0.000000 0.000000
                    CHANNELS 3 Zrotation Xrotation Yrotation
                    JOINT RightHandIndex3
                    {
                      OFFSET -1.200000 0.000000 0.000000
                      CHANNELS 3 Zrotation Xrotation Yrotation
                      End Site
                      {
                        OFFSET -1.000000 0.000000 0.000000
                      }
                    }
                  }
                }
                JOINT RightHandMiddle1
                {
                  OFFSET -7.200000 0.000000 0.300000
                  CHANNELS 3 Zrotation Xrotation Yrotation
                  JOINT RightHandMiddle2
                  {
                    OFFSET -3.000000 0.000000 0.000000
                    CHANNELS 3 Zrotation Xrotation Yrotation
                    JOINT RightHandMiddle3
                    {
                      OFFSET -2.000000 0.000000 0.000000
                      CHANNELS 3 Zrotation Xrotation Yrotation
                      End Site
                      {
                        OFFSET -1.600000 0.000000 0.000000
                      }
                    }
                  }
                }
                JOINT RightHandRing1
                {
                  OFFSET -7.100000 -1.000000 0.400000
                  CHANNELS 3 Zrotation Xrotation Yrotation
                  JOINT RightHandRing2
                  {
                    OFFSET -2.600000 0.000000 0.000000
                    CHANNELS 3 Zrotation Xrotation Yrotation
                    JOINT RightHandRing3
                    {
                      OFFSET -1.600000 0.000000 0.000000
                      CHANNELS 3 Zrotation Xrotation Yrotation
                      End Site
                      {
                        OFFSET -1.300000 0.000000 0.000000
                      }
                    }
                  }
                }
                JOINT RightHandPinky1
                {
                  OFFSET -6.500000 -2.000000 0.500000
                  CHANNELS 3 Zrotation Xrotation Yrotation
                  JOINT RightHandPinky2
                  {
                    OFFSET -1.900000 0.000000 0.000000
                    CHANNELS 3 Zrotation Xrotation Yrotation
                    JOINT RightHandPinky3
                    {
                      OFFSET -1.400000 0.000000 0.000000
                      CHANNELS 3 Zrotation Xrotation Yrotation
                      End Site
                      {
                        OFFSET -1.300000 0.000000 0.000000
                      }
                    }
                  }
                }
              }
            }
          }
        }
      }
    }
  }
  JOINT LeftUpLeg
  {
    OFFSET 10.000000 -5.000000 0.000000
    CHANNELS 3 Zrotation Xrotation Yrotation
    JOINT LeftLeg
    {
      OFFSET 0.000000 -42.000000 0.000000
      CHANNELS 3 Zrotation Xrotation Yrotation
      JOINT LeftFoot
      {
        OFFSET 0.000000 -42.000000 4.000000
        CHANNELS 3 Zrotation Xrotation Yrotation
        End Site
        {
          OFFSET 0.000000 0.000000 12.000000
        }
      }
    }
  }
  JOINT RightUpLeg
  {
    OFFSET -10.000000 -5.000000 0.000000
    CHANNELS 3 Zrotation Xrotation Yrotation
    JOINT RightLeg
    {
      OFFSET 0.000000 -42.000000 0.000000
      CHANNELS 3 Zrotation Xrotation Yrotation
      JOINT RightFoot
      {
        OFFSET 0.000000 -42.000000 4.000000
        CHANNELS 3 Zrotation Xrotation Yrotation
        End Site
        {
          OFFSET 0.000000 0.000000 12.000000
        }
      }
    }
  }
}
MOTION
Frames: 60
Frame Time: 0.033333
0.0000 95.0000 0.0000 0.0000 0.0000 0.0000 0.0000 0.0000 0.0000 0.0000 0.0000 0.0000 0.0000 0.0000 0.0000 0.0000 0.0000 0.0000 0.0000 0.0000 0.0000 0.0000 0.0000 0.0000 -77.0593 3.4799 4.3694 -14.3903 -8.7222 15.4553 -170.9314 -27.1946 153.5808 44.3738 -8.0484 6.7349 15.7222 0.0000 0.0000 10.5777 0.0000 0.0000 -12.2381 0.5530 -0.0730 2.3799 0.0000 0.0000 1.6619 0.0000 0.0000 -4.8712 0.0525 -3.5386 1.3250 0.0000 0.0000 2.6618 0.0000 0.0000 2.1933 -0.5232 -3.3011 4.0790 0.0000 0.0000 9.5301 0.0000 0.0000 9.5335 -1.2451 -2.4251 10.4067 0.0000 0.0000 18.8082 0.0000 0.0000 0.0000 0.0000 0.0000 91.3303 1.5538 -1.5181 -2.4991 8.2127 7.7592 161.7295 2.5314 -177.9987 -54.5273 -9.9977 -9.8980 20.3819 0.0000 0.0000 12.6949 0.0000 0.0000 16.8489 0.6451 -3.2541 110.0000 0.0000 0.0000 37.1906 0.0000 0.0000 9.9411 0.3210 1.0821 110.0000 0.0000 0.0000 14.8012 0.0000 0.0000 2.0410 -0.0454 1.0104 110.0000 0.0000 0.0000 10.2179 0.0000 0.0000 -8.6345 -1.2999 2.8727 110.0000 0.0000 0.0000 18.4676 0.0000 0.0000 0.0000 0.0000 0.0000 0.0000 0.0000 0.0000 0.0000 0.0000 0.0000 0.0000 0.0000 0.0000 0.0000 0.0000 0.0000 0.0000 0.0000 0.0000
0.0000 95.0000 0.0000 0.0000 0.0000 0.0000 0.0000 0.0000 0.0000 0.0000 0.0000 0.0000 0.0000 0.0000 0.0000 0.0000 0.0000 0.0000 0.0000 0.0000 0.0000 0.0000 0.0000 0.0000 -77.1979 3.2123 4.0235 -14.5547 -8.7028 15.3571 -171.4090 -26.9422 154.1301 44.3738 -8.0484 6.7349 15.7222 0.0000 0.0000 10.5777 0.0000 0.0000 -12.2381 0.5530 -0.0730 2.3799 0.0000 0.0000 1.6619 0.0000 0.0000 -4.8712 0.0525 -3.5386 1.3250 0.0000 0.0000 2.6618 0.0000 0.0000 2.1933 -0.5232 -3.3011 4.0790 0.0000 0.0000 9.5301 0.0000 0.0000 9.5335 -1.2451 -2.4251 10.4067 0.0000 0.0000 18.8082 0.0000 0.0000 0.0000 0.0000 0.0000 91.2111 1.2027 -1.1776 -2.5550 8.3929 7.9214 161.5384 3.0579 -178.5204 -54.5273 -9.9977 -9.8980 20.3819 0.0000 0.0000 12.6949 0.0000 0.0000 16.8489 0.6451 -3.2541 110.0000 0.0000 0.0000 37.1906 0.0000 0.0000 9.9411 0.3210 1.0821 110.0000 0.0000 0.0000 14.8012 0.0000 0.0000 2.0410 -0.0454 1.0104 110.0000 0.0000 0.0000 10.2179 0.0000 0.0000 -8.6345 -1.2999 2.8727 110.0000 0.0000 0.0000 18.4676 0.0000 0.0000 0.0000 0.0000 0.0000 0.0000 0.0000 0.0000 0.0000 0.0000 0.0000 0.0000 0.0000 0.0000 0.0000 0.0000 0.0000 0.0000 0.0000 0.0000
0.0000 95.0000 0.0000 0.0000 0.0000 0.0000 0.0000 0.0000 0.0000 0.0000 0.0000 0.0000 0.0000 0.0000 0.0000 0.0000 0.0000 0.0000 0.0000 0.0000 0.0000 0.0000 0.0000 0.0000 -77.1563 2.9995 3.7598 -14.9669 -8.5937 15.2755 -171.9526 -26.7551 154.6481 44.3738 -8.0484 6.7349 15.7222 0.0000 0.0000 10.5777 0.0000 0.0000 -12.2381 0.5530 -0.0730 2.3799 0.0000 0.0000 1.6619 0.0000 0.0000 -4.8712 0.0525 -3.5386 1.3250 0.0000 0.0000 2.6618 0.0000 0.0000 2.1933 -0.5232 -3.3011 4.0790 0.0000 0.0000 9.5301 0.0000 0.0000 9.5335 -1.2451 -2.4251 10.4067 0.0000 0.0000 18.8082 0.0000 0.0000 0.0000 0.0000 0.0000 91.2129 1.1256 -1.1020 -2.5928 8.2295 7.7596 161.5216 2.9752 -178.4336 -54.5273 -9.9977 -9.8980 20.3819 0.0000 0.0000 12.6949 0.0000 0.0000 16.8489 0.6451 -3.2541 110.0000 0.0000 0.0000 37.1906 0.0000 0.0000 9.9411 0.3210 1.0821 110.0000 0.0000 0.0000 14.8012 0.0000 0.0000 2.0410 -0.0454 1.0104 110.0000 0.0000 0.0000 10.2179 0.0000 0.0000 -8.6345 -1.2999 2.8727 110.0000 0.0000 0.0000 18.4676 0.0000 0.0000 0.0000 0.0000 0.0000 0.0000 0.0000 0.0000 0.0000 0.0000 0.0000 0.0000 0.0000 0.0000 0.0000 0.0000 0.0000 0.0000 0.0000 0.0000
0.0000 95.0000 0.0000 0.0000 0.0000 0.0000 0.0000 0.0000 0.0000 0.0000 0.0000 0.0000 0.0000 0.0000 0.0000 0.0000 0.0000 0.0000 0.0000 0.0000 0.0000 0.0000 0.0000 0.0000 -77.4840 2.8555 3.5584 -14.5147 -8.8309 15.3431 -171.7875 -26.6581 154.6460 44.3738 -8.0484 6.7349 15.7222 0.0000 0.0000 10.5777 0.0000 0.0000 -12.2381 0.5530 -0.0730 2.3799 0.0000 0.0000 1.6619 0.0000 0.0000 -4.8712 0.0525 -3.5386 1.3250 0.0000 0.0000 2.6618 0.0000 0.0000 2.1933 -0.5232 -3.3011 4.0790 0.0000 0.0000 9.5301 0.0000 0.0000 9.5335 -1.2451 -2.4251 10.4067 0.0000 0.0000 18.8082 0.0000 0.0000 0.0000 0.0000 0.0000 91.1194 1.0081 -0.9886 -2.6636 8.3129 7.8362 161.3499 3.1823 -178.6308 -54.5273 -9.9977 -9.8980 20.3819 0.0000 0.0000 12.6949 0.0000 0.0000 16.8489 0.6451 -3.2541 110.0000 0.0000 0.0000 37.1906 0.0000 0.0000 9.9411 0.3210 1.0821 110.0000 0.0000 0.0000 14.8012 0.0000 0.0000 2.0410 -0.0454 1.0104 110.0000 0.0000 0.0000 10.2179 0.0000 0.0000 -8.6345 -1.2999 2.8727 110.0000 0.0000 0.0000 18.4676 0.0000 0.0000 0.0000 0.0000 0.0000 0.0000 0.0000 0.0000 0.0000 0.0000 0.0000 0.0000 0.0000 0.0000 0.0000 0.0000 0.0000 0.0000 0.0000 0.0000
0.0000 95.0000 0.0000 0.0000 0.0000 0.0000 0.0000 0.0000 0.0000 0.0000 0.0000 0.0000 0.0000 0.0000 0.0000 0.0000 0.0000 0.0000 0.0000 0.0000 0.0000 0.0000 0.0000 0.0000 -77.6794 2.6186 3.2519 -14.2220 -9.0580 15.4619 -171.6745 -26.5022 154.7349 44.3738 -8.0484 6.7349 15.7222 0.0000 0.0000 10.5777 0.0000 0.0000 -12.2381 0.5530 -0.0730 2.3799 0.0000 0.0000 1.6619 0.0000 0.0000 -4.8712 0.0525 -3.5386 1.3250 0.0000 0.0000 2.6618 0.0000 0.0000 2.1933 -0.5232 -3.3011 4.0790 0.0000 0.0000 9.5301 0.0000 0.0000 9.5335 -1.2451 -2.4251 10.4067 0.0000 0.0000 18.8082 0.0000 0.0000 0.0000 0.0000 0.0000 90.9744 1.0799 -1.0617 -2.4753 8.5181 8.0759 161.3658 3.3267 -178.7816 -54.5273 -9.9977 -9.8980 20.3819 0.0000 0.0000 12.6949 0.0000 0.0000 16.8489 0.6451 -3.2541 110.0000 0.0000 0.0000 37.1906 0.0000 0.0000 9.9411 0.3210 1.0821 110.0000 0.0000 0.0000 14.8012 0.0000 0.0000 2.0410 -0.0454 1.0104 110.0000 0.0000 0.0000 10.2179 0.0000 0.0000 -8.6345 -1.2999 2.8727 110.0000 0.0000 0.0000 18.4676 0.0000 0.0000 0.0000 0.0000 0.0000 0.0000 0.0000 0.0000 0.0000 0.0000 0.0000 0.0000 0.0000 0.0000 0.0000 0.0000 0.0000 0.0000 0.0000 0.0000
0.0000 95.0000 0.0000 0.0000 0.0000 0.0000 0.0000 0.0000 0.0000 0.0000 0.0000 0.0000 0.0000 0.0000 0.0000 0.0000 0.0000 0.0000 0.0000 0.0000 0.0000 0.0000 0.0000 0.0000 -77.7789 2.1895 2.7143 -14.0942 -9.1371 15.3755 -171.8386 -26.0193 155.3194 44.3738 -8.0484 6.7349 15.7222 0.0000 0.0000 10.5777 0.0000 0.0000 -12.2381 0.5530 -0.0730 2.3799 0.0000 0.0000 1.6619 0.0000 0.0000 -4.8712 0.0525 -3.5386 1.3250 0.0000 0.0000 2.6618 0.0000 0.0000 2.1933 -0.5232 -3.3011 4.0790 0.0000 0.0000 9.5301 0.0000 0.0000 9.5335 -1.2451 -2.4251 10.4067 0.0000 0.0000 18.8082 0.0000 0.0000 0.0000 0.0000 0.0000 90.9225 0.9908 -0.9750 -2.5411 8.9526 8.4809 161.1937 3.8375 -179.2959 -54.5273 -9.9977 -9.8980 20.3819 0.0000 0.0000 12.6949 0.0000 0.0000 16.8489 0.6451 -3.2541 110.0000 0.0000 0.0000 37.1906 0.0000 0.0000 9.9411 0.3210 1.0821 110.0000 0.0000 0.0000 14.8012 0.0000 0.0000 2.0410 -0.0454 1.0104 110.0000 0.0000 0.0000 10.2179 0.0000 0.0000 -8.6345 -1.2999 2.8727 110.0000 0.0000 0.0000 18.4676 0.0000 0.0000 0.0000 0.0000 0.0000 0.0000 0.0000 0.0000 0.0000 0.0000 0.0000 0.0000 0.0000 0.0000 0.0000 0.0000 0.0000 0.0000 0.0000 0.0000
0.0000 95.0000 0.0000 0.0000 0.0000 0.0000 0.0000 0.0000 0.0000 0.0000 0.0000 0.0000 0.0000 0.0000 0.0000 0.0000 0.0000 0.0000 0.0000 0.0000 0.0000 0.0000 0.0000 0.0000 -77.8831 1.7928 2.2184 -14.3744 -9.4471 15.8033 -172.1611 -26.0277 155.5018 44.3738 -8.0484 6.7349 15.7222 0.0000 0.0000 10.5777 0.0000 0.0000 -12.2381 0.5530 -0.0730 2.3799 0.0000 0.0000 1.6619 0.0000 0.0000 -4.8712 0.0525 -3.5386 1.3250 0.0000 0.0000 2.6618 0.0000 0.0000 2.1933 -0.5232 -3.3011 4.0790 0.0000 0.0000 9.5301 0.0000 0.0000 9.5335 -1.2451 -2.4251 10.4067 0.0000 0.0000 18.8082 0.0000 0.0000 0.0000 0.0000 0.0000 90.9280 1.2362 -1.2163 -2.6617 9.4638 8.9593 161.0106 4.0960 -179.5500 -54.5273 -9.9977 -9.8980 20.3819 0.0000 0.0000 12.6949 0.0000 0.0000 16.8489 0.6451 -3.2541 110.0000 0.0000 0.0000 37.1906 0.0000 0.0000 9.9411 0.3210 1.0821 110.0000 0.0000 0.0000 14.8012 0.0000 0.0000 2.0410 -0.0454 1.0104 110.0000 0.0000 0.0000 10.2179 0.0000 0.0000 -8.6345 -1.2999 2.8727 110.0000 0.0000 0.0000 18.4676 0.0000 0.0000 0.0000 0.0000 0.0000 0.0000 0.0000 0.0000 0.0000 0.0000 0.0000 0.0000 0.0000 0.0000 0.0000 0.0000 0.0000 0.0000 0.0000 0.0000
0.0000 95.0000 0.0000 0.0000 0.0000 0.0000 0.0000 0.0000 0.0000 0.0000 0.0000 0.0000 0.0000 0.0000 0.0000 0.0000 0.0000 0.0000 0.0000 0.0000 0.0000 0.0000 0.0000 0.0000 -77.6710 2.4148 2.9994 -14.5027 -8.9642 15.3498 -172.1172 -26.2815 155.2215 44.3738 -8.0484 6.7349 15.7222 0.0000 0.0000 10.5777 0.0000 0.0000 -12.2381 0.5530 -0.0730 2.3799 0.0000 0.0000 1.6619 0.0000 0.0000 -4.8712 0.0525 -3.5386 1.3250 0.0000 0.0000 2.6618 0.0000 0.0000 2.1933 -0.5232 -3.3011 4.0790 0.0000 0.0000 9.5301 0.0000 0.0000 9.5335 -1.2451 -2.4251 10.4067 0.0000 0.0000 18.8082 0.0000 0.0000 0.0000 0.0000 0.0000 90.9279 1.1311 -1.1129 -2.2897 9.1969 8.7515 161.4128 3.9341 -179.4141 -54.5273 -9.9977 -9.8980 20.3819 0.0000 0.0000 12.6949 0.0000 0.0000 16.8489 0.6451 -3.2541 110.0000 0.0000 0.0000 37.1906 0.0000 0.0000 9.9411 0.3210 1.0821 110.0000 0.0000 0.0000 14.8012 0.0000 0.0000 2.0410 -0.0454 1.0104 110.0000 0.0000 0.0000 10.2179 0.0000 0.0000 -8.6345 -1.2999 2.8727 110.0000 0.0000 0.0000 18.4676 0.0000 0.0000 0.0000 0.0000 0.0000 0.0000 0.0000 0.0000 0.0000 0.0000 0.0000 0.0000 0.0000 0.0000 0.0000 0.0000 0.0000 0.0000 0.0000 0.0000
0.0000 95.0000 0.0000 0.0000 0.0000 0.0000 0.0000 0.0000 0.0000 0.0000 0.0000 0.0000 0.0000 0.0000 0.0000 0.0000 0.0000 0.0000 0.0000 0.0000 0.0000 0.0000 0.0000 0.0000 -77.4291 2.7942 3.4855 -14.4634 -8.7364 15.1704 -171.7951 -26.4461 154.8639 44.3738 -8.0484 6.7349 15.7222 0.0000 0.0000 10.5777 0.0000 0.0000 -12.2381 0.5530 -0.0730 2.3799 0.0000 0.0000 1.6619 0.0000 0.0000 -4.8712 0.0525 -3.5386 1.3250 0.0000 0.0000 2.6618 0.0000 0.0000 2.1933 -0.5232 -3.3011 4.0790 0.0000 0.0000 9.5301 0.0000 0.0000 9.5335 -1.2451 -2.4251 10.4067 0.0000 0.0000 18.8082 0.0000 0.0000 0.0000 0.0000 0.0000 90.9060 1.3018 -1.2814 -2.0951 9.0981 8.6941 161.5970 3.6756 -179.1625 -54.5273 -9.9977 -9.8980 20.3819 0.0000 0.0000 12.6949 0.0000 0.0000 16.8489 0.6451 -3.2541 110.0000 0.0000 0.0000 37.1906 0.0000 0.0000 9.9411 0.3210 1.0821 110.0000 0.0000 0.0000 14.8012 0.0000 0.0000 2.0410 -0.0454 1.0104 110.0000 0.0000 0.0000 10.2179 0.0000 0.0000 -8.6345 -1.2999 2.8727 110.0000 0.0000 0.0000 18.4676 0.0000 0.0000 0.0000 0.0000 0.0000 0.0000 0.0000 0.0000 0.0000 0.0000 0.0000 0.0000 0.0000 0.0000 0.0000 0.0000 0.0000 0.0000 0.0000 0.0000
0.0000 95.0000 0.0000 0.0000 0.0000 0.0000 0.0000 0.0000 0.0000 0.0000 0.0000 0.0000 0.0000 0.0000 0.0000 0.0000 0.0000 0.0000 0.0000 0.0000 0.0000 0.0000 0.0000 0.0000 -77.3791 3.2084 4.0057 -14.6119 -8.2551 14.6082 -172.0743 -26.4764 155.0006 44.3738 -8.0484 6.7349 15.7222 0.0000 0.0000 10.5777 0.0000 0.0000 -12.2381 0.5530 -0.0730 2.3799 0.0000 0.0000 1.6619 0.0000 0.0000 -4.8712 0.0525 -3.5386 1.3250 0.0000 0.0000 2.6618 0.0000 0.0000 2.1933 -0.5232 -3.3011 4.0790 0.0000 0.0000 9.5301 0.0000 0.0000 9.5335 -1.2451 -2.4251 10.4067 0.0000 0.0000 18.8082 0.0000 0.0000 0.0000 0.0000 0.0000 90.6810 0.9099 -0.8991 -1.8877 9.4756 9.1013 161.5145 4.4459 -179.9515 -54.5273 -9.9977 -9.8980 20.3819 0.0000 0.0000 12.6949 0.0000 0.0000 16.8489 0.6451 -3.2541 110.0000 0.0000 0.0000 37.1906 0.0000 0.0000 9.9411 0.3210 1.0821 110.0000 0.0000 0.0000 14.8012 0.0000 0.0000 2.0410 -0.0454 1.0104 110.0000 0.0000 0.0000 10.2179 0.0000 0.0000 -8.6345 -1.2999 2.8727 110.0000 0.0000 0.0000 18.4676 0.0000 0.0000 0.0000 0.0000 0.0000 0.0000 0.0000 0.0000 0.0000 0.0000 0.0000 0.0000 0.0000 0.0000 0.0000 0.0000 0.0000 0.0000 0.0000 0.0000
0.0000 95.0000 0.0000 0.0000 0.0000 0.0000 0.0000 0.0000 0.0000 0.0000 0.0000 0.0000 0.0000 0.0000 0.0000 0.0000 0.0000 0.0000 0.0000 0.0000 0.0000 0.0000 0.0000 0.0000 -77.0496 3.2652 4.1006 -16.2769 -6.8455 13.0001 -174.4075 -25.6288 157.1927 44.3738 -8.0484 6.7349 15.7222 0.0000 0.0000 10.5777 0.0000 0.0000 -12.2381 0.5530 -0.0730 2.3799 0.0000 0.0000 1.6619 0.0000 0.0000 -4.8712 0.0525 -3.5386 1.3250 0.0000 0.0000 2.6618 0.0000 0.0000 2.1933 -0.5232 -3.3011 4.0790 0.0000 0.0000 9.5301 0.0000 0.0000 9.5335 -1.2451 -2.4251 10.4067 0.0000 0.0000 18.8082 0.0000 0.0000 0.0000 0.0000 0.0000 89.4418 0.2312 -0.2334 -0.0277 9.6262 9.7187 162.0485 5.4438 -181.0139 -54.5273 -9.9977 -9.8980 20.3819 0.0000 0.0000 12.6949 0.0000 0.0000 16.8489 0.6451 -3.2541 110.0000 0.0000 0.0000 37.1906 0.0000 0.0000 9.9411 0.3210 1.0821 110.0000 0.0000 0.0000 14.8012 0.0000 0.0000 2.0410 -0.0454 1.0104 110.0000 0.0000 0.0000 10.2179 0.0000 0.0000 -8.6345 -1.2999 2.8727 110.0000 0.0000 0.0000 18.4676 0.0000 0.0000 0.0000 0.0000 0.0000 0.0000 0.0000 0.0000 0.0000 0.0000 0.0000 0.0000 0.0000 0.0000 0.0000 0.0000 0.0000 0.0000 0.0000 0.0000
0.0000 95.0000 0.0000 0.0000 0.0000 0.0000 0.0000 0.0000 0.0000 0.0000 0.0000 0.0000 0.0000 0.0000 0.0000 0.0000 0.0000 0.0000 0.0000 0.0000 0.0000 0.0000 0.0000 0.0000 -75.8902 2.2021 2.8239 -20.7352 -4.5881 10.1170 -179.5869 -22.8819 162.4874 44.3738 -8.0484 6.7349 15.7222 0.0000 0.0000 10.5777 0.0000 0.0000 -12.2381 0.5530 -0.0730 2.3799 0.0000 0.0000 1.6619 0.0000 0.0000 -4.8712 0.0525 -3.5386 1.3250 0.0000 0.0000 2.6618 0.0000 0.0000 2.1933 -0.5232 -3.3011 4.0790 0.0000 0.0000 9.5301 0.0000 0.0000 9.5335 -1.2451 -2.4251 10.4067 0.0000 0.0000 18.8082 0.0000 0.0000 0.0000 0.0000 0.0000 87.7200 -1.1489 1.1955 3.6027 12.7317 14.1377 162.8743 10.4921 -186.2049 -54.5273 -9.9977 -9.8980 20.3819 0.0000 0.0000 12.6949 0.0000 0.0000 16.8489 0.6451 -3.2541 110.0000 0.0000 0.0000 37.1906 0.0000 0.0000 9.9411 0.3210 1.0821 110.0000 0.0000 0.0000 14.8012 0.0000 0.0000 2.0410 -0.0454 1.0104 110.0000 0.0000 0.0000 10.2179 0.0000 0.0000 -8.6345 -1.2999 2.8727 110.0000 0.0000 0.0000 18.4676 0.0000 0.0000 0.0000 0.0000 0.0000 0.0000 0.0000 0.0000 0.0000 0.0000 0.0000 0.0000 0.0000 0.0000 0.0000 0.0000 0.0000 0.0000 0.0000 0.0000
0.0000 95.0000 0.0000 0.0000 0.0000 0.0000 0.0000 0.0000 0.0000 0.0000 0.0000 0.0000 0.0000 0.0000 0.0000 0.0000 0.0000 0.0000 0.0000 0.0000 0.0000 0.0000 0.0000 0.0000 -73.8272 0.3828 0.5096 -28.4548 0.4073 -0.5682 -188.0460 -12.8649 174.3464 44.3738 -8.0484 6.7349 15.7222 0.0000 0.0000 10.5777 0.0000 0.0000 -12.2381 0.5530 -0.0730 2.3799 0.0000 0.0000 1.6619 0.0000 0.0000 -4.8712 0.0525 -3.5386 1.3250 0.0000 0.0000 2.6618 0.0000 0.0000 2.1933 -0.5232 -3.3011 4.0790 0.0000 0.0000 9.5301 0.0000 0.0000 9.5335 -1.2451 -2.4251 10.4067 0.0000 0.0000 18.8082 0.0000 0.0000 0.0000 0.0000 0.0000 85.5320 -4.7002 5.0813 9.3918 29.1220 36.5301 150.4957 35.9243 -207.5218 -51.4211 -10.4631 -3.3399 20.4377 0.0000 0.0000 11.2616 0.0000 0.0000 19.8075 0.8921 1.5973 6.4502 0.0000 0.0000 2.5668 0.0000 0.0000 10.0774 -0.0005 4.7781 5.2271 0.0000 0.0000 1.8653 0.0000 0.0000 0.4919 -0.5086 3.6985 13.8405 0.0000 0.0000 2.6006 0.0000 0.0000 -9.4513 -1.5073 3.6460 13.7985 0.0000 0.0000 7.3305 0.0000 0.0000 0.0000 0.0000 0.0000 0.0000 0.0000 0.0000 0.0000 0.0000 0.0000 0.0000 0.0000 0.0000 0.0000 0.0000 0.0000 0.0000 0.0000 0.0000
0.0000 95.0000 0.0000 0.0000 0.0000 0.0000 0.0000 0.0000 0.0000 0.0000 0.0000 0.0000 0.0000 0.0000 0.0000 0.0000 0.0000 0.0000 0.0000 0.0000 0.0000 0.0000 0.0000 0.0000 -70.5773 -0.6279 -0.8872 -41.7847 1.3577 -6.8365 -192.1583 -7.6228 181.0996 41.6899 -6.9406 8.1745 10.9421 0.0000 0.0000 6.7451 0.0000 0.0000 -24.3373 1.0019 -2.3969 110.0000 0.0000 0.0000 51.0433 0.0000 0.0000 -17.3484 -0.0990 -5.4206 110.0000 0.0000 0.0000 21.5670 0.0000 0.0000 -8.0353 -0.4175 -4.1087 110.0000 0.0000 0.0000 13.8157 0.0000 0.0000 3.9073 -0.7506 -1.6764 110.0000 0.0000 0.0000 13.2645 0.0000 0.0000 0.0000 0.0000 0.0000 83.6663 -8.1504 9.1013 13.9577 56.2883 70.8565 -5.7725 66.9519 -304.6408 -48.5370 -10.0374 -2.5093 15.7692 0.0000 0.0000 23.6725 0.0000 0.0000 18.3097 0.1655 -31.6525 52.8038 0.0000 0.0000 12.8665 0.0000 0.0000 67.2363 -15.8651 28.4454 39.6542 0.0000 0.0000 75.4877 0.0000 0.0000 57.4467 -17.4570 28.4688 57.7405 0.0000 0.0000 90.0000 0.0000 0.0000 46.0795 -20.9286 30.0959 69.0350 0.0000 0.0000 74.4796 0.0000 0.0000 0.0000 0.0000 0.0000 0.0000 0.0000 0.0000 0.0000 0.0000 0.0000 0.0000 0.0000 0.0000 0.0000 0.0000 0.0000 0.0000 0.0000 0.0000
0.0000 95.0000 0.0000 0.0000 0.0000 0.0000 0.0000 0.0000 0.0000 0.0000 0.0000 0.0000 0.0000 0.0000 0.0000 0.0000 0.0000 0.0000 0.0000 0.0000 0.0000 0.0000 0.0000 0.0000 -68.2855 -1.9315 -2.8479 -55.5564 0.3396 -17.3033 -202.1500 -0.4943 188.0190 40.8583 -7.2426 6.4489 9.7356 0.0000 0.0000 3.1853 0.0000 0.0000 -24.4069 0.8730 -6.2901 75.7702 0.0000 0.0000 85.4258 0.0000 0.0000 -16.8559 -0.6260 -8.9951 110.0000 0.0000 0.0000 40.8171 0.0000 0.0000 -7.8431 -1.1109 -7.3768 110.0000 0.0000 0.0000 20.8501 0.0000 0.0000 3.9324 -1.4250 -4.1740 110.0000 0.0000 0.0000 23.1220 0.0000 0.0000 0.0000 0.0000 0.0000 81.8160 -10.3260 11.9067 37.6876 79.3815 117.4219 -86.9092 30.1948 -420.6052 -57.9262 -14.3127 15.5484 16.7891 0.0000 0.0000 11.2385 0.0000 0.0000 15.3398 0.1622 -11.3312 2.9491 0.0000 0.0000 6.6440 0.0000 0.0000 -1.8698 2.5323 111.8938 32.4744 0.0000 0.0000 28.8522 0.0000 0.0000 -11.8230 -6.8959 116.9666 38.3131 0.0000 0.0000 86.9404 0.0000 0.0000 -23.2751 -18.6899 121.5259 39.0737 0.0000 0.0000 70.4969 0.0000 0.0000 0.0000 0.0000 0.0000 0.0000 0.0000 0.0000 0.0000 0.0000 0.0000 0.0000 0.0000 0.0000 0.0000 0.0000 0.0000 0.0000 0.0000 0.0000
0.0000 95.0000 0.0000 0.0000 0.0000 0.0000 0.0000 0.0000 0.0000 0.0000 0.0000 0.0000 0.0000 0.0000 0.0000 0.0000 0.0000 0.0000 0.0000 0.0000 0.0000 0.0000 0.0000 0.0000 -65.6805 -3.4655 -5.3668 -66.8145 -3.9330 -39.5273 -193.1731 5.3688 193.2372 31.4660 -7.1354 0.5368 9.1514 0.0000 0.0000 2.2160 0.0000 0.0000 -34.4884 -1.4519 -24.2457 92.0414 0.0000 0.0000 79.6903 0.0000 0.0000 -26.2855 -4.8835 -25.4714 110.0000 0.0000 0.0000 32.5083 0.0000 0.0000 -18.5058 -6.2525 -23.5003 110.0000 0.0000 0.0000 22.9664 0.0000 0.0000 -8.3717 -6.6880 -18.9286 110.0000 0.0000 0.0000 29.9233 0.0000 0.0000 0.0000 0.0000 0.0000 77.5056 -13.1053 16.2883 101.9967 81.0043 191.3477 -56.2490 46.8898 -383.3306 -41.8233 -15.4184 21.9558 16.5031 0.0000 0.0000 14.9181 0.0000 0.0000 9.3586 1.4649 10.6393 6.9138 0.0000 0.0000 3.0785 0.0000 0.0000 6.6485 -7.1399 98.8639 43.5282 0.0000 0.0000 54.5715 0.0000 0.0000 -0.5103 -17.2498 99.6891 60.1128 0.0000 0.0000 79.9638 0.0000 0.0000 -12.9102 -23.9792 99.6450 48.3208 0.0000 0.0000 75.3155 0.0000 0.0000 0.0000 0.0000 0.0000 0.0000 0.0000 0.0000 0.0000 0.0000 0.0000 0.0000 0.0000 0.0000 0.0000 0.0000 0.0000 0.0000 0.0000 0.0000
0.0000 95.0000 0.0000 0.0000 0.0000 0.0000 0.0000 0.0000 0.0000 0.0000 0.0000 0.0000 0.0000 0.0000 0.0000 0.0000 0.0000 0.0000 0.0000 0.0000 0.0000 0.0000 0.0000 0.0000 -64.0129 -4.0028 -6.4002 -68.9546 -8.0845 -72.9787 -203.8742 32.7896 200.7772 37.8212 -10.6522 -6.4060 8.5058 0.0000 0.0000 3.7977 0.0000 0.0000 -22.1147 0.5685 -30.3137 92.9479 0.0000 0.0000 81.3126 0.0000 0.0000 -12.8917 -3.1351 -32.0036 110.0000 0.0000 0.0000 27.7953 0.0000 0.0000 -4.8444 -5.4275 -30.6756 110.0000 0.0000 0.0000 25.9637 0.0000 0.0000 3.3197 -7.8158 -27.4115 105.2366 0.0000 0.0000 67.2569 0.0000 0.0000 0.0000 0.0000 0.0000 74.2166 -13.8845 18.2865 125.7750 76.2809 222.2324 0.0389 20.0243 -318.9653 -32.4341 -11.1673 9.7184 27.2334 0.0000 0.0000 17.1661 0.0000 0.0000 10.5168 0.7110 2.7209 4.7097 0.0000 0.0000 5.0837 0.0000 0.0000 46.4103 -18.2842 45.9221 39.2543 0.0000 0.0000 40.5324 0.0000 0.0000 40.4375 -22.6175 45.8082 40.8489 0.0000 0.0000 79.0800 0.0000 0.0000 30.1408 -25.9722 45.1019 31.5545 0.0000 0.0000 50.6314 0.0000 0.0000 0.0000 0.0000 0.0000 0.0000 0.0000 0.0000 0.0000 0.0000 0.0000 0.0000 0.0000 0.0000 0.0000 0.0000 0.0000 0.0000 0.0000 0.0000
0.0000 95.0000 0.0000 0.0000 0.0000 0.0000 0.0000 0.0000 0.0000 0.0000 0.0000 0.0000 0.0000 0.0000 0.0000 0.0000 0.0000 0.0000 0.0000 0.0000 0.0000 0.0000 0.0000 0.0000 -62.6768 -4.7493 -7.7919 -61.5194 -2.9288 -107.4257 -190.7793 58.6866 222.2660 43.8012 -13.1388 -13.1097 8.3855 0.0000 0.0000 4.5933 0.0000 0.0000 -13.0094 2.9943 -35.7690 92.0112 0.0000 0.0000 83.0542 0.0000 0.0000 -3.4910 -1.0443 -38.0722 110.0000 0.0000 0.0000 25.3021 0.0000 0.0000 4.5993 -4.0547 -37.3280 110.0000 0.0000 0.0000 28.6076 0.0000 0.0000 11.8524 -7.7972 -34.8462 70.4356 0.0000 0.0000 90.0000 0.0000 0.0000 0.0000 0.0000 0.0000 72.2054 -15.0055 20.4734 140.2546 73.5157 239.8528 -35.0332 34.8683 -368.1067 -44.1345 -12.7281 11.4045 14.6935 0.0000 0.0000 7.5417 0.0000 0.0000 8.8388 0.6995 2.9424 15.9354 0.0000 0.0000 2.5681 0.0000 0.0000 6.4287 -6.2923 93.5400 45.2648 0.0000 0.0000 41.2961 0.0000 0.0000 -1.1570 -15.9131 97.2099 53.4169 0.0000 0.0000 75.0451 0.0000 0.0000 -14.4906 -21.6612 97.4728 47.8009 0.0000 0.0000 78.9026 0.0000 0.0000 0.0000 0.0000 0.0000 0.0000 0.0000 0.0000 0.0000 0.0000 0.0000 0.0000 0.0000 0.0000 0.0000 0.0000 0.0000 0.0000 0.0000 0.0000
0.0000 95.0000 0.0000 0.0000 0.0000 0.0000 0.0000 0.0000 0.0000 0.0000 0.0000 0.0000 0.0000 0.0000 0.0000 0.0000 0.0000 0.0000 0.0000 0.0000 0.0000 0.0000 0.0000 0.0000 -62.6135 -6.2034 -10.1831 -55.9103 19.8866 -140.9257 -141.7994 63.2935 269.5634 57.2048 -15.8103 -26.8414 9.0487 0.0000 0.0000 4.8973 0.0000 0.0000 1.7722 9.2141 -45.4326 17.7082 0.0000 0.0000 90.0000 0.0000 0.0000 11.9789 4.9737 -49.7467 59.2651 0.0000 0.0000 90.0000 0.0000 0.0000 20.2902 0.8585 -50.4860 88.5793 0.0000 0.0000 83.6375 0.0000 0.0000 26.7055 -5.3067 -50.4729 21.8157 0.0000 0.0000 90.0000 0.0000 0.0000 0.0000 0.0000 0.0000 72.0257 -15.9001 21.7507 148.3163 72.2145 248.0062 -35.6144 37.4969 -374.6279 -49.0886 -13.3891 12.7430 15.9445 0.0000 0.0000 9.7916 0.0000 0.0000 7.6158 1.3314 8.7068 25.4216 0.0000 0.0000 9.3890 0.0000 0.0000 0.4166 -0.4567 100.0292 48.3781 0.0000 0.0000 70.7590 0.0000 0.0000 -6.8352 -11.2306 103.4425 55.9411 0.0000 0.0000 90.0000 0.0000 0.0000 -20.1160 -17.9923 104.7636 47.5507 0.0000 0.0000 90.0000 0.0000 0.0000 0.0000 0.0000 0.0000 0.0000 0.0000 0.0000 0.0000 0.0000 0.0000 0.0000 0.0000 0.0000 0.0000 0.0000 0.0000 0.0000 0.0000 0.0000
0.0000 95.0000 0.0000 0.0000 0.0000 0.0000 0.0000 0.0000 0.0000 0.0000 0.0000 0.0000 0.0000 0.0000 0.0000 0.0000 0.0000 0.0000 0.0000 0.0000 0.0000 0.0000 0.0000 0.0000 -63.0916 -7.3618 -11.9647 -60.4851 41.5198 -162.0178 -118.3349 63.0794 271.6216 69.9249 -15.3795 -38.2318 10.2762 0.0000 0.0000 5.6889 0.0000 0.0000 9.4612 14.8629 -54.1579 10.0689 0.0000 0.0000 14.7639 0.0000 0.0000 21.9654 11.6840 -60.3703 13.0506 0.0000 0.0000 61.5661 0.0000 0.0000 31.0462 7.1673 -62.3658 19.3492 0.0000 0.0000 36.7798 0.0000 0.0000 37.4600 -0.5574 -66.2384 12.6370 0.0000 0.0000 4.6788 0.0000 0.0000 0.0000 0.0000 0.0000 72.4407 -16.4147 22.2806 157.5110 72.4387 256.0512 -25.0667 8.7076 -343.4423 -36.0652 -12.3702 12.2722 18.7512 0.0000 0.0000 13.6729 0.0000 0.0000 21.7267 0.7695 19.3659 6.4687 0.0000 0.0000 4.4927 0.0000 0.0000 41.4660 -26.0950 67.7234 34.3976 0.0000 0.0000 20.6460 0.0000 0.0000 37.3704 -33.1054 66.3294 53.7295 0.0000 0.0000 82.4421 0.0000 0.0000 26.2385 -37.1293 65.2615 39.3429 0.0000 0.0000 85.8028 0.0000 0.0000 0.0000 0.0000 0.0000 0.0000 0.0000 0.0000 0.0000 0.0000 0.0000 0.0000 0.0000 0.0000 0.0000 0.0000 0.0000 0.0000 0.0000 0.0000
0.0000 95.0000 0.0000 0.0000 0.0000 0.0000 0.0000 0.0000 0.0000 0.0000 0.0000 0.0000 0.0000 0.0000 0.0000 0.0000 0.0000 0.0000 0.0000 0.0000 0.0000 0.0000 0.0000 0.0000 -63.5024 -8.4261 -13.5765 -71.8736 56.5700 -180.6021 1.9259 68.9608 372.3387 56.4589 -20.3770 -57.8927 21.0939 0.0000 0.0000 5.6619 0.0000 0.0000 -4.4356 15.2180 -88.1949 7.4226 0.0000 0.0000 4.2783 0.0000 0.0000 6.6037 6.5514 -94.3153 18.1033 0.0000 0.0000 90.0000 0.0000 0.0000 14.7632 -2.0635 -94.0815 18.7616 0.0000 0.0000 90.0000 0.0000 0.0000 23.7532 -11.7622 -92.5255 13.2433 0.0000 0.0000 10.4602 0.0000 0.0000 0.0000 0.0000 0.0000 72.8141 -17.1083 23.0569 171.3541 71.0499 269.1342 -33.3251 16.3918 -374.6622 -48.0769 -14.7556 19.3802 15.3382 0.0000 0.0000 6.7912 0.0000 0.0000 8.4159 2.2342 17.3879 7.8064 0.0000 0.0000 5.3272 0.0000 0.0000 9.7738 -11.7251 105.2042 47.1309 0.0000 0.0000 84.6813 0.0000 0.0000 3.1064 -23.1626 105.4946 58.8845 0.0000 0.0000 90.0000 0.0000 0.0000 -11.7124 -26.0392 101.8284 34.7495 0.0000 0.0000 62.4265 0.0000 0.0000 0.0000 0.0000 0.0000 0.0000 0.0000 0.0000 0.0000 0.0000 0.0000 0.0000 0.0000 0.0000 0.0000 0.0000 0.0000 0.0000 0.0000 0.0000
0.0000 95.0000 0.0000 0.0000 0.0000 0.0000 0.0000 0.0000 0.0000 0.0000 0.0000 0.0000 0.0000 0.0000 0.0000 0.0000 0.0000 0.0000 0.0000 0.0000 0.0000 0.0000 0.0000 0.0000 -66.0083 -9.4247 -14.4659 -108.8323 65.4334 -224.8704 18.3728 42.4251 423.4271 75.2009 -14.5154 -40.7298 65.9410 0.0000 0.0000 27.2126 0.0000 0.0000 1.2683 5.5032 -28.5201 93.9157 0.0000 0.0000 16.5532 0.0000 0.0000 0.4187 0.8657 -133.1487 14.4546 0.0000 0.0000 11.0835 0.0000 0.0000 8.3039 -16.9567 -135.5534 22.4976 0.0000 0.0000 52.2758 0.0000 0.0000 16.3218 -36.9734 -135.4230 18.1040 0.0000 0.0000 62.3232 0.0000 0.0000 0.0000 0.0000 0.0000 73.8958 -17.9565 23.7266 187.5584 66.1347 285.0390 -31.9894 8.6039 -388.3226 -48.7627 -14.6912 19.0540 33.4559 0.0000 0.0000 13.8497 0.0000 0.0000 13.7812 0.6416 0.4327 8.5396 0.0000 0.0000 5.9593 0.0000 0.0000 -0.6089 0.7491 106.5606 48.5543 0.0000 0.0000 51.4524 0.0000 0.0000 -8.0400 -11.0384 110.3561 56.1058 0.0000 0.0000 82.5733 0.0000 0.0000 -21.4384 -17.8189 109.8126 42.8752 0.0000 0.0000 79.4824 0.0000 0.0000 0.0000 0.0000 0.0000 0.0000 0.0000 0.0000 0.0000 0.0000 0.0000 0.0000 0.0000 0.0000 0.0000 0.0000 0.0000 0.0000 0.0000 0.0000
0.0000 95.0000 0.0000 0.0000 0.0000 0.0000 0.0000 0.0000 0.0000 0.0000 0.0000 0.0000 0.0000 0.0000 0.0000 0.0000 0.0000 0.0000 0.0000 0.0000 0.0000 0.0000 0.0000 0.0000 -68.3035 -10.4716 -15.3864 -141.3513 62.3291 -261.2147 23.9572 40.9581 426.7147 69.2787 -14.7037 -14.3829 13.6593 0.0000 0.0000 62.1790 0.0000 0.0000 -10.2494 0.5885 -1.4255 8.6282 0.0000 0.0000 11.1824 0.0000 0.0000 19.9022 39.7467 -132.9907 11.1481 0.0000 0.0000 19.5708 0.0000 0.0000 26.4938 23.1868 -139.5348 21.7895 0.0000 0.0000 80.3674 0.0000 0.0000 35.2910 0.7811 -145.6485 19.1316 0.0000 0.0000 87.0181 0.0000 0.0000 0.0000 0.0000 0.0000 74.8426 -18.7220 24.3168 196.2945 61.1301 293.4795 -29.4843 12.3859 -388.7680 -49.9017 -15.5771 23.4745 55.0371 0.0000 0.0000 27.0084 0.0000 0.0000 18.1136 0.8174 0.4895 13.0947 0.0000 0.0000 8.4436 0.0000 0.0000 1.5429 -2.5255 121.9309 26.9971 0.0000 0.0000 25.5361 0.0000 0.0000 -8.2039 -13.6948 123.9851 35.2380 0.0000 0.0000 90.0000 0.0000 0.0000 -21.5902 -21.6369 122.7920 31.9284 0.0000 0.0000 90.0000 0.0000 0.0000 0.0000 0.0000 0.0000 0.0000 0.0000 0.0000 0.0000 0.0000 0.0000 0.0000 0.0000 0.0000 0.0000 0.0000 0.0000 0.0000 0.0000 0.0000
0.0000 95.0000 0.0000 0.0000 0.0000 0.0000 0.0000 0.0000 0.0000 0.0000 0.0000 0.0000 0.0000 0.0000 0.0000 0.0000 0.0000 0.0000 0.0000 0.0000 0.0000 0.0000 0.0000 0.0000 -69.8450 -10.9785 -15.6740 -154.1265 57.0833 -276.5116 15.6558 35.9627 414.7718 68.4596 -14.8139 -18.1710 12.8638 0.0000 0.0000 53.2443 0.0000 0.0000 -11.1218 0.6174 -1.4390 8.6890 0.0000 0.0000 9.6174 0.0000 0.0000 20.4306 39.6488 -131.6539 8.2720 0.0000 0.0000 18.2679 0.0000 0.0000 26.6519 23.0681 -138.6899 22.5205 0.0000 0.0000 90.0000 0.0000 0.0000 36.1891 2.8088 -143.5358 20.8757 0.0000 0.0000 90.0000 0.0000 0.0000 0.0000 0.0000 0.0000 75.2859 -19.4109 25.0054 200.5584 58.4838 296.9045 -28.6358 16.5211 -387.8310 -53.5879 -16.3134 28.5856 58.6534 0.0000 0.0000 20.4918 0.0000 0.0000 13.7229 0.6792 1.0992 13.2797 0.0000 0.0000 6.4377 0.0000 0.0000 -0.2454 0.4166 123.7703 24.9321 0.0000 0.0000 19.9962 0.0000 0.0000 -10.5328 -10.1075 125.2595 34.7016 0.0000 0.0000 83.0562 0.0000 0.0000 -24.3756 -17.8367 124.3041 30.8333 0.0000 0.0000 71.6166 0.0000 0.0000 0.0000 0.0000 0.0000 0.0000 0.0000 0.0000 0.0000 0.0000 0.0000 0.0000 0.0000 0.0000 0.0000 0.0000 0.0000 0.0000 0.0000 0.0000
0.0000 95.0000 0.0000 0.0000 0.0000 0.0000 0.0000 0.0000 0.0000 0.0000 0.0000 0.0000 0.0000 0.0000 0.0000 0.0000 0.0000 0.0000 0.0000 0.0000 0.0000 0.0000 0.0000 0.0000 -70.9967 -11.5489 -16.1394 -156.9441 52.8750 -280.9698 9.7298 23.9397 399.2819 65.1525 -15.6288 -31.0273 28.9817 0.0000 0.0000 64.3090 0.0000 0.0000 -6.1413 3.6586 -26.4763 23.4386 0.0000 0.0000 17.9388 0.0000 0.0000 12.8102 24.7588 -130.5966 21.6096 0.0000 0.0000 74.8928 0.0000 0.0000 20.8621 9.0873 -134.2508 32.3023 0.0000 0.0000 90.0000 0.0000 0.0000 30.5784 -9.4559 -135.6650 21.9924 0.0000 0.0000 90.0000 0.0000 0.0000 0.0000 0.0000 0.0000 75.8925 -19.6666 25.0639 199.5475 57.1315 296.2260 -29.8373 21.8420 -370.7263 -51.0453 -18.7386 40.4049 50.3768 0.0000 0.0000 12.1057 0.0000 0.0000 16.0250 0.6337 -2.0406 15.7701 0.0000 0.0000 8.5828 0.0000 0.0000 1.5930 -2.2006 112.9716 25.5991 0.0000 0.0000 46.0396 0.0000 0.0000 -8.0915 -11.8132 114.7890 37.8647 0.0000 0.0000 90.0000 0.0000 0.0000 -20.5427 -20.2810 114.3949 32.3029 0.0000 0.0000 90.0000 0.0000 0.0000 0.0000 0.0000 0.0000 0.0000 0.0000 0.0000 0.0000 0.0000 0.0000 0.0000 0.0000 0.0000 0.0000 0.0000 0.0000 0.0000 0.0000 0.0000
0.0000 95.0000 0.0000 0.0000 0.0000 0.0000 0.0000 0.0000 0.0000 0.0000 0.0000 0.0000 0.0000 0.0000 0.0000 0.0000 0.0000 0.0000 0.0000 0.0000 0.0000 0.0000 0.0000 0.0000 -72.1882 -10.8589 -14.8554 -153.9292 48.5917 -282.7510 1.4566 24.2322 393.8332 69.6984 -15.5904 -44.1428 40.9133 0.0000 0.0000 51.6671 0.0000 0.0000 -12.6657 3.4768 -40.9266 43.6277 0.0000 0.0000 20.0394 0.0000 0.0000 5.5694 12.2765 -136.0986 9.3954 0.0000 0.0000 90.0000 0.0000 0.0000 15.3128 -2.3889 -138.0577 26.2239 0.0000 0.0000 90.0000 0.0000 0.0000 25.0261 -21.4836 -138.0406 17.8794 0.0000 0.0000 90.0000 0.0000 0.0000 0.0000 0.0000 0.0000 76.6382 -19.7858 24.8889 196.8318 56.6337 294.0049 -25.0304 30.7042 -366.8697 -52.4325 -20.0238 48.8687 41.2805 0.0000 0.0000 6.8034 0.0000 0.0000 27.0779 1.0809 2.1212 19.5235 0.0000 0.0000 12.5834 0.0000 0.0000 1.8640 -2.4761 110.8309 20.3583 0.0000 0.0000 63.3494 0.0000 0.0000 -8.7569 -10.4857 112.4852 41.5827 0.0000 0.0000 90.0000 0.0000 0.0000 -19.6633 -20.3660 111.1308 31.5283 0.0000 0.0000 90.0000 0.0000 0.0000 0.0000 0.0000 0.0000 0.0000 0.0000 0.0000 0.0000 0.0000 0.0000 0.0000 0.0000 0.0000 0.0000 0.0000 0.0000 0.0000 0.0000 0.0000
0.0000 95.0000 0.0000 0.0000 0.0000 0.0000 0.0000 0.0000 0.0000 0.0000 0.0000 0.0000 0.0000 0.0000 0.0000 0.0000 0.0000 0.0000 0.0000 0.0000 0.0000 0.0000 0.0000 0.0000 -73.2089 -10.2744 -13.8023 -150.7976 45.4116 -283.4783 -8.3307 26.9517 391.8865 72.9750 -14.9283 -55.8836 45.4103 0.0000 0.0000 66.4611 0.0000 0.0000 -10.4629 5.6348 -55.0503 45.1222 0.0000 0.0000 24.9433 0.0000 0.0000 3.0336 6.9870 -137.8748 8.3741 0.0000 0.0000 90.0000 0.0000 0.0000 12.5456 -8.7526 -139.1802 40.0565 0.0000 0.0000 90.0000 0.0000 0.0000 20.6487 -30.3047 -137.8925 23.2533 0.0000 0.0000 90.0000 0.0000 0.0000 0.0000 0.0000 0.0000 77.3402 -19.8114 24.6189 194.6929 56.8521 291.9699 -22.7856 39.9668 -376.0082 -61.6673 -18.7888 59.0805 35.5399 0.0000 0.0000 8.2325 0.0000 0.0000 20.4757 0.9228 14.5788 26.0179 0.0000 0.0000 10.7223 0.0000 0.0000 -3.8399 5.6144 116.0551 10.9526 0.0000 0.0000 90.0000 0.0000 0.0000 -14.5227 -3.0321 117.7386 50.2385 0.0000 0.0000 90.0000 0.0000 0.0000 -25.8278 -13.7840 116.5382 32.3195 0.0000 0.0000 90.0000 0.0000 0.0000 0.0000 0.0000 0.0000 0.0000 0.0000 0.0000 0.0000 0.0000 0.0000 0.0000 0.0000 0.0000 0.0000 0.0000 0.0000 0.0000 0.0000 0.0000
0.0000 95.0000 0.0000 0.0000 0.0000 0.0000 0.0000 0.0000 0.0000 0.0000 0.0000 0.0000 0.0000 0.0000 0.0000 0.0000 0.0000 0.0000 0.0000 0.0000 0.0000 0.0000 0.0000 0.0000 -73.0015 -10.3376 -13.9389 -146.2496 48.9408 -275.6986 -15.8514 28.8797 386.5188 72.9066 -14.9559 -59.0327 64.2696 0.0000 0.0000 28.9675 0.0000 0.0000 -18.1201 2.9048 -83.2400 60.7024 0.0000 0.0000 37.1764 0.0000 0.0000 -7.0583 -13.0935 -128.2645 9.4771 0.0000 0.0000 90.0000 0.0000 0.0000 4.3683 -22.0417 -129.3066 105.3084 0.0000 0.0000 52.4749 0.0000 0.0000 12.2820 -36.6855 -124.8386 89.5662 0.0000 0.0000 71.9572 0.0000 0.0000 0.0000 0.0000 0.0000 77.7973 -19.6067 24.1748 194.2224 59.5784 290.2337 -19.5563 52.3575 -384.4837 -65.3109 -19.1249 79.1116 27.9971 0.0000 0.0000 8.2058 0.0000 0.0000 15.1623 3.5008 56.1528 54.3982 0.0000 0.0000 18.9979 0.0000 0.0000 -4.1444 6.4398 119.2765 7.5743 0.0000 0.0000 20.8733 0.0000 0.0000 -14.0920 -3.8561 121.2832 46.3096 0.0000 0.0000 90.0000 0.0000 0.0000 -24.1259 -17.3077 121.1136 35.1444 0.0000 0.0000 81.2227 0.0000 0.0000 0.0000 0.0000 0.0000 0.0000 0.0000 0.0000 0.0000 0.0000 0.0000 0.0000 0.0000 0.0000 0.0000 0.0000 0.0000 0.0000 0.0000 0.0000
0.0000 95.0000 0.0000 0.0000 0.0000 0.0000 0.0000 0.0000 0.0000 0.0000 0.0000 0.0000 0.0000 0.0000 0.0000 0.0000 0.0000 0.0000 0.0000 0.0000 0.0000 0.0000 0.0000 0.0000 -72.1932 -10.5308 -14.4076 -139.3993 54.7779 -263.1193 -19.2204 41.0221 381.3315 64.8247 -19.3801 -79.0350 48.4713 0.0000 0.0000 14.9093 0.0000 0.0000 -7.6744 11.4548 -83.5719 56.8602 0.0000 0.0000 35.6672 0.0000 0.0000 -5.0555 -8.0509 -120.5711 10.4413 0.0000 0.0000 57.4209 0.0000 0.0000 6.3418 -16.2037 -122.2297 63.4471 0.0000 0.0000 82.9767 0.0000 0.0000 14.7018 -30.4136 -119.8928 49.1883 0.0000 0.0000 90.0000 0.0000 0.0000 0.0000 0.0000 0.0000 77.9804 -19.2762 23.6960 193.1698 63.2250 287.7235 15.9328 56.6360 -348.8595 -56.6726 -21.2717 64.1403 27.4702 0.0000 0.0000 11.5647 0.0000 0.0000 13.8878 3.6097 48.9513 54.6945 0.0000 0.0000 26.5849 0.0000 0.0000 -0.9834 0.9923 95.2931 1.6615 0.0000 0.0000 90.0000 0.0000 0.0000 -11.4633 -5.5198 97.7346 108.7435 0.0000 0.0000 59.5219 0.0000 0.0000 -21.0396 -15.2791 97.5743 90.8535 0.0000 0.0000 73.5373 0.0000 0.0000 0.0000 0.0000 0.0000 0.0000 0.0000 0.0000 0.0000 0.0000 0.0000 0.0000 0.0000 0.0000 0.0000 0.0000 0.0000 0.0000 0.0000 0.0000
0.0000 95.0000 0.0000 0.0000 0.0000 0.0000 0.0000 0.0000 0.0000 0.0000 0.0000 0.0000 0.0000 0.0000 0.0000 0.0000 0.0000 0.0000 0.0000 0.0000 0.0000 0.0000 0.0000 0.0000 -71.7197 -10.7294 -14.8046 -131.7769 60.1087 -249.5596 -12.9734 46.8976 388.4663 63.4498 -20.3320 -81.0431 45.1679 0.0000 0.0000 17.0270 0.0000 0.0000 -11.2798 8.2377 -81.5527 45.7710 0.0000 0.0000 36.5928 0.0000 0.0000 -8.6062 -12.8905 -117.4391 8.2800 0.0000 0.0000 31.3895 0.0000 0.0000 2.1300 -21.3033 -118.4574 27.2531 0.0000 0.0000 61.3711 0.0000 0.0000 9.8067 -34.9717 -116.0661 28.1670 0.0000 0.0000 50.4629 0.0000 0.0000 0.0000 0.0000 0.0000 78.2914 -19.0334 23.2745 192.8377 66.1232 285.9753 32.0438 58.7877 -322.2485 -54.3783 -20.4447 54.2770 23.3587 0.0000 0.0000 9.6547 0.0000 0.0000 18.8817 1.1584 21.4576 33.8158 0.0000 0.0000 42.7475 0.0000 0.0000 -4.3975 3.4099 80.3421 28.9004 0.0000 0.0000 90.0000 0.0000 0.0000 -12.5708 -3.6469 84.2080 110.0000 0.0000 0.0000 38.6965 0.0000 0.0000 -20.2426 -13.2241 84.1395 110.0000 0.0000 0.0000 39.5645 0.0000 0.0000 0.0000 0.0000 0.0000 0.0000 0.0000 0.0000 0.0000 0.0000 0.0000 0.0000 0.0000 0.0000 0.0000 0.0000 0.0000 0.0000 0.0000 0.0000
0.0000 95.0000 0.0000 0.0000 0.0000 0.0000 0.0000 0.0000 0.0000 0.0000 0.0000 0.0000 0.0000 0.0000 0.0000 0.0000 0.0000 0.0000 0.0000 0.0000 0.0000 0.0000 0.0000 0.0000 -70.7457 -11.2708 -15.8255 -119.8062 65.7319 -230.3696 -1.3054 51.0803 395.2604 59.3950 -22.5909 -81.0542 43.5310 0.0000 0.0000 15.2936 0.0000 0.0000 -9.0596 10.3502 -83.7453 61.1650 0.0000 0.0000 30.4288 0.0000 0.0000 -6.5384 -9.9748 -118.3583 38.8305 0.0000 0.0000 90.0000 0.0000 0.0000 4.0876 -18.6618 -119.0970 110.0000 0.0000 0.0000 40.7012 0.0000 0.0000 12.3196 -31.4266 -115.5121 72.4553 0.0000 0.0000 77.3192 0.0000 0.0000 0.0000 0.0000 0.0000 78.0685 -19.0515 23.3866 194.1835 70.3727 284.7149 30.6538 66.3729 -327.5061 -52.7623 -21.2439 55.9944 22.3613 0.0000 0.0000 9.7076 0.0000 0.0000 15.7969 1.4992 18.9926 20.4995 0.0000 0.0000 45.9940 0.0000 0.0000 -3.4043 2.8700 85.0326 28.8229 0.0000 0.0000 90.0000 0.0000 0.0000 -11.9835 -4.4330 89.4155 110.0000 0.0000 0.0000 40.5559 0.0000 0.0000 -20.0313 -14.4653 89.4772 110.0000 0.0000 0.0000 30.0840 0.0000 0.0000 0.0000 0.0000 0.0000 0.0000 0.0000 0.0000 0.0000 0.0000 0.0000 0.0000 0.0000 0.0000 0.0000 0.0000 0.0000 0.0000 0.0000 0.0000
0.0000 95.0000 0.0000 0.0000 0.0000 0.0000 0.0000 0.0000 0.0000 0.0000 0.0000 0.0000 0.0000 0.0000 0.0000 0.0000 0.0000 0.0000 0.0000 0.0000 0.0000 0.0000 0.0000 0.0000 -70.1310 -11.6583 -16.5508 -108.7607 68.5432 -214.5861 17.1150 58.9781 414.6668 67.0268 -18.5338 -84.0132 47.2214 0.0000 0.0000 16.5225 0.0000 0.0000 -2.5316 16.5299 -86.8161 57.7768 0.0000 0.0000 34.8778 0.0000 0.0000 -4.9686 -8.2280 -122.5749 21.0490 0.0000 0.0000 90.0000 0.0000 0.0000 5.9192 -17.2680 -123.5160 49.6079 0.0000 0.0000 90.0000 0.0000 0.0000 14.7074 -31.2654 -121.5801 34.4439 0.0000 0.0000 84.6383 0.0000 0.0000 0.0000 0.0000 0.0000 78.2084 -18.7876 23.0097 194.4565 72.9740 283.7266 43.3293 71.3993 -318.1001 -62.7551 -17.9837 54.5349 25.2134 0.0000 0.0000 13.6985 0.0000 0.0000 9.0650 2.5628 21.2950 40.1520 0.0000 0.0000 31.9322 0.0000 0.0000 -13.3980 10.1073 78.7240 32.1353 0.0000 0.0000 90.0000 0.0000 0.0000 -21.2818 3.4006 84.2879 110.0000 0.0000 0.0000 23.8329 0.0000 0.0000 -30.9182 -4.9748 85.8792 110.0000 0.0000 0.0000 29.3649 0.0000 0.0000 0.0000 0.0000 0.0000 0.0000 0.0000 0.0000 0.0000 0.0000 0.0000 0.0000 0.0000 0.0000 0.0000 0.0000 0.0000 0.0000 0.0000 0.0000
0.0000 95.0000 0.0000 0.0000 0.0000 0.0000 0.0000 0.0000 0.0000 0.0000 0.0000 0.0000 0.0000 0.0000 0.0000 0.0000 0.0000 0.0000 0.0000 0.0000 0.0000 0.0000 0.0000 0.0000 -69.3695 -12.1308 -17.4585 -97.9532 70.2393 -199.9103 8.8661 65.8569 405.7734 71.1740 -15.7854 -71.3935 48.4622 0.0000 0.0000 16.7170 0.0000 0.0000 -5.2243 11.3163 -73.2112 68.3620 0.0000 0.0000 30.8979 0.0000 0.0000 -3.7047 -4.9858 -111.5596 21.4786 0.0000 0.0000 90.0000 0.0000 0.0000 8.2129 -11.4772 -113.9215 71.7066 0.0000 0.0000 69.1421 0.0000 0.0000 18.2452 -22.2216 -111.4619 49.1144 0.0000 0.0000 82.5069 0.0000 0.0000 0.0000 0.0000 0.0000 78.2551 -18.5986 22.7618 193.0639 75.6050 281.1209 80.5138 71.9677 -282.7900 -62.8637 -16.8905 42.9200 20.6862 0.0000 0.0000 11.1048 0.0000 0.0000 14.6209 1.4391 15.1032 30.3083 0.0000 0.0000 41.9077 0.0000 0.0000 -18.9102 12.0995 69.7161 8.9809 0.0000 0.0000 90.0000 0.0000 0.0000 -27.1767 7.0039 76.5724 110.0000 0.0000 0.0000 47.1357 0.0000 0.0000 -37.5926 0.1007 79.5873 92.0787 0.0000 0.0000 80.4520 0.0000 0.0000 0.0000 0.0000 0.0000 0.0000 0.0000 0.0000 0.0000 0.0000 0.0000 0.0000 0.0000 0.0000 0.0000 0.0000 0.0000 0.0000 0.0000 0.0000
0.0000 95.0000 0.0000 0.0000 0.0000 0.0000 0.0000 0.0000 0.0000 0.0000 0.0000 0.0000 0.0000 0.0000 0.0000 0.0000 0.0000 0.0000 0.0000 0.0000 0.0000 0.0000 0.0000 0.0000 -69.0444 -12.2518 -17.7368 -89.5326 70.3175 -189.1991 42.8921 68.5777 439.0518 76.5986 -13.0865 -75.9731 43.0914 0.0000 0.0000 9.2066 0.0000 0.0000 -15.1245 3.2494 -51.4454 37.2672 0.0000 0.0000 21.5147 0.0000 0.0000 -1.3996 -1.9658 -113.8746 14.4016 0.0000 0.0000 21.9131 0.0000 0.0000 10.1423 -9.6847 -119.2621 35.2796 0.0000 0.0000 73.3244 0.0000 0.0000 20.5645 -21.7199 -118.8058 29.9256 0.0000 0.0000 66.4807 0.0000 0.0000 0.0000 0.0000 0.0000 77.9907 -18.6158 22.8875 196.9861 78.5573 283.0698 21.0390 76.2443 -352.6301 -67.7540 -16.2505 49.5920 29.3040 0.0000 0.0000 14.1347 0.0000 0.0000 14.5823 2.1042 27.4966 27.6132 0.0000 0.0000 38.8706 0.0000 0.0000 -3.4980 3.0277 86.5244 5.1210 0.0000 0.0000 5.3891 0.0000 0.0000 -13.3510 -3.2892 91.0321 42.9235 0.0000 0.0000 90.0000 0.0000 0.0000 -21.9507 -13.4459 92.8303 42.6382 0.0000 0.0000 90.0000 0.0000 0.0000 0.0000 0.0000 0.0000 0.0000 0.0000 0.0000 0.0000 0.0000 0.0000 0.0000 0.0000 0.0000 0.0000 0.0000 0.0000 0.0000 0.0000 0.0000
0.0000 95.0000 0.0000 0.0000 0.0000 0.0000 0.0000 0.0000 0.0000 0.0000 0.0000 0.0000 0.0000 0.0000 0.0000 0.0000 0.0000 0.0000 0.0000 0.0000 0.0000 0.0000 0.0000 0.0000 -68.8891 -12.7241 -18.4671 -83.8082 70.9813 -180.9871 41.4610 70.8975 436.0056 74.0661 -14.4084 -74.6612 42.4395 0.0000 0.0000 8.5702 0.0000 0.0000 -9.7450 6.1606 -56.6857 42.3187 0.0000 0.0000 29.5062 0.0000 0.0000 -1.9765 -2.6028 -110.3507 13.1527 0.0000 0.0000 37.8103 0.0000 0.0000 10.1317 -9.0345 -115.0335 31.3234 0.0000 0.0000 65.9903 0.0000 0.0000 19.9900 -20.9007 -114.0905 27.2986 0.0000 0.0000 66.7010 0.0000 0.0000 0.0000 0.0000 0.0000 78.2182 -18.3272 22.4468 198.8716 80.2068 284.1139 -26.0969 79.3564 -395.5110 -67.6669 -16.4106 52.3978 28.4240 0.0000 0.0000 14.9022 0.0000 0.0000 14.8785 2.2085 30.6388 23.9953 0.0000 0.0000 41.0773 0.0000 0.0000 -6.0518 5.8565 92.8896 5.0104 0.0000 0.0000 9.5599 0.0000 0.0000 -16.1193 -0.7513 97.7309 41.2925 0.0000 0.0000 90.0000 0.0000 0.0000 -25.7202 -11.1117 100.5526 39.6399 0.0000 0.0000 90.0000 0.0000 0.0000 0.0000 0.0000 0.0000 0.0000 0.0000 0.0000 0.0000 0.0000 0.0000 0.0000 0.0000 0.0000 0.0000 0.0000 0.0000 0.0000 0.0000 0.0000
0.0000 95.0000 0.0000 0.0000 0.0000 0.0000 0.0000 0.0000 0.0000 0.0000 0.0000 0.0000 0.0000 0.0000 0.0000 0.0000 0.0000 0.0000 0.0000 0.0000 0.0000 0.0000 0.0000 0.0000 -69.1357 -12.9739 -18.7414 -82.8464 71.0063 -179.1204 -56.0133 46.5349 341.0453 38.6528 -18.1888 -31.0594 12.0906 0.0000 0.0000 5.1531 0.0000 0.0000 2.7513 0.8931 -4.9333 30.8413 0.0000 0.0000 52.5159 0.0000 0.0000 -9.4117 -4.7434 -58.1891 20.3928 0.0000 0.0000 90.0000 0.0000 0.0000 -2.1463 -10.2300 -60.6155 100.8830 0.0000 0.0000 67.9602 0.0000 0.0000 3.3830 -17.4799 -59.7064 44.9864 0.0000 0.0000 90.0000 0.0000 0.0000 0.0000 0.0000 0.0000 78.0806 -17.9905 22.0908 201.2069 81.2422 286.2144 90.5180 72.9103 -272.1389 -56.6223 -18.0588 42.5233 17.3047 0.0000 0.0000 8.5907 0.0000 0.0000 18.5500 1.1351 17.4858 37.0560 0.0000 0.0000 46.2131 0.0000 0.0000 -14.8999 9.6973 70.7153 14.4898 0.0000 0.0000 90.0000 0.0000 0.0000 -23.5558 4.3481 75.5983 93.9569 0.0000 0.0000 79.1986 0.0000 0.0000 -34.6513 -2.0323 77.9898 72.5406 0.0000 0.0000 90.0000 0.0000 0.0000 0.0000 0.0000 0.0000 0.0000 0.0000 0.0000 0.0000 0.0000 0.0000 0.0000 0.0000 0.0000 0.0000 0.0000 0.0000 0.0000 0.0000 0.0000
0.0000 95.0000 0.0000 0.0000 0.0000 0.0000 0.0000 0.0000 0.0000 0.0000 0.0000 0.0000 0.0000 0.0000 0.0000 0.0000 0.0000 0.0000 0.0000 0.0000 0.0000 0.0000 0.0000 0.0000 -69.7536 -12.6963 -18.1374 -87.0175 69.0740 -184.9690 16.3158 56.9746 411.4571 56.0506 -22.3639 -69.2734 44.4147 0.0000 0.0000 7.7797 0.0000 0.0000 -13.9259 5.9916 -79.8297 76.4289 0.0000 0.0000 32.2474 0.0000 0.0000 -14.1714 -17.8158 -107.9386 21.2369 0.0000 0.0000 90.0000 0.0000 0.0000 -2.2817 -23.8198 -109.7015 72.2714 0.0000 0.0000 67.9897 0.0000 0.0000 6.5633 -33.1026 -105.2874 61.2006 0.0000 0.0000 79.3479 0.0000 0.0000 0.0000 0.0000 0.0000 78.0920 -17.9176 21.9977 201.4511 81.3089 286.4940 61.3443 71.2299 -307.6398 -56.3468 -18.1920 43.0708 21.4726 0.0000 0.0000 8.2300 0.0000 0.0000 16.8029 1.3169 17.2186 38.8359 0.0000 0.0000 43.3960 0.0000 0.0000 -5.1892 3.6540 75.0570 11.7055 0.0000 0.0000 90.0000 0.0000 0.0000 -13.7716 -2.5200 79.1142 59.2602 0.0000 0.0000 90.0000 0.0000 0.0000 -23.0445 -10.5572 80.9249 51.3365 0.0000 0.0000 90.0000 0.0000 0.0000 0.0000 0.0000 0.0000 0.0000 0.0000 0.0000 0.0000 0.0000 0.0000 0.0000 0.0000 0.0000 0.0000 0.0000 0.0000 0.0000 0.0000 0.0000
0.0000 95.0000 0.0000 0.0000 0.0000 0.0000 0.0000 0.0000 0.0000 0.0000 0.0000 0.0000 0.0000 0.0000 0.0000 0.0000 0.0000 0.0000 0.0000 0.0000 0.0000 0.0000 0.0000 0.0000 -70.2382 -12.5936 -17.8333 -88.9830 67.7106 -187.7376 -150.1887 46.5353 241.0106 72.2666 -14.9400 -27.6603 18.6849 0.0000 0.0000 2.8799 0.0000 0.0000 16.0099 -1.0426 0.8781 32.3919 0.0000 0.0000 47.0529 0.0000 0.0000 58.1451 19.7163 -39.4866 13.2722 0.0000 0.0000 38.4506 0.0000 0.0000 66.6318 19.1858 -47.2423 39.3086 0.0000 0.0000 90.0000 0.0000 0.0000 71.6936 15.6910 -57.9914 20.3423 0.0000 0.0000 90.0000 0.0000 0.0000 0.0000 0.0000 0.0000 78.6082 -17.4851 21.2788 198.5720 81.6699 283.8459 40.2531 75.5242 -332.2279 -62.4422 -17.1313 44.6172 27.3681 0.0000 0.0000 8.9986 0.0000 0.0000 16.9769 1.5175 24.0786 40.0592 0.0000 0.0000 38.8484 0.0000 0.0000 -3.0249 2.3764 81.0743 8.6416 0.0000 0.0000 44.9036 0.0000 0.0000 -11.7872 -4.3593 85.5116 42.6157 0.0000 0.0000 90.0000 0.0000 0.0000 -20.3374 -13.7469 87.2118 34.0431 0.0000 0.0000 90.0000 0.0000 0.0000 0.0000 0.0000 0.0000 0.0000 0.0000 0.0000 0.0000 0.0000 0.0000 0.0000 0.0000 0.0000 0.0000 0.0000 0.0000 0.0000 0.0000 0.0000
0.0000 95.0000 0.0000 0.0000 0.0000 0.0000 0.0000 0.0000 0.0000 0.0000 0.0000 0.0000 0.0000 0.0000 0.0000 0.0000 0.0000 0.0000 0.0000 0.0000 0.0000 0.0000 0.0000 0.0000 -70.7536 -12.7604 -17.8987 -89.2789 67.6478 -187.3765 -321.0522 63.1423 76.5037 72.7243 -15.0707 -72.5754 50.5931 0.0000 0.0000 14.6579 0.0000 0.0000 -5.9396 10.7731 -72.9081 66.3209 0.0000 0.0000 29.4922 0.0000 0.0000 -3.8115 -5.8749 -118.8486 21.3236 0.0000 0.0000 90.0000 0.0000 0.0000 8.3388 -12.7443 -120.8828 62.6430 0.0000 0.0000 73.4059 0.0000 0.0000 18.0150 -24.9014 -117.8539 51.8257 0.0000 0.0000 90.0000 0.0000 0.0000 0.0000 0.0000 0.0000 79.2067 -17.3603 20.9093 197.2548 81.0089 282.8246 -24.3266 78.4272 -394.0134 -58.1482 -17.8081 42.8645 33.0026 0.0000 0.0000 10.5535 0.0000 0.0000 28.2320 -0.4682 25.4724 26.7225 0.0000 0.0000 37.2413 0.0000 0.0000 -2.7761 2.7127 93.4472 6.2634 0.0000 0.0000 33.6712 0.0000 0.0000 -11.4250 -5.6075 98.3279 40.5289 0.0000 0.0000 90.0000 0.0000 0.0000 -20.6661 -16.3678 100.6732 26.3458 0.0000 0.0000 90.0000 0.0000 0.0000 0.0000 0.0000 0.0000 0.0000 0.0000 0.0000 0.0000 0.0000 0.0000 0.0000 0.0000 0.0000 0.0000 0.0000 0.0000 0.0000 0.0000 0.0000
0.0000 95.0000 0.0000 0.0000 0.0000 0.0000 0.0000 0.0000 0.0000 0.0000 0.0000 0.0000 0.0000 0.0000 0.0000 0.0000 0.0000 0.0000 0.0000 0.0000 0.0000 0.0000 0.0000 0.0000 -70.9866 -12.8954 -18.0101 -85.1148 67.2676 -181.4194 -317.5726 58.3417 80.2277 63.8607 -19.6113 -76.1470 44.7475 0.0000 0.0000 10.9605 0.0000 0.0000 5.5681 18.9676 -73.9519 36.7548 0.0000 0.0000 49.5311 0.0000 0.0000 -4.7813 -7.3391 -118.6462 8.3539 0.0000 0.0000 90.0000 0.0000 0.0000 4.6257 -18.2045 -120.1528 38.3280 0.0000 0.0000 90.0000 0.0000 0.0000 11.9768 -32.1054 -115.9724 34.0988 0.0000 0.0000 90.0000 0.0000 0.0000 0.0000 0.0000 0.0000 80.0607 -17.0046 20.1821 198.2547 81.1897 283.6131 -37.5238 55.0062 -399.1382 -54.9187 -20.4188 55.0939 40.1052 0.0000 0.0000 17.1021 0.0000 0.0000 25.8230 -0.0254 25.3220 3.1878 0.0000 0.0000 28.2899 0.0000 0.0000 7.3395 -8.8930 105.7418 5.1211 0.0000 0.0000 20.9782 0.0000 0.0000 -3.5224 -16.1815 108.2041 23.6307 0.0000 0.0000 90.0000 0.0000 0.0000 -16.1458 -23.8059 108.8159 29.1360 0.0000 0.0000 90.0000 0.0000 0.0000 0.0000 0.0000 0.0000 0.0000 0.0000 0.0000 0.0000 0.0000 0.0000 0.0000 0.0000 0.0000 0.0000 0.0000 0.0000 0.0000 0.0000 0.0000
0.0000 95.0000 0.0000 0.0000 0.0000 0.0000 0.0000 0.0000 0.0000 0.0000 0.0000 0.0000 0.0000 0.0000 0.0000 0.0000 0.0000 0.0000 0.0000 0.0000 0.0000 0.0000 0.0000 0.0000 -71.1244 -13.0036 -18.1146 -75.7480 65.4862 -168.4370 -312.8775 38.5723 78.5052 68.0919 -16.9674 -66.6114 53.9436 0.0000 0.0000 29.7139 0.0000 0.0000 -21.7795 0.9249 -4.1007 57.7064 0.0000 0.0000 29.7880 0.0000 0.0000 -13.5789 -23.0955 -124.3135 3.0106 0.0000 0.0000 6.8637 0.0000 0.0000 -6.2047 -34.9957 -121.3983 10.6129 0.0000 0.0000 21.2121 0.0000 0.0000 -5.6042 -51.5387 -112.6200 18.1710 0.0000 0.0000 27.6741 0.0000 0.0000 0.0000 0.0000 0.0000 80.8898 -16.5596 19.3761 198.6658 81.6746 283.7644 -60.2064 41.7421 -407.2830 -63.8229 -18.2848 61.6906 57.6844 0.0000 0.0000 19.3049 0.0000 0.0000 29.1152 -2.7118 50.9527 23.5257 0.0000 0.0000 33.1975 0.0000 0.0000 2.1794 -3.7473 124.4191 34.8115 0.0000 0.0000 90.0000 0.0000 0.0000 -7.0812 -15.7863 124.8843 59.9314 0.0000 0.0000 90.0000 0.0000 0.0000 -18.7707 -26.3172 123.7873 86.5662 0.0000 0.0000 89.5309 0.0000 0.0000 0.0000 0.0000 0.0000 0.0000 0.0000 0.0000 0.0000 0.0000 0.0000 0.0000 0.0000 0.0000 0.0000 0.0000 0.0000 0.0000 0.0000 0.0000
0.0000 95.0000 0.0000 0.0000 0.0000 0.0000 0.0000 0.0000 0.0000 0.0000 0.0000 0.0000 0.0000 0.0000 0.0000 0.0000 0.0000 0.0000 0.0000 0.0000 0.0000 0.0000 0.0000 0.0000 -71.5279 -12.1128 -16.7595 -60.0381 57.2944 -144.7082 -296.3838 26.9366 97.1587 74.2251 -14.4736 -61.8466 53.3297 0.0000 0.0000 48.9846 0.0000 0.0000 -6.4121 3.1955 -23.2596 99.6464 0.0000 0.0000 14.4453 0.0000 0.0000 -12.1238 -22.2564 -128.0444 6.7595 0.0000 0.0000 3.9201 0.0000 0.0000 -6.1741 -36.5611 -123.9357 13.5056 0.0000 0.0000 8.3499 0.0000 0.0000 -6.0931 -54.5498 -115.7104 17.7514 0.0000 0.0000 12.5953 0.0000 0.0000 0.0000 0.0000 0.0000 81.8684 -15.1832 17.4733 192.8242 86.1361 276.2174 -52.6089 36.4346 -398.9656 -52.0430 -22.5682 61.6363 57.8672 0.0000 0.0000 26.4714 0.0000 0.0000 27.7747 -4.0353 73.9523 31.9743 0.0000 0.0000 11.8606 0.0000 0.0000 16.6995 -25.6396 119.1291 23.5620 0.0000 0.0000 90.0000 0.0000 0.0000 7.1876 -34.1961 117.7263 110.0000 0.0000 0.0000 50.9969 0.0000 0.0000 -2.8299 -42.3312 113.7736 109.7114 0.0000 0.0000 58.4802 0.0000 0.0000 0.0000 0.0000 0.0000 0.0000 0.0000 0.0000 0.0000 0.0000 0.0000 0.0000 0.0000 0.0000 0.0000 0.0000 0.0000 0.0000 0.0000 0.0000
0.0000 95.0000 0.0000 0.0000 0.0000 0.0000 0.0000 0.0000 0.0000 0.0000 0.0000 0.0000 0.0000 0.0000 0.0000 0.0000 0.0000 0.0000 0.0000 0.0000 0.0000 0.0000 0.0000 0.0000 -71.6713 -10.5606 -14.5857 -46.7476 38.6310 -110.9067 -398.2453 62.7703 -2.9922 40.8821 -16.6517 -26.3301 27.4493 0.0000 0.0000 17.4868 0.0000 0.0000 -31.4376 -1.7348 -32.3617 3.4006 0.0000 0.0000 27.6452 0.0000 0.0000 -21.0542 -5.3768 -33.1334 68.2330 0.0000 0.0000 90.0000 0.0000 0.0000 -12.0097 -7.5865 -32.7706 110.0000 0.0000 0.0000 45.8698 0.0000 0.0000 -1.8659 -10.0412 -31.2316 110.0000 0.0000 0.0000 52.0875 0.0000 0.0000 0.0000 0.0000 0.0000 82.6062 -13.9194 15.8195 369.3483 81.6557 444.5615 68.2853 17.5694 -319.7341 -45.0116 -13.3715 13.7532 23.5575 0.0000 0.0000 18.4481 0.0000 0.0000 23.8882 0.6827 13.0436 110.0000 0.0000 0.0000 29.0766 0.0000 0.0000 6.8874 -0.6581 15.6746 110.0000 0.0000 0.0000 24.0941 0.0000 0.0000 -3.9919 -1.8598 15.5497 110.0000 0.0000 0.0000 20.0086 0.0000 0.0000 -15.5945 -3.4284 13.9806 110.0000 0.0000 0.0000 22.0488 0.0000 0.0000 0.0000 0.0000 0.0000 0.0000 0.0000 0.0000 0.0000 0.0000 0.0000 0.0000 0.0000 0.0000 0.0000 0.0000 0.0000 0.0000 0.0000 0.0000
0.0000 95.0000 0.0000 0.0000 0.0000 0.0000 0.0000 0.0000 0.0000 0.0000 0.0000 0.0000 0.0000 0.0000 0.0000 0.0000 0.0000 0.0000 0.0000 0.0000 0.0000 0.0000 0.0000 0.0000 -71.9589 -9.0142 -12.3934 -43.6834 21.3418 -80.1544 -543.4783 79.7251 -150.5374 51.7296 -14.5270 -18.0225 18.1806 0.0000 0.0000 14.0550 0.0000 0.0000 -19.0906 1.1639 -24.1532 6.4341 0.0000 0.0000 1.4391 0.0000 0.0000 -10.7930 -1.9841 -25.5462 7.1838 0.0000 0.0000 5.0586 0.0000 0.0000 -2.1833 -4.0482 -25.9064 12.9893 0.0000 0.0000 3.7617 0.0000 0.0000 7.1277 -6.4350 -24.5708 13.0584 0.0000 0.0000 7.2040 0.0000 0.0000 0.0000 0.0000 0.0000 83.3319 -12.3752 13.8921 372.0816 69.7692 438.6420 76.8402 34.5036 -308.4024 -59.8782 -13.8154 10.4880 20.6474 0.0000 0.0000 15.8232 0.0000 0.0000 13.0670 1.2683 10.4261 70.8782 0.0000 0.0000 85.4953 0.0000 0.0000 -1.3051 0.0870 12.3971 110.0000 0.0000 0.0000 24.1717 0.0000 0.0000 -10.5289 -1.1546 11.8977 110.0000 0.0000 0.0000 17.0868 0.0000 0.0000 -20.4285 -2.8408 11.1958 110.0000 0.0000 0.0000 15.6997 0.0000 0.0000 0.0000 0.0000 0.0000 0.0000 0.0000 0.0000 0.0000 0.0000 0.0000 0.0000 0.0000 0.0000 0.0000 0.0000 0.0000 0.0000 0.0000 0.0000
0.0000 95.0000 0.0000 0.0000 0.0000 0.0000 0.0000 0.0000 0.0000 0.0000 0.0000 0.0000 0.0000 0.0000 0.0000 0.0000 0.0000 0.0000 0.0000 0.0000 0.0000 0.0000 0.0000 0.0000 -72.6805 -7.2020 -9.7790 -41.2945 12.9337 -54.0660 -539.9098 43.8093 -156.4840 47.8580 -10.6510 -0.7906 13.1094 0.0000 0.0000 19.5761 0.0000 0.0000 -18.5300 1.0137 -10.5851 27.4602 0.0000 0.0000 79.3620 0.0000 0.0000 -7.8534 -0.6243 -13.8486 24.8630 0.0000 0.0000 90.0000 0.0000 0.0000 2.3039 -1.8190 -14.0685 25.9145 0.0000 0.0000 90.0000 0.0000 0.0000 11.2946 -3.6713 -14.0451 33.6734 0.0000 0.0000 90.0000 0.0000 0.0000 0.0000 0.0000 0.0000 83.8403 -9.4864 10.5595 374.6094 54.0435 428.4310 88.6868 55.1491 -294.9741 -59.8782 -13.8154 10.4880 20.6474 0.0000 0.0000 15.8232 0.0000 0.0000 13.0670 1.2683 10.4261 70.8782 0.0000 0.0000 85.4953 0.0000 0.0000 -1.3051 0.0870 12.3971 110.0000 0.0000 0.0000 24.1717 0.0000 0.0000 -10.5289 -1.1546 11.8977 110.0000 0.0000 0.0000 17.0868 0.0000 0.0000 -20.4285 -2.8408 11.1958 110.0000 0.0000 0.0000 15.6997 0.0000 0.0000 0.0000 0.0000 0.0000 0.0000 0.0000 0.0000 0.0000 0.0000 0.0000 0.0000 0.0000 0.0000 0.0000 0.0000 0.0000 0.0000 0.0000 0.0000
0.0000 95.0000 0.0000 0.0000 0.0000 0.0000 0.0000 0.0000 0.0000 0.0000 0.0000 0.0000 0.0000 0.0000 0.0000 0.0000 0.0000 0.0000 0.0000 0.0000 0.0000 0.0000 0.0000 0.0000 -73.7140 -4.1627 -5.5509 -41.7547 5.1992 -26.2630 -551.1091 16.3949 -179.5935 47.8580 -10.6510 -0.7906 13.1094 0.0000 0.0000 19.5761 0.0000 0.0000 -18.5300 1.0137 -10.5851 27.4602 0.0000 0.0000 79.3620 0.0000 0.0000 -7.8534 -0.6243 -13.8486 24.8630 0.0000 0.0000 90.0000 0.0000 0.0000 2.3039 -1.8190 -14.0685 25.9145 0.0000 0.0000 90.0000 0.0000 0.0000 11.2946 -3.6713 -14.0451 33.6734 0.0000 0.0000 90.0000 0.0000 0.0000 0.0000 0.0000 0.0000 84.6899 -6.7685 7.4251 374.0203 33.5442 405.6705 150.8707 67.6385 -224.4047 -59.8782 -13.8154 10.4880 20.6474 0.0000 0.0000 15.8232 0.0000 0.0000 13.0670 1.2683 10.4261 70.8782 0.0000 0.0000 85.4953 0.0000 0.0000 -1.3051 0.0870 12.3971 110.0000 0.0000 0.0000 24.1717 0.0000 0.0000 -10.5289 -1.1546 11.8977 110.0000 0.0000 0.0000 17.0868 0.0000 0.0000 -20.4285 -2.8408 11.1958 110.0000 0.0000 0.0000 15.6997 0.0000 0.0000 0.0000 0.0000 0.0000 0.0000 0.0000 0.0000 0.0000 0.0000 0.0000 0.0000 0.0000 0.0000 0.0000 0.0000 0.0000 0.0000 0.0000 0.0000
0.0000 95.0000 0.0000 0.0000 0.0000 0.0000 0.0000 0.0000 0.0000 0.0000 0.0000 0.0000 0.0000 0.0000 0.0000 0.0000 0.0000 0.0000 0.0000 0.0000 0.0000 0.0000 0.0000 0.0000 -74.6137 -1.5735 -2.0648 -39.2398 -0.4859 -1.3450 -546.6542 -7.9046 -195.6555 47.8580 -10.6510 -0.7906 13.1094 0.0000 0.0000 19.5761 0.0000 0.0000 -18.5300 1.0137 -10.5851 27.4602 0.0000 0.0000 79.3620 0.0000 0.0000 -7.8534 -0.6243 -13.8486 24.8630 0.0000 0.0000 90.0000 0.0000 0.0000 2.3039 -1.8190 -14.0685 25.9145 0.0000 0.0000 90.0000 0.0000 0.0000 11.2946 -3.6713 -14.0451 33.6734 0.0000 0.0000 90.0000 0.0000 0.0000 0.0000 0.0000 0.0000 85.2553 -5.1360 5.5793 370.7400 20.5390 387.2684 176.5336 53.3894 -186.8561 -59.8782 -13.8154 10.4880 20.6474 0.0000 0.0000 15.8232 0.0000 0.0000 13.0670 1.2683 10.4261 70.8782 0.0000 0.0000 85.4953 0.0000 0.0000 -1.3051 0.0870 12.3971 110.0000 0.0000 0.0000 24.1717 0.0000 0.0000 -10.5289 -1.1546 11.8977 110.0000 0.0000 0.0000 17.0868 0.0000 0.0000 -20.4285 -2.8408 11.1958 110.0000 0.0000 0.0000 15.6997 0.0000 0.0000 0.0000 0.0000 0.0000 0.0000 0.0000 0.0000 0.0000 0.0000 0.0000 0.0000 0.0000 0.0000 0.0000 0.0000 0.0000 0.0000 0.0000 0.0000
0.0000 95.0000 0.0000 0.0000 0.0000 0.0000 0.0000 0.0000 0.0000 0.0000 0.0000 0.0000 0.0000 0.0000 0.0000 0.0000 0.0000 0.0000 0.0000 0.0000 0.0000 0.0000 0.0000 0.0000 -75.3089 0.6092 0.7895 -31.8880 -4.1894 11.2207 -534.7483 -18.0768 -207.5932 47.8580 -10.6510 -0.7906 13.1094 0.0000 0.0000 19.5761 0.0000 0.0000 -18.5300 1.0137 -10.5851 27.4602 0.0000 0.0000 79.3620 0.0000 0.0000 -7.8534 -0.6243 -13.8486 24.8630 0.0000 0.0000 90.0000 0.0000 0.0000 2.3039 -1.8190 -14.0685 25.9145 0.0000 0.0000 90.0000 0.0000 0.0000 11.2946 -3.6713 -14.0451 33.6734 0.0000 0.0000 90.0000 0.0000 0.0000 0.0000 0.0000 0.0000 85.7955 -3.7555 4.0415 366.9805 14.0598 377.3884 176.3163 43.8687 -177.4372 -59.8782 -13.8154 10.4880 20.6474 0.0000 0.0000 15.8232 0.0000 0.0000 13.0670 1.2683 10.4261 70.8782 0.0000 0.0000 85.4953 0.0000 0.0000 -1.3051 0.0870 12.3971 110.0000 0.0000 0.0000 24.1717 0.0000 0.0000 -10.5289 -1.1546 11.8977 110.0000 0.0000 0.0000 17.0868 0.0000 0.0000 -20.4285 -2.8408 11.1958 110.0000 0.0000 0.0000 15.6997 0.0000 0.0000 0.0000 0.0000 0.0000 0.0000 0.0000 0.0000 0.0000 0.0000 0.0000 0.0000 0.0000 0.0000 0.0000 0.0000 0.0000 0.0000 0.0000 0.0000
0.0000 95.0000 0.0000 0.0000 0.0000 0.0000 0.0000 0.0000 0.0000 0.0000 0.0000 0.0000 0.0000 0.0000 0.0000 0.0000 0.0000 0.0000 0.0000 0.0000 0.0000 0.0000 0.0000 0.0000 -75.7285 1.4857 1.9108 -26.3355 -6.0886 14.4488 -527.5354 -19.2700 -212.4627 47.8580 -10.6510 -0.7906 13.1094 0.0000 0.0000 19.5761 0.0000 0.0000 -18.5300 1.0137 -10.5851 27.4602 0.0000 0.0000 79.3620 0.0000 0.0000 -7.8534 -0.6243 -13.8486 24.8630 0.0000 0.0000 90.0000 0.0000 0.0000 2.3039 -1.8190 -14.0685 25.9145 0.0000 0.0000 90.0000 0.0000 0.0000 11.2946 -3.6713 -14.0451 33.6734 0.0000 0.0000 90.0000 0.0000 0.0000 0.0000 0.0000 0.0000 86.6706 -2.6148 2.7713 363.7343 10.4990 371.9884 173.9093 38.5146 -173.1360 -59.8782 -13.8154 10.4880 20.6474 0.0000 0.0000 15.8232 0.0000 0.0000 13.0670 1.2683 10.4261 70.8782 0.0000 0.0000 85.4953 0.0000 0.0000 -1.3051 0.0870 12.3971 110.0000 0.0000 0.0000 24.1717 0.0000 0.0000 -10.5289 -1.1546 11.8977 110.0000 0.0000 0.0000 17.0868 0.0000 0.0000 -20.4285 -2.8408 11.1958 110.0000 0.0000 0.0000 15.6997 0.0000 0.0000 0.0000 0.0000 0.0000 0.0000 0.0000 0.0000 0.0000 0.0000 0.0000 0.0000 0.0000 0.0000 0.0000 0.0000 0.0000 0.0000 0.0000 0.0000
0.0000 95.0000 0.0000 0.0000 0.0000 0.0000 0.0000 0.0000 0.0000 0.0000 0.0000 0.0000 0.0000 0.0000 0.0000 0.0000 0.0000 0.0000 0.0000 0.0000 0.0000 0.0000 0.0000 0.0000 -76.0852 2.3354 2.9843 -21.5859 -7.7538 16.4144 -521.5328 -19.5394 -216.3346 47.8580 -10.6510 -0.7906 13.1094 0.0000 0.0000 19.5761 0.0000 0.0000 -18.5300 1.0137 -10.5851 27.4602 0.0000 0.0000 79.3620 0.0000 0.0000 -7.8534 -0.6243 -13.8486 24.8630 0.0000 0.0000 90.0000 0.0000 0.0000 2.3039 -1.8190 -14.0685 25.9145 0.0000 0.0000 90.0000 0.0000 0.0000 11.2946 -3.6713 -14.0451 33.6734 0.0000 0.0000 90.0000 0.0000 0.0000 0.0000 0.0000 0.0000 87.1093 -2.1962 2.3099 361.8170 9.9357 370.8099 172.0801 37.5354 -172.7785 -59.8782 -13.8154 10.4880 20.6474 0.0000 0.0000 15.8232 0.0000 0.0000 13.0670 1.2683 10.4261 70.8782 0.0000 0.0000 85.4953 0.0000 0.0000 -1.3051 0.0870 12.3971 110.0000 0.0000 0.0000 24.1717 0.0000 0.0000 -10.5289 -1.1546 11.8977 110.0000 0.0000 0.0000 17.0868 0.0000 0.0000 -20.4285 -2.8408 11.1958 110.0000 0.0000 0.0000 15.6997 0.0000 0.0000 0.0000 0.0000 0.0000 0.0000 0.0000 0.0000 0.0000 0.0000 0.0000 0.0000 0.0000 0.0000 0.0000 0.0000 0.0000 0.0000 0.0000 0.0000
0.0000 95.0000 0.0000 0.0000 0.0000 0.0000 0.0000 0.0000 0.0000 0.0000 0.0000 0.0000 0.0000 0.0000 0.0000 0.0000 0.0000 0.0000 0.0000 0.0000 0.0000 0.0000 0.0000 0.0000 -76.1203 2.4896 3.1794 -19.4314 -7.6053 15.3650 -520.0536 -18.1369 -216.0359 47.8580 -10.6510 -0.7906 13.1094 0.0000 0.0000 19.5761 0.0000 0.0000 -18.5300 1.0137 -10.5851 27.4602 0.0000 0.0000 79.3620 0.0000 0.0000 -7.8534 -0.6243 -13.8486 24.8630 0.0000 0.0000 90.0000 0.0000 0.0000 2.3039 -1.8190 -14.0685 25.9145 0.0000 0.0000 90.0000 0.0000 0.0000 11.2946 -3.6713 -14.0451 33.6734 0.0000 0.0000 90.0000 0.0000 0.0000 0.0000 0.0000 0.0000 87.8607 -1.4476 1.5027 360.4924 9.3159 369.7408 171.2649 36.0662 -171.5675 -59.8782 -13.8154 10.4880 20.6474 0.0000 0.0000 15.8232 0.0000 0.0000 13.0670 1.2683 10.4261 70.8782 0.0000 0.0000 85.4953 0.0000 0.0000 -1.3051 0.0870 12.3971 110.0000 0.0000 0.0000 24.1717 0.0000 0.0000 -10.5289 -1.1546 11.8977 110.0000 0.0000 0.0000 17.0868 0.0000 0.0000 -20.4285 -2.8408 11.1958 110.0000 0.0000 0.0000 15.6997 0.0000 0.0000 0.0000 0.0000 0.0000 0.0000 0.0000 0.0000 0.0000 0.0000 0.0000 0.0000 0.0000 0.0000 0.0000 0.0000 0.0000 0.0000 0.0000 0.0000
0.0000 95.0000 0.0000 0.0000 0.0000 0.0000 0.0000 0.0000 0.0000 0.0000 0.0000 0.0000 0.0000 0.0000 0.0000 0.0000 0.0000 0.0000 0.0000 0.0000 0.0000 0.0000 0.0000 0.0000 -76.6837 2.4299 3.0719 -17.7030 -7.8420 14.9369 -519.1613 -17.3523 -215.8921 47.8580 -10.6510 -0.7906 13.1094 0.0000 0.0000 19.5761 0.0000 0.0000 -18.5300 1.0137 -10.5851 27.4602 0.0000 0.0000 79.3620 0.0000 0.0000 -7.8534 -0.6243 -13.8486 24.8630 0.0000 0.0000 90.0000 0.0000 0.0000 2.3039 -1.8190 -14.0685 25.9145 0.0000 0.0000 90.0000 0.0000 0.0000 11.2946 -3.6713 -14.0451 33.6734 0.0000 0.0000 90.0000 0.0000 0.0000 0.0000 0.0000 0.0000 88.5990 -0.6356 0.6514 359.4586 9.0593 369.1808 170.7462 34.9286 -170.5805 -59.8782 -13.8154 10.4880 20.6474 0.0000 0.0000 15.8232 0.0000 0.0000 13.0670 1.2683 10.4261 70.8782 0.0000 0.0000 85.4953 0.0000 0.0000 -1.3051 0.0870 12.3971 110.0000 0.0000 0.0000 24.1717 0.0000 0.0000 -10.5289 -1.1546 11.8977 110.0000 0.0000 0.0000 17.0868 0.0000 0.0000 -20.4285 -2.8408 11.1958 110.0000 0.0000 0.0000 15.6997 0.0000 0.0000 0.0000 0.0000 0.0000 0.0000 0.0000 0.0000 0.0000 0.0000 0.0000 0.0000 0.0000 0.0000 0.0000 0.0000 0.0000 0.0000 0.0000 0.0000
0.0000 95.0000 0.0000 0.0000 0.0000 0.0000 0.0000 0.0000 0.0000 0.0000 0.0000 0.0000 0.0000 0.0000 0.0000 0.0000 0.0000 0.0000 0.0000 0.0000 0.0000 0.0000 0.0000 0.0000 -76.9580 2.7046 3.4024 -16.6190 -7.6539 14.2682 -518.6253 -16.8692 -215.7887 47.8580 -10.6510 -0.7906 13.1094 0.0000 0.0000 19.5761 0.0000 0.0000 -18.5300 1.0137 -10.5851 27.4602 0.0000 0.0000 79.3620 0.0000 0.0000 -7.8534 -0.6243 -13.8486 24.8630 0.0000 0.0000 90.0000 0.0000 0.0000 2.3039 -1.8190 -14.0685 25.9145 0.0000 0.0000 90.0000 0.0000 0.0000 11.2946 -3.6713 -14.0451 33.6734 0.0000 0.0000 90.0000 0.0000 0.0000 0.0000 0.0000 0.0000 89.1934 -0.7020 0.7119 358.8023 9.2237 369.1369 170.6861 35.0648 -170.7350 -59.8782 -13.8154 10.4880 20.6474 0.0000 0.0000 15.8232 0.0000 0.0000 13.0670 1.2683 10.4261 70.8782 0.0000 0.0000 85.4953 0.0000 0.0000 -1.3051 0.0870 12.3971 110.0000 0.0000 0.0000 24.1717 0.0000 0.0000 -10.5289 -1.1546 11.8977 110.0000 0.0000 0.0000 17.0868 0.0000 0.0000 -20.4285 -2.8408 11.1958 110.0000 0.0000 0.0000 15.6997 0.0000 0.0000 0.0000 0.0000 0.0000 0.0000 0.0000 0.0000 0.0000 0.0000 0.0000 0.0000 0.0000 0.0000 0.0000 0.0000 0.0000 0.0000 0.0000 0.0000
0.0000 95.0000 0.0000 0.0000 0.0000 0.0000 0.0000 0.0000 0.0000 0.0000 0.0000 0.0000 0.0000 0.0000 0.0000 0.0000 0.0000 0.0000 0.0000 0.0000 0.0000 0.0000 0.0000 0.0000 -77.1848 2.5189 3.1559 -15.6449 -7.7345 13.9319 -518.1873 -16.1877 -215.4347 47.8580 -10.6510 -0.7906 13.1094 0.0000 0.0000 19.5761 0.0000 0.0000 -18.5300 1.0137 -10.5851 27.4602 0.0000 0.0000 79.3620 0.0000 0.0000 -7.8534 -0.6243 -13.8486 24.8630 0.0000 0.0000 90.0000 0.0000 0.0000 2.3039 -1.8190 -14.0685 25.9145 0.0000 0.0000 90.0000 0.0000 0.0000 11.2946 -3.6713 -14.0451 33.6734 0.0000 0.0000 90.0000 0.0000 0.0000 0.0000 0.0000 0.0000 89.4328 -0.4094 0.4135 358.7687 9.5638 369.4395 170.8674 35.0507 -170.6678 -59.8782 -13.8154 10.4880 20.6474 0.0000 0.0000 15.8232 0.0000 0.0000 13.0670 1.2683 10.4261 70.8782 0.0000 0.0000 85.4953 0.0000 0.0000 -1.3051 0.0870 12.3971 110.0000 0.0000 0.0000 24.1717 0.0000 0.0000 -10.5289 -1.1546 11.8977 110.0000 0.0000 0.0000 17.0868 0.0000 0.0000 -20.4285 -2.8408 11.1958 110.0000 0.0000 0.0000 15.6997 0.0000 0.0000 0.0000 0.0000 0.0000 0.0000 0.0000 0.0000 0.0000 0.0000 0.0000 0.0000 0.0000 0.0000 0.0000 0.0000 0.0000 0.0000 0.0000 0.0000
0.0000 95.0000 0.0000 0.0000 0.0000 0.0000 0.0000 0.0000 0.0000 0.0000 0.0000 0.0000 0.0000 0.0000 0.0000 0.0000 0.0000 0.0000 0.0000 0.0000 0.0000 0.0000 0.0000 0.0000 -77.3843 2.0385 2.5450 -15.5198 -8.0300 14.1392 -518.3608 -15.9170 -215.0756 47.8580 -10.6510 -0.7906 13.1094 0.0000 0.0000 19.5761 0.0000 0.0000 -18.5300 1.0137 -10.5851 27.4602 0.0000 0.0000 79.3620 0.0000 0.0000 -7.8534 -0.6243 -13.8486 24.8630 0.0000 0.0000 90.0000 0.0000 0.0000 2.3039 -1.8190 -14.0685 25.9145 0.0000 0.0000 90.0000 0.0000 0.0000 11.2946 -3.6713 -14.0451 33.6734 0.0000 0.0000 90.0000 0.0000 0.0000 0.0000 0.0000 0.0000 89.7956 -0.4808 0.4825 358.2746 9.7713 369.4952 170.7260 35.2826 -170.9426 -59.8782 -13.8154 10.4880 20.6474 0.0000 0.0000 15.8232 0.0000 0.0000 13.0670 1.2683 10.4261 70.8782 0.0000 0.0000 85.4953 0.0000 0.0000 -1.3051 0.0870 12.3971 110.0000 0.0000 0.0000 24.1717 0.0000 0.0000 -10.5289 -1.1546 11.8977 110.0000 0.0000 0.0000 17.0868 0.0000 0.0000 -20.4285 -2.8408 11.1958 110.0000 0.0000 0.0000 15.6997 0.0000 0.0000 0.0000 0.0000 0.0000 0.0000 0.0000 0.0000 0.0000 0.0000 0.0000 0.0000 0.0000 0.0000 0.0000 0.0000 0.0000 0.0000 0.0000 0.0000
0.0000 95.0000 0.0000 0.0000 0.0000 0.0000 0.0000 0.0000 0.0000 0.0000 0.0000 0.0000 0.0000 0.0000 0.0000 0.0000 0.0000 0.0000 0.0000 0.0000 0.0000 0.0000 0.0000 0.0000 -77.5843 2.3005 2.8619 -14.9521 -8.4927 14.7385 -517.4586 -16.3810 -216.0740 47.8580 -10.6510 -0.7906 13.1094 0.0000 0.0000 19.5761 0.0000 0.0000 -18.5300 1.0137 -10.5851 27.4602 0.0000 0.0000 79.3620 0.0000 0.0000 -7.8534 -0.6243 -13.8486 24.8630 0.0000 0.0000 90.0000 0.0000 0.0000 2.3039 -1.8190 -14.0685 25.9145 0.0000 0.0000 90.0000 0.0000 0.0000 11.2946 -3.6713 -14.0451 33.6734 0.0000 0.0000 90.0000 0.0000 0.0000 0.0000 0.0000 0.0000 90.1036 -0.4057 0.4050 357.8778 9.8885 369.4928 170.6065 35.2890 -170.9845 -59.8782 -13.8154 10.4880 20.6474 0.0000 0.0000 15.8232 0.0000 0.0000 13.0670 1.2683 10.4261 70.8782 0.0000 0.0000 85.4953 0.0000 0.0000 -1.3051 0.0870 12.3971 110.0000 0.0000 0.0000 24.1717 0.0000 0.0000 -10.5289 -1.1546 11.8977 110.0000 0.0000 0.0000 17.0868 0.0000 0.0000 -20.4285 -2.8408 11.1958 110.0000 0.0000 0.0000 15.6997 0.0000 0.0000 0.0000 0.0000 0.0000 0.0000 0.0000 0.0000 0.0000 0.0000 0.0000 0.0000 0.0000 0.0000 0.0000 0.0000 0.0000 0.0000 0.0000 0.0000
0.0000 95.0000 0.0000 0.0000 0.0000 0.0000 0.0000 0.0000 0.0000 0.0000 0.0000 0.0000 0.0000 0.0000 0.0000 0.0000 0.0000 0.0000 0.0000 0.0000 0.0000 0.0000 0.0000 0.0000 -77.3035 3.0436 3.8051 -14.6173 -8.9304 15.6562 -515.8796 -17.3149 -217.9792 47.8580 -10.6510 -0.7906 13.1094 0.0000 0.0000 19.5761 0.0000 0.0000 -18.5300 1.0137 -10.5851 27.4602 0.0000 0.0000 79.3620 0.0000 0.0000 -7.8534 -0.6243 -13.8486 24.8630 0.0000 0.0000 90.0000 0.0000 0.0000 2.3039 -1.8190 -14.0685 25.9145 0.0000 0.0000 90.0000 0.0000 0.0000 11.2946 -3.6713 -14.0451 33.6734 0.0000 0.0000 90.0000 0.0000 0.0000 0.0000 0.0000 0.0000 90.2320 -0.2197 0.2188 357.8648 9.5834 369.1862 170.7074 34.7767 -170.4391 -59.8782 -13.8154 10.4880 20.6474 0.0000 0.0000 15.8232 0.0000 0.0000 13.0670 1.2683 10.4261 70.8782 0.0000 0.0000 85.4953 0.0000 0.0000 -1.3051 0.0870 12.3971 110.0000 0.0000 0.0000 24.1717 0.0000 0.0000 -10.5289 -1.1546 11.8977 110.0000 0.0000 0.0000 17.0868 0.0000 0.0000 -20.4285 -2.8408 11.1958 110.0000 0.0000 0.0000 15.6997 0.0000 0.0000 0.0000 0.0000 0.0000 0.0000 0.0000 0.0000 0.0000 0.0000 0.0000 0.0000 0.0000 0.0000 0.0000 0.0000 0.0000 0.0000 0.0000 0.0000
0.0000 95.0000 0.0000 0.0000 0.0000 0.0000 0.0000 0.0000 0.0000 0.0000 0.0000 0.0000 0.0000 0.0000 0.0000 0.0000 0.0000 0.0000 0.0000 0.0000 0.0000 0.0000 0.0000 0.0000 -77.4091 3.1228 3.8968 -13.8545 -9.0888 15.6147 -515.2106 -17.0811 -218.2008 47.8580 -10.6510 -0.7906 13.1094 0.0000 0.0000 19.5761 0.0000 0.0000 -18.5300 1.0137 -10.5851 27.4602 0.0000 0.0000 79.3620 0.0000 0.0000 -7.8534 -0.6243 -13.8486 24.8630 0.0000 0.0000 90.0000 0.0000 0.0000 2.3039 -1.8190 -14.0685 25.9145 0.0000 0.0000 90.0000 0.0000 0.0000 11.2946 -3.6713 -14.0451 33.6734 0.0000 0.0000 90.0000 0.0000 0.0000 0.0000 0.0000 0.0000 90.3134 -0.2500 0.2487 357.4799 9.5554 369.0822 170.3590 34.8154 -170.5788 -59.8782 -13.8154 10.4880 20.6474 0.0000 0.0000 15.8232 0.0000 0.0000 13.0670 1.2683 10.4261 70.8782 0.0000 0.0000 85.4953 0.0000 0.0000 -1.3051 0.0870 12.3971 110.0000 0.0000 0.0000 24.1717 0.0000 0.0000 -10.5289 -1.1546 11.8977 110.0000 0.0000 0.0000 17.0868 0.0000 0.0000 -20.4285 -2.8408 11.1958 110.0000 0.0000 0.0000 15.6997 0.0000 0.0000 0.0000 0.0000 0.0000 0.0000 0.0000 0.0000 0.0000 0.0000 0.0000 0.0000 0.0000 0.0000 0.0000 0.0000 0.0000 0.0000 0.0000 0.0000
0.0000 95.0000 0.0000 0.0000 0.0000 0.0000 0.0000 0.0000 0.0000 0.0000 0.0000 0.0000 0.0000 0.0000 0.0000 0.0000 0.0000 0.0000 0.0000 0.0000 0.0000 0.0000 0.0000 0.0000 -77.4044 3.1240 3.8985 -13.7666 -9.0967 15.5961 -515.1334 -17.0307 -218.2040 47.8580 -10.6510 -0.7906 13.1094 0.0000 0.0000 19.5761 0.0000 0.0000 -18.5300 1.0137 -10.5851 27.4602 0.0000 0.0000 79.3620 0.0000 0.0000 -7.8534 -0.6243 -13.8486 24.8630 0.0000 0.0000 90.0000 0.0000 0.0000 2.3039 -1.8190 -14.0685 25.9145 0.0000 0.0000 90.0000 0.0000 0.0000 11.2946 -3.6713 -14.0451 33.6734 0.0000 0.0000 90.0000 0.0000 0.0000 0.0000 0.0000 0.0000 90.3190 0.1401 -0.1394 357.7234 9.4587 369.0485 170.5722 34.3141 -170.0128 -59.8782 -13.8154 10.4880 20.6474 0.0000 0.0000 15.8232 0.0000 0.0000 13.0670 1.2683 10.4261 70.8782 0.0000 0.0000 85.4953 0.0000 0.0000 -1.3051 0.0870 12.3971 110.0000 0.0000 0.0000 24.1717 0.0000 0.0000 -10.5289 -1.1546 11.8977 110.0000 0.0000 0.0000 17.0868 0.0000 0.0000 -20.4285 -2.8408 11.1958 110.0000 0.0000 0.0000 15.6997 0.0000 0.0000 0.0000 0.0000 0.0000 0.0000 0.0000 0.0000 0.0000 0.0000 0.0000 0.0000 0.0000 0.0000 0.0000 0.0000 0.0000 0.0000 0.0000 0.0000
0.0000 95.0000 0.0000 0.0000 0.0000 0.0000 0.0000 0.0000 0.0000 0.0000 0.0000 0.0000 0.0000 0.0000 0.0000 0.0000 0.0000 0.0000 0.0000 0.0000 0.0000 0.0000 0.0000 0.0000 -77.6328 2.8887 3.5902 -13.0512 -9.0123 15.0682 -515.1189 -16.3173 -217.5261 47.8580 -10.6510 -0.7906 13.1094 0.0000 0.0000 19.5761 0.0000 0.0000 -18.5300 1.0137 -10.5851 27.4602 0.0000 0.0000 79.3620 0.0000 0.0000 -7.8534 -0.6243 -13.8486 24.8630 0.0000 0.0000 90.0000 0.0000 0.0000 2.3039 -1.8190 -14.0685 25.9145 0.0000 0.0000 90.0000 0.0000 0.0000 11.2946 -3.6713 -14.0451 33.6734 0.0000 0.0000 90.0000 0.0000 0.0000 0.0000 0.0000 0.0000 90.2928 -0.2617 0.2603 357.5190 9.6721 369.2023 170.3826 34.9398 -170.6977 -59.8782 -13.8154 10.4880 20.6474 0.0000 0.0000 15.8232 0.0000 0.0000 13.0670 1.2683 10.4261 70.8782 0.0000 0.0000 85.4953 0.0000 0.0000 -1.3051 0.0870 12.3971 110.0000 0.0000 0.0000 24.1717 0.0000 0.0000 -10.5289 -1.1546 11.8977 110.0000 0.0000 0.0000 17.0868 0.0000 0.0000 -20.4285 -2.8408 11.1958 110.0000 0.0000 0.0000 15.6997 0.0000 0.0000 0.0000 0.0000 0.0000 0.0000 0.0000 0.0000 0.0000 0.0000 0.0000 0.0000 0.0000 0.0000 0.0000 0.0000 0.0000 0.0000 0.0000 0.0000
