HIERARCHY
ROOT Hips
{
  OFFSET 0.000000 95.000000 0.000000
  CHANNELS 6 Xposition Yposition Zposition Zrotation Xrotation Yrotation
  JOINT Spine
  {
    OFFSET 0.000000 10.000000 0.000000
    CHANNELS 3 Zrotation Xrotation Yrotation
    JOINT Spine1
    {
      OFFSET 0.000000 12.000000 0.000000
      CHANNELS 3 Zrotation Xrotation Yrotation
      JOINT Spine2
      {
        OFFSET 0.000000 12.000000 0.000000
        CHANNELS 3 Zrotation Xrotation Yrotation
        JOINT Neck
        {
          OFFSET 0.000000 10.000000 0.000000
          CHANNELS 3 Zrotation Xrotation Yrotation
          JOINT Head
          {
            OFFSET 0.000000 8.000000 0.000000
            CHANNELS 3 Zrotation Xrotation Yrotation
            End Site
            {
              OFFSET 0.000000 10.000000 0.000000
            }
          }
        }
        JOINT LeftShoulder
        {
          OFFSET 6.000000 8.000000 0.000000
          CHANNELS 3 Zrotation Xrotation Yrotation
          JOINT LeftArm
          {
            OFFSET 12.000000 0.000000 0.000000
            CHANNELS 3 Zrotation Xrotation Yrotation
            JOINT LeftForeArm
            {
              OFFSET 24.000000 0.000000 0.000000
              CHANNELS 3 Zrotation Xrotation Yrotation
              JOINT LeftHand
              {
                OFFSET 22.000000 0.000000 0.000000
                CHANNELS 3 Zrotation Xrotation Yrotation
                JOINT LeftHandThumb1
                {
                  OFFSET 1.800000 -1.400000 0.500000
                  CHANNELS 3 Zrotation Xrotation Yrotation
                  JOINT LeftHandThumb2
                  {
                    OFFSET 2.400000 0.000000 0.000000
                    CHANNELS 3 Zrotation Xrotation Yrotation
                    JOINT LeftHandThumb3
                    {
                      OFFSET 1.900000 0.000000 0.000000
                      CHANNELS 3 Zrotation Xrotation Yrotation
                      End Site
                      {
                        OFFSET 1.600000 0.000000 0.000000
                      }
                    }
                  }
                }
                JOINT LeftHandIndex1
                {
                  OFFSET 6.600000 1.200000 0.300000
                  CHANNELS 3 Zrotation Xrotation Yrotation
                  JOINT LeftHandIndex2
                  {
                    OFFSET 2.000000 0.000000 0.000000
                    CHANNELS 3 Zrotation Xrotation Yrotation
                    JOINT LeftHandIndex3
                    {
                      OFFSET 1.200000 0.000000 0.000000
                      CHANNELS 3 Zrotation Xrotation Yrotation
                      End Site
                      {
                        OFFSET 1.000000 0.000000 0.000000
                      }
                    }
                  }
                }
                JOINT LeftHandMiddle1
                {
                  OFFSET 7.200000 0.000000 0.300000
                  CHANNELS 3 Zrotation Xrotation Yrotation
                  JOINT LeftHandMiddle2
                  {
                    OFFSET 3.000000 0.000000 0.000000
                    CHANNELS 3 Zrotation Xrotation Yrotation
                    JOINT LeftHandMiddle3
                    {
                      OFFSET 2.000000 0.000000 0.000000
                      CHANNELS 3 Zrotation Xrotation Yrotation
                      End Site
                      {
                        OFFSET 1.600000 0.000000 0.000000
                      }
                    }
                  }
                }
                JOINT LeftHandRing1
                {
                  OFFSET 7.100000 -1.000000 0.400000
                  CHANNELS 3 Zrotation Xrotation Yrotation
                  JOINT LeftHandRing2
                  {
                    OFFSET 2.600000 0.000000 0.000000
                    CHANNELS 3 Zrotation Xrotation Yrotation
                    JOINT LeftHandRing3
                    {
                      OFFSET 1.600000 0.000000 0.000000
                      CHANNELS 3 Zrotation Xrotation Yrotation
                      End Site
                      {
                        OFFSET 1.300000 0.000000 0.000000
                      }
                    }
                  }
                }
                JOINT LeftHandPinky1
                {
                  OFFSET 6.500000 -2.000000 0.500000
                  CHANNELS 3 Zrotation Xrotation Yrotation
                  JOINT LeftHandPinky2
                  {
                    OFFSET 1.900000 0.000000 0.000000
                    CHANNELS 3 Zrotation Xrotation Yrotation
                    JOINT LeftHandPinky3
                    {
                      OFFSET 1.400000 0.000000 0.000000
                      CHANNELS 3 Zrotation Xrotation Yrotation
                      End Site
                      {
                        OFFSET 1.300000 0.000000 0.000000
                      }
                    }
                  }
                }
              }
            }
          }
        }
        JOINT RightShoulder
        {
          OFFSET -6.000000 8.000000 0.000000
          CHANNELS 3 Zrotation Xrotation Yrotation
          JOINT RightArm
          {
            OFFSET -12.000000 0.000000 0.000000
            CHANNELS 3 Zrotation Xrotation Yrotation
            JOINT RightForeArm
            {
              OFFSET -24.000000 0.000000 0.000000
              CHANNELS 3 Zrotation Xrotation Yrotation
              JOINT RightHand
              {
                OFFSET -22.000000 0.000000 0.000000
                CHANNELS 3 Zrotation Xrotation Yrotation
                JOINT RightHandThumb1
                {
                  OFFSET -1.800000 -1.400000 0.500000
                  CHANNELS 3 Zrotation Xrotation Yrotation
                  JOINT RightHandThumb2
                  {
                    OFFSET -2.400000 0.000000 0.000000
                    CHANNELS 3 Zrotation Xrotation Yrotation
                    JOINT RightHandThumb3
                    {
                      OFFSET -1.900000 0.000000 0.000000
                      CHANNELS 3 Zrotation Xrotation Yrotation
                      End Site
                      {
                        OFFSET -1.600000 0.000000 0.000000
                      }
                    }
                  }
                }
                JOINT RightHandIndex1
                {
                  OFFSET -6.600000 1.200000 0.300000
                  CHANNELS 3 Zrotation Xrotation Yrotation
                  JOINT RightHandIndex2
                  {
                    OFFSET -2.000000 0.000000 0.000000
                    CHANNELS 3 Zrotation Xrotation Yrotation
                    JOINT RightHandIndex3
                    {
                      OFFSET -1.200000 0.000000 0.000000
                      CHANNELS 3 Zrotation Xrotation Yrotation
                      End Site
                      {
                        OFFSET -1.000000 0.000000 0.000000
                      }
                    }
                  }
                }
                JOINT RightHandMiddle1
                {
                  OFFSET -7.200000 0.000000 0.300000
                  CHANNELS 3 Zrotation Xrotation Yrotation
                  JOINT RightHandMiddle2
                  {
                    OFFSET -3.000000 0.000000 0.000000
                    CHANNELS 3 Zrotation Xrotation Yrotation
                    JOINT RightHandMiddle3
                    {
                      OFFSET -2.000000 0.000000 0.000000
                      CHANNELS 3 Zrotation Xrotation Yrotation
                      End Site
                      {
                        OFFSET -1.600000 0.000000 0.000000
                      }
                    }
                  }
                }
                JOINT RightHandRing1
                {
                  OFFSET -7.100000 -1.000000 0.400000
                  CHANNELS 3 Zrotation Xrotation Yrotation
                  JOINT RightHandRing2
                  {
                    OFFSET -2.600000 0.000000 0.000000
                    CHANNELS 3 Zrotation Xrotation Yrotation
                    JOINT RightHandRing3
                    {
                      OFFSET -1.600000 0.000000 0.000000
                      CHANNELS 3 Zrotation Xrotation Yrotation
                      End Site
                      {
                        OFFSET -1.300000 0.000000 0.000000
                      }
                    }
                  }
                }
                JOINT RightHandPinky1
                {
                  OFFSET -6.500000 -2.000000 0.500000
                  CHANNELS 3 Zrotation Xrotation Yrotation
                  JOINT RightHandPinky2
                  {
                    OFFSET -1.900000 0.000000 0.000000
                    CHANNELS 3 Zrotation Xrotation Yrotation
                    JOINT RightHandPinky3
                    {
                      OFFSET -1.400000 0.000000 0.000000
                      CHANNELS 3 Zrotation Xrotation Yrotation
                      End Site
                      {
                        OFFSET -1.300000 0.000000 0.000000
                      }
                    }
                  }
                }
              }
            }
          }
        }
      }
    }
  }
  JOINT LeftUpLeg
  {
    OFFSET 10.000000 -5.000000 0.000000
    CHANNELS 3 Zrotation Xrotation Yrotation
    JOINT LeftLeg
    {
      OFFSET 0.000000 -42.000000 0.000000
      CHANNELS 3 Zrotation Xrotation Yrotation
      JOINT LeftFoot
      {
        OFFSET 0.000000 -42.000000 4.000000
        CHANNELS 3 Zrotation Xrotation Yrotation
        End Site
        {
          OFFSET 0.000000 0.000000 12.000000
        }
      }
    }
  }
  JOINT RightUpLeg
  {
    OFFSET -10.000000 -5.000000 0.000000
    CHANNELS 3 Zrotation Xrotation Yrotation
    JOINT RightLeg
    {
      OFFSET 0.000000 -42.000000 0.000000
      CHANNELS 3 Zrotation Xrotation Yrotation
      JOINT RightFoot
      {
        OFFSET 0.000000 -42.000000 4.000000
        CHANNELS 3 Zrotation Xrotation Yrotation
        End Site
        {
          OFFSET 0.000000 0.000000 12.000000
        }
      }
    }
  }
}
MOTION
Frames: 60
Frame Time: 0.033333
0.0000 95.0000 0.0000 0.0000 0.0000 0.0000 0.0000 0.0000 0.0000 0.0000 0.0000 0.0000 0.0000 0.0000 0.0000 0.0000 0.0000 0.0000 0.0000 0.0000 0.0000 0.0000 0.0000 0.0000 -74.3856 5.2189 6.8739 -13.0048 -7.3945 14.1011 -32.6563 -36.2810 -158.4815 46.0647 -12.7493 -10.8586 4.3534 0.0000 0.0000 5.2338 0.0000 0.0000 -11.1463 1.6192 -13.5701 6.5578 0.0000 0.0000 3.9495 0.0000 0.0000 -7.0687 -0.1503 -7.2051 13.4067 0.0000 0.0000 5.6098 0.0000 0.0000 5.1401 -1.3821 -11.5182 14.4518 0.0000 0.0000 5.2180 0.0000 0.0000 17.5827 -3.3059 -13.8620 5.4159 0.0000 0.0000 4.3414 0.0000 0.0000 0.0000 0.0000 0.0000 91.4685 0.3116 -0.3037 -3.0160 10.0452 9.3112 4.8410 -6.5071 159.0684 -70.6048 -14.3518 -4.7973 3.5025 0.0000 0.0000 15.1941 0.0000 0.0000 -25.4214 0.8574 4.9035 74.3365 0.0000 0.0000 41.8039 0.0000 0.0000 -42.8404 1.5299 8.6704 110.0000 0.0000 0.0000 24.9723 0.0000 0.0000 -49.4475 0.8651 12.1536 110.0000 0.0000 0.0000 28.6451 0.0000 0.0000 -55.9554 -1.9010 10.9567 107.8176 0.0000 0.0000 32.9561 0.0000 0.0000 0.0000 0.0000 0.0000 0.0000 0.0000 0.0000 0.0000 0.0000 0.0000 0.0000 0.0000 0.0000 0.0000 0.0000 0.0000 0.0000 0.0000 0.0000
0.0000 95.0000 0.0000 0.0000 0.0000 0.0000 0.0000 0.0000 0.0000 0.0000 0.0000 0.0000 0.0000 0.0000 0.0000 0.0000 0.0000 0.0000 0.0000 0.0000 0.0000 0.0000 0.0000 0.0000 -74.2385 5.6390 7.4465 -12.7953 -7.3849 14.1650 -32.5925 -36.9042 -159.0261 46.0647 -12.7493 -10.8586 4.3534 0.0000 0.0000 5.2338 0.0000 0.0000 -11.1463 1.6192 -13.5701 6.5578 0.0000 0.0000 3.9495 0.0000 0.0000 -7.0687 -0.1503 -7.2051 13.4067 0.0000 0.0000 5.6098 0.0000 0.0000 5.1401 -1.3821 -11.5182 14.4518 0.0000 0.0000 5.2180 0.0000 0.0000 17.5827 -3.3059 -13.8620 5.4159 0.0000 0.0000 4.3414 0.0000 0.0000 0.0000 0.0000 0.0000 91.2391 0.4924 -0.4819 -2.7976 10.1493 9.4909 4.8229 -6.5529 159.1139 -70.6048 -14.3518 -4.7973 3.5025 0.0000 0.0000 15.1941 0.0000 0.0000 -25.4214 0.8574 4.9035 74.3365 0.0000 0.0000 41.8039 0.0000 0.0000 -42.8404 1.5299 8.6704 110.0000 0.0000 0.0000 24.9723 0.0000 0.0000 -49.4475 0.8651 12.1536 110.0000 0.0000 0.0000 28.6451 0.0000 0.0000 -55.9554 -1.9010 10.9567 107.8176 0.0000 0.0000 32.9561 0.0000 0.0000 0.0000 0.0000 0.0000 0.0000 0.0000 0.0000 0.0000 0.0000 0.0000 0.0000 0.0000 0.0000 0.0000 0.0000 0.0000 0.0000 0.0000 0.0000
0.0000 95.0000 0.0000 0.0000 0.0000 0.0000 0.0000 0.0000 0.0000 0.0000 0.0000 0.0000 0.0000 0.0000 0.0000 0.0000 0.0000 0.0000 0.0000 0.0000 0.0000 0.0000 0.0000 0.0000 -73.8411 6.3005 8.3788 -12.4734 -7.6179 14.7042 -32.4175 -38.3185 -160.2843 46.0647 -12.7493 -10.8586 4.3534 0.0000 0.0000 5.2338 0.0000 0.0000 -11.1463 1.6192 -13.5701 6.5578 0.0000 0.0000 3.9495 0.0000 0.0000 -7.0687 -0.1503 -7.2051 13.4067 0.0000 0.0000 5.6098 0.0000 0.0000 5.1401 -1.3821 -11.5182 14.4518 0.0000 0.0000 5.2180 0.0000 0.0000 17.5827 -3.3059 -13.8620 5.4159 0.0000 0.0000 4.3414 0.0000 0.0000 0.0000 0.0000 0.0000 90.9751 0.7229 -0.7107 -2.6548 9.8618 9.2997 4.9116 -7.0030 159.5878 -70.6048 -14.3518 -4.7973 3.5025 0.0000 0.0000 15.1941 0.0000 0.0000 -25.4214 0.8574 4.9035 74.3365 0.0000 0.0000 41.8039 0.0000 0.0000 -42.8404 1.5299 8.6704 110.0000 0.0000 0.0000 24.9723 0.0000 0.0000 -49.4475 0.8651 12.1536 110.0000 0.0000 0.0000 28.6451 0.0000 0.0000 -55.9554 -1.9010 10.9567 107.8176 0.0000 0.0000 32.9561 0.0000 0.0000 0.0000 0.0000 0.0000 0.0000 0.0000 0.0000 0.0000 0.0000 0.0000 0.0000 0.0000 0.0000 0.0000 0.0000 0.0000 0.0000 0.0000 0.0000
0.0000 95.0000 0.0000 0.0000 0.0000 0.0000 0.0000 0.0000 0.0000 0.0000 0.0000 0.0000 0.0000 0.0000 0.0000 0.0000 0.0000 0.0000 0.0000 0.0000 0.0000 0.0000 0.0000 0.0000 -73.6266 5.9717 7.9730 -12.7035 -7.4945 14.5769 -32.1948 -37.8874 -159.9172 46.0647 -12.7493 -10.8586 4.3534 0.0000 0.0000 5.2338 0.0000 0.0000 -11.1463 1.6192 -13.5701 6.5578 0.0000 0.0000 3.9495 0.0000 0.0000 -7.0687 -0.1503 -7.2051 13.4067 0.0000 0.0000 5.6098 0.0000 0.0000 5.1401 -1.3821 -11.5182 14.4518 0.0000 0.0000 5.2180 0.0000 0.0000 17.5827 -3.3059 -13.8620 5.4159 0.0000 0.0000 4.3414 0.0000 0.0000 0.0000 0.0000 0.0000 90.9916 0.7684 -0.7552 -3.0012 10.1031 9.4739 4.5063 -6.9533 159.4985 -70.6048 -14.3518 -4.7973 3.5025 0.0000 0.0000 15.1941 0.0000 0.0000 -25.4214 0.8574 4.9035 74.3365 0.0000 0.0000 41.8039 0.0000 0.0000 -42.8404 1.5299 8.6704 110.0000 0.0000 0.0000 24.9723 0.0000 0.0000 -49.4475 0.8651 12.1536 110.0000 0.0000 0.0000 28.6451 0.0000 0.0000 -55.9554 -1.9010 10.9567 107.8176 0.0000 0.0000 32.9561 0.0000 0.0000 0.0000 0.0000 0.0000 0.0000 0.0000 0.0000 0.0000 0.0000 0.0000 0.0000 0.0000 0.0000 0.0000 0.0000 0.0000 0.0000 0.0000 0.0000
0.0000 95.0000 0.0000 0.0000 0.0000 0.0000 0.0000 0.0000 0.0000 0.0000 0.0000 0.0000 0.0000 0.0000 0.0000 0.0000 0.0000 0.0000 0.0000 0.0000 0.0000 0.0000 0.0000 0.0000 -73.4398 6.1521 8.2414 -12.3491 -8.0730 15.4619 -31.9079 -39.0691 -161.0018 46.0647 -12.7493 -10.8586 4.3534 0.0000 0.0000 5.2338 0.0000 0.0000 -11.1463 1.6192 -13.5701 6.5578 0.0000 0.0000 3.9495 0.0000 0.0000 -7.0687 -0.1503 -7.2051 13.4067 0.0000 0.0000 5.6098 0.0000 0.0000 5.1401 -1.3821 -11.5182 14.4518 0.0000 0.0000 5.2180 0.0000 0.0000 17.5827 -3.3059 -13.8620 5.4159 0.0000 0.0000 4.3414 0.0000 0.0000 0.0000 0.0000 0.0000 90.7075 0.9490 -0.9373 -2.6165 9.8138 9.3159 4.7805 -7.2859 159.8690 -70.6048 -14.3518 -4.7973 3.5025 0.0000 0.0000 15.1941 0.0000 0.0000 -25.4214 0.8574 4.9035 74.3365 0.0000 0.0000 41.8039 0.0000 0.0000 -42.8404 1.5299 8.6704 110.0000 0.0000 0.0000 24.9723 0.0000 0.0000 -49.4475 0.8651 12.1536 110.0000 0.0000 0.0000 28.6451 0.0000 0.0000 -55.9554 -1.9010 10.9567 107.8176 0.0000 0.0000 32.9561 0.0000 0.0000 0.0000 0.0000 0.0000 0.0000 0.0000 0.0000 0.0000 0.0000 0.0000 0.0000 0.0000 0.0000 0.0000 0.0000 0.0000 0.0000 0.0000 0.0000
0.0000 95.0000 0.0000 0.0000 0.0000 0.0000 0.0000 0.0000 0.0000 0.0000 0.0000 0.0000 0.0000 0.0000 0.0000 0.0000 0.0000 0.0000 0.0000 0.0000 0.0000 0.0000 0.0000 0.0000 -73.4264 6.2930 8.4319 -12.5458 -7.9229 15.3523 -32.1887 -38.9969 -160.9113 46.0647 -12.7493 -10.8586 4.3534 0.0000 0.0000 5.2338 0.0000 0.0000 -11.1463 1.6192 -13.5701 6.5578 0.0000 0.0000 3.9495 0.0000 0.0000 -7.0687 -0.1503 -7.2051 13.4067 0.0000 0.0000 5.6098 0.0000 0.0000 5.1401 -1.3821 -11.5182 14.4518 0.0000 0.0000 5.2180 0.0000 0.0000 17.5827 -3.3059 -13.8620 5.4159 0.0000 0.0000 4.3414 0.0000 0.0000 0.0000 0.0000 0.0000 90.6769 0.9699 -0.9585 -2.6003 9.2217 8.7634 5.0540 -7.8066 160.4309 -70.6048 -14.3518 -4.7973 3.5025 0.0000 0.0000 15.1941 0.0000 0.0000 -25.4214 0.8574 4.9035 74.3365 0.0000 0.0000 41.8039 0.0000 0.0000 -42.8404 1.5299 8.6704 110.0000 0.0000 0.0000 24.9723 0.0000 0.0000 -49.4475 0.8651 12.1536 110.0000 0.0000 0.0000 28.6451 0.0000 0.0000 -55.9554 -1.9010 10.9567 107.8176 0.0000 0.0000 32.9561 0.0000 0.0000 0.0000 0.0000 0.0000 0.0000 0.0000 0.0000 0.0000 0.0000 0.0000 0.0000 0.0000 0.0000 0.0000 0.0000 0.0000 0.0000 0.0000 0.0000
0.0000 95.0000 0.0000 0.0000 0.0000 0.0000 0.0000 0.0000 0.0000 0.0000 0.0000 0.0000 0.0000 0.0000 0.0000 0.0000 0.0000 0.0000 0.0000 0.0000 0.0000 0.0000 0.0000 0.0000 -73.4552 6.0982 8.1671 -12.6275 -8.2221 15.8124 -32.2531 -39.1364 -161.0313 46.0647 -12.7493 -10.8586 4.3534 0.0000 0.0000 5.2338 0.0000 0.0000 -11.1463 1.6192 -13.5701 6.5578 0.0000 0.0000 3.9495 0.0000 0.0000 -7.0687 -0.1503 -7.2051 13.4067 0.0000 0.0000 5.6098 0.0000 0.0000 5.1401 -1.3821 -11.5182 14.4518 0.0000 0.0000 5.2180 0.0000 0.0000 17.5827 -3.3059 -13.8620 5.4159 0.0000 0.0000 4.3414 0.0000 0.0000 0.0000 0.0000 0.0000 90.6342 1.2427 -1.2290 -2.6044 9.0560 8.6266 5.1755 -8.2002 160.8469 -70.6048 -14.3518 -4.7973 3.5025 0.0000 0.0000 15.1941 0.0000 0.0000 -25.4214 0.8574 4.9035 74.3365 0.0000 0.0000 41.8039 0.0000 0.0000 -42.8404 1.5299 8.6704 110.0000 0.0000 0.0000 24.9723 0.0000 0.0000 -49.4475 0.8651 12.1536 110.0000 0.0000 0.0000 28.6451 0.0000 0.0000 -55.9554 -1.9010 10.9567 107.8176 0.0000 0.0000 32.9561 0.0000 0.0000 0.0000 0.0000 0.0000 0.0000 0.0000 0.0000 0.0000 0.0000 0.0000 0.0000 0.0000 0.0000 0.0000 0.0000 0.0000 0.0000 0.0000 0.0000
0.0000 95.0000 0.0000 0.0000 0.0000 0.0000 0.0000 0.0000 0.0000 0.0000 0.0000 0.0000 0.0000 0.0000 0.0000 0.0000 0.0000 0.0000 0.0000 0.0000 0.0000 0.0000 0.0000 0.0000 -73.4490 6.1505 8.2379 -12.7851 -8.3154 16.0542 -32.4969 -39.2920 -161.1489 46.0647 -12.7493 -10.8586 4.3534 0.0000 0.0000 5.2338 0.0000 0.0000 -11.1463 1.6192 -13.5701 6.5578 0.0000 0.0000 3.9495 0.0000 0.0000 -7.0687 -0.1503 -7.2051 13.4067 0.0000 0.0000 5.6098 0.0000 0.0000 5.1401 -1.3821 -11.5182 14.4518 0.0000 0.0000 5.2180 0.0000 0.0000 17.5827 -3.3059 -13.8620 5.4159 0.0000 0.0000 4.3414 0.0000 0.0000 0.0000 0.0000 0.0000 90.5876 1.5216 -1.5061 -2.4662 8.8299 8.4500 5.4546 -8.6090 161.2873 -70.6048 -14.3518 -4.7973 3.5025 0.0000 0.0000 15.1941 0.0000 0.0000 -25.4214 0.8574 4.9035 74.3365 0.0000 0.0000 41.8039 0.0000 0.0000 -42.8404 1.5299 8.6704 110.0000 0.0000 0.0000 24.9723 0.0000 0.0000 -49.4475 0.8651 12.1536 110.0000 0.0000 0.0000 28.6451 0.0000 0.0000 -55.9554 -1.9010 10.9567 107.8176 0.0000 0.0000 32.9561 0.0000 0.0000 0.0000 0.0000 0.0000 0.0000 0.0000 0.0000 0.0000 0.0000 0.0000 0.0000 0.0000 0.0000 0.0000 0.0000 0.0000 0.0000 0.0000 0.0000
0.0000 95.0000 0.0000 0.0000 0.0000 0.0000 0.0000 0.0000 0.0000 0.0000 0.0000 0.0000 0.0000 0.0000 0.0000 0.0000 0.0000 0.0000 0.0000 0.0000 0.0000 0.0000 0.0000 0.0000 -73.4246 6.2547 8.3810 -12.9266 -8.3562 16.2248 -32.7284 -39.4542 -161.2728 46.0647 -12.7493 -10.8586 4.3534 0.0000 0.0000 5.2338 0.0000 0.0000 -11.1463 1.6192 -13.5701 6.5578 0.0000 0.0000 3.9495 0.0000 0.0000 -7.0687 -0.1503 -7.2051 13.4067 0.0000 0.0000 5.6098 0.0000 0.0000 5.1401 -1.3821 -11.5182 14.4518 0.0000 0.0000 5.2180 0.0000 0.0000 17.5827 -3.3059 -13.8620 5.4159 0.0000 0.0000 4.3414 0.0000 0.0000 0.0000 0.0000 0.0000 90.6309 1.6760 -1.6577 -2.4704 8.9565 8.5711 5.4882 -8.6301 161.3111 -70.6048 -14.3518 -4.7973 3.5025 0.0000 0.0000 15.1941 0.0000 0.0000 -25.4214 0.8574 4.9035 74.3365 0.0000 0.0000 41.8039 0.0000 0.0000 -42.8404 1.5299 8.6704 110.0000 0.0000 0.0000 24.9723 0.0000 0.0000 -49.4475 0.8651 12.1536 110.0000 0.0000 0.0000 28.6451 0.0000 0.0000 -55.9554 -1.9010 10.9567 107.8176 0.0000 0.0000 32.9561 0.0000 0.0000 0.0000 0.0000 0.0000 0.0000 0.0000 0.0000 0.0000 0.0000 0.0000 0.0000 0.0000 0.0000 0.0000 0.0000 0.0000 0.0000 0.0000 0.0000
0.0000 95.0000 0.0000 0.0000 0.0000 0.0000 0.0000 0.0000 0.0000 0.0000 0.0000 0.0000 0.0000 0.0000 0.0000 0.0000 0.0000 0.0000 0.0000 0.0000 0.0000 0.0000 0.0000 0.0000 -73.3022 6.4088 8.6061 -13.0800 -8.1805 16.0957 -32.8589 -39.4534 -161.2595 46.0647 -12.7493 -10.8586 4.3534 0.0000 0.0000 5.2338 0.0000 0.0000 -11.1463 1.6192 -13.5701 6.5578 0.0000 0.0000 3.9495 0.0000 0.0000 -7.0687 -0.1503 -7.2051 13.4067 0.0000 0.0000 5.6098 0.0000 0.0000 5.1401 -1.3821 -11.5182 14.4518 0.0000 0.0000 5.2180 0.0000 0.0000 17.5827 -3.3059 -13.8620 5.4159 0.0000 0.0000 4.3414 0.0000 0.0000 0.0000 0.0000 0.0000 90.6100 1.6833 -1.6655 -2.4485 8.7986 8.4269 5.5615 -8.7702 161.4599 -70.6048 -14.3518 -4.7973 3.5025 0.0000 0.0000 15.1941 0.0000 0.0000 -25.4214 0.8574 4.9035 74.3365 0.0000 0.0000 41.8039 0.0000 0.0000 -42.8404 1.5299 8.6704 110.0000 0.0000 0.0000 24.9723 0.0000 0.0000 -49.4475 0.8651 12.1536 110.0000 0.0000 0.0000 28.6451 0.0000 0.0000 -55.9554 -1.9010 10.9567 107.8176 0.0000 0.0000 32.9561 0.0000 0.0000 0.0000 0.0000 0.0000 0.0000 0.0000 0.0000 0.0000 0.0000 0.0000 0.0000 0.0000 0.0000 0.0000 0.0000 0.0000 0.0000 0.0000 0.0000
0.0000 95.0000 0.0000 0.0000 0.0000 0.0000 0.0000 0.0000 0.0000 0.0000 0.0000 0.0000 0.0000 0.0000 0.0000 0.0000 0.0000 0.0000 0.0000 0.0000 0.0000 0.0000 0.0000 0.0000 -73.3090 6.3125 8.4760 -12.9302 -8.3369 16.2493 -32.6577 -39.5783 -161.3912 46.0647 -12.7493 -10.8586 4.3534 0.0000 0.0000 5.2338 0.0000 0.0000 -11.1463 1.6192 -13.5701 6.5578 0.0000 0.0000 3.9495 0.0000 0.0000 -7.0687 -0.1503 -7.2051 13.4067 0.0000 0.0000 5.6098 0.0000 0.0000 5.1401 -1.3821 -11.5182 14.4518 0.0000 0.0000 5.2180 0.0000 0.0000 17.5827 -3.3059 -13.8620 5.4159 0.0000 0.0000 4.3414 0.0000 0.0000 0.0000 0.0000 0.0000 90.6746 1.7796 -1.7588 -2.6214 8.8161 8.4185 5.4870 -8.8806 161.5692 -70.6048 -14.3518 -4.7973 3.5025 0.0000 0.0000 15.1941 0.0000 0.0000 -25.4214 0.8574 4.9035 74.3365 0.0000 0.0000 41.8039 0.0000 0.0000 -42.8404 1.5299 8.6704 110.0000 0.0000 0.0000 24.9723 0.0000 0.0000 -49.4475 0.8651 12.1536 110.0000 0.0000 0.0000 28.6451 0.0000 0.0000 -55.9554 -1.9010 10.9567 107.8176 0.0000 0.0000 32.9561 0.0000 0.0000 0.0000 0.0000 0.0000 0.0000 0.0000 0.0000 0.0000 0.0000 0.0000 0.0000 0.0000 0.0000 0.0000 0.0000 0.0000 0.0000 0.0000 0.0000
0.0000 95.0000 0.0000 0.0000 0.0000 0.0000 0.0000 0.0000 0.0000 0.0000 0.0000 0.0000 0.0000 0.0000 0.0000 0.0000 0.0000 0.0000 0.0000 0.0000 0.0000 0.0000 0.0000 0.0000 -73.6208 6.3579 8.4887 -12.3049 -8.3898 15.9488 -32.2672 -39.5961 -161.4457 46.0647 -12.7493 -10.8586 4.3534 0.0000 0.0000 5.2338 0.0000 0.0000 -11.1463 1.6192 -13.5701 6.5578 0.0000 0.0000 3.9495 0.0000 0.0000 -7.0687 -0.1503 -7.2051 13.4067 0.0000 0.0000 5.6098 0.0000 0.0000 5.1401 -1.3821 -11.5182 14.4518 0.0000 0.0000 5.2180 0.0000 0.0000 17.5827 -3.3059 -13.8620 5.4159 0.0000 0.0000 4.3414 0.0000 0.0000 0.0000 0.0000 0.0000 90.6626 1.9949 -1.9720 -2.6856 8.7764 8.3862 5.5032 -9.1287 161.8259 -70.6048 -14.3518 -4.7973 3.5025 0.0000 0.0000 15.1941 0.0000 0.0000 -25.4214 0.8574 4.9035 74.3365 0.0000 0.0000 41.8039 0.0000 0.0000 -42.8404 1.5299 8.6704 110.0000 0.0000 0.0000 24.9723 0.0000 0.0000 -49.4475 0.8651 12.1536 110.0000 0.0000 0.0000 28.6451 0.0000 0.0000 -55.9554 -1.9010 10.9567 107.8176 0.0000 0.0000 32.9561 0.0000 0.0000 0.0000 0.0000 0.0000 0.0000 0.0000 0.0000 0.0000 0.0000 0.0000 0.0000 0.0000 0.0000 0.0000 0.0000 0.0000 0.0000 0.0000 0.0000
0.0000 95.0000 0.0000 0.0000 0.0000 0.0000 0.0000 0.0000 0.0000 0.0000 0.0000 0.0000 0.0000 0.0000 0.0000 0.0000 0.0000 0.0000 0.0000 0.0000 0.0000 0.0000 0.0000 0.0000 -73.8393 6.9496 9.2407 -11.4537 -8.3971 15.6350 -31.8986 -40.2709 -162.1009 46.0647 -12.7493 -10.8586 4.3534 0.0000 0.0000 5.2338 0.0000 0.0000 -11.1463 1.6192 -13.5701 6.5578 0.0000 0.0000 3.9495 0.0000 0.0000 -7.0687 -0.1503 -7.2051 13.4067 0.0000 0.0000 5.6098 0.0000 0.0000 5.1401 -1.3821 -11.5182 14.4518 0.0000 0.0000 5.2180 0.0000 0.0000 17.5827 -3.3059 -13.8620 5.4159 0.0000 0.0000 4.3414 0.0000 0.0000 0.0000 0.0000 0.0000 90.7005 1.8968 -1.8737 -2.8852 8.6670 8.2498 5.3676 -9.1879 161.8799 -70.6048 -14.3518 -4.7973 3.5025 0.0000 0.0000 15.1941 0.0000 0.0000 -25.4214 0.8574 4.9035 74.3365 0.0000 0.0000 41.8039 0.0000 0.0000 -42.8404 1.5299 8.6704 110.0000 0.0000 0.0000 24.9723 0.0000 0.0000 -49.4475 0.8651 12.1536 110.0000 0.0000 0.0000 28.6451 0.0000 0.0000 -55.9554 -1.9010 10.9567 107.8176 0.0000 0.0000 32.9561 0.0000 0.0000 0.0000 0.0000 0.0000 0.0000 0.0000 0.0000 0.0000 0.0000 0.0000 0.0000 0.0000 0.0000 0.0000 0.0000 0.0000 0.0000 0.0000 0.0000
0.0000 95.0000 0.0000 0.0000 0.0000 0.0000 0.0000 0.0000 0.0000 0.0000 0.0000 0.0000 0.0000 0.0000 0.0000 0.0000 0.0000 0.0000 0.0000 0.0000 0.0000 0.0000 0.0000 0.0000 -73.9462 7.1881 9.5387 -11.2011 -8.0036 14.9252 -31.7794 -39.9968 -161.8616 46.0647 -12.7493 -10.8586 4.3534 0.0000 0.0000 5.2338 0.0000 0.0000 -11.1463 1.6192 -13.5701 6.5578 0.0000 0.0000 3.9495 0.0000 0.0000 -7.0687 -0.1503 -7.2051 13.4067 0.0000 0.0000 5.6098 0.0000 0.0000 5.1401 -1.3821 -11.5182 14.4518 0.0000 0.0000 5.2180 0.0000 0.0000 17.5827 -3.3059 -13.8620 5.4159 0.0000 0.0000 4.3414 0.0000 0.0000 0.0000 0.0000 0.0000 90.4512 1.9263 -1.9112 -2.4402 8.9756 8.6320 5.4120 -8.8649 161.5486 -70.6048 -14.3518 -4.7973 3.5025 0.0000 0.0000 15.1941 0.0000 0.0000 -25.4214 0.8574 4.9035 74.3365 0.0000 0.0000 41.8039 0.0000 0.0000 -42.8404 1.5299 8.6704 110.0000 0.0000 0.0000 24.9723 0.0000 0.0000 -49.4475 0.8651 12.1536 110.0000 0.0000 0.0000 28.6451 0.0000 0.0000 -55.9554 -1.9010 10.9567 107.8176 0.0000 0.0000 32.9561 0.0000 0.0000 0.0000 0.0000 0.0000 0.0000 0.0000 0.0000 0.0000 0.0000 0.0000 0.0000 0.0000 0.0000 0.0000 0.0000 0.0000 0.0000 0.0000 0.0000
0.0000 95.0000 0.0000 0.0000 0.0000 0.0000 0.0000 0.0000 0.0000 0.0000 0.0000 0.0000 0.0000 0.0000 0.0000 0.0000 0.0000 0.0000 0.0000 0.0000 0.0000 0.0000 0.0000 0.0000 -74.3173 6.7219 8.8616 -11.5608 -6.5572 12.6083 -31.7704 -37.2938 -159.4169 46.0647 -12.7493 -10.8586 4.3534 0.0000 0.0000 5.2338 0.0000 0.0000 -11.1463 1.6192 -13.5701 6.5578 0.0000 0.0000 3.9495 0.0000 0.0000 -7.0687 -0.1503 -7.2051 13.4067 0.0000 0.0000 5.6098 0.0000 0.0000 5.1401 -1.3821 -11.5182 14.4518 0.0000 0.0000 5.2180 0.0000 0.0000 17.5827 -3.3059 -13.8620 5.4159 0.0000 0.0000 4.3414 0.0000 0.0000 0.0000 0.0000 0.0000 89.2266 2.1404 -2.1695 1.3669 9.4567 9.7870 7.5993 -7.6820 160.5004 -70.6048 -14.3518 -4.7973 3.5025 0.0000 0.0000 15.1941 0.0000 0.0000 -25.4214 0.8574 4.9035 74.3365 0.0000 0.0000 41.8039 0.0000 0.0000 -42.8404 1.5299 8.6704 110.0000 0.0000 0.0000 24.9723 0.0000 0.0000 -49.4475 0.8651 12.1536 110.0000 0.0000 0.0000 28.6451 0.0000 0.0000 -55.9554 -1.9010 10.9567 107.8176 0.0000 0.0000 32.9561 0.0000 0.0000 0.0000 0.0000 0.0000 0.0000 0.0000 0.0000 0.0000 0.0000 0.0000 0.0000 0.0000 0.0000 0.0000 0.0000 0.0000 0.0000 0.0000 0.0000
0.0000 95.0000 0.0000 0.0000 0.0000 0.0000 0.0000 0.0000 0.0000 0.0000 0.0000 0.0000 0.0000 0.0000 0.0000 0.0000 0.0000 0.0000 0.0000 0.0000 0.0000 0.0000 0.0000 0.0000 -74.4559 6.5797 8.6526 -11.1789 -4.3714 8.9576 -30.4371 -34.4182 -156.9200 46.0647 -12.7493 -10.8586 4.3534 0.0000 0.0000 5.2338 0.0000 0.0000 -11.1463 1.6192 -13.5701 6.5578 0.0000 0.0000 3.9495 0.0000 0.0000 -7.0687 -0.1503 -7.2051 13.4067 0.0000 0.0000 5.6098 0.0000 0.0000 5.1401 -1.3821 -11.5182 14.4518 0.0000 0.0000 5.2180 0.0000 0.0000 17.5827 -3.3059 -13.8620 5.4159 0.0000 0.0000 4.3414 0.0000 0.0000 0.0000 0.0000 0.0000 87.8564 0.3154 -0.3274 7.7418 14.4105 17.0679 7.7510 0.7712 152.3000 -70.6048 -14.3518 -4.7973 3.5025 0.0000 0.0000 15.1941 0.0000 0.0000 -25.4214 0.8574 4.9035 74.3365 0.0000 0.0000 41.8039 0.0000 0.0000 -42.8404 1.5299 8.6704 110.0000 0.0000 0.0000 24.9723 0.0000 0.0000 -49.4475 0.8651 12.1536 110.0000 0.0000 0.0000 28.6451 0.0000 0.0000 -55.9554 -1.9010 10.9567 107.8176 0.0000 0.0000 32.9561 0.0000 0.0000 0.0000 0.0000 0.0000 0.0000 0.0000 0.0000 0.0000 0.0000 0.0000 0.0000 0.0000 0.0000 0.0000 0.0000 0.0000 0.0000 0.0000 0.0000
0.0000 95.0000 0.0000 0.0000 0.0000 0.0000 0.0000 0.0000 0.0000 0.0000 0.0000 0.0000 0.0000 0.0000 0.0000 0.0000 0.0000 0.0000 0.0000 0.0000 0.0000 0.0000 0.0000 0.0000 -74.2483 8.1528 10.7570 -9.8128 -1.5142 4.5002 -28.5194 -33.2604 -155.8987 46.0647 -12.7493 -10.8586 4.3534 0.0000 0.0000 5.2338 0.0000 0.0000 -11.1463 1.6192 -13.5701 6.5578 0.0000 0.0000 3.9495 0.0000 0.0000 -7.0687 -0.1503 -7.2051 13.4067 0.0000 0.0000 5.6098 0.0000 0.0000 5.1401 -1.3821 -11.5182 14.4518 0.0000 0.0000 5.2180 0.0000 0.0000 17.5827 -3.3059 -13.8620 5.4159 0.0000 0.0000 4.3414 0.0000 0.0000 0.0000 0.0000 0.0000 87.0168 -3.8899 4.0977 11.8139 29.5669 37.8485 -10.0161 15.7615 129.0684 -70.6048 -14.3518 -4.7973 3.5025 0.0000 0.0000 15.1941 0.0000 0.0000 -25.4214 0.8574 4.9035 74.3365 0.0000 0.0000 41.8039 0.0000 0.0000 -42.8404 1.5299 8.6704 110.0000 0.0000 0.0000 24.9723 0.0000 0.0000 -49.4475 0.8651 12.1536 110.0000 0.0000 0.0000 28.6451 0.0000 0.0000 -55.9554 -1.9010 10.9567 107.8176 0.0000 0.0000 32.9561 0.0000 0.0000 0.0000 0.0000 0.0000 0.0000 0.0000 0.0000 0.0000 0.0000 0.0000 0.0000 0.0000 0.0000 0.0000 0.0000 0.0000 0.0000 0.0000 0.0000
0.0000 95.0000 0.0000 0.0000 0.0000 0.0000 0.0000 0.0000 0.0000 0.0000 0.0000 0.0000 0.0000 0.0000 0.0000 0.0000 0.0000 0.0000 0.0000 0.0000 0.0000 0.0000 0.0000 0.0000 -73.7225 9.5540 12.7197 -9.0489 2.0337 -0.8312 -26.1953 -31.3082 -154.0756 46.0647 -12.7493 -10.8586 4.3534 0.0000 0.0000 5.2338 0.0000 0.0000 -11.1463 1.6192 -13.5701 6.5578 0.0000 0.0000 3.9495 0.0000 0.0000 -7.0687 -0.1503 -7.2051 13.4067 0.0000 0.0000 5.6098 0.0000 0.0000 5.1401 -1.3821 -11.5182 14.4518 0.0000 0.0000 5.2180 0.0000 0.0000 17.5827 -3.3059 -13.8620 5.4159 0.0000 0.0000 4.3414 0.0000 0.0000 0.0000 0.0000 0.0000 85.0101 -9.1731 10.0049 9.7559 49.5003 58.1971 -43.2764 13.3756 102.6538 -70.6048 -14.3518 -4.7973 3.5025 0.0000 0.0000 15.1941 0.0000 0.0000 -25.4214 0.8574 4.9035 74.3365 0.0000 0.0000 41.8039 0.0000 0.0000 -42.8404 1.5299 8.6704 110.0000 0.0000 0.0000 24.9723 0.0000 0.0000 -49.4475 0.8651 12.1536 110.0000 0.0000 0.0000 28.6451 0.0000 0.0000 -55.9554 -1.9010 10.9567 107.8176 0.0000 0.0000 32.9561 0.0000 0.0000 0.0000 0.0000 0.0000 0.0000 0.0000 0.0000 0.0000 0.0000 0.0000 0.0000 0.0000 0.0000 0.0000 0.0000 0.0000 0.0000 0.0000 0.0000
0.0000 95.0000 0.0000 0.0000 0.0000 0.0000 0.0000 0.0000 0.0000 0.0000 0.0000 0.0000 0.0000 0.0000 0.0000 0.0000 0.0000 0.0000 0.0000 0.0000 0.0000 0.0000 0.0000 0.0000 -73.7788 11.3938 15.1424 -5.4230 0.9212 0.2549 -24.4634 -35.5643 -158.1462 46.0647 -12.7493 -10.8586 4.3534 0.0000 0.0000 5.2338 0.0000 0.0000 -11.1463 1.6192 -13.5701 6.5578 0.0000 0.0000 3.9495 0.0000 0.0000 -7.0687 -0.1503 -7.2051 13.4067 0.0000 0.0000 5.6098 0.0000 0.0000 5.1401 -1.3821 -11.5182 14.4518 0.0000 0.0000 5.2180 0.0000 0.0000 17.5827 -3.3059 -13.8620 5.4159 0.0000 0.0000 4.3414 0.0000 0.0000 0.0000 0.0000 0.0000 84.7128 -12.8351 14.0658 -36.1991 73.8953 34.5632 -86.9928 -5.3114 87.1422 -64.5682 -12.9482 -6.2564 1.0836 0.0000 0.0000 23.0158 0.0000 0.0000 -22.7385 -2.3596 -3.1942 18.1053 0.0000 0.0000 3.2732 0.0000 0.0000 -25.4754 -1.2116 -0.5843 17.8553 0.0000 0.0000 6.5834 0.0000 0.0000 -22.7851 -1.2302 0.5829 10.0612 0.0000 0.0000 8.2775 0.0000 0.0000 -21.8393 -1.5631 -0.3923 4.8187 0.0000 0.0000 7.5973 0.0000 0.0000 0.0000 0.0000 0.0000 0.0000 0.0000 0.0000 0.0000 0.0000 0.0000 0.0000 0.0000 0.0000 0.0000 0.0000 0.0000 0.0000 0.0000 0.0000
0.0000 95.0000 0.0000 0.0000 0.0000 0.0000 0.0000 0.0000 0.0000 0.0000 0.0000 0.0000 0.0000 0.0000 0.0000 0.0000 0.0000 0.0000 0.0000 0.0000 0.0000 0.0000 0.0000 0.0000 -73.1838 13.8461 18.5761 -2.1744 -0.4958 1.4063 -21.6549 -39.7142 -163.6705 45.6720 -12.6040 -10.3880 4.2839 0.0000 0.0000 5.5713 0.0000 0.0000 -11.1527 1.6333 -13.7465 6.1673 0.0000 0.0000 3.7494 0.0000 0.0000 -7.0299 -0.1791 -7.6876 12.9888 0.0000 0.0000 5.2311 0.0000 0.0000 5.1169 -1.4172 -11.8752 13.9259 0.0000 0.0000 5.0116 0.0000 0.0000 17.4787 -3.3569 -14.1752 5.2421 0.0000 0.0000 4.1193 0.0000 0.0000 0.0000 0.0000 0.0000 84.0661 -15.9824 17.7033 -106.3355 66.3560 -25.2798 -118.5655 -30.5595 88.7568 -55.6346 -11.5080 -2.2929 3.2858 0.0000 0.0000 38.1508 0.0000 0.0000 -9.2177 -2.2287 -6.7387 1.4552 0.0000 0.0000 3.1530 0.0000 0.0000 -4.1012 -0.1336 1.0431 2.8742 0.0000 0.0000 1.8242 0.0000 0.0000 1.3757 -0.7116 5.1633 1.4591 0.0000 0.0000 3.8502 0.0000 0.0000 5.4892 -2.2304 7.3889 1.7839 0.0000 0.0000 2.8828 0.0000 0.0000 0.0000 0.0000 0.0000 0.0000 0.0000 0.0000 0.0000 0.0000 0.0000 0.0000 0.0000 0.0000 0.0000 0.0000 0.0000 0.0000 0.0000 0.0000
0.0000 95.0000 0.0000 0.0000 0.0000 0.0000 0.0000 0.0000 0.0000 0.0000 0.0000 0.0000 0.0000 0.0000 0.0000 0.0000 0.0000 0.0000 0.0000 0.0000 0.0000 0.0000 0.0000 0.0000 -72.4739 15.3135 20.7891 -0.3342 -1.1645 1.6372 -18.9559 -41.4850 -167.2219 45.3183 -12.4596 -9.9212 4.2129 0.0000 0.0000 5.9151 0.0000 0.0000 -11.1092 1.6517 -13.9274 5.7708 0.0000 0.0000 3.5538 0.0000 0.0000 -6.9377 -0.2076 -8.1952 12.5631 0.0000 0.0000 4.8436 0.0000 0.0000 5.1508 -1.4510 -12.2477 13.3962 0.0000 0.0000 4.7987 0.0000 0.0000 17.4383 -3.4067 -14.5010 5.1143 0.0000 0.0000 3.8923 0.0000 0.0000 0.0000 0.0000 0.0000 84.2084 -18.9799 20.9596 -122.5816 55.0148 -38.0994 -125.7436 -30.8191 120.6907 -70.5301 -14.4694 1.0970 1.5435 0.0000 0.0000 32.8109 0.0000 0.0000 4.9892 -0.5271 -5.4720 7.4726 0.0000 0.0000 13.7059 0.0000 0.0000 3.2895 -0.1427 9.7391 2.5632 0.0000 0.0000 3.7531 0.0000 0.0000 -1.9869 -1.1917 8.7907 6.8617 0.0000 0.0000 2.6664 0.0000 0.0000 -9.4377 -2.8501 9.8108 9.1463 0.0000 0.0000 2.2022 0.0000 0.0000 0.0000 0.0000 0.0000 0.0000 0.0000 0.0000 0.0000 0.0000 0.0000 0.0000 0.0000 0.0000 0.0000 0.0000 0.0000 0.0000 0.0000 0.0000
0.0000 95.0000 0.0000 0.0000 0.0000 0.0000 0.0000 0.0000 0.0000 0.0000 0.0000 0.0000 0.0000 0.0000 0.0000 0.0000 0.0000 0.0000 0.0000 0.0000 0.0000 0.0000 0.0000 0.0000 -71.6972 15.8271 21.7799 -0.9106 0.0738 0.2615 -17.9572 -39.8014 -166.8705 45.0180 -12.3178 -9.4572 4.1407 0.0000 0.0000 6.2631 0.0000 0.0000 -11.0006 1.6758 -14.1124 5.3684 0.0000 0.0000 3.3646 0.0000 0.0000 -6.7778 -0.2346 -8.7315 12.1305 0.0000 0.0000 4.4472 0.0000 0.0000 5.2584 -1.4820 -12.6374 12.8637 0.0000 0.0000 4.5788 0.0000 0.0000 17.4806 -3.4536 -14.8399 5.0395 0.0000 0.0000 3.6604 0.0000 0.0000 0.0000 0.0000 0.0000 82.6675 -21.6980 24.5838 -130.5104 50.5723 -45.1470 -116.7370 -39.3359 114.2001 -66.3207 -13.6288 -1.5989 2.1694 0.0000 0.0000 19.8943 0.0000 0.0000 1.7461 -0.8255 -5.4309 7.4038 0.0000 0.0000 7.1982 0.0000 0.0000 5.4961 -0.0007 4.7873 4.5345 0.0000 0.0000 3.0011 0.0000 0.0000 -0.7108 -0.7803 5.5149 5.6126 0.0000 0.0000 2.2660 0.0000 0.0000 -8.9934 -2.1319 6.5413 7.8377 0.0000 0.0000 1.1918 0.0000 0.0000 0.0000 0.0000 0.0000 0.0000 0.0000 0.0000 0.0000 0.0000 0.0000 0.0000 0.0000 0.0000 0.0000 0.0000 0.0000 0.0000 0.0000 0.0000
0.0000 95.0000 0.0000 0.0000 0.0000 0.0000 0.0000 0.0000 0.0000 0.0000 0.0000 0.0000 0.0000 0.0000 0.0000 0.0000 0.0000 0.0000 0.0000 0.0000 0.0000 0.0000 0.0000 0.0000 -71.9331 15.6465 21.4432 -1.3252 1.4498 -1.4281 -16.1067 -34.7738 -165.4389 44.6686 -12.0509 -8.5244 3.9932 0.0000 0.0000 6.9653 0.0000 0.0000 -10.4901 1.7497 -14.4857 4.5457 0.0000 0.0000 3.0154 0.0000 0.0000 -6.1637 -0.2768 -9.9090 11.2475 0.0000 0.0000 3.6278 0.0000 0.0000 5.8009 -1.5266 -13.4731 11.7958 0.0000 0.0000 4.1170 0.0000 0.0000 17.9337 -3.5273 -15.5535 5.0721 0.0000 0.0000 3.1817 0.0000 0.0000 0.0000 0.0000 0.0000 80.5825 -23.1926 27.2126 -133.7047 50.2638 -48.7002 -102.7181 -42.3391 93.6919 -62.0084 -11.9748 -10.0831 2.6820 0.0000 0.0000 19.2231 0.0000 0.0000 -6.8889 -2.0794 -7.1699 25.9752 0.0000 0.0000 14.7885 0.0000 0.0000 1.5008 0.0453 1.3112 1.2901 0.0000 0.0000 5.5034 0.0000 0.0000 -1.1840 -0.4991 3.3239 2.6012 0.0000 0.0000 4.8708 0.0000 0.0000 -9.6204 -1.6808 4.4160 6.4612 0.0000 0.0000 3.7224 0.0000 0.0000 0.0000 0.0000 0.0000 0.0000 0.0000 0.0000 0.0000 0.0000 0.0000 0.0000 0.0000 0.0000 0.0000 0.0000 0.0000 0.0000 0.0000 0.0000
0.0000 95.0000 0.0000 0.0000 0.0000 0.0000 0.0000 0.0000 0.0000 0.0000 0.0000 0.0000 0.0000 0.0000 0.0000 0.0000 0.0000 0.0000 0.0000 0.0000 0.0000 0.0000 0.0000 0.0000 -72.2595 16.0213 21.8232 -0.2854 0.9625 -1.1445 -14.5756 -33.2937 -166.8468 44.6935 -11.9320 -8.0392 3.9185 0.0000 0.0000 7.3168 0.0000 0.0000 -10.0070 1.8062 -14.6609 4.1253 0.0000 0.0000 2.8615 0.0000 0.0000 -5.6330 -0.2850 -10.5601 10.7996 0.0000 0.0000 3.2054 0.0000 0.0000 6.3243 -1.5313 -13.9169 11.2641 0.0000 0.0000 3.8743 0.0000 0.0000 18.4440 -3.5432 -15.9179 5.1864 0.0000 0.0000 2.9349 0.0000 0.0000 0.0000 0.0000 0.0000 81.0130 -24.0431 27.9942 -132.8893 47.2256 -48.5438 -118.9235 -45.3866 105.7953 -61.2093 -12.1137 -6.8502 2.1662 0.0000 0.0000 17.1045 0.0000 0.0000 -8.5078 -2.4071 -7.7168 13.3362 0.0000 0.0000 10.9487 0.0000 0.0000 1.5641 -0.0318 7.1011 2.9058 0.0000 0.0000 2.5144 0.0000 0.0000 -4.9155 -1.0431 7.9163 3.3975 0.0000 0.0000 3.1476 0.0000 0.0000 -9.6181 -2.8118 9.6469 5.4672 0.0000 0.0000 2.5298 0.0000 0.0000 0.0000 0.0000 0.0000 0.0000 0.0000 0.0000 0.0000 0.0000 0.0000 0.0000 0.0000 0.0000 0.0000 0.0000 0.0000 0.0000 0.0000 0.0000
0.0000 95.0000 0.0000 0.0000 0.0000 0.0000 0.0000 0.0000 0.0000 0.0000 0.0000 0.0000 0.0000 0.0000 0.0000 0.0000 0.0000 0.0000 0.0000 0.0000 0.0000 0.0000 0.0000 0.0000 -72.0343 16.6177 22.7171 0.6400 0.1860 -0.4962 -12.8170 -31.7524 -169.1832 44.9353 -11.8277 -7.5134 3.8437 0.0000 0.0000 7.6671 0.0000 0.0000 -9.2780 1.8824 -14.8042 3.6989 0.0000 0.0000 2.7268 0.0000 0.0000 -4.8630 -0.2756 -11.2562 10.3497 0.0000 0.0000 2.7758 0.0000 0.0000 7.1187 -1.5132 -14.3658 10.7371 0.0000 0.0000 3.6233 0.0000 0.0000 19.2582 -3.5314 -16.2643 5.3667 0.0000 0.0000 2.6834 0.0000 0.0000 0.0000 0.0000 0.0000 81.3191 -24.1506 27.9724 -130.5534 44.9199 -46.6636 -137.6150 -42.6469 121.3906 -60.3188 -12.3592 -2.8870 2.3726 0.0000 0.0000 13.4081 0.0000 0.0000 -9.8701 -2.2952 -6.7181 1.1096 0.0000 0.0000 9.8994 0.0000 0.0000 8.2369 -0.5038 11.7597 5.2375 0.0000 0.0000 1.7474 0.0000 0.0000 -0.9755 -1.6616 12.1867 3.5277 0.0000 0.0000 2.7581 0.0000 0.0000 -4.6081 -3.9224 13.5971 4.7792 0.0000 0.0000 2.1137 0.0000 0.0000 0.0000 0.0000 0.0000 0.0000 0.0000 0.0000 0.0000 0.0000 0.0000 0.0000 0.0000 0.0000 0.0000 0.0000 0.0000 0.0000 0.0000 0.0000
0.0000 95.0000 0.0000 0.0000 0.0000 0.0000 0.0000 0.0000 0.0000 0.0000 0.0000 0.0000 0.0000 0.0000 0.0000 0.0000 0.0000 0.0000 0.0000 0.0000 0.0000 0.0000 0.0000 0.0000 -72.3971 16.4624 22.3620 1.2973 0.1250 -0.6679 -11.2495 -27.3562 -169.5787 45.5038 -11.7410 -6.8929 3.7691 0.0000 0.0000 8.0153 0.0000 0.0000 -8.1754 1.9843 -14.8659 3.2664 0.0000 0.0000 2.6159 0.0000 0.0000 -3.7280 -0.2351 -11.9856 9.8999 0.0000 0.0000 2.3411 0.0000 0.0000 8.3251 -1.4561 -14.7842 10.2178 0.0000 0.0000 3.3634 0.0000 0.0000 20.5314 -3.4713 -16.5396 5.6110 0.0000 0.0000 2.4275 0.0000 0.0000 0.0000 0.0000 0.0000 82.5985 -24.3659 27.6143 -130.9864 42.7116 -46.7867 -141.1310 -48.2666 136.9391 -62.9607 -13.4271 3.1785 2.2977 0.0000 0.0000 9.1738 0.0000 0.0000 -9.0361 -1.4708 -3.9698 9.2840 0.0000 0.0000 9.6929 0.0000 0.0000 -10.5783 0.3569 8.6259 7.4928 0.0000 0.0000 3.2521 0.0000 0.0000 -6.6146 -1.4374 13.0109 8.4384 0.0000 0.0000 4.1019 0.0000 0.0000 -2.7719 -3.8581 13.0264 10.0011 0.0000 0.0000 3.9179 0.0000 0.0000 0.0000 0.0000 0.0000 0.0000 0.0000 0.0000 0.0000 0.0000 0.0000 0.0000 0.0000 0.0000 0.0000 0.0000 0.0000 0.0000 0.0000 0.0000
0.0000 95.0000 0.0000 0.0000 0.0000 0.0000 0.0000 0.0000 0.0000 0.0000 0.0000 0.0000 0.0000 0.0000 0.0000 0.0000 0.0000 0.0000 0.0000 0.0000 0.0000 0.0000 0.0000 0.0000 -72.5896 15.7488 21.3297 0.8820 0.1349 -0.5044 -9.4033 -11.2026 -170.5030 48.3945 -11.5941 -4.6484 3.6222 0.0000 0.0000 8.7018 0.0000 0.0000 -3.8630 2.2419 -14.0611 2.3832 0.0000 0.0000 2.4848 0.0000 0.0000 0.6774 0.0497 -13.1688 9.0129 0.0000 0.0000 1.4829 0.0000 0.0000 13.0893 -1.1065 -14.9193 9.2193 0.0000 0.0000 2.8155 0.0000 0.0000 25.6447 -3.0544 -16.0759 6.2761 0.0000 0.0000 1.9058 0.0000 0.0000 0.0000 0.0000 0.0000 81.1684 -24.6392 28.6053 -131.6347 47.0764 -48.5444 -109.3988 -42.5482 108.6286 -63.2829 -13.1446 -0.6493 1.5387 0.0000 0.0000 8.0275 0.0000 0.0000 -10.8441 -1.5441 -3.6878 8.1836 0.0000 0.0000 7.6196 0.0000 0.0000 0.4075 0.0044 3.5245 7.8251 0.0000 0.0000 4.6029 0.0000 0.0000 -2.4881 -0.8235 5.7715 2.5028 0.0000 0.0000 4.1237 0.0000 0.0000 -12.1998 -2.2051 6.6938 4.3738 0.0000 0.0000 2.8004 0.0000 0.0000 0.0000 0.0000 0.0000 0.0000 0.0000 0.0000 0.0000 0.0000 0.0000 0.0000 0.0000 0.0000 0.0000 0.0000 0.0000 0.0000 0.0000 0.0000
0.0000 95.0000 0.0000 0.0000 0.0000 0.0000 0.0000 0.0000 0.0000 0.0000 0.0000 0.0000 0.0000 0.0000 0.0000 0.0000 0.0000 0.0000 0.0000 0.0000 0.0000 0.0000 0.0000 0.0000 -73.0074 15.1115 20.3227 0.3737 0.4540 -0.7161 -9.2261 4.3467 -171.0035 51.1364 -11.4334 -1.8820 3.5510 0.0000 0.0000 9.0388 0.0000 0.0000 0.0739 2.2035 -12.1077 1.9325 0.0000 0.0000 2.4734 0.0000 0.0000 4.8564 0.3396 -12.7661 8.5837 0.0000 0.0000 1.1016 0.0000 0.0000 17.5266 -0.7921 -13.5074 8.7510 0.0000 0.0000 2.5264 0.0000 0.0000 30.3506 -2.6551 -13.9548 6.6876 0.0000 0.0000 1.6434 0.0000 0.0000 0.0000 0.0000 0.0000 79.9244 -24.9001 29.5204 -132.5802 48.9785 -49.8321 -105.9456 -44.5925 94.4377 -59.4952 -11.6616 -7.2279 2.8263 0.0000 0.0000 8.4180 0.0000 0.0000 -6.0191 -1.5248 -5.2581 25.4924 0.0000 0.0000 22.1053 0.0000 0.0000 3.1481 -0.0274 5.7674 2.5916 0.0000 0.0000 3.8830 0.0000 0.0000 1.0494 -0.9502 6.7342 4.0271 0.0000 0.0000 4.3796 0.0000 0.0000 -11.5623 -2.1814 6.6137 7.6212 0.0000 0.0000 3.9099 0.0000 0.0000 0.0000 0.0000 0.0000 0.0000 0.0000 0.0000 0.0000 0.0000 0.0000 0.0000 0.0000 0.0000 0.0000 0.0000 0.0000 0.0000 0.0000 0.0000
0.0000 95.0000 0.0000 0.0000 0.0000 0.0000 0.0000 0.0000 0.0000 0.0000 0.0000 0.0000 0.0000 0.0000 0.0000 0.0000 0.0000 0.0000 0.0000 0.0000 0.0000 0.0000 0.0000 0.0000 -72.6138 15.5591 21.0663 0.7363 0.3571 -0.7308 -9.0876 25.0244 -174.1690 54.0592 -10.9633 3.6470 3.4820 0.0000 0.0000 9.3707 0.0000 0.0000 4.8949 1.4839 -7.5574 1.4758 0.0000 0.0000 2.5022 0.0000 0.0000 10.4850 0.4826 -10.0281 8.1710 0.0000 0.0000 0.8475 0.0000 0.0000 23.1772 -0.7076 -9.2086 8.3127 0.0000 0.0000 2.2265 0.0000 0.0000 36.0870 -2.4591 -8.3788 7.1455 0.0000 0.0000 1.3850 0.0000 0.0000 0.0000 0.0000 0.0000 79.7731 -25.2287 29.9816 -131.5866 48.7301 -49.5524 -112.6444 -46.0079 98.3256 -61.2801 -12.1262 -6.8896 4.5166 0.0000 0.0000 15.7294 0.0000 0.0000 -16.1771 -5.2194 -13.2768 3.7949 0.0000 0.0000 6.4245 0.0000 0.0000 -6.1646 -0.0994 2.9255 5.4882 0.0000 0.0000 5.4800 0.0000 0.0000 -8.1857 -0.9281 6.9005 4.6945 0.0000 0.0000 3.6362 0.0000 0.0000 -14.7236 -2.3573 7.4084 8.5958 0.0000 0.0000 2.6305 0.0000 0.0000 0.0000 0.0000 0.0000 0.0000 0.0000 0.0000 0.0000 0.0000 0.0000 0.0000 0.0000 0.0000 0.0000 0.0000 0.0000 0.0000 0.0000 0.0000
0.0000 95.0000 0.0000 0.0000 0.0000 0.0000 0.0000 0.0000 0.0000 0.0000 0.0000 0.0000 0.0000 0.0000 0.0000 0.0000 0.0000 0.0000 0.0000 0.0000 0.0000 0.0000 0.0000 0.0000 -72.1375 15.8731 21.6707 0.8091 0.1740 -0.5341 -11.4949 49.5225 -179.1169 54.9051 -9.8088 11.6085 3.4159 0.0000 0.0000 9.6971 0.0000 0.0000 8.0280 -0.2298 -0.5498 1.0131 0.0000 0.0000 2.5717 0.0000 0.0000 15.2441 -0.0655 -4.2823 7.7816 0.0000 0.0000 0.8706 0.0000 0.0000 27.2758 -1.3455 -1.7069 7.9134 0.0000 0.0000 1.9152 0.0000 0.0000 39.6652 -2.8996 0.7820 7.6456 0.0000 0.0000 1.1391 0.0000 0.0000 0.0000 0.0000 0.0000 80.1003 -25.2334 29.8215 -130.1710 48.3286 -48.5941 -118.8339 -43.6106 104.7630 -60.8315 -12.3669 -3.7520 3.0229 0.0000 0.0000 9.4690 0.0000 0.0000 -12.8204 -3.2833 -8.8896 5.9583 0.0000 0.0000 7.4172 0.0000 0.0000 -4.7457 0.0354 5.6272 5.4930 0.0000 0.0000 2.2367 0.0000 0.0000 -5.3286 -1.0660 8.2240 2.5996 0.0000 0.0000 2.8101 0.0000 0.0000 -11.1403 -2.4143 7.7919 6.1532 0.0000 0.0000 2.7819 0.0000 0.0000 0.0000 0.0000 0.0000 0.0000 0.0000 0.0000 0.0000 0.0000 0.0000 0.0000 0.0000 0.0000 0.0000 0.0000 0.0000 0.0000 0.0000 0.0000
0.0000 95.0000 0.0000 0.0000 0.0000 0.0000 0.0000 0.0000 0.0000 0.0000 0.0000 0.0000 0.0000 0.0000 0.0000 0.0000 0.0000 0.0000 0.0000 0.0000 0.0000 0.0000 0.0000 0.0000 -71.7385 15.6150 21.4753 0.1923 0.2261 -0.3694 -57.1776 82.2287 -225.5890 51.6557 -6.7135 21.9129 3.2955 0.0000 0.0000 10.3310 0.0000 0.0000 6.7770 -2.7695 10.0181 0.0733 0.0000 0.0000 2.8275 0.0000 0.0000 16.7340 -1.6358 6.3160 7.1077 0.0000 0.0000 1.6249 0.0000 0.0000 26.8849 -2.5130 10.5823 7.2745 0.0000 0.0000 1.2559 0.0000 0.0000 37.6439 -3.2005 14.9946 8.7583 0.0000 0.0000 0.7741 0.0000 0.0000 0.0000 0.0000 0.0000 79.8114 -25.1118 29.8251 -132.1170 50.1174 -50.1046 -101.4529 -43.6866 89.9493 -61.4809 -12.2701 -5.9710 2.4617 0.0000 0.0000 27.4462 0.0000 0.0000 -7.7067 -1.9818 -6.4217 8.9649 0.0000 0.0000 9.0128 0.0000 0.0000 2.6272 0.0104 4.3173 2.2619 0.0000 0.0000 5.1544 0.0000 0.0000 -2.1768 -0.7947 5.5465 2.5616 0.0000 0.0000 5.4892 0.0000 0.0000 -13.4951 -2.0131 5.5464 6.8352 0.0000 0.0000 5.1248 0.0000 0.0000 0.0000 0.0000 0.0000 0.0000 0.0000 0.0000 0.0000 0.0000 0.0000 0.0000 0.0000 0.0000 0.0000 0.0000 0.0000 0.0000 0.0000 0.0000
0.0000 95.0000 0.0000 0.0000 0.0000 0.0000 0.0000 0.0000 0.0000 0.0000 0.0000 0.0000 0.0000 0.0000 0.0000 0.0000 0.0000 0.0000 0.0000 0.0000 0.0000 0.0000 0.0000 0.0000 -71.4086 15.4348 21.3564 -0.3278 0.2462 -0.2004 -129.2365 82.0658 -297.3561 50.4222 -5.8021 23.7333 3.2428 0.0000 0.0000 10.6377 0.0000 0.0000 5.5076 -3.1943 12.5654 0.4123 0.0000 0.0000 3.0077 0.0000 0.0000 16.0037 -1.9919 9.3281 6.8439 0.0000 0.0000 2.1434 0.0000 0.0000 25.6729 -2.6060 13.7400 7.0590 0.0000 0.0000 0.9064 0.0000 0.0000 35.9861 -2.9246 18.4523 9.3653 0.0000 0.0000 0.7442 0.0000 0.0000 0.0000 0.0000 0.0000 79.6592 -24.9489 29.7108 -133.5768 52.0047 -51.3369 -108.0510 -44.5578 101.2947 -62.6221 -12.9995 -0.9415 3.5793 0.0000 0.0000 12.1199 0.0000 0.0000 -7.7435 -1.1688 -3.2076 4.5650 0.0000 0.0000 7.0885 0.0000 0.0000 1.6157 0.0069 4.2823 5.8454 0.0000 0.0000 4.2554 0.0000 0.0000 -4.1349 -0.8659 6.1029 2.0666 0.0000 0.0000 4.5014 0.0000 0.0000 -13.9985 -2.3720 7.5156 5.9996 0.0000 0.0000 3.9166 0.0000 0.0000 0.0000 0.0000 0.0000 0.0000 0.0000 0.0000 0.0000 0.0000 0.0000 0.0000 0.0000 0.0000 0.0000 0.0000 0.0000 0.0000 0.0000 0.0000
0.0000 95.0000 0.0000 0.0000 0.0000 0.0000 0.0000 0.0000 0.0000 0.0000 0.0000 0.0000 0.0000 0.0000 0.0000 0.0000 0.0000 0.0000 0.0000 0.0000 0.0000 0.0000 0.0000 0.0000 -71.2684 15.2509 21.1581 -0.5723 0.1113 0.0707 -152.8547 77.5147 -320.5380 49.7186 -5.2993 24.5949 3.1962 0.0000 0.0000 10.9370 0.0000 0.0000 4.5295 -3.4034 14.1780 0.8986 0.0000 0.0000 3.2181 0.0000 0.0000 15.2404 -2.1839 11.4446 6.6446 0.0000 0.0000 2.7029 0.0000 0.0000 24.6723 -2.5925 15.8343 6.9291 0.0000 0.0000 0.5427 0.0000 0.0000 34.7341 -2.6447 20.6868 10.0032 0.0000 0.0000 0.8572 0.0000 0.0000 0.0000 0.0000 0.0000 79.4931 -24.8073 29.6278 -133.9597 53.0265 -51.6580 -105.8312 -41.8899 93.5608 -60.5659 -12.1414 -5.2650 2.2096 0.0000 0.0000 26.5668 0.0000 0.0000 -7.0458 -1.5297 -4.8824 9.6857 0.0000 0.0000 6.8009 0.0000 0.0000 0.6134 0.0088 3.1318 4.6997 0.0000 0.0000 2.8565 0.0000 0.0000 -4.2011 -0.6286 3.8029 1.2125 0.0000 0.0000 4.6659 0.0000 0.0000 -14.0575 -1.9369 5.0420 4.8254 0.0000 0.0000 4.3773 0.0000 0.0000 0.0000 0.0000 0.0000 0.0000 0.0000 0.0000 0.0000 0.0000 0.0000 0.0000 0.0000 0.0000 0.0000 0.0000 0.0000 0.0000 0.0000 0.0000
0.0000 95.0000 0.0000 0.0000 0.0000 0.0000 0.0000 0.0000 0.0000 0.0000 0.0000 0.0000 0.0000 0.0000 0.0000 0.0000 0.0000 0.0000 0.0000 0.0000 0.0000 0.0000 0.0000 0.0000 -71.0916 15.3406 21.3491 -0.1926 -0.2816 0.4488 -161.9181 74.4902 -329.4855 49.3957 -5.0693 24.9659 3.1567 0.0000 0.0000 11.2285 0.0000 0.0000 3.8199 -3.5198 15.2666 1.3909 0.0000 0.0000 3.4549 0.0000 0.0000 14.5507 -2.2920 13.0391 6.5216 0.0000 0.0000 3.2930 0.0000 0.0000 23.9022 -2.5486 17.3290 6.8950 0.0000 0.0000 0.1640 0.0000 0.0000 33.8320 -2.4110 22.2528 10.6701 0.0000 0.0000 1.0778 0.0000 0.0000 0.0000 0.0000 0.0000 79.4100 -24.8720 29.7460 -133.4515 53.4895 -51.5132 -112.0510 -46.6188 102.9262 -61.2034 -12.9176 0.7359 2.5417 0.0000 0.0000 21.0951 0.0000 0.0000 -8.1308 -1.2748 -3.5040 1.8469 0.0000 0.0000 8.5096 0.0000 0.0000 1.5389 -0.0451 8.1319 2.9532 0.0000 0.0000 3.2320 0.0000 0.0000 -1.8017 -1.4054 10.4754 4.4256 0.0000 0.0000 4.6047 0.0000 0.0000 -12.5254 -3.3754 12.8394 7.7145 0.0000 0.0000 3.5359 0.0000 0.0000 0.0000 0.0000 0.0000 0.0000 0.0000 0.0000 0.0000 0.0000 0.0000 0.0000 0.0000 0.0000 0.0000 0.0000 0.0000 0.0000 0.0000 0.0000
0.0000 95.0000 0.0000 0.0000 0.0000 0.0000 0.0000 0.0000 0.0000 0.0000 0.0000 0.0000 0.0000 0.0000 0.0000 0.0000 0.0000 0.0000 0.0000 0.0000 0.0000 0.0000 0.0000 0.0000 -70.8576 15.3977 21.5182 -0.1764 -0.3262 0.5039 -169.7288 69.6475 -335.9609 49.4537 -5.0828 25.0131 3.1027 0.0000 0.0000 11.7870 0.0000 0.0000 2.9500 -3.6520 16.6368 2.3930 0.0000 0.0000 3.9956 0.0000 0.0000 13.3864 -2.3919 15.4019 6.5429 0.0000 0.0000 4.5509 0.0000 0.0000 22.8517 -2.4578 19.3961 7.1373 0.0000 0.0000 0.6423 0.0000 0.0000 32.7132 -2.0818 24.3900 12.0866 0.0000 0.0000 1.6853 0.0000 0.0000 0.0000 0.0000 0.0000 79.2365 -24.9978 29.9824 -133.6117 54.3697 -52.0049 -105.6856 -44.8552 95.2821 -60.5611 -12.3613 -3.3012 2.5654 0.0000 0.0000 22.5913 0.0000 0.0000 -7.9974 -1.4772 -4.3353 3.8625 0.0000 0.0000 7.2558 0.0000 0.0000 0.9037 -0.0042 5.3026 5.3656 0.0000 0.0000 4.0718 0.0000 0.0000 -4.6258 -0.9576 7.0154 2.4735 0.0000 0.0000 4.6358 0.0000 0.0000 -14.0056 -2.7599 9.7139 6.5942 0.0000 0.0000 4.1438 0.0000 0.0000 0.0000 0.0000 0.0000 0.0000 0.0000 0.0000 0.0000 0.0000 0.0000 0.0000 0.0000 0.0000 0.0000 0.0000 0.0000 0.0000 0.0000 0.0000
0.0000 95.0000 0.0000 0.0000 0.0000 0.0000 0.0000 0.0000 0.0000 0.0000 0.0000 0.0000 0.0000 0.0000 0.0000 0.0000 0.0000 0.0000 0.0000 0.0000 0.0000 0.0000 0.0000 0.0000 -70.8708 15.3754 21.4823 -0.1258 -0.4623 0.6649 -171.9279 68.0152 -337.4840 49.7029 -5.2287 24.8576 3.0900 0.0000 0.0000 12.0533 0.0000 0.0000 2.6925 -3.6997 17.1010 2.9025 0.0000 0.0000 4.2943 0.0000 0.0000 12.8756 -2.4107 16.3537 6.6981 0.0000 0.0000 5.2167 0.0000 0.0000 22.4837 -2.4203 20.1785 7.4144 0.0000 0.0000 1.0719 0.0000 0.0000 32.3665 -1.9683 25.1966 12.8343 0.0000 0.0000 2.0348 0.0000 0.0000 0.0000 0.0000 0.0000 79.0178 -24.8259 29.8899 -133.4074 55.7337 -51.9623 -103.1916 -45.8117 93.3070 -60.9556 -12.7401 -0.5342 2.0516 0.0000 0.0000 24.0614 0.0000 0.0000 -11.5027 -1.4734 -3.2553 4.5796 0.0000 0.0000 6.5381 0.0000 0.0000 0.9919 -0.0006 4.8452 6.3722 0.0000 0.0000 6.3483 0.0000 0.0000 -4.7814 -1.0337 7.8007 4.1059 0.0000 0.0000 5.0087 0.0000 0.0000 -14.4977 -2.9551 10.8922 7.7084 0.0000 0.0000 4.5435 0.0000 0.0000 0.0000 0.0000 0.0000 0.0000 0.0000 0.0000 0.0000 0.0000 0.0000 0.0000 0.0000 0.0000 0.0000 0.0000 0.0000 0.0000 0.0000 0.0000
0.0000 95.0000 0.0000 0.0000 0.0000 0.0000 0.0000 0.0000 0.0000 0.0000 0.0000 0.0000 0.0000 0.0000 0.0000 0.0000 0.0000 0.0000 0.0000 0.0000 0.0000 0.0000 0.0000 0.0000 -71.0420 15.2430 21.2338 -0.2819 -0.6039 0.9132 -173.1567 66.4667 -337.9760 50.0470 -5.4305 24.6346 3.0880 0.0000 0.0000 12.3107 0.0000 0.0000 2.5110 -3.7429 17.4791 3.4175 0.0000 0.0000 4.6093 0.0000 0.0000 12.3911 -2.4163 17.2157 6.9498 0.0000 0.0000 5.9070 0.0000 0.0000 22.1805 -2.3879 20.8643 7.7892 0.0000 0.0000 1.5206 0.0000 0.0000 32.1061 -1.8775 25.9061 13.6074 0.0000 0.0000 2.4049 0.0000 0.0000 0.0000 0.0000 0.0000 79.0223 -24.5875 29.6046 -133.4689 56.8614 -51.9937 -105.2927 -47.3673 96.8126 -61.1829 -13.0297 1.8405 2.8978 0.0000 0.0000 19.8408 0.0000 0.0000 -9.4006 -0.6959 -0.9734 5.1508 0.0000 0.0000 6.6056 0.0000 0.0000 1.6552 -0.0321 6.9942 5.7381 0.0000 0.0000 4.9463 0.0000 0.0000 -4.5175 -1.2654 10.0736 4.1908 0.0000 0.0000 4.4926 0.0000 0.0000 -14.2962 -3.3427 13.0909 7.4942 0.0000 0.0000 3.6868 0.0000 0.0000 0.0000 0.0000 0.0000 0.0000 0.0000 0.0000 0.0000 0.0000 0.0000 0.0000 0.0000 0.0000 0.0000 0.0000 0.0000 0.0000 0.0000 0.0000
0.0000 95.0000 0.0000 0.0000 0.0000 0.0000 0.0000 0.0000 0.0000 0.0000 0.0000 0.0000 0.0000 0.0000 0.0000 0.0000 0.0000 0.0000 0.0000 0.0000 0.0000 0.0000 0.0000 0.0000 -71.3781 15.1043 20.9156 -0.3405 -0.6897 1.0443 -174.1847 65.0428 -338.1136 50.4624 -5.6718 24.3635 3.0975 0.0000 0.0000 12.5589 0.0000 0.0000 2.3853 -3.7837 17.7958 3.9379 0.0000 0.0000 4.9390 0.0000 0.0000 11.9212 -2.4105 18.0136 7.2932 0.0000 0.0000 6.6224 0.0000 0.0000 21.9224 -2.3593 21.4819 8.2535 0.0000 0.0000 1.9897 0.0000 0.0000 31.9057 -1.8033 26.5488 14.4055 0.0000 0.0000 2.7928 0.0000 0.0000 0.0000 0.0000 0.0000 79.1016 -24.4201 29.3662 -133.1975 57.7533 -51.8376 -102.1964 -45.6974 91.3824 -61.4879 -12.9025 0.1233 3.6401 0.0000 0.0000 26.7651 0.0000 0.0000 -9.2428 -1.0135 -2.1953 4.5948 0.0000 0.0000 5.6281 0.0000 0.0000 2.1705 -0.0144 5.5317 4.7648 0.0000 0.0000 3.8871 0.0000 0.0000 -4.1645 -1.0719 8.0921 2.9494 0.0000 0.0000 4.3195 0.0000 0.0000 -14.3332 -2.9976 11.1127 6.4091 0.0000 0.0000 4.3926 0.0000 0.0000 0.0000 0.0000 0.0000 0.0000 0.0000 0.0000 0.0000 0.0000 0.0000 0.0000 0.0000 0.0000 0.0000 0.0000 0.0000 0.0000 0.0000 0.0000
0.0000 95.0000 0.0000 0.0000 0.0000 0.0000 0.0000 0.0000 0.0000 0.0000 0.0000 0.0000 0.0000 0.0000 0.0000 0.0000 0.0000 0.0000 0.0000 0.0000 0.0000 0.0000 0.0000 0.0000 -71.2732 14.8543 20.6120 -0.9002 -0.3768 0.8454 -176.5358 62.6487 -338.2581 51.4460 -6.2316 23.7208 3.1532 0.0000 0.0000 13.0271 0.0000 0.0000 2.2465 -3.8613 18.3040 4.9943 0.0000 0.0000 5.6377 0.0000 0.0000 10.9925 -2.3686 19.4784 8.2235 0.0000 0.0000 8.1320 0.0000 0.0000 21.4877 -2.3076 22.5798 9.4138 0.0000 0.0000 2.9942 0.0000 0.0000 31.6141 -1.6857 27.7056 16.0756 0.0000 0.0000 3.6171 0.0000 0.0000 0.0000 0.0000 0.0000 78.9593 -24.1969 29.1720 -132.9018 58.8793 -51.6034 -103.4102 -49.0483 95.7321 -60.3863 -13.1965 4.4720 5.1412 0.0000 0.0000 18.3363 0.0000 0.0000 -0.6293 1.0400 5.7075 6.1575 0.0000 0.0000 4.6548 0.0000 0.0000 3.5404 -0.2514 12.8927 5.4564 0.0000 0.0000 2.7669 0.0000 0.0000 -3.8808 -1.6584 13.5746 6.1277 0.0000 0.0000 3.4126 0.0000 0.0000 -15.2888 -3.6056 14.9544 7.5797 0.0000 0.0000 4.7810 0.0000 0.0000 0.0000 0.0000 0.0000 0.0000 0.0000 0.0000 0.0000 0.0000 0.0000 0.0000 0.0000 0.0000 0.0000 0.0000 0.0000 0.0000 0.0000 0.0000
0.0000 95.0000 0.0000 0.0000 0.0000 0.0000 0.0000 0.0000 0.0000 0.0000 0.0000 0.0000 0.0000 0.0000 0.0000 0.0000 0.0000 0.0000 0.0000 0.0000 0.0000 0.0000 0.0000 0.0000 -71.3355 14.9696 20.7470 -0.9060 -0.2289 0.6501 -177.5969 61.8545 -338.4246 51.9933 -6.5362 23.3624 3.2001 0.0000 0.0000 13.2468 0.0000 0.0000 2.2148 -3.8985 18.5137 5.5300 0.0000 0.0000 6.0049 0.0000 0.0000 10.5222 -2.3328 20.1639 8.7922 0.0000 0.0000 8.9285 0.0000 0.0000 21.2926 -2.2820 23.0810 10.0920 0.0000 0.0000 3.5327 0.0000 0.0000 31.4985 -1.6353 28.2416 16.9474 0.0000 0.0000 4.0529 0.0000 0.0000 0.0000 0.0000 0.0000 78.6785 -24.1232 29.2237 -131.8482 60.0910 -51.0018 -97.1847 -46.9518 87.1751 -56.7027 -12.2604 1.4238 2.7463 0.0000 0.0000 18.9749 0.0000 0.0000 5.2211 1.2994 7.8921 5.8948 0.0000 0.0000 4.4866 0.0000 0.0000 3.9999 -0.2920 13.1179 5.3814 0.0000 0.0000 2.8672 0.0000 0.0000 -4.0510 -1.6110 13.2261 5.6272 0.0000 0.0000 3.2220 0.0000 0.0000 -14.4101 -3.5318 14.2137 7.9454 0.0000 0.0000 6.9048 0.0000 0.0000 0.0000 0.0000 0.0000 0.0000 0.0000 0.0000 0.0000 0.0000 0.0000 0.0000 0.0000 0.0000 0.0000 0.0000 0.0000 0.0000 0.0000 0.0000
0.0000 95.0000 0.0000 0.0000 0.0000 0.0000 0.0000 0.0000 0.0000 0.0000 0.0000 0.0000 0.0000 0.0000 0.0000 0.0000 0.0000 0.0000 0.0000 0.0000 0.0000 0.0000 0.0000 0.0000 -71.7747 14.8200 20.3799 -0.8593 -0.0696 0.4112 -178.5359 60.7153 -338.0309 52.5682 -6.8511 22.9846 3.2601 0.0000 0.0000 13.4565 0.0000 0.0000 2.1995 -3.9347 18.7018 6.0705 0.0000 0.0000 6.3831 0.0000 0.0000 10.0425 -2.2870 20.8258 9.4178 0.0000 0.0000 9.7542 0.0000 0.0000 21.1034 -2.2552 23.5592 10.8253 0.0000 0.0000 4.0975 0.0000 0.0000 31.3915 -1.5870 28.7585 17.8435 0.0000 0.0000 4.5044 0.0000 0.0000 0.0000 0.0000 0.0000 78.3780 -23.9369 29.1501 -129.7179 61.9997 -49.6033 -92.4256 -47.0464 81.7407 -53.5418 -12.0130 2.9890 5.4300 0.0000 0.0000 18.6424 0.0000 0.0000 11.6828 1.5373 13.0367 5.5875 0.0000 0.0000 3.0666 0.0000 0.0000 5.4986 -0.5801 16.8078 6.9420 0.0000 0.0000 1.4710 0.0000 0.0000 -5.0677 -1.9285 17.1742 8.9086 0.0000 0.0000 5.3581 0.0000 0.0000 -16.8481 -3.9086 17.5887 10.0159 0.0000 0.0000 7.5182 0.0000 0.0000 0.0000 0.0000 0.0000 0.0000 0.0000 0.0000 0.0000 0.0000 0.0000 0.0000 0.0000 0.0000 0.0000 0.0000 0.0000 0.0000 0.0000 0.0000
0.0000 95.0000 0.0000 0.0000 0.0000 0.0000 0.0000 0.0000 0.0000 0.0000 0.0000 0.0000 0.0000 0.0000 0.0000 0.0000 0.0000 0.0000 0.0000 0.0000 0.0000 0.0000 0.0000 0.0000 -72.0124 14.7739 20.2305 -1.0603 0.5488 -0.3440 -179.4837 59.3394 -337.2916 53.1654 -7.1728 22.5902 3.3331 0.0000 0.0000 13.6564 0.0000 0.0000 2.1960 -3.9697 18.8721 6.6157 0.0000 0.0000 6.7717 0.0000 0.0000 9.5509 -2.2309 21.4676 10.0924 0.0000 0.0000 10.6108 0.0000 0.0000 20.9154 -2.2261 24.0186 11.6072 0.0000 0.0000 4.6904 0.0000 0.0000 31.2868 -1.5388 29.2606 18.7640 0.0000 0.0000 4.9720 0.0000 0.0000 0.0000 0.0000 0.0000 78.0128 -23.5792 28.9004 -127.1081 64.6307 -47.7034 -79.2657 -48.9400 67.8219 -54.9886 -12.7700 6.3917 7.9136 0.0000 0.0000 17.2894 0.0000 0.0000 11.2809 2.0330 18.7415 6.7976 0.0000 0.0000 4.4145 0.0000 0.0000 2.4385 -0.3598 21.5562 11.1534 0.0000 0.0000 5.0461 0.0000 0.0000 -7.5270 -2.1233 22.9077 17.3545 0.0000 0.0000 11.4645 0.0000 0.0000 -20.1700 -4.3708 23.6498 16.4441 0.0000 0.0000 10.8583 0.0000 0.0000 0.0000 0.0000 0.0000 0.0000 0.0000 0.0000 0.0000 0.0000 0.0000 0.0000 0.0000 0.0000 0.0000 0.0000 0.0000 0.0000 0.0000 0.0000
0.0000 95.0000 0.0000 0.0000 0.0000 0.0000 0.0000 0.0000 0.0000 0.0000 0.0000 0.0000 0.0000 0.0000 0.0000 0.0000 0.0000 0.0000 0.0000 0.0000 0.0000 0.0000 0.0000 0.0000 -72.7169 14.3111 19.3562 -1.7536 1.8669 -1.8937 -181.1592 56.1478 -335.0707 54.4110 -7.8267 21.7583 3.5173 0.0000 0.0000 14.0258 0.0000 0.0000 2.2100 -4.0356 19.1704 7.7193 0.0000 0.0000 7.5785 0.0000 0.0000 8.5246 -2.0873 22.6988 11.5600 0.0000 0.0000 12.4221 0.0000 0.0000 20.5293 -2.1586 24.8924 13.2960 0.0000 0.0000 5.9687 0.0000 0.0000 31.0652 -1.4359 30.2324 20.6785 0.0000 0.0000 5.9576 0.0000 0.0000 0.0000 0.0000 0.0000 77.6683 -22.5807 27.8573 -116.7850 70.0206 -39.2936 -46.0660 -44.8456 37.4019 -64.5213 -14.4283 13.7044 10.1650 0.0000 0.0000 19.9908 0.0000 0.0000 6.8668 3.7697 28.4839 8.9851 0.0000 0.0000 9.7209 0.0000 0.0000 -6.3531 1.4604 30.6399 24.1722 0.0000 0.0000 30.8120 0.0000 0.0000 -17.2938 -0.5697 33.7380 32.7831 0.0000 0.0000 28.4367 0.0000 0.0000 -31.8736 -2.9884 35.3222 27.6327 0.0000 0.0000 24.5172 0.0000 0.0000 0.0000 0.0000 0.0000 0.0000 0.0000 0.0000 0.0000 0.0000 0.0000 0.0000 0.0000 0.0000 0.0000 0.0000 0.0000 0.0000 0.0000 0.0000
0.0000 95.0000 0.0000 0.0000 0.0000 0.0000 0.0000 0.0000 0.0000 0.0000 0.0000 0.0000 0.0000 0.0000 0.0000 0.0000 0.0000 0.0000 0.0000 0.0000 0.0000 0.0000 0.0000 0.0000 -73.2531 13.5392 18.1449 -2.8072 3.2686 -3.5392 -182.1016 53.0959 -332.5044 55.0534 -8.1551 21.3235 3.6279 0.0000 0.0000 14.1953 0.0000 0.0000 2.2223 -4.0661 19.3023 8.2773 0.0000 0.0000 7.9960 0.0000 0.0000 7.9878 -1.9992 23.2905 12.3410 0.0000 0.0000 13.3803 0.0000 0.0000 20.3257 -2.1188 25.3106 14.1946 0.0000 0.0000 6.6586 0.0000 0.0000 30.9408 -1.3784 30.7058 21.6726 0.0000 0.0000 6.4769 0.0000 0.0000 0.0000 0.0000 0.0000 77.5846 -21.4935 26.5712 -96.1722 74.5386 -21.3830 -31.9411 -36.6126 25.8865 -71.2340 -14.9025 21.0821 9.6517 0.0000 0.0000 18.4841 0.0000 0.0000 3.7411 5.8324 37.4390 17.7986 0.0000 0.0000 90.0000 0.0000 0.0000 -10.6386 3.2674 38.8344 42.6962 0.0000 0.0000 86.8231 0.0000 0.0000 -22.0212 1.0587 42.0564 54.8762 0.0000 0.0000 58.6768 0.0000 0.0000 -36.9356 -1.5368 43.5166 44.2002 0.0000 0.0000 57.6415 0.0000 0.0000 0.0000 0.0000 0.0000 0.0000 0.0000 0.0000 0.0000 0.0000 0.0000 0.0000 0.0000 0.0000 0.0000 0.0000 0.0000 0.0000 0.0000 0.0000
0.0000 95.0000 0.0000 0.0000 0.0000 0.0000 0.0000 0.0000 0.0000 0.0000 0.0000 0.0000 0.0000 0.0000 0.0000 0.0000 0.0000 0.0000 0.0000 0.0000 0.0000 0.0000 0.0000 0.0000 -73.5198 12.8077 17.0893 -3.8090 4.1108 -4.5272 -183.0472 50.7951 -330.6967 55.7058 -8.4825 20.8775 3.7501 0.0000 0.0000 14.3546 0.0000 0.0000 2.2353 -4.0949 19.4245 8.8391 0.0000 0.0000 8.4224 0.0000 0.0000 7.4345 -1.9002 23.8670 13.1466 0.0000 0.0000 14.3757 0.0000 0.0000 20.1126 -2.0742 25.7179 15.1250 0.0000 0.0000 7.3856 0.0000 0.0000 30.8035 -1.3153 31.1726 22.6916 0.0000 0.0000 7.0147 0.0000 0.0000 0.0000 0.0000 0.0000 77.8525 -20.1413 24.8032 -61.9883 75.4001 9.1737 -3.4353 -30.4813 1.3736 -90.5363 -11.3840 43.1223 14.0520 0.0000 0.0000 7.6561 0.0000 0.0000 -6.3749 14.6248 58.4287 19.4324 0.0000 0.0000 41.9555 0.0000 0.0000 -22.1607 11.8124 60.4618 38.1303 0.0000 0.0000 72.4881 0.0000 0.0000 -33.0084 8.2867 62.6689 44.7534 0.0000 0.0000 44.4164 0.0000 0.0000 -45.9140 3.9935 64.9032 36.1819 0.0000 0.0000 26.0246 0.0000 0.0000 0.0000 0.0000 0.0000 0.0000 0.0000 0.0000 0.0000 0.0000 0.0000 0.0000 0.0000 0.0000 0.0000 0.0000 0.0000 0.0000 0.0000 0.0000
0.0000 95.0000 0.0000 0.0000 0.0000 0.0000 0.0000 0.0000 0.0000 0.0000 0.0000 0.0000 0.0000 0.0000 0.0000 0.0000 0.0000 0.0000 0.0000 0.0000 0.0000 0.0000 0.0000 0.0000 -74.0759 11.8817 15.7035 -4.3144 4.1975 -4.6142 -183.9251 49.0861 -329.4301 56.3662 -8.8078 20.4210 3.8835 0.0000 0.0000 14.5037 0.0000 0.0000 2.2476 -4.1216 19.5382 9.4045 0.0000 0.0000 8.8575 0.0000 0.0000 6.8646 -1.7901 24.4282 13.9724 0.0000 0.0000 15.4103 0.0000 0.0000 19.8884 -2.0244 26.1152 16.0845 0.0000 0.0000 8.1525 0.0000 0.0000 30.6510 -1.2455 31.6335 23.7354 0.0000 0.0000 7.5719 0.0000 0.0000 0.0000 0.0000 0.0000 78.3083 -19.4617 23.7863 -39.1674 71.4811 27.6428 -30.0907 -14.3292 -1.3225 -73.7593 -14.8947 18.2146 13.1026 0.0000 0.0000 22.4383 0.0000 0.0000 -0.1795 7.3718 39.3215 26.6176 0.0000 0.0000 18.9054 0.0000 0.0000 -14.8957 6.8264 53.8201 15.3038 0.0000 0.0000 90.0000 0.0000 0.0000 -27.6041 4.7543 57.9876 50.7752 0.0000 0.0000 90.0000 0.0000 0.0000 -45.7300 2.7365 55.8267 38.6911 0.0000 0.0000 67.8078 0.0000 0.0000 0.0000 0.0000 0.0000 0.0000 0.0000 0.0000 0.0000 0.0000 0.0000 0.0000 0.0000 0.0000 0.0000 0.0000 0.0000 0.0000 0.0000 0.0000
0.0000 95.0000 0.0000 0.0000 0.0000 0.0000 0.0000 0.0000 0.0000 0.0000 0.0000 0.0000 0.0000 0.0000 0.0000 0.0000 0.0000 0.0000 0.0000 0.0000 0.0000 0.0000 0.0000 0.0000 -75.4278 9.2427 11.9353 -4.4613 3.0400 -3.2050 -186.1055 46.5575 -327.7724 57.7047 -9.4479 19.4788 4.1815 0.0000 0.0000 14.7714 0.0000 0.0000 2.2649 -4.1688 19.7428 10.5451 0.0000 0.0000 9.7530 0.0000 0.0000 5.6766 -1.5368 25.5036 15.6684 0.0000 0.0000 17.6052 0.0000 0.0000 19.4023 -1.9078 26.8814 18.0827 0.0000 0.0000 9.8181 0.0000 0.0000 30.2929 -1.0827 32.5389 25.8984 0.0000 0.0000 8.7482 0.0000 0.0000 0.0000 0.0000 0.0000 79.8183 -17.8728 21.2951 -15.5431 60.7156 42.2565 -41.8144 -0.7414 2.0416 -73.7593 -14.8947 18.2146 13.1026 0.0000 0.0000 22.4383 0.0000 0.0000 -0.1795 7.3718 39.3215 26.6176 0.0000 0.0000 18.9054 0.0000 0.0000 -14.8957 6.8264 53.8201 15.3038 0.0000 0.0000 90.0000 0.0000 0.0000 -27.6041 4.7543 57.9876 50.7752 0.0000 0.0000 90.0000 0.0000 0.0000 -45.7300 2.7365 55.8267 38.6911 0.0000 0.0000 67.8078 0.0000 0.0000 0.0000 0.0000 0.0000 0.0000 0.0000 0.0000 0.0000 0.0000 0.0000 0.0000 0.0000 0.0000 0.0000 0.0000 0.0000 0.0000 0.0000 0.0000
0.0000 95.0000 0.0000 0.0000 0.0000 0.0000 0.0000 0.0000 0.0000 0.0000 0.0000 0.0000 0.0000 0.0000 0.0000 0.0000 0.0000 0.0000 0.0000 0.0000 0.0000 0.0000 0.0000 0.0000 -76.0203 6.1191 7.8245 -5.3897 0.7105 -0.1905 -185.5866 45.2158 -326.4555 57.7047 -9.4479 19.4788 4.1815 0.0000 0.0000 14.7714 0.0000 0.0000 2.2649 -4.1688 19.7428 10.5451 0.0000 0.0000 9.7530 0.0000 0.0000 5.6766 -1.5368 25.5036 15.6684 0.0000 0.0000 17.6052 0.0000 0.0000 19.4023 -1.9078 26.8814 18.0827 0.0000 0.0000 9.8181 0.0000 0.0000 30.2929 -1.0827 32.5389 25.8984 0.0000 0.0000 8.7482 0.0000 0.0000 0.0000 0.0000 0.0000 82.5902 -13.6553 15.5245 -2.4737 47.4743 44.6491 -54.2264 17.1462 6.5854 -73.7593 -14.8947 18.2146 13.1026 0.0000 0.0000 22.4383 0.0000 0.0000 -0.1795 7.3718 39.3215 26.6176 0.0000 0.0000 18.9054 0.0000 0.0000 -14.8957 6.8264 53.8201 15.3038 0.0000 0.0000 90.0000 0.0000 0.0000 -27.6041 4.7543 57.9876 50.7752 0.0000 0.0000 90.0000 0.0000 0.0000 -45.7300 2.7365 55.8267 38.6911 0.0000 0.0000 67.8078 0.0000 0.0000 0.0000 0.0000 0.0000 0.0000 0.0000 0.0000 0.0000 0.0000 0.0000 0.0000 0.0000 0.0000 0.0000 0.0000 0.0000 0.0000 0.0000 0.0000
0.0000 95.0000 0.0000 0.0000 0.0000 0.0000 0.0000 0.0000 0.0000 0.0000 0.0000 0.0000 0.0000 0.0000 0.0000 0.0000 0.0000 0.0000 0.0000 0.0000 0.0000 0.0000 0.0000 0.0000 -76.0162 4.2871 5.4840 -6.6517 -2.0048 3.5869 -183.6039 45.5497 -326.3747 57.7047 -9.4479 19.4788 4.1815 0.0000 0.0000 14.7714 0.0000 0.0000 2.2649 -4.1688 19.7428 10.5451 0.0000 0.0000 9.7530 0.0000 0.0000 5.6766 -1.5368 25.5036 15.6684 0.0000 0.0000 17.6052 0.0000 0.0000 19.4023 -1.9078 26.8814 18.0827 0.0000 0.0000 9.8181 0.0000 0.0000 30.2929 -1.0827 32.5389 25.8984 0.0000 0.0000 8.7482 0.0000 0.0000 0.0000 0.0000 0.0000 84.7500 -7.5324 8.2539 7.3624 26.8156 32.7503 -69.3544 46.9838 14.7513 -73.7593 -14.8947 18.2146 13.1026 0.0000 0.0000 22.4383 0.0000 0.0000 -0.1795 7.3718 39.3215 26.6176 0.0000 0.0000 18.9054 0.0000 0.0000 -14.8957 6.8264 53.8201 15.3038 0.0000 0.0000 90.0000 0.0000 0.0000 -27.6041 4.7543 57.9876 50.7752 0.0000 0.0000 90.0000 0.0000 0.0000 -45.7300 2.7365 55.8267 38.6911 0.0000 0.0000 67.8078 0.0000 0.0000 0.0000 0.0000 0.0000 0.0000 0.0000 0.0000 0.0000 0.0000 0.0000 0.0000 0.0000 0.0000 0.0000 0.0000 0.0000 0.0000 0.0000 0.0000
0.0000 95.0000 0.0000 0.0000 0.0000 0.0000 0.0000 0.0000 0.0000 0.0000 0.0000 0.0000 0.0000 0.0000 0.0000 0.0000 0.0000 0.0000 0.0000 0.0000 0.0000 0.0000 0.0000 0.0000 -75.7331 3.8846 4.9947 -8.1430 -3.9362 6.6408 -180.8827 46.5765 -326.7130 57.7047 -9.4479 19.4788 4.1815 0.0000 0.0000 14.7714 0.0000 0.0000 2.2649 -4.1688 19.7428 10.5451 0.0000 0.0000 9.7530 0.0000 0.0000 5.6766 -1.5368 25.5036 15.6684 0.0000 0.0000 17.6052 0.0000 0.0000 19.4023 -1.9078 26.8814 18.0827 0.0000 0.0000 9.8181 0.0000 0.0000 30.2929 -1.0827 32.5389 25.8984 0.0000 0.0000 8.7482 0.0000 0.0000 0.0000 0.0000 0.0000 85.6451 -3.4764 3.7510 8.1991 13.3109 16.9595 -64.6184 67.6173 35.9674 -73.7593 -14.8947 18.2146 13.1026 0.0000 0.0000 22.4383 0.0000 0.0000 -0.1795 7.3718 39.3215 26.6176 0.0000 0.0000 18.9054 0.0000 0.0000 -14.8957 6.8264 53.8201 15.3038 0.0000 0.0000 90.0000 0.0000 0.0000 -27.6041 4.7543 57.9876 50.7752 0.0000 0.0000 90.0000 0.0000 0.0000 -45.7300 2.7365 55.8267 38.6911 0.0000 0.0000 67.8078 0.0000 0.0000 0.0000 0.0000 0.0000 0.0000 0.0000 0.0000 0.0000 0.0000 0.0000 0.0000 0.0000 0.0000 0.0000 0.0000 0.0000 0.0000 0.0000 0.0000
0.0000 95.0000 0.0000 0.0000 0.0000 0.0000 0.0000 0.0000 0.0000 0.0000 0.0000 0.0000 0.0000 0.0000 0.0000 0.0000 0.0000 0.0000 0.0000 0.0000 0.0000 0.0000 0.0000 0.0000 -75.4261 4.2210 5.4571 -9.1237 -5.1591 8.8141 -178.6066 47.9460 -327.3572 57.7047 -9.4479 19.4788 4.1815 0.0000 0.0000 14.7714 0.0000 0.0000 2.2649 -4.1688 19.7428 10.5451 0.0000 0.0000 9.7530 0.0000 0.0000 5.6766 -1.5368 25.5036 15.6684 0.0000 0.0000 17.6052 0.0000 0.0000 19.4023 -1.9078 26.8814 18.0827 0.0000 0.0000 9.8181 0.0000 0.0000 30.2929 -1.0827 32.5389 25.8984 0.0000 0.0000 8.7482 0.0000 0.0000 0.0000 0.0000 0.0000 86.1317 -1.4896 1.5937 5.8553 9.7803 11.7248 -49.4169 71.3665 56.7411 -73.7593 -14.8947 18.2146 13.1026 0.0000 0.0000 22.4383 0.0000 0.0000 -0.1795 7.3718 39.3215 26.6176 0.0000 0.0000 18.9054 0.0000 0.0000 -14.8957 6.8264 53.8201 15.3038 0.0000 0.0000 90.0000 0.0000 0.0000 -27.6041 4.7543 57.9876 50.7752 0.0000 0.0000 90.0000 0.0000 0.0000 -45.7300 2.7365 55.8267 38.6911 0.0000 0.0000 67.8078 0.0000 0.0000 0.0000 0.0000 0.0000 0.0000 0.0000 0.0000 0.0000 0.0000 0.0000 0.0000 0.0000 0.0000 0.0000 0.0000 0.0000 0.0000 0.0000 0.0000
0.0000 95.0000 0.0000 0.0000 0.0000 0.0000 0.0000 0.0000 0.0000 0.0000 0.0000 0.0000 0.0000 0.0000 0.0000 0.0000 0.0000 0.0000 0.0000 0.0000 0.0000 0.0000 0.0000 0.0000 -75.3011 3.7952 4.9179 -9.9129 -6.6024 11.1580 -177.0461 48.8774 -327.7525 57.7047 -9.4479 19.4788 4.1815 0.0000 0.0000 14.7714 0.0000 0.0000 2.2649 -4.1688 19.7428 10.5451 0.0000 0.0000 9.7530 0.0000 0.0000 5.6766 -1.5368 25.5036 15.6684 0.0000 0.0000 17.6052 0.0000 0.0000 19.4023 -1.9078 26.8814 18.0827 0.0000 0.0000 9.8181 0.0000 0.0000 30.2929 -1.0827 32.5389 25.8984 0.0000 0.0000 8.7482 0.0000 0.0000 0.0000 0.0000 0.0000 86.4086 0.1217 -0.1296 3.9447 8.6345 9.8389 -38.8253 71.5064 70.1026 -73.7593 -14.8947 18.2146 13.1026 0.0000 0.0000 22.4383 0.0000 0.0000 -0.1795 7.3718 39.3215 26.6176 0.0000 0.0000 18.9054 0.0000 0.0000 -14.8957 6.8264 53.8201 15.3038 0.0000 0.0000 90.0000 0.0000 0.0000 -27.6041 4.7543 57.9876 50.7752 0.0000 0.0000 90.0000 0.0000 0.0000 -45.7300 2.7365 55.8267 38.6911 0.0000 0.0000 67.8078 0.0000 0.0000 0.0000 0.0000 0.0000 0.0000 0.0000 0.0000 0.0000 0.0000 0.0000 0.0000 0.0000 0.0000 0.0000 0.0000 0.0000 0.0000 0.0000 0.0000
0.0000 95.0000 0.0000 0.0000 0.0000 0.0000 0.0000 0.0000 0.0000 0.0000 0.0000 0.0000 0.0000 0.0000 0.0000 0.0000 0.0000 0.0000 0.0000 0.0000 0.0000 0.0000 0.0000 0.0000 -75.1358 3.9999 5.1986 -10.3542 -7.2731 12.4098 -175.8915 49.7793 -328.1907 57.7047 -9.4479 19.4788 4.1815 0.0000 0.0000 14.7714 0.0000 0.0000 2.2649 -4.1688 19.7428 10.5451 0.0000 0.0000 9.7530 0.0000 0.0000 5.6766 -1.5368 25.5036 15.6684 0.0000 0.0000 17.6052 0.0000 0.0000 19.4023 -1.9078 26.8814 18.0827 0.0000 0.0000 9.8181 0.0000 0.0000 30.2929 -1.0827 32.5389 25.8984 0.0000 0.0000 8.7482 0.0000 0.0000 0.0000 0.0000 0.0000 87.1254 0.5885 -0.6188 2.1429 8.8576 9.6499 -36.6483 70.6107 72.7208 -73.7593 -14.8947 18.2146 13.1026 0.0000 0.0000 22.4383 0.0000 0.0000 -0.1795 7.3718 39.3215 26.6176 0.0000 0.0000 18.9054 0.0000 0.0000 -14.8957 6.8264 53.8201 15.3038 0.0000 0.0000 90.0000 0.0000 0.0000 -27.6041 4.7543 57.9876 50.7752 0.0000 0.0000 90.0000 0.0000 0.0000 -45.7300 2.7365 55.8267 38.6911 0.0000 0.0000 67.8078 0.0000 0.0000 0.0000 0.0000 0.0000 0.0000 0.0000 0.0000 0.0000 0.0000 0.0000 0.0000 0.0000 0.0000 0.0000 0.0000 0.0000 0.0000 0.0000 0.0000
0.0000 95.0000 0.0000 0.0000 0.0000 0.0000 0.0000 0.0000 0.0000 0.0000 0.0000 0.0000 0.0000 0.0000 0.0000 0.0000 0.0000 0.0000 0.0000 0.0000 0.0000 0.0000 0.0000 0.0000 -74.8828 3.8475 5.0235 -11.2473 -7.5622 13.1901 -174.9294 49.7693 -327.9508 57.7047 -9.4479 19.4788 4.1815 0.0000 0.0000 14.7714 0.0000 0.0000 2.2649 -4.1688 19.7428 10.5451 0.0000 0.0000 9.7530 0.0000 0.0000 5.6766 -1.5368 25.5036 15.6684 0.0000 0.0000 17.6052 0.0000 0.0000 19.4023 -1.9078 26.8814 18.0827 0.0000 0.0000 9.8181 0.0000 0.0000 30.2929 -1.0827 32.5389 25.8984 0.0000 0.0000 8.7482 0.0000 0.0000 0.0000 0.0000 0.0000 87.8429 0.9257 -0.9613 0.7290 9.3210 9.8004 -36.0611 69.9038 73.3692 -73.7593 -14.8947 18.2146 13.1026 0.0000 0.0000 22.4383 0.0000 0.0000 -0.1795 7.3718 39.3215 26.6176 0.0000 0.0000 18.9054 0.0000 0.0000 -14.8957 6.8264 53.8201 15.3038 0.0000 0.0000 90.0000 0.0000 0.0000 -27.6041 4.7543 57.9876 50.7752 0.0000 0.0000 90.0000 0.0000 0.0000 -45.7300 2.7365 55.8267 38.6911 0.0000 0.0000 67.8078 0.0000 0.0000 0.0000 0.0000 0.0000 0.0000 0.0000 0.0000 0.0000 0.0000 0.0000 0.0000 0.0000 0.0000 0.0000 0.0000 0.0000 0.0000 0.0000 0.0000
0.0000 95.0000 0.0000 0.0000 0.0000 0.0000 0.0000 0.0000 0.0000 0.0000 0.0000 0.0000 0.0000 0.0000 0.0000 0.0000 0.0000 0.0000 0.0000 0.0000 0.0000 0.0000 0.0000 0.0000 -74.9452 4.5892 5.9844 -11.4451 -7.7262 13.6905 -173.6060 50.5637 -328.2318 57.7047 -9.4479 19.4788 4.1815 0.0000 0.0000 14.7714 0.0000 0.0000 2.2649 -4.1688 19.7428 10.5451 0.0000 0.0000 9.7530 0.0000 0.0000 5.6766 -1.5368 25.5036 15.6684 0.0000 0.0000 17.6052 0.0000 0.0000 19.4023 -1.9078 26.8814 18.0827 0.0000 0.0000 9.8181 0.0000 0.0000 30.2929 -1.0827 32.5389 25.8984 0.0000 0.0000 8.7482 0.0000 0.0000 0.0000 0.0000 0.0000 88.6859 1.2230 -1.2514 -0.5750 9.2462 9.3924 -34.3670 69.6418 75.5353 -73.7593 -14.8947 18.2146 13.1026 0.0000 0.0000 22.4383 0.0000 0.0000 -0.1795 7.3718 39.3215 26.6176 0.0000 0.0000 18.9054 0.0000 0.0000 -14.8957 6.8264 53.8201 15.3038 0.0000 0.0000 90.0000 0.0000 0.0000 -27.6041 4.7543 57.9876 50.7752 0.0000 0.0000 90.0000 0.0000 0.0000 -45.7300 2.7365 55.8267 38.6911 0.0000 0.0000 67.8078 0.0000 0.0000 0.0000 0.0000 0.0000 0.0000 0.0000 0.0000 0.0000 0.0000 0.0000 0.0000 0.0000 0.0000 0.0000 0.0000 0.0000 0.0000 0.0000 0.0000
0.0000 95.0000 0.0000 0.0000 0.0000 0.0000 0.0000 0.0000 0.0000 0.0000 0.0000 0.0000 0.0000 0.0000 0.0000 0.0000 0.0000 0.0000 0.0000 0.0000 0.0000 0.0000 0.0000 0.0000 -75.0734 4.3515 5.6615 -11.6141 -8.1277 14.2876 -173.2226 50.6353 -328.1898 57.7047 -9.4479 19.4788 4.1815 0.0000 0.0000 14.7714 0.0000 0.0000 2.2649 -4.1688 19.7428 10.5451 0.0000 0.0000 9.7530 0.0000 0.0000 5.6766 -1.5368 25.5036 15.6684 0.0000 0.0000 17.6052 0.0000 0.0000 19.4023 -1.9078 26.8814 18.0827 0.0000 0.0000 9.8181 0.0000 0.0000 30.2929 -1.0827 32.5389 25.8984 0.0000 0.0000 8.7482 0.0000 0.0000 0.0000 0.0000 0.0000 89.5526 0.9828 -0.9905 -1.9341 10.0358 9.8258 -36.3039 68.8317 72.8872 -73.7593 -14.8947 18.2146 13.1026 0.0000 0.0000 22.4383 0.0000 0.0000 -0.1795 7.3718 39.3215 26.6176 0.0000 0.0000 18.9054 0.0000 0.0000 -14.8957 6.8264 53.8201 15.3038 0.0000 0.0000 90.0000 0.0000 0.0000 -27.6041 4.7543 57.9876 50.7752 0.0000 0.0000 90.0000 0.0000 0.0000 -45.7300 2.7365 55.8267 38.6911 0.0000 0.0000 67.8078 0.0000 0.0000 0.0000 0.0000 0.0000 0.0000 0.0000 0.0000 0.0000 0.0000 0.0000 0.0000 0.0000 0.0000 0.0000 0.0000 0.0000 0.0000 0.0000 0.0000
0.0000 95.0000 0.0000 0.0000 0.0000 0.0000 0.0000 0.0000 0.0000 0.0000 0.0000 0.0000 0.0000 0.0000 0.0000 0.0000 0.0000 0.0000 0.0000 0.0000 0.0000 0.0000 0.0000 0.0000 -74.6591 4.5666 5.9858 -12.3080 -8.3424 15.0761 -172.2766 51.1613 -328.3420 57.7047 -9.4479 19.4788 4.1815 0.0000 0.0000 14.7714 0.0000 0.0000 2.2649 -4.1688 19.7428 10.5451 0.0000 0.0000 9.7530 0.0000 0.0000 5.6766 -1.5368 25.5036 15.6684 0.0000 0.0000 17.6052 0.0000 0.0000 19.4023 -1.9078 26.8814 18.0827 0.0000 0.0000 9.8181 0.0000 0.0000 30.2929 -1.0827 32.5389 25.8984 0.0000 0.0000 8.7482 0.0000 0.0000 0.0000 0.0000 0.0000 89.6806 1.0118 -1.0175 -2.5550 10.1749 9.8450 -36.1397 68.3281 73.0249 -73.7593 -14.8947 18.2146 13.1026 0.0000 0.0000 22.4383 0.0000 0.0000 -0.1795 7.3718 39.3215 26.6176 0.0000 0.0000 18.9054 0.0000 0.0000 -14.8957 6.8264 53.8201 15.3038 0.0000 0.0000 90.0000 0.0000 0.0000 -27.6041 4.7543 57.9876 50.7752 0.0000 0.0000 90.0000 0.0000 0.0000 -45.7300 2.7365 55.8267 38.6911 0.0000 0.0000 67.8078 0.0000 0.0000 0.0000 0.0000 0.0000 0.0000 0.0000 0.0000 0.0000 0.0000 0.0000 0.0000 0.0000 0.0000 0.0000 0.0000 0.0000 0.0000 0.0000 0.0000
0.0000 95.0000 0.0000 0.0000 0.0000 0.0000 0.0000 0.0000 0.0000 0.0000 0.0000 0.0000 0.0000 0.0000 0.0000 0.0000 0.0000 0.0000 0.0000 0.0000 0.0000 0.0000 0.0000 0.0000 -74.5810 4.9470 6.4932 -12.4056 -8.1627 14.9567 -171.8947 51.3443 -328.3786 57.7047 -9.4479 19.4788 4.1815 0.0000 0.0000 14.7714 0.0000 0.0000 2.2649 -4.1688 19.7428 10.5451 0.0000 0.0000 9.7530 0.0000 0.0000 5.6766 -1.5368 25.5036 15.6684 0.0000 0.0000 17.6052 0.0000 0.0000 19.4023 -1.9078 26.8814 18.0827 0.0000 0.0000 9.8181 0.0000 0.0000 30.2929 -1.0827 32.5389 25.8984 0.0000 0.0000 8.7482 0.0000 0.0000 0.0000 0.0000 0.0000 89.6663 1.1320 -1.1386 -2.5571 9.9795 9.6651 -35.3777 68.4307 74.0487 -73.7593 -14.8947 18.2146 13.1026 0.0000 0.0000 22.4383 0.0000 0.0000 -0.1795 7.3718 39.3215 26.6176 0.0000 0.0000 18.9054 0.0000 0.0000 -14.8957 6.8264 53.8201 15.3038 0.0000 0.0000 90.0000 0.0000 0.0000 -27.6041 4.7543 57.9876 50.7752 0.0000 0.0000 90.0000 0.0000 0.0000 -45.7300 2.7365 55.8267 38.6911 0.0000 0.0000 67.8078 0.0000 0.0000 0.0000 0.0000 0.0000 0.0000 0.0000 0.0000 0.0000 0.0000 0.0000 0.0000 0.0000 0.0000 0.0000 0.0000 0.0000 0.0000 0.0000 0.0000
0.0000 95.0000 0.0000 0.0000 0.0000 0.0000 0.0000 0.0000 0.0000 0.0000 0.0000 0.0000 0.0000 0.0000 0.0000 0.0000 0.0000 0.0000 0.0000 0.0000 0.0000 0.0000 0.0000 0.0000 -74.3572 5.0002 6.5896 -12.7465 -8.1375 15.1402 -171.6040 51.4135 -328.3541 57.7047 -9.4479 19.4788 4.1815 0.0000 0.0000 14.7714 0.0000 0.0000 2.2649 -4.1688 19.7428 10.5451 0.0000 0.0000 9.7530 0.0000 0.0000 5.6766 -1.5368 25.5036 15.6684 0.0000 0.0000 17.6052 0.0000 0.0000 19.4023 -1.9078 26.8814 18.0827 0.0000 0.0000 9.8181 0.0000 0.0000 30.2929 -1.0827 32.5389 25.8984 0.0000 0.0000 8.7482 0.0000 0.0000 0.0000 0.0000 0.0000 89.6756 1.0366 -1.0425 -2.7655 10.0634 9.7078 -35.6621 68.1821 73.6358 -73.7593 -14.8947 18.2146 13.1026 0.0000 0.0000 22.4383 0.0000 0.0000 -0.1795 7.3718 39.3215 26.6176 0.0000 0.0000 18.9054 0.0000 0.0000 -14.8957 6.8264 53.8201 15.3038 0.0000 0.0000 90.0000 0.0000 0.0000 -27.6041 4.7543 57.9876 50.7752 0.0000 0.0000 90.0000 0.0000 0.0000 -45.7300 2.7365 55.8267 38.6911 0.0000 0.0000 67.8078 0.0000 0.0000 0.0000 0.0000 0.0000 0.0000 0.0000 0.0000 0.0000 0.0000 0.0000 0.0000 0.0000 0.0000 0.0000 0.0000 0.0000 0.0000 0.0000 0.0000
0.0000 95.0000 0.0000 0.0000 0.0000 0.0000 0.0000 0.0000 0.0000 0.0000 0.0000 0.0000 0.0000 0.0000 0.0000 0.0000 0.0000 0.0000 0.0000 0.0000 0.0000 0.0000 0.0000 0.0000 -74.6719 4.4850 5.8776 -12.6876 -8.3482 15.2132 -171.8491 50.9156 -328.0523 57.7047 -9.4479 19.4788 4.1815 0.0000 0.0000 14.7714 0.0000 0.0000 2.2649 -4.1688 19.7428 10.5451 0.0000 0.0000 9.7530 0.0000 0.0000 5.6766 -1.5368 25.5036 15.6684 0.0000 0.0000 17.6052 0.0000 0.0000 19.4023 -1.9078 26.8814 18.0827 0.0000 0.0000 9.8181 0.0000 0.0000 30.2929 -1.0827 32.5389 25.8984 0.0000 0.0000 8.7482 0.0000 0.0000 0.0000 0.0000 0.0000 89.8451 0.7801 -0.7822 -3.2267 10.1250 9.6518 -36.1445 67.8218 72.9390 -73.7593 -14.8947 18.2146 13.1026 0.0000 0.0000 22.4383 0.0000 0.0000 -0.1795 7.3718 39.3215 26.6176 0.0000 0.0000 18.9054 0.0000 0.0000 -14.8957 6.8264 53.8201 15.3038 0.0000 0.0000 90.0000 0.0000 0.0000 -27.6041 4.7543 57.9876 50.7752 0.0000 0.0000 90.0000 0.0000 0.0000 -45.7300 2.7365 55.8267 38.6911 0.0000 0.0000 67.8078 0.0000 0.0000 0.0000 0.0000 0.0000 0.0000 0.0000 0.0000 0.0000 0.0000 0.0000 0.0000 0.0000 0.0000 0.0000 0.0000 0.0000 0.0000 0.0000 0.0000
