HIERARCHY
ROOT Hips
{
  OFFSET 0.000000 95.000000 0.000000
  CHANNELS 6 Xposition Yposition Zposition Zrotation Xrotation Yrotation
  JOINT Spine
  {
    OFFSET 0.000000 10.000000 0.000000
    CHANNELS 3 Zrotation Xrotation Yrotation
    JOINT Spine1
    {
      OFFSET 0.000000 12.000000 0.000000
      CHANNELS 3 Zrotation Xrotation Yrotation
      JOINT Spine2
      {
        OFFSET 0.000000 12.000000 0.000000
        CHANNELS 3 Zrotation Xrotation Yrotation
        JOINT Neck
        {
          OFFSET 0.000000 10.000000 0.000000
          CHANNELS 3 Zrotation Xrotation Yrotation
          JOINT Head
          {
            OFFSET 0.000000 8.000000 0.000000
            CHANNELS 3 Zrotation Xrotation Yrotation
            End Site
            {
              OFFSET 0.000000 10.000000 0.000000
            }
          }
        }
        JOINT LeftShoulder
        {
          OFFSET 6.000000 8.000000 0.000000
          CHANNELS 3 Zrotation Xrotation Yrotation
          JOINT LeftArm
          {
            OFFSET 12.000000 0.000000 0.000000
            CHANNELS 3 Zrotation Xrotation Yrotation
            JOINT LeftForeArm
            {
              OFFSET 24.000000 0.000000 0.000000
              CHANNELS 3 Zrotation Xrotation Yrotation
              JOINT LeftHand
              {
                OFFSET 22.000000 0.000000 0.000000
                CHANNELS 3 Zrotation Xrotation Yrotation
                JOINT LeftHandThumb1
                {
                  OFFSET 1.800000 -1.400000 0.500000
                  CHANNELS 3 Zrotation Xrotation Yrotation
                  JOINT LeftHandThumb2
                  {
                    OFFSET 2.400000 0.000000 0.000000
                    CHANNELS 3 Zrotation Xrotation Yrotation
                    JOINT LeftHandThumb3
                    {
                      OFFSET 1.900000 0.000000 0.000000
                      CHANNELS 3 Zrotation Xrotation Yrotation
                      End Site
                      {
                        OFFSET 1.600000 0.000000 0.000000
                      }
                    }
                  }
                }
                JOINT LeftHandIndex1
                {
                  OFFSET 6.600000 1.200000 0.300000
                  CHANNELS 3 Zrotation Xrotation Yrotation
                  JOINT LeftHandIndex2
                  {
                    OFFSET 2.000000 0.000000 0.000000
                    CHANNELS 3 Zrotation Xrotation Yrotation
                    JOINT LeftHandIndex3
                    {
                      OFFSET 1.200000 0.000000 0.000000
                      CHANNELS 3 Zrotation Xrotation Yrotation
                      End Site
                      {
                        OFFSET 1.000000 0.000000 0.000000
                      }
                    }
                  }
                }
                JOINT LeftHandMiddle1
                {
                  OFFSET 7.200000 0.000000 0.300000
                  CHANNELS 3 Zrotation Xrotation Yrotation
                  JOINT LeftHandMiddle2
                  {
                    OFFSET 3.000000 0.000000 0.000000
                    CHANNELS 3 Zrotation Xrotation Yrotation
                    JOINT LeftHandMiddle3
                    {
                      OFFSET 2.000000 0.000000 0.000000
                      CHANNELS 3 Zrotation Xrotation Yrotation
                      End Site
                      {
                        OFFSET 1.600000 0.000000 0.000000
                      }
                    }
                  }
                }
                JOINT LeftHandRing1
                {
                  OFFSET 7.100000 -1.000000 0.400000
                  CHANNELS 3 Zrotation Xrotation Yrotation
                  JOINT LeftHandRing2
                  {
                    OFFSET 2.600000 0.000000 0.000000
                    CHANNELS 3 Zrotation Xrotation Yrotation
                    JOINT LeftHandRing3
                    {
                      OFFSET 1.600000 0.000000 0.000000
                      CHANNELS 3 Zrotation Xrotation Yrotation
                      End Site
                      {
                        OFFSET 1.300000 0.000000 0.000000
                      }
                    }
                  }
                }
                JOINT LeftHandPinky1
                {
                  OFFSET 6.500000 -2.000000 0.500000
                  CHANNELS 3 Zrotation Xrotation Yrotation
                  JOINT LeftHandPinky2
                  {
                    OFFSET 1.900000 0.000000 0.000000
                    CHANNELS 3 Zrotation Xrotation Yrotation
                    JOINT LeftHandPinky3
                    {
                      OFFSET 1.400000 0.000000 0.000000
                      CHANNELS 3 Zrotation Xrotation Yrotation
                      End Site
                      {
                        OFFSET 1.300000 0.000000 0.000000
                      }
                    }
                  }
                }
              }
            }
          }
        }
        JOINT RightShoulder
        {
          OFFSET -6.000000 8.000000 0.000000
          CHANNELS 3 Zrotation Xrotation Yrotation
          JOINT RightArm
          {
            OFFSET -12.000000 0.000000 0.000000
            CHANNELS 3 Zrotation Xrotation Yrotation
            JOINT RightForeArm
            {
              OFFSET -24.000000 0.000000 0.000000
              CHANNELS 3 Zrotation Xrotation Yrotation
              JOINT RightHand
              {
                OFFSET -22.000000 0.000000 0.000000
                CHANNELS 3 Zrotation Xrotation Yrotation
                JOINT RightHandThumb1
                {
                  OFFSET -1.800000 -1.400000 0.500000
                  CHANNELS 3 Zrotation Xrotation Yrotation
                  JOINT RightHandThumb2
                  {
                    OFFSET -2.400000 0.000000 0.000000
                    CHANNELS 3 Zrotation Xrotation Yrotation
                    JOINT RightHandThumb3
                    {
                      OFFSET -1.900000 0.000000 0.000000
                      CHANNELS 3 Zrotation Xrotation Yrotation
                      End Site
                      {
                        OFFSET -1.600000 0.000000 0.000000
                      }
                    }
                  }
                }
                JOINT RightHandIndex1
                {
                  OFFSET -6.600000 1.200000 0.300000
                  CHANNELS 3 Zrotation Xrotation Yrotation
                  JOINT RightHandIndex2
                  {
                    OFFSET -2.000000 0.000000 0.000000
                    CHANNELS 3 Zrotation Xrotation Yrotation
                    JOINT RightHandIndex3
                    {
                      OFFSET -1.200000 0.000000 0.000000
                      CHANNELS 3 Zrotation Xrotation Yrotation
                      End Site
                      {
                        OFFSET -1.000000 0.000000 0.000000
                      }
                    }
                  }
                }
                JOINT RightHandMiddle1
                {
                  OFFSET -7.200000 0.000000 0.300000
                  CHANNELS 3 Zrotation Xrotation Yrotation
                  JOINT RightHandMiddle2
                  {
                    OFFSET -3.000000 0.000000 0.000000
                    CHANNELS 3 Zrotation Xrotation Yrotation
                    JOINT RightHandMiddle3
                    {
                      OFFSET -2.000000 0.000000 0.000000
                      CHANNELS 3 Zrotation Xrotation Yrotation
                      End Site
                      {
                        OFFSET -1.600000 0.000000 0.000000
                      }
                    }
                  }
                }
                JOINT RightHandRing1
                {
                  OFFSET -7.100000 -1.000000 0.400000
                  CHANNELS 3 Zrotation Xrotation Yrotation
                  JOINT RightHandRing2
                  {
                    OFFSET -2.600000 0.000000 0.000000
                    CHANNELS 3 Zrotation Xrotation Yrotation
                    JOINT RightHandRing3
                    {
                      OFFSET -1.600000 0.000000 0.000000
                      CHANNELS 3 Zrotation Xrotation Yrotation
                      End Site
                      {
                        OFFSET -1.300000 0.000000 0.000000
                      }
                    }
                  }
                }
                JOINT RightHandPinky1
                {
                  OFFSET -6.500000 -2.000000 0.500000
                  CHANNELS 3 Zrotation Xrotation Yrotation
                  JOINT RightHandPinky2
                  {
                    OFFSET -1.900000 0.000000 0.000000
                    CHANNELS 3 Zrotation Xrotation Yrotation
                    JOINT RightHandPinky3
                    {
                      OFFSET -1.400000 0.000000 0.000000
                      CHANNELS 3 Zrotation Xrotation Yrotation
                      End Site
                      {
                        OFFSET -1.300000 0.000000 0.000000
                      }
                    }
                  }
                }
              }
            }
          }
        }
      }
    }
  }
  JOINT LeftUpLeg
  {
    OFFSET 10.000000 -5.000000 0.000000
    CHANNELS 3 Zrotation Xrotation Yrotation
    JOINT LeftLeg
    {
      OFFSET 0.000000 -42.000000 0.000000
      CHANNELS 3 Zrotation Xrotation Yrotation
      JOINT LeftFoot
      {
        OFFSET 0.000000 -42.000000 4.000000
        CHANNELS 3 Zrotation Xrotation Yrotation
        End Site
        {
          OFFSET 0.000000 0.000000 12.000000
        }
      }
    }
  }
  JOINT RightUpLeg
  {
    OFFSET -10.000000 -5.000000 0.000000
    CHANNELS 3 Zrotation Xrotation Yrotation
    JOINT RightLeg
    {
      OFFSET 0.000000 -42.000000 0.000000
      CHANNELS 3 Zrotation Xrotation Yrotation
      JOINT RightFoot
      {
        OFFSET 0.000000 -42.000000 4.000000
        CHANNELS 3 Zrotation Xrotation Yrotation
        End Site
        {
          OFFSET 0.000000 0.000000 12.000000
        }
      }
    }
  }
}
MOTION
Frames: 60
Frame Time: 0.033333
0.0000 95.0000 0.0000 0.0000 0.0000 0.0000 0.0000 0.0000 0.0000 0.0000 0.0000 0.0000 0.0000 0.0000 0.0000 0.0000 0.0000 0.0000 0.0000 0.0000 0.0000 0.0000 0.0000 0.0000 -78.6076 4.5365 5.5404 -11.8286 9.0862 -12.4818 150.2027 78.7771 17.3034 59.8440 -12.8379 -2.0054 13.9157 0.0000 0.0000 26.3982 0.0000 0.0000 3.5748 1.5568 -8.0400 26.0927 0.0000 0.0000 6.0671 0.0000 0.0000 16.3411 1.4102 -14.5703 11.8537 0.0000 0.0000 11.6862 0.0000 0.0000 25.2661 -0.4502 -11.7247 27.0680 0.0000 0.0000 2.4143 0.0000 0.0000 36.0921 -2.4643 -8.0850 30.0854 0.0000 0.0000 6.8504 0.0000 0.0000 0.0000 0.0000 0.0000 91.6264 -2.8352 2.7559 -4.9269 9.2442 7.9807 152.1450 22.1873 -166.3259 -52.5298 -12.3207 5.5318 17.0161 0.0000 0.0000 5.0982 0.0000 0.0000 31.3877 0.0488 14.1670 110.0000 0.0000 0.0000 29.3079 0.0000 0.0000 22.8343 -2.3552 16.3962 110.0000 0.0000 0.0000 26.8043 0.0000 0.0000 12.9568 -3.4688 16.3021 110.0000 0.0000 0.0000 21.3667 0.0000 0.0000 1.2145 -4.7163 15.1339 110.0000 0.0000 0.0000 13.4894 0.0000 0.0000 0.0000 0.0000 0.0000 0.0000 0.0000 0.0000 0.0000 0.0000 0.0000 0.0000 0.0000 0.0000 0.0000 0.0000 0.0000 0.0000 0.0000 0.0000
0.0000 95.0000 0.0000 0.0000 0.0000 0.0000 0.0000 0.0000 0.0000 0.0000 0.0000 0.0000 0.0000 0.0000 0.0000 0.0000 0.0000 0.0000 0.0000 0.0000 0.0000 0.0000 0.0000 0.0000 -78.6489 4.4530 5.4344 -11.7172 9.0193 -12.3800 149.8830 78.7831 16.9963 59.8440 -12.8379 -2.0054 13.9157 0.0000 0.0000 26.3982 0.0000 0.0000 3.5748 1.5568 -8.0400 26.0927 0.0000 0.0000 6.0671 0.0000 0.0000 16.3411 1.4102 -14.5703 11.8537 0.0000 0.0000 11.6862 0.0000 0.0000 25.2661 -0.4502 -11.7247 27.0680 0.0000 0.0000 2.4143 0.0000 0.0000 36.0921 -2.4643 -8.0850 30.0854 0.0000 0.0000 6.8504 0.0000 0.0000 0.0000 0.0000 0.0000 91.5876 -2.5124 2.4437 -4.4732 9.4573 8.2911 152.4955 22.0102 -166.1667 -52.5298 -12.3207 5.5318 17.0161 0.0000 0.0000 5.0982 0.0000 0.0000 31.3877 0.0488 14.1670 110.0000 0.0000 0.0000 29.3079 0.0000 0.0000 22.8343 -2.3552 16.3962 110.0000 0.0000 0.0000 26.8043 0.0000 0.0000 12.9568 -3.4688 16.3021 110.0000 0.0000 0.0000 21.3667 0.0000 0.0000 1.2145 -4.7163 15.1339 110.0000 0.0000 0.0000 13.4894 0.0000 0.0000 0.0000 0.0000 0.0000 0.0000 0.0000 0.0000 0.0000 0.0000 0.0000 0.0000 0.0000 0.0000 0.0000 0.0000 0.0000 0.0000 0.0000 0.0000
0.0000 95.0000 0.0000 0.0000 0.0000 0.0000 0.0000 0.0000 0.0000 0.0000 0.0000 0.0000 0.0000 0.0000 0.0000 0.0000 0.0000 0.0000 0.0000 0.0000 0.0000 0.0000 0.0000 0.0000 -78.6970 4.0561 4.9460 -11.4939 8.6215 -11.8491 149.3046 78.8330 16.4007 59.8440 -12.8379 -2.0054 13.9157 0.0000 0.0000 26.3982 0.0000 0.0000 3.5748 1.5568 -8.0400 26.0927 0.0000 0.0000 6.0671 0.0000 0.0000 16.3411 1.4102 -14.5703 11.8537 0.0000 0.0000 11.6862 0.0000 0.0000 25.2661 -0.4502 -11.7247 27.0680 0.0000 0.0000 2.4143 0.0000 0.0000 36.0921 -2.4643 -8.0850 30.0854 0.0000 0.0000 6.8504 0.0000 0.0000 0.0000 0.0000 0.0000 91.4808 -2.6747 2.6065 -4.5131 9.6253 8.4345 152.4071 22.3636 -166.5114 -52.5298 -12.3207 5.5318 17.0161 0.0000 0.0000 5.0982 0.0000 0.0000 31.3877 0.0488 14.1670 110.0000 0.0000 0.0000 29.3079 0.0000 0.0000 22.8343 -2.3552 16.3962 110.0000 0.0000 0.0000 26.8043 0.0000 0.0000 12.9568 -3.4688 16.3021 110.0000 0.0000 0.0000 21.3667 0.0000 0.0000 1.2145 -4.7163 15.1339 110.0000 0.0000 0.0000 13.4894 0.0000 0.0000 0.0000 0.0000 0.0000 0.0000 0.0000 0.0000 0.0000 0.0000 0.0000 0.0000 0.0000 0.0000 0.0000 0.0000 0.0000 0.0000 0.0000 0.0000
0.0000 95.0000 0.0000 0.0000 0.0000 0.0000 0.0000 0.0000 0.0000 0.0000 0.0000 0.0000 0.0000 0.0000 0.0000 0.0000 0.0000 0.0000 0.0000 0.0000 0.0000 0.0000 0.0000 0.0000 -78.3169 4.1659 5.1143 -11.8995 8.6936 -12.0645 149.3333 78.8193 16.4415 59.8440 -12.8379 -2.0054 13.9157 0.0000 0.0000 26.3982 0.0000 0.0000 3.5748 1.5568 -8.0400 26.0927 0.0000 0.0000 6.0671 0.0000 0.0000 16.3411 1.4102 -14.5703 11.8537 0.0000 0.0000 11.6862 0.0000 0.0000 25.2661 -0.4502 -11.7247 27.0680 0.0000 0.0000 2.4143 0.0000 0.0000 36.0921 -2.4643 -8.0850 30.0854 0.0000 0.0000 6.8504 0.0000 0.0000 0.0000 0.0000 0.0000 91.5564 -2.4620 2.3960 -4.7769 9.7846 8.5348 152.1695 22.3591 -166.4973 -52.5298 -12.3207 5.5318 17.0161 0.0000 0.0000 5.0982 0.0000 0.0000 31.3877 0.0488 14.1670 110.0000 0.0000 0.0000 29.3079 0.0000 0.0000 22.8343 -2.3552 16.3962 110.0000 0.0000 0.0000 26.8043 0.0000 0.0000 12.9568 -3.4688 16.3021 110.0000 0.0000 0.0000 21.3667 0.0000 0.0000 1.2145 -4.7163 15.1339 110.0000 0.0000 0.0000 13.4894 0.0000 0.0000 0.0000 0.0000 0.0000 0.0000 0.0000 0.0000 0.0000 0.0000 0.0000 0.0000 0.0000 0.0000 0.0000 0.0000 0.0000 0.0000 0.0000 0.0000
0.0000 95.0000 0.0000 0.0000 0.0000 0.0000 0.0000 0.0000 0.0000 0.0000 0.0000 0.0000 0.0000 0.0000 0.0000 0.0000 0.0000 0.0000 0.0000 0.0000 0.0000 0.0000 0.0000 0.0000 -77.9617 4.4282 5.4706 -12.2841 8.9244 -12.4741 149.2754 78.8044 16.4016 59.8440 -12.8379 -2.0054 13.9157 0.0000 0.0000 26.3982 0.0000 0.0000 3.5748 1.5568 -8.0400 26.0927 0.0000 0.0000 6.0671 0.0000 0.0000 16.3411 1.4102 -14.5703 11.8537 0.0000 0.0000 11.6862 0.0000 0.0000 25.2661 -0.4502 -11.7247 27.0680 0.0000 0.0000 2.4143 0.0000 0.0000 36.0921 -2.4643 -8.0850 30.0854 0.0000 0.0000 6.8504 0.0000 0.0000 0.0000 0.0000 0.0000 91.5268 -2.4570 2.3924 -4.8410 9.9361 8.6621 152.0845 22.5239 -166.6576 -52.5298 -12.3207 5.5318 17.0161 0.0000 0.0000 5.0982 0.0000 0.0000 31.3877 0.0488 14.1670 110.0000 0.0000 0.0000 29.3079 0.0000 0.0000 22.8343 -2.3552 16.3962 110.0000 0.0000 0.0000 26.8043 0.0000 0.0000 12.9568 -3.4688 16.3021 110.0000 0.0000 0.0000 21.3667 0.0000 0.0000 1.2145 -4.7163 15.1339 110.0000 0.0000 0.0000 13.4894 0.0000 0.0000 0.0000 0.0000 0.0000 0.0000 0.0000 0.0000 0.0000 0.0000 0.0000 0.0000 0.0000 0.0000 0.0000 0.0000 0.0000 0.0000 0.0000 0.0000
0.0000 95.0000 0.0000 0.0000 0.0000 0.0000 0.0000 0.0000 0.0000 0.0000 0.0000 0.0000 0.0000 0.0000 0.0000 0.0000 0.0000 0.0000 0.0000 0.0000 0.0000 0.0000 0.0000 0.0000 -77.8363 3.1996 3.9621 -12.2660 7.6676 -10.9200 149.3775 78.8285 16.4741 59.8440 -12.8379 -2.0054 13.9157 0.0000 0.0000 26.3982 0.0000 0.0000 3.5748 1.5568 -8.0400 26.0927 0.0000 0.0000 6.0671 0.0000 0.0000 16.3411 1.4102 -14.5703 11.8537 0.0000 0.0000 11.6862 0.0000 0.0000 25.2661 -0.4502 -11.7247 27.0680 0.0000 0.0000 2.4143 0.0000 0.0000 36.0921 -2.4643 -8.0850 30.0854 0.0000 0.0000 6.8504 0.0000 0.0000 0.0000 0.0000 0.0000 91.3349 -1.9015 1.8577 -4.9905 10.5867 9.2973 151.6372 22.7633 -166.8810 -52.5298 -12.3207 5.5318 17.0161 0.0000 0.0000 5.0982 0.0000 0.0000 31.3877 0.0488 14.1670 110.0000 0.0000 0.0000 29.3079 0.0000 0.0000 22.8343 -2.3552 16.3962 110.0000 0.0000 0.0000 26.8043 0.0000 0.0000 12.9568 -3.4688 16.3021 110.0000 0.0000 0.0000 21.3667 0.0000 0.0000 1.2145 -4.7163 15.1339 110.0000 0.0000 0.0000 13.4894 0.0000 0.0000 0.0000 0.0000 0.0000 0.0000 0.0000 0.0000 0.0000 0.0000 0.0000 0.0000 0.0000 0.0000 0.0000 0.0000 0.0000 0.0000 0.0000 0.0000
0.0000 95.0000 0.0000 0.0000 0.0000 0.0000 0.0000 0.0000 0.0000 0.0000 0.0000 0.0000 0.0000 0.0000 0.0000 0.0000 0.0000 0.0000 0.0000 0.0000 0.0000 0.0000 0.0000 0.0000 -78.0531 2.7550 3.3986 -10.5717 -6.2442 10.0054 319.0677 84.0458 168.5522 59.8440 -12.8379 -2.0054 13.9157 0.0000 0.0000 26.3982 0.0000 0.0000 3.5748 1.5568 -8.0400 26.0927 0.0000 0.0000 6.0671 0.0000 0.0000 16.3411 1.4102 -14.5703 11.8537 0.0000 0.0000 11.6862 0.0000 0.0000 25.2661 -0.4502 -11.7247 27.0680 0.0000 0.0000 2.4143 0.0000 0.0000 36.0921 -2.4643 -8.0850 30.0854 0.0000 0.0000 6.8504 0.0000 0.0000 0.0000 0.0000 0.0000 90.0273 -1.3351 1.3345 -3.5254 11.2376 10.4605 151.6992 23.0892 -167.2106 -52.5298 -12.3207 5.5318 17.0161 0.0000 0.0000 5.0982 0.0000 0.0000 31.3877 0.0488 14.1670 110.0000 0.0000 0.0000 29.3079 0.0000 0.0000 22.8343 -2.3552 16.3962 110.0000 0.0000 0.0000 26.8043 0.0000 0.0000 12.9568 -3.4688 16.3021 110.0000 0.0000 0.0000 21.3667 0.0000 0.0000 1.2145 -4.7163 15.1339 110.0000 0.0000 0.0000 13.4894 0.0000 0.0000 0.0000 0.0000 0.0000 0.0000 0.0000 0.0000 0.0000 0.0000 0.0000 0.0000 0.0000 0.0000 0.0000 0.0000 0.0000 0.0000 0.0000 0.0000
0.0000 95.0000 0.0000 0.0000 0.0000 0.0000 0.0000 0.0000 0.0000 0.0000 0.0000 0.0000 0.0000 0.0000 0.0000 0.0000 0.0000 0.0000 0.0000 0.0000 0.0000 0.0000 0.0000 0.0000 -78.2251 2.1797 2.6808 -10.6685 -5.5243 8.7945 310.8348 85.5572 161.9835 59.8440 -12.8379 -2.0054 13.9157 0.0000 0.0000 26.3982 0.0000 0.0000 3.5748 1.5568 -8.0400 26.0927 0.0000 0.0000 6.0671 0.0000 0.0000 16.3411 1.4102 -14.5703 11.8537 0.0000 0.0000 11.6862 0.0000 0.0000 25.2661 -0.4502 -11.7247 27.0680 0.0000 0.0000 2.4143 0.0000 0.0000 36.0921 -2.4643 -8.0850 30.0854 0.0000 0.0000 6.8504 0.0000 0.0000 0.0000 0.0000 0.0000 88.5318 -1.3262 1.3606 -1.3364 12.0686 12.0322 152.4248 24.0648 -168.2038 -52.5298 -12.3207 5.5318 17.0161 0.0000 0.0000 5.0982 0.0000 0.0000 31.3877 0.0488 14.1670 110.0000 0.0000 0.0000 29.3079 0.0000 0.0000 22.8343 -2.3552 16.3962 110.0000 0.0000 0.0000 26.8043 0.0000 0.0000 12.9568 -3.4688 16.3021 110.0000 0.0000 0.0000 21.3667 0.0000 0.0000 1.2145 -4.7163 15.1339 110.0000 0.0000 0.0000 13.4894 0.0000 0.0000 0.0000 0.0000 0.0000 0.0000 0.0000 0.0000 0.0000 0.0000 0.0000 0.0000 0.0000 0.0000 0.0000 0.0000 0.0000 0.0000 0.0000 0.0000
0.0000 95.0000 0.0000 0.0000 0.0000 0.0000 0.0000 0.0000 0.0000 0.0000 0.0000 0.0000 0.0000 0.0000 0.0000 0.0000 0.0000 0.0000 0.0000 0.0000 0.0000 0.0000 0.0000 0.0000 -78.3251 1.9244 2.3626 -10.6739 -4.4977 7.1966 297.6085 86.9632 150.4121 59.8440 -12.8379 -2.0054 13.9157 0.0000 0.0000 26.3982 0.0000 0.0000 3.5748 1.5568 -8.0400 26.0927 0.0000 0.0000 6.0671 0.0000 0.0000 16.3411 1.4102 -14.5703 11.8537 0.0000 0.0000 11.6862 0.0000 0.0000 25.2661 -0.4502 -11.7247 27.0680 0.0000 0.0000 2.4143 0.0000 0.0000 36.0921 -2.4643 -8.0850 30.0854 0.0000 0.0000 6.8504 0.0000 0.0000 0.0000 0.0000 0.0000 86.9085 -0.7018 0.7407 3.2581 12.6889 14.1857 155.2915 23.9557 -168.1299 -52.5298 -12.3207 5.5318 17.0161 0.0000 0.0000 5.0982 0.0000 0.0000 31.3877 0.0488 14.1670 110.0000 0.0000 0.0000 29.3079 0.0000 0.0000 22.8343 -2.3552 16.3962 110.0000 0.0000 0.0000 26.8043 0.0000 0.0000 12.9568 -3.4688 16.3021 110.0000 0.0000 0.0000 21.3667 0.0000 0.0000 1.2145 -4.7163 15.1339 110.0000 0.0000 0.0000 13.4894 0.0000 0.0000 0.0000 0.0000 0.0000 0.0000 0.0000 0.0000 0.0000 0.0000 0.0000 0.0000 0.0000 0.0000 0.0000 0.0000 0.0000 0.0000 0.0000 0.0000
0.0000 95.0000 0.0000 0.0000 0.0000 0.0000 0.0000 0.0000 0.0000 0.0000 0.0000 0.0000 0.0000 0.0000 0.0000 0.0000 0.0000 0.0000 0.0000 0.0000 0.0000 0.0000 0.0000 0.0000 -78.7101 2.8870 3.5200 -9.2893 -3.3170 5.4138 310.2568 87.6402 163.5588 59.8440 -12.8379 -2.0054 13.9157 0.0000 0.0000 26.3982 0.0000 0.0000 3.5748 1.5568 -8.0400 26.0927 0.0000 0.0000 6.0671 0.0000 0.0000 16.3411 1.4102 -14.5703 11.8537 0.0000 0.0000 11.6862 0.0000 0.0000 25.2661 -0.4502 -11.7247 27.0680 0.0000 0.0000 2.4143 0.0000 0.0000 36.0921 -2.4643 -8.0850 30.0854 0.0000 0.0000 6.8504 0.0000 0.0000 0.0000 0.0000 0.0000 84.8357 -2.1534 2.3568 9.7194 15.0156 19.7504 159.8605 28.3919 -172.1447 -52.5298 -12.3207 5.5318 17.0161 0.0000 0.0000 5.0982 0.0000 0.0000 31.3877 0.0488 14.1670 110.0000 0.0000 0.0000 29.3079 0.0000 0.0000 22.8343 -2.3552 16.3962 110.0000 0.0000 0.0000 26.8043 0.0000 0.0000 12.9568 -3.4688 16.3021 110.0000 0.0000 0.0000 21.3667 0.0000 0.0000 1.2145 -4.7163 15.1339 110.0000 0.0000 0.0000 13.4894 0.0000 0.0000 0.0000 0.0000 0.0000 0.0000 0.0000 0.0000 0.0000 0.0000 0.0000 0.0000 0.0000 0.0000 0.0000 0.0000 0.0000 0.0000 0.0000 0.0000
0.0000 95.0000 0.0000 0.0000 0.0000 0.0000 0.0000 0.0000 0.0000 0.0000 0.0000 0.0000 0.0000 0.0000 0.0000 0.0000 0.0000 0.0000 0.0000 0.0000 0.0000 0.0000 0.0000 0.0000 -77.3919 6.7221 8.3864 -7.2916 -0.3336 1.6549 357.6801 86.0480 210.1039 59.8440 -12.8379 -2.0054 13.9157 0.0000 0.0000 26.3982 0.0000 0.0000 3.5748 1.5568 -8.0400 26.0927 0.0000 0.0000 6.0671 0.0000 0.0000 16.3411 1.4102 -14.5703 11.8537 0.0000 0.0000 11.6862 0.0000 0.0000 25.2661 -0.4502 -11.7247 27.0680 0.0000 0.0000 2.4143 0.0000 0.0000 36.0921 -2.4643 -8.0850 30.0854 0.0000 0.0000 6.8504 0.0000 0.0000 0.0000 0.0000 0.0000 81.2825 -8.7325 10.1665 14.3630 30.3648 44.3726 184.6117 54.7334 -159.2282 -46.2438 -15.8346 24.1035 16.2900 0.0000 0.0000 7.1767 0.0000 0.0000 26.6084 -0.7946 36.6218 47.2020 0.0000 0.0000 90.0000 0.0000 0.0000 17.3571 -4.9047 36.1185 53.0922 0.0000 0.0000 90.0000 0.0000 0.0000 8.5904 -7.4577 35.8733 87.0580 0.0000 0.0000 78.5974 0.0000 0.0000 0.0836 -10.3877 33.5749 74.5003 0.0000 0.0000 90.0000 0.0000 0.0000 0.0000 0.0000 0.0000 0.0000 0.0000 0.0000 0.0000 0.0000 0.0000 0.0000 0.0000 0.0000 0.0000 0.0000 0.0000 0.0000 0.0000 0.0000
0.0000 95.0000 0.0000 0.0000 0.0000 0.0000 0.0000 0.0000 0.0000 0.0000 0.0000 0.0000 0.0000 0.0000 0.0000 0.0000 0.0000 0.0000 0.0000 0.0000 0.0000 0.0000 0.0000 0.0000 -75.9104 10.3990 13.3082 -5.3392 2.5026 -2.1231 373.4965 83.4715 225.0426 59.8440 -12.8379 -2.0054 13.9157 0.0000 0.0000 26.3982 0.0000 0.0000 3.5748 1.5568 -8.0400 26.0927 0.0000 0.0000 6.0671 0.0000 0.0000 16.3411 1.4102 -14.5703 11.8537 0.0000 0.0000 11.6862 0.0000 0.0000 25.2661 -0.4502 -11.7247 27.0680 0.0000 0.0000 2.4143 0.0000 0.0000 36.0921 -2.4643 -8.0850 30.0854 0.0000 0.0000 6.8504 0.0000 0.0000 0.0000 0.0000 0.0000 77.5212 -12.9903 16.1415 16.3211 43.2307 62.9228 202.8359 58.9124 -128.5305 -45.0660 -20.8721 44.7651 7.0995 0.0000 0.0000 24.0144 0.0000 0.0000 25.5919 -2.6618 75.9137 61.8817 0.0000 0.0000 90.0000 0.0000 0.0000 15.7988 -11.5051 76.7347 71.5396 0.0000 0.0000 90.0000 0.0000 0.0000 6.9833 -16.9370 75.9591 102.1485 0.0000 0.0000 68.2697 0.0000 0.0000 -1.1604 -23.9215 73.9402 110.0000 0.0000 0.0000 60.5553 0.0000 0.0000 0.0000 0.0000 0.0000 0.0000 0.0000 0.0000 0.0000 0.0000 0.0000 0.0000 0.0000 0.0000 0.0000 0.0000 0.0000 0.0000 0.0000 0.0000
0.0000 95.0000 0.0000 0.0000 0.0000 0.0000 0.0000 0.0000 0.0000 0.0000 0.0000 0.0000 0.0000 0.0000 0.0000 0.0000 0.0000 0.0000 0.0000 0.0000 0.0000 0.0000 0.0000 0.0000 -74.8834 12.2935 16.0118 -7.9808 16.5464 -22.6497 467.6711 78.0970 334.7573 59.8440 -12.8379 -2.0054 13.9157 0.0000 0.0000 26.3982 0.0000 0.0000 3.5748 1.5568 -8.0400 26.0927 0.0000 0.0000 6.0671 0.0000 0.0000 16.3411 1.4102 -14.5703 11.8537 0.0000 0.0000 11.6862 0.0000 0.0000 25.2661 -0.4502 -11.7247 27.0680 0.0000 0.0000 2.4143 0.0000 0.0000 36.0921 -2.4643 -8.0850 30.0854 0.0000 0.0000 6.8504 0.0000 0.0000 0.0000 0.0000 0.0000 73.6021 -15.2104 20.2386 19.5133 52.1805 77.5380 210.0881 34.6321 -118.0840 -73.8179 -14.7679 39.5042 4.0641 0.0000 0.0000 19.5983 0.0000 0.0000 -6.8411 26.6791 91.5784 68.2585 0.0000 0.0000 81.2816 0.0000 0.0000 -17.7738 18.7510 97.8894 88.4019 0.0000 0.0000 83.8261 0.0000 0.0000 -26.0357 9.5294 98.3191 102.3853 0.0000 0.0000 69.4824 0.0000 0.0000 -37.8121 1.3686 98.8224 110.0000 0.0000 0.0000 64.0767 0.0000 0.0000 0.0000 0.0000 0.0000 0.0000 0.0000 0.0000 0.0000 0.0000 0.0000 0.0000 0.0000 0.0000 0.0000 0.0000 0.0000 0.0000 0.0000 0.0000
0.0000 95.0000 0.0000 0.0000 0.0000 0.0000 0.0000 0.0000 0.0000 0.0000 0.0000 0.0000 0.0000 0.0000 0.0000 0.0000 0.0000 0.0000 0.0000 0.0000 0.0000 0.0000 0.0000 0.0000 -77.5142 4.8260 6.0096 -3.6013 9.4488 -12.1943 464.0846 77.6818 331.1942 59.8440 -12.8379 -2.0054 13.9157 0.0000 0.0000 26.3982 0.0000 0.0000 3.5748 1.5568 -8.0400 26.0927 0.0000 0.0000 6.0671 0.0000 0.0000 16.3411 1.4102 -14.5703 11.8537 0.0000 0.0000 11.6862 0.0000 0.0000 25.2661 -0.4502 -11.7247 27.0680 0.0000 0.0000 2.4143 0.0000 0.0000 36.0921 -2.4643 -8.0850 30.0854 0.0000 0.0000 6.8504 0.0000 0.0000 0.0000 0.0000 0.0000 68.4567 -15.9900 23.3295 25.3466 56.3878 92.4233 228.4400 5.5211 -118.1151 -89.1758 -15.1228 18.2388 6.2140 0.0000 0.0000 31.1545 0.0000 0.0000 -80.4501 53.2907 49.4817 48.3848 0.0000 0.0000 90.0000 0.0000 0.0000 -80.7578 54.4766 67.1458 45.4081 0.0000 0.0000 90.0000 0.0000 0.0000 -70.3984 48.2031 89.1640 40.3311 0.0000 0.0000 90.0000 0.0000 0.0000 -74.0369 39.7450 100.5059 33.4715 0.0000 0.0000 90.0000 0.0000 0.0000 0.0000 0.0000 0.0000 0.0000 0.0000 0.0000 0.0000 0.0000 0.0000 0.0000 0.0000 0.0000 0.0000 0.0000 0.0000 0.0000 0.0000 0.0000
0.0000 95.0000 0.0000 0.0000 0.0000 0.0000 0.0000 0.0000 0.0000 0.0000 0.0000 0.0000 0.0000 0.0000 0.0000 0.0000 0.0000 0.0000 0.0000 0.0000 0.0000 0.0000 0.0000 0.0000 -73.7754 12.6424 16.7930 -8.2312 16.7854 -23.4379 463.9132 77.6869 330.9974 59.8440 -12.8379 -2.0054 13.9157 0.0000 0.0000 26.3982 0.0000 0.0000 3.5748 1.5568 -8.0400 26.0927 0.0000 0.0000 6.0671 0.0000 0.0000 16.3411 1.4102 -14.5703 11.8537 0.0000 0.0000 11.6862 0.0000 0.0000 25.2661 -0.4502 -11.7247 27.0680 0.0000 0.0000 2.4143 0.0000 0.0000 36.0921 -2.4643 -8.0850 30.0854 0.0000 0.0000 6.8504 0.0000 0.0000 0.0000 0.0000 0.0000 64.0722 -16.9222 26.7450 26.1494 60.0105 98.8727 240.4260 13.0359 -122.5872 -89.1857 -14.2411 24.6931 6.2942 0.0000 0.0000 40.1814 0.0000 0.0000 -71.6842 58.4561 61.1223 47.8828 0.0000 0.0000 90.0000 0.0000 0.0000 -67.9599 55.7275 80.9908 46.7385 0.0000 0.0000 90.0000 0.0000 0.0000 -59.5791 46.6910 101.5167 44.5040 0.0000 0.0000 90.0000 0.0000 0.0000 -64.8676 36.8614 111.9260 37.8056 0.0000 0.0000 90.0000 0.0000 0.0000 0.0000 0.0000 0.0000 0.0000 0.0000 0.0000 0.0000 0.0000 0.0000 0.0000 0.0000 0.0000 0.0000 0.0000 0.0000 0.0000 0.0000 0.0000
0.0000 95.0000 0.0000 0.0000 0.0000 0.0000 0.0000 0.0000 0.0000 0.0000 0.0000 0.0000 0.0000 0.0000 0.0000 0.0000 0.0000 0.0000 0.0000 0.0000 0.0000 0.0000 0.0000 0.0000 -74.1719 12.5466 16.5487 -7.3698 16.7574 -23.1403 462.1760 77.4495 329.2784 59.8440 -12.8379 -2.0054 13.9157 0.0000 0.0000 26.3982 0.0000 0.0000 3.5748 1.5568 -8.0400 26.0927 0.0000 0.0000 6.0671 0.0000 0.0000 16.3411 1.4102 -14.5703 11.8537 0.0000 0.0000 11.6862 0.0000 0.0000 25.2661 -0.4502 -11.7247 27.0680 0.0000 0.0000 2.4143 0.0000 0.0000 36.0921 -2.4643 -8.0850 30.0854 0.0000 0.0000 6.8504 0.0000 0.0000 0.0000 0.0000 0.0000 60.4958 -17.5519 29.6565 25.5354 66.0008 103.7047 252.1877 28.1056 -117.0214 -83.6576 -14.4537 24.8122 2.6347 0.0000 0.0000 29.2377 0.0000 0.0000 -43.3887 59.1717 89.0533 34.7749 0.0000 0.0000 90.0000 0.0000 0.0000 -47.7001 53.1480 101.8283 39.5337 0.0000 0.0000 90.0000 0.0000 0.0000 -46.3916 39.8750 113.6508 47.0643 0.0000 0.0000 90.0000 0.0000 0.0000 -53.4622 26.6419 120.6994 49.0823 0.0000 0.0000 90.0000 0.0000 0.0000 0.0000 0.0000 0.0000 0.0000 0.0000 0.0000 0.0000 0.0000 0.0000 0.0000 0.0000 0.0000 0.0000 0.0000 0.0000 0.0000 0.0000 0.0000
0.0000 95.0000 0.0000 0.0000 0.0000 0.0000 0.0000 0.0000 0.0000 0.0000 0.0000 0.0000 0.0000 0.0000 0.0000 0.0000 0.0000 0.0000 0.0000 0.0000 0.0000 0.0000 0.0000 0.0000 -73.7339 13.3987 17.8041 -7.9320 17.5711 -24.4872 462.2508 77.4358 329.3761 59.8440 -12.8379 -2.0054 13.9157 0.0000 0.0000 26.3982 0.0000 0.0000 3.5748 1.5568 -8.0400 26.0927 0.0000 0.0000 6.0671 0.0000 0.0000 16.3411 1.4102 -14.5703 11.8537 0.0000 0.0000 11.6862 0.0000 0.0000 25.2661 -0.4502 -11.7247 27.0680 0.0000 0.0000 2.4143 0.0000 0.0000 36.0921 -2.4643 -8.0850 30.0854 0.0000 0.0000 6.8504 0.0000 0.0000 0.0000 0.0000 0.0000 57.2515 -18.3630 32.9922 17.8831 79.6540 102.6407 310.7923 19.3753 -39.2083 -52.0069 -14.6059 18.4340 30.5979 0.0000 0.0000 27.0088 0.0000 0.0000 18.2014 4.5578 119.0295 70.4012 0.0000 0.0000 90.0000 0.0000 0.0000 8.0656 -12.6922 120.0290 110.0000 0.0000 0.0000 65.2668 0.0000 0.0000 1.6124 -26.2376 117.4404 110.0000 0.0000 0.0000 38.7379 0.0000 0.0000 -3.7781 -39.7487 111.4990 110.0000 0.0000 0.0000 14.6577 0.0000 0.0000 0.0000 0.0000 0.0000 0.0000 0.0000 0.0000 0.0000 0.0000 0.0000 0.0000 0.0000 0.0000 0.0000 0.0000 0.0000 0.0000 0.0000 0.0000
0.0000 95.0000 0.0000 0.0000 0.0000 0.0000 0.0000 0.0000 0.0000 0.0000 0.0000 0.0000 0.0000 0.0000 0.0000 0.0000 0.0000 0.0000 0.0000 0.0000 0.0000 0.0000 0.0000 0.0000 -75.2304 12.6323 16.3492 -6.6255 16.9630 -22.9063 463.4157 77.5964 330.5292 59.8440 -12.8379 -2.0054 13.9157 0.0000 0.0000 26.3982 0.0000 0.0000 3.5748 1.5568 -8.0400 26.0927 0.0000 0.0000 6.0671 0.0000 0.0000 16.3411 1.4102 -14.5703 11.8537 0.0000 0.0000 11.6862 0.0000 0.0000 25.2661 -0.4502 -11.7247 27.0680 0.0000 0.0000 2.4143 0.0000 0.0000 36.0921 -2.4643 -8.0850 30.0854 0.0000 0.0000 6.8504 0.0000 0.0000 0.0000 0.0000 0.0000 53.3342 -18.3839 35.7184 -138.5881 75.0184 -45.5860 328.6687 -48.3312 7.1002 -56.7342 -11.9520 -0.7383 6.2812 0.0000 0.0000 23.4423 0.0000 0.0000 58.2232 -13.5340 45.7577 85.0114 0.0000 0.0000 75.5090 0.0000 0.0000 44.9541 -17.5793 45.7550 101.4478 0.0000 0.0000 63.2963 0.0000 0.0000 34.9010 -19.4932 44.4139 110.0000 0.0000 0.0000 55.1814 0.0000 0.0000 24.1141 -22.1224 42.9320 110.0000 0.0000 0.0000 42.3027 0.0000 0.0000 0.0000 0.0000 0.0000 0.0000 0.0000 0.0000 0.0000 0.0000 0.0000 0.0000 0.0000 0.0000 0.0000 0.0000 0.0000 0.0000 0.0000 0.0000
0.0000 95.0000 0.0000 0.0000 0.0000 0.0000 0.0000 0.0000 0.0000 0.0000 0.0000 0.0000 0.0000 0.0000 0.0000 0.0000 0.0000 0.0000 0.0000 0.0000 0.0000 0.0000 0.0000 0.0000 -75.3476 12.8542 16.6002 -6.8812 17.2048 -23.2115 464.8095 77.7433 331.9426 59.8440 -12.8379 -2.0054 13.9157 0.0000 0.0000 26.3982 0.0000 0.0000 3.5748 1.5568 -8.0400 26.0927 0.0000 0.0000 6.0671 0.0000 0.0000 16.3411 1.4102 -14.5703 11.8537 0.0000 0.0000 11.6862 0.0000 0.0000 25.2661 -0.4502 -11.7247 27.0680 0.0000 0.0000 2.4143 0.0000 0.0000 36.0921 -2.4643 -8.0850 30.0854 0.0000 0.0000 6.8504 0.0000 0.0000 0.0000 0.0000 0.0000 50.4615 -18.1383 37.4269 -129.2426 61.1993 -37.2238 320.9417 -57.2060 10.8015 -50.9415 -10.1145 -4.5656 7.1350 0.0000 0.0000 21.2716 0.0000 0.0000 50.5082 -10.9072 47.3157 104.9086 0.0000 0.0000 51.4935 0.0000 0.0000 37.4263 -15.7629 49.2285 110.0000 0.0000 0.0000 41.5794 0.0000 0.0000 26.1450 -17.1390 47.0875 110.0000 0.0000 0.0000 34.3516 0.0000 0.0000 13.7755 -19.6407 45.9352 110.0000 0.0000 0.0000 27.7383 0.0000 0.0000 0.0000 0.0000 0.0000 0.0000 0.0000 0.0000 0.0000 0.0000 0.0000 0.0000 0.0000 0.0000 0.0000 0.0000 0.0000 0.0000 0.0000 0.0000
0.0000 95.0000 0.0000 0.0000 0.0000 0.0000 0.0000 0.0000 0.0000 0.0000 0.0000 0.0000 0.0000 0.0000 0.0000 0.0000 0.0000 0.0000 0.0000 0.0000 0.0000 0.0000 0.0000 0.0000 -75.3638 13.4626 17.3762 -6.8652 17.8477 -24.0557 464.5396 77.6651 331.7191 59.8440 -12.8379 -2.0054 13.9157 0.0000 0.0000 26.3982 0.0000 0.0000 3.5748 1.5568 -8.0400 26.0927 0.0000 0.0000 6.0671 0.0000 0.0000 16.3411 1.4102 -14.5703 11.8537 0.0000 0.0000 11.6862 0.0000 0.0000 25.2661 -0.4502 -11.7247 27.0680 0.0000 0.0000 2.4143 0.0000 0.0000 36.0921 -2.4643 -8.0850 30.0854 0.0000 0.0000 6.8504 0.0000 0.0000 0.0000 0.0000 0.0000 48.0276 -17.7446 38.6190 -120.0242 53.3148 -31.3105 303.4580 -62.9817 36.7333 -50.9220 -10.0710 -4.7592 5.4184 0.0000 0.0000 22.9192 0.0000 0.0000 52.6353 -9.0291 38.6852 110.0000 0.0000 0.0000 45.5141 0.0000 0.0000 39.9856 -13.7554 41.4553 110.0000 0.0000 0.0000 31.2973 0.0000 0.0000 26.6384 -14.3501 40.0483 110.0000 0.0000 0.0000 22.0409 0.0000 0.0000 11.1133 -15.6807 39.3617 110.0000 0.0000 0.0000 16.1965 0.0000 0.0000 0.0000 0.0000 0.0000 0.0000 0.0000 0.0000 0.0000 0.0000 0.0000 0.0000 0.0000 0.0000 0.0000 0.0000 0.0000 0.0000 0.0000 0.0000
0.0000 95.0000 0.0000 0.0000 0.0000 0.0000 0.0000 0.0000 0.0000 0.0000 0.0000 0.0000 0.0000 0.0000 0.0000 0.0000 0.0000 0.0000 0.0000 0.0000 0.0000 0.0000 0.0000 0.0000 -75.4611 13.3373 17.1857 -7.0512 17.7451 -23.9070 465.7575 77.7817 332.9591 59.8440 -12.8379 -2.0054 13.9157 0.0000 0.0000 26.3982 0.0000 0.0000 3.5748 1.5568 -8.0400 26.0927 0.0000 0.0000 6.0671 0.0000 0.0000 16.3411 1.4102 -14.5703 11.8537 0.0000 0.0000 11.6862 0.0000 0.0000 25.2661 -0.4502 -11.7247 27.0680 0.0000 0.0000 2.4143 0.0000 0.0000 36.0921 -2.4643 -8.0850 30.0854 0.0000 0.0000 6.8504 0.0000 0.0000 0.0000 0.0000 0.0000 45.9146 -17.1511 39.1913 -113.8217 48.3261 -27.7324 298.6750 -61.1613 44.9081 -51.2379 -9.9991 -5.4729 4.1590 0.0000 0.0000 22.0002 0.0000 0.0000 53.3613 -9.5418 39.5466 110.0000 0.0000 0.0000 50.4986 0.0000 0.0000 40.2170 -14.2119 42.3790 110.0000 0.0000 0.0000 35.0611 0.0000 0.0000 28.7710 -15.2361 40.3871 110.0000 0.0000 0.0000 25.4723 0.0000 0.0000 13.2741 -16.4255 39.4629 110.0000 0.0000 0.0000 17.5807 0.0000 0.0000 0.0000 0.0000 0.0000 0.0000 0.0000 0.0000 0.0000 0.0000 0.0000 0.0000 0.0000 0.0000 0.0000 0.0000 0.0000 0.0000 0.0000 0.0000
0.0000 95.0000 0.0000 0.0000 0.0000 0.0000 0.0000 0.0000 0.0000 0.0000 0.0000 0.0000 0.0000 0.0000 0.0000 0.0000 0.0000 0.0000 0.0000 0.0000 0.0000 0.0000 0.0000 0.0000 -75.7134 13.0836 16.7853 -6.7964 17.5191 -23.4773 465.8879 77.7988 333.0867 59.8440 -12.8379 -2.0054 13.9157 0.0000 0.0000 26.3982 0.0000 0.0000 3.5748 1.5568 -8.0400 26.0927 0.0000 0.0000 6.0671 0.0000 0.0000 16.3411 1.4102 -14.5703 11.8537 0.0000 0.0000 11.6862 0.0000 0.0000 25.2661 -0.4502 -11.7247 27.0680 0.0000 0.0000 2.4143 0.0000 0.0000 36.0921 -2.4643 -8.0850 30.0854 0.0000 0.0000 6.8504 0.0000 0.0000 0.0000 0.0000 0.0000 45.2536 -17.0158 39.4861 -112.9406 45.0349 -27.8012 304.3313 -59.1429 37.7430 -48.9087 -9.4222 -5.6327 6.0889 0.0000 0.0000 20.1783 0.0000 0.0000 54.9054 -13.7076 50.0676 104.2670 0.0000 0.0000 58.8865 0.0000 0.0000 42.1916 -19.1258 51.9535 110.0000 0.0000 0.0000 47.5375 0.0000 0.0000 31.1407 -19.8556 48.3445 110.0000 0.0000 0.0000 35.0871 0.0000 0.0000 16.3454 -20.9701 46.5349 110.0000 0.0000 0.0000 22.3220 0.0000 0.0000 0.0000 0.0000 0.0000 0.0000 0.0000 0.0000 0.0000 0.0000 0.0000 0.0000 0.0000 0.0000 0.0000 0.0000 0.0000 0.0000 0.0000 0.0000
0.0000 95.0000 0.0000 0.0000 0.0000 0.0000 0.0000 0.0000 0.0000 0.0000 0.0000 0.0000 0.0000 0.0000 0.0000 0.0000 0.0000 0.0000 0.0000 0.0000 0.0000 0.0000 0.0000 0.0000 -75.9062 12.7566 16.3121 -6.7668 17.1983 -22.9754 466.7267 77.9068 333.9074 59.8440 -12.8379 -2.0054 13.9157 0.0000 0.0000 26.3982 0.0000 0.0000 3.5748 1.5568 -8.0400 26.0927 0.0000 0.0000 6.0671 0.0000 0.0000 16.3411 1.4102 -14.5703 11.8537 0.0000 0.0000 11.6862 0.0000 0.0000 25.2661 -0.4502 -11.7247 27.0680 0.0000 0.0000 2.4143 0.0000 0.0000 36.0921 -2.4643 -8.0850 30.0854 0.0000 0.0000 6.8504 0.0000 0.0000 0.0000 0.0000 0.0000 45.3464 -16.9949 39.3578 -111.7605 43.9357 -27.3055 307.6291 -57.9722 36.9174 -49.9697 -9.8902 -4.6001 6.4197 0.0000 0.0000 21.6852 0.0000 0.0000 54.3220 -14.6588 53.4796 103.5643 0.0000 0.0000 63.1833 0.0000 0.0000 42.2023 -20.9201 55.9067 110.0000 0.0000 0.0000 52.0722 0.0000 0.0000 31.4636 -22.0971 52.5982 110.0000 0.0000 0.0000 39.1407 0.0000 0.0000 17.0447 -23.0099 49.9211 110.0000 0.0000 0.0000 27.4239 0.0000 0.0000 0.0000 0.0000 0.0000 0.0000 0.0000 0.0000 0.0000 0.0000 0.0000 0.0000 0.0000 0.0000 0.0000 0.0000 0.0000 0.0000 0.0000 0.0000
0.0000 95.0000 0.0000 0.0000 0.0000 0.0000 0.0000 0.0000 0.0000 0.0000 0.0000 0.0000 0.0000 0.0000 0.0000 0.0000 0.0000 0.0000 0.0000 0.0000 0.0000 0.0000 0.0000 0.0000 -75.9236 12.7782 16.3346 -6.8609 17.2199 -23.0081 467.1811 77.9536 334.3622 59.8440 -12.8379 -2.0054 13.9157 0.0000 0.0000 26.3982 0.0000 0.0000 3.5748 1.5568 -8.0400 26.0927 0.0000 0.0000 6.0671 0.0000 0.0000 16.3411 1.4102 -14.5703 11.8537 0.0000 0.0000 11.6862 0.0000 0.0000 25.2661 -0.4502 -11.7247 27.0680 0.0000 0.0000 2.4143 0.0000 0.0000 36.0921 -2.4643 -8.0850 30.0854 0.0000 0.0000 6.8504 0.0000 0.0000 0.0000 0.0000 0.0000 45.6239 -16.8564 38.8123 -112.0453 43.0848 -27.2503 303.3347 -57.4770 39.2931 -48.6867 -9.2578 -6.1305 6.8674 0.0000 0.0000 19.3110 0.0000 0.0000 54.1639 -14.3831 52.9218 103.4726 0.0000 0.0000 60.8665 0.0000 0.0000 42.2157 -20.5850 55.1586 110.0000 0.0000 0.0000 49.9332 0.0000 0.0000 31.9853 -21.5898 51.0800 110.0000 0.0000 0.0000 38.0457 0.0000 0.0000 17.9203 -22.7454 48.6797 110.0000 0.0000 0.0000 21.5163 0.0000 0.0000 0.0000 0.0000 0.0000 0.0000 0.0000 0.0000 0.0000 0.0000 0.0000 0.0000 0.0000 0.0000 0.0000 0.0000 0.0000 0.0000 0.0000 0.0000
0.0000 95.0000 0.0000 0.0000 0.0000 0.0000 0.0000 0.0000 0.0000 0.0000 0.0000 0.0000 0.0000 0.0000 0.0000 0.0000 0.0000 0.0000 0.0000 0.0000 0.0000 0.0000 0.0000 0.0000 -75.8296 12.8165 16.4106 -6.8380 17.2458 -23.0754 466.6680 77.9053 333.8441 59.8440 -12.8379 -2.0054 13.9157 0.0000 0.0000 26.3982 0.0000 0.0000 3.5748 1.5568 -8.0400 26.0927 0.0000 0.0000 6.0671 0.0000 0.0000 16.3411 1.4102 -14.5703 11.8537 0.0000 0.0000 11.6862 0.0000 0.0000 25.2661 -0.4502 -11.7247 27.0680 0.0000 0.0000 2.4143 0.0000 0.0000 36.0921 -2.4643 -8.0850 30.0854 0.0000 0.0000 6.8504 0.0000 0.0000 0.0000 0.0000 0.0000 45.9696 -17.0965 39.0261 -111.0616 43.2186 -27.0630 297.5355 -57.0500 47.6683 -49.4904 -9.4374 -6.1907 6.0873 0.0000 0.0000 19.9970 0.0000 0.0000 57.6661 -14.1760 48.0471 100.6893 0.0000 0.0000 68.5680 0.0000 0.0000 45.2433 -19.5350 49.6642 110.0000 0.0000 0.0000 57.8292 0.0000 0.0000 34.8980 -20.1865 45.7563 110.0000 0.0000 0.0000 45.2530 0.0000 0.0000 21.0187 -21.1997 43.4393 110.0000 0.0000 0.0000 25.4505 0.0000 0.0000 0.0000 0.0000 0.0000 0.0000 0.0000 0.0000 0.0000 0.0000 0.0000 0.0000 0.0000 0.0000 0.0000 0.0000 0.0000 0.0000 0.0000 0.0000
0.0000 95.0000 0.0000 0.0000 0.0000 0.0000 0.0000 0.0000 0.0000 0.0000 0.0000 0.0000 0.0000 0.0000 0.0000 0.0000 0.0000 0.0000 0.0000 0.0000 0.0000 0.0000 0.0000 0.0000 -76.0032 12.6773 16.1833 -6.8828 17.1223 -22.8517 467.6623 78.0075 334.8382 59.8440 -12.8379 -2.0054 13.9157 0.0000 0.0000 26.3982 0.0000 0.0000 3.5748 1.5568 -8.0400 26.0927 0.0000 0.0000 6.0671 0.0000 0.0000 16.3411 1.4102 -14.5703 11.8537 0.0000 0.0000 11.6862 0.0000 0.0000 25.2661 -0.4502 -11.7247 27.0680 0.0000 0.0000 2.4143 0.0000 0.0000 36.0921 -2.4643 -8.0850 30.0854 0.0000 0.0000 6.8504 0.0000 0.0000 0.0000 0.0000 0.0000 46.1561 -16.9143 38.4739 -110.8570 43.9767 -26.3753 299.2261 -55.8860 44.7285 -49.2990 -9.2761 -6.7147 7.1488 0.0000 0.0000 17.1909 0.0000 0.0000 57.7140 -15.6584 51.8184 100.2023 0.0000 0.0000 70.2146 0.0000 0.0000 45.4858 -21.3839 53.2663 110.0000 0.0000 0.0000 58.2740 0.0000 0.0000 35.8237 -22.1778 48.7535 110.0000 0.0000 0.0000 43.0762 0.0000 0.0000 22.3158 -23.3791 46.3846 110.0000 0.0000 0.0000 22.3836 0.0000 0.0000 0.0000 0.0000 0.0000 0.0000 0.0000 0.0000 0.0000 0.0000 0.0000 0.0000 0.0000 0.0000 0.0000 0.0000 0.0000 0.0000 0.0000 0.0000
0.0000 95.0000 0.0000 0.0000 0.0000 0.0000 0.0000 0.0000 0.0000 0.0000 0.0000 0.0000 0.0000 0.0000 0.0000 0.0000 0.0000 0.0000 0.0000 0.0000 0.0000 0.0000 0.0000 0.0000 -76.4525 12.3261 15.6122 -6.4713 16.8124 -22.2254 468.0237 78.0563 335.1864 59.8440 -12.8379 -2.0054 13.9157 0.0000 0.0000 26.3982 0.0000 0.0000 3.5748 1.5568 -8.0400 26.0927 0.0000 0.0000 6.0671 0.0000 0.0000 16.3411 1.4102 -14.5703 11.8537 0.0000 0.0000 11.6862 0.0000 0.0000 25.2661 -0.4502 -11.7247 27.0680 0.0000 0.0000 2.4143 0.0000 0.0000 36.0921 -2.4643 -8.0850 30.0854 0.0000 0.0000 6.8504 0.0000 0.0000 0.0000 0.0000 0.0000 45.9315 -16.8830 38.6014 -109.3578 45.0568 -25.3437 306.6945 -53.7509 37.0408 -49.7906 -9.7200 -5.2087 7.4922 0.0000 0.0000 21.2024 0.0000 0.0000 56.8123 -16.8816 56.0668 98.7337 0.0000 0.0000 71.4293 0.0000 0.0000 44.4861 -23.1382 57.9522 110.0000 0.0000 0.0000 59.3392 0.0000 0.0000 33.6865 -23.7211 53.6041 110.0000 0.0000 0.0000 42.8676 0.0000 0.0000 18.0887 -24.1000 51.0838 110.0000 0.0000 0.0000 25.1305 0.0000 0.0000 0.0000 0.0000 0.0000 0.0000 0.0000 0.0000 0.0000 0.0000 0.0000 0.0000 0.0000 0.0000 0.0000 0.0000 0.0000 0.0000 0.0000 0.0000
0.0000 95.0000 0.0000 0.0000 0.0000 0.0000 0.0000 0.0000 0.0000 0.0000 0.0000 0.0000 0.0000 0.0000 0.0000 0.0000 0.0000 0.0000 0.0000 0.0000 0.0000 0.0000 0.0000 0.0000 -76.4089 12.5176 15.8659 -6.5399 17.0057 -22.5014 468.0322 78.0468 335.2054 59.8440 -12.8379 -2.0054 13.9157 0.0000 0.0000 26.3982 0.0000 0.0000 3.5748 1.5568 -8.0400 26.0927 0.0000 0.0000 6.0671 0.0000 0.0000 16.3411 1.4102 -14.5703 11.8537 0.0000 0.0000 11.6862 0.0000 0.0000 25.2661 -0.4502 -11.7247 27.0680 0.0000 0.0000 2.4143 0.0000 0.0000 36.0921 -2.4643 -8.0850 30.0854 0.0000 0.0000 6.8504 0.0000 0.0000 0.0000 0.0000 0.0000 45.9880 -16.8311 38.4409 -109.7844 45.3137 -25.4008 299.9143 -54.3601 44.9552 -49.3256 -9.4886 -5.7770 6.4887 0.0000 0.0000 19.1004 0.0000 0.0000 59.6556 -15.9492 50.2804 98.8137 0.0000 0.0000 71.4037 0.0000 0.0000 47.9232 -21.6180 51.2680 110.0000 0.0000 0.0000 60.6903 0.0000 0.0000 38.3124 -22.5582 47.3737 110.0000 0.0000 0.0000 49.5969 0.0000 0.0000 23.6543 -23.2141 45.1225 110.0000 0.0000 0.0000 27.7997 0.0000 0.0000 0.0000 0.0000 0.0000 0.0000 0.0000 0.0000 0.0000 0.0000 0.0000 0.0000 0.0000 0.0000 0.0000 0.0000 0.0000 0.0000 0.0000 0.0000
0.0000 95.0000 0.0000 0.0000 0.0000 0.0000 0.0000 0.0000 0.0000 0.0000 0.0000 0.0000 0.0000 0.0000 0.0000 0.0000 0.0000 0.0000 0.0000 0.0000 0.0000 0.0000 0.0000 0.0000 -76.3892 12.6021 15.9781 -6.2883 17.0897 -22.5869 466.8466 77.9310 334.0157 59.8440 -12.8379 -2.0054 13.9157 0.0000 0.0000 26.3982 0.0000 0.0000 3.5748 1.5568 -8.0400 26.0927 0.0000 0.0000 6.0671 0.0000 0.0000 16.3411 1.4102 -14.5703 11.8537 0.0000 0.0000 11.6862 0.0000 0.0000 25.2661 -0.4502 -11.7247 27.0680 0.0000 0.0000 2.4143 0.0000 0.0000 36.0921 -2.4643 -8.0850 30.0854 0.0000 0.0000 6.8504 0.0000 0.0000 0.0000 0.0000 0.0000 46.2028 -17.0553 38.7349 -109.8483 45.6572 -25.7398 303.0361 -53.6182 39.0714 -48.4873 -9.3777 -5.3921 6.2834 0.0000 0.0000 19.0959 0.0000 0.0000 56.1820 -15.4796 53.2593 99.1697 0.0000 0.0000 66.7203 0.0000 0.0000 45.0758 -21.7693 54.4947 110.0000 0.0000 0.0000 57.0479 0.0000 0.0000 35.9260 -23.2839 50.7133 110.0000 0.0000 0.0000 47.2602 0.0000 0.0000 21.3493 -23.8572 47.9642 110.0000 0.0000 0.0000 24.9597 0.0000 0.0000 0.0000 0.0000 0.0000 0.0000 0.0000 0.0000 0.0000 0.0000 0.0000 0.0000 0.0000 0.0000 0.0000 0.0000 0.0000 0.0000 0.0000 0.0000
0.0000 95.0000 0.0000 0.0000 0.0000 0.0000 0.0000 0.0000 0.0000 0.0000 0.0000 0.0000 0.0000 0.0000 0.0000 0.0000 0.0000 0.0000 0.0000 0.0000 0.0000 0.0000 0.0000 0.0000 -76.0977 13.0040 16.5703 -6.3534 17.4735 -23.2085 465.7047 77.7926 332.8895 59.8440 -12.8379 -2.0054 13.9157 0.0000 0.0000 26.3982 0.0000 0.0000 3.5748 1.5568 -8.0400 26.0927 0.0000 0.0000 6.0671 0.0000 0.0000 16.3411 1.4102 -14.5703 11.8537 0.0000 0.0000 11.6862 0.0000 0.0000 25.2661 -0.4502 -11.7247 27.0680 0.0000 0.0000 2.4143 0.0000 0.0000 36.0921 -2.4643 -8.0850 30.0854 0.0000 0.0000 6.8504 0.0000 0.0000 0.0000 0.0000 0.0000 46.7621 -17.2522 38.6700 -110.9148 45.8019 -26.5164 305.7941 -53.5352 37.5814 -48.7465 -9.5558 -4.8664 6.3584 0.0000 0.0000 20.0983 0.0000 0.0000 57.0224 -15.9871 53.5125 100.1431 0.0000 0.0000 63.5043 0.0000 0.0000 44.0426 -21.5910 55.2543 110.0000 0.0000 0.0000 50.1428 0.0000 0.0000 32.9815 -22.4810 51.8934 110.0000 0.0000 0.0000 35.7662 0.0000 0.0000 18.5449 -23.9098 50.3393 110.0000 0.0000 0.0000 24.7234 0.0000 0.0000 0.0000 0.0000 0.0000 0.0000 0.0000 0.0000 0.0000 0.0000 0.0000 0.0000 0.0000 0.0000 0.0000 0.0000 0.0000 0.0000 0.0000 0.0000
0.0000 95.0000 0.0000 0.0000 0.0000 0.0000 0.0000 0.0000 0.0000 0.0000 0.0000 0.0000 0.0000 0.0000 0.0000 0.0000 0.0000 0.0000 0.0000 0.0000 0.0000 0.0000 0.0000 0.0000 -76.0034 13.6100 17.3671 -6.5284 18.0697 -24.0434 465.7298 77.7889 332.9211 59.8440 -12.8379 -2.0054 13.9157 0.0000 0.0000 26.3982 0.0000 0.0000 3.5748 1.5568 -8.0400 26.0927 0.0000 0.0000 6.0671 0.0000 0.0000 16.3411 1.4102 -14.5703 11.8537 0.0000 0.0000 11.6862 0.0000 0.0000 25.2661 -0.4502 -11.7247 27.0680 0.0000 0.0000 2.4143 0.0000 0.0000 36.0921 -2.4643 -8.0850 30.0854 0.0000 0.0000 6.8504 0.0000 0.0000 0.0000 0.0000 0.0000 47.7752 -17.6652 38.6683 -112.1042 46.2867 -27.5921 299.4314 -53.2535 41.4360 -45.7115 -8.6370 -5.7415 5.9211 0.0000 0.0000 19.7555 0.0000 0.0000 61.7961 -17.6520 51.9121 96.7807 0.0000 0.0000 62.3891 0.0000 0.0000 50.2890 -23.9285 53.3659 110.0000 0.0000 0.0000 57.5499 0.0000 0.0000 39.8598 -24.9049 50.1958 110.0000 0.0000 0.0000 45.0408 0.0000 0.0000 26.2074 -27.0579 49.6194 110.0000 0.0000 0.0000 38.7617 0.0000 0.0000 0.0000 0.0000 0.0000 0.0000 0.0000 0.0000 0.0000 0.0000 0.0000 0.0000 0.0000 0.0000 0.0000 0.0000 0.0000 0.0000 0.0000 0.0000
0.0000 95.0000 0.0000 0.0000 0.0000 0.0000 0.0000 0.0000 0.0000 0.0000 0.0000 0.0000 0.0000 0.0000 0.0000 0.0000 0.0000 0.0000 0.0000 0.0000 0.0000 0.0000 0.0000 0.0000 -76.0304 13.6918 17.4625 -6.3702 18.1503 -24.1166 465.1567 77.7330 332.3396 59.8440 -12.8379 -2.0054 13.9157 0.0000 0.0000 26.3982 0.0000 0.0000 3.5748 1.5568 -8.0400 26.0927 0.0000 0.0000 6.0671 0.0000 0.0000 16.3411 1.4102 -14.5703 11.8537 0.0000 0.0000 11.6862 0.0000 0.0000 25.2661 -0.4502 -11.7247 27.0680 0.0000 0.0000 2.4143 0.0000 0.0000 36.0921 -2.4643 -8.0850 30.0854 0.0000 0.0000 6.8504 0.0000 0.0000 0.0000 0.0000 0.0000 48.5317 -18.0343 38.7863 -112.1112 47.5158 -27.8797 305.3361 -51.9118 37.3466 -46.8837 -9.4269 -3.6326 5.4301 0.0000 0.0000 20.3444 0.0000 0.0000 56.7331 -15.2446 51.9481 98.8869 0.0000 0.0000 50.6353 0.0000 0.0000 45.4892 -21.5727 53.6500 110.0000 0.0000 0.0000 52.8128 0.0000 0.0000 35.4080 -23.5945 51.7533 110.0000 0.0000 0.0000 46.6380 0.0000 0.0000 23.9347 -26.8315 51.0303 110.0000 0.0000 0.0000 41.9884 0.0000 0.0000 0.0000 0.0000 0.0000 0.0000 0.0000 0.0000 0.0000 0.0000 0.0000 0.0000 0.0000 0.0000 0.0000 0.0000 0.0000 0.0000 0.0000 0.0000
0.0000 95.0000 0.0000 0.0000 0.0000 0.0000 0.0000 0.0000 0.0000 0.0000 0.0000 0.0000 0.0000 0.0000 0.0000 0.0000 0.0000 0.0000 0.0000 0.0000 0.0000 0.0000 0.0000 0.0000 -75.9392 13.9907 17.8702 -6.5474 18.4418 -24.5565 465.3535 77.7476 332.5441 59.8440 -12.8379 -2.0054 13.9157 0.0000 0.0000 26.3982 0.0000 0.0000 3.5748 1.5568 -8.0400 26.0927 0.0000 0.0000 6.0671 0.0000 0.0000 16.3411 1.4102 -14.5703 11.8537 0.0000 0.0000 11.6862 0.0000 0.0000 25.2661 -0.4502 -11.7247 27.0680 0.0000 0.0000 2.4143 0.0000 0.0000 36.0921 -2.4643 -8.0850 30.0854 0.0000 0.0000 6.8504 0.0000 0.0000 0.0000 0.0000 0.0000 51.1193 -18.5234 37.6557 -114.3663 49.0505 -29.2590 295.4713 -50.6188 49.7095 -44.6658 -9.0644 -3.1609 2.1789 0.0000 0.0000 20.8400 0.0000 0.0000 63.2261 -13.9047 41.8160 97.2059 0.0000 0.0000 54.0949 0.0000 0.0000 51.6265 -20.0515 44.9258 110.0000 0.0000 0.0000 55.3121 0.0000 0.0000 40.9001 -22.0194 44.4326 110.0000 0.0000 0.0000 48.9758 0.0000 0.0000 27.8670 -24.0620 43.6358 110.0000 0.0000 0.0000 46.8836 0.0000 0.0000 0.0000 0.0000 0.0000 0.0000 0.0000 0.0000 0.0000 0.0000 0.0000 0.0000 0.0000 0.0000 0.0000 0.0000 0.0000 0.0000 0.0000 0.0000
0.0000 95.0000 0.0000 0.0000 0.0000 0.0000 0.0000 0.0000 0.0000 0.0000 0.0000 0.0000 0.0000 0.0000 0.0000 0.0000 0.0000 0.0000 0.0000 0.0000 0.0000 0.0000 0.0000 0.0000 -79.6097 5.0232 6.0263 -1.7395 9.9487 -12.1675 465.1053 77.7017 332.3136 59.8440 -12.8379 -2.0054 13.9157 0.0000 0.0000 26.3982 0.0000 0.0000 3.5748 1.5568 -8.0400 26.0927 0.0000 0.0000 6.0671 0.0000 0.0000 16.3411 1.4102 -14.5703 11.8537 0.0000 0.0000 11.6862 0.0000 0.0000 25.2661 -0.4502 -11.7247 27.0680 0.0000 0.0000 2.4143 0.0000 0.0000 36.0921 -2.4643 -8.0850 30.0854 0.0000 0.0000 6.8504 0.0000 0.0000 0.0000 0.0000 0.0000 53.9379 -19.0144 36.4352 -116.4601 50.7914 -30.7142 308.3525 -51.2138 45.7515 -52.2065 -11.6977 2.3741 3.7916 0.0000 0.0000 18.3224 0.0000 0.0000 48.3575 -7.4150 37.8144 106.9527 0.0000 0.0000 44.2909 0.0000 0.0000 40.8468 -14.3857 42.2175 110.0000 0.0000 0.0000 46.8462 0.0000 0.0000 30.9156 -16.8562 42.2356 110.0000 0.0000 0.0000 34.6682 0.0000 0.0000 20.4819 -19.6393 40.9464 110.0000 0.0000 0.0000 30.4901 0.0000 0.0000 0.0000 0.0000 0.0000 0.0000 0.0000 0.0000 0.0000 0.0000 0.0000 0.0000 0.0000 0.0000 0.0000 0.0000 0.0000 0.0000 0.0000 0.0000
0.0000 95.0000 0.0000 0.0000 0.0000 0.0000 0.0000 0.0000 0.0000 0.0000 0.0000 0.0000 0.0000 0.0000 0.0000 0.0000 0.0000 0.0000 0.0000 0.0000 0.0000 0.0000 0.0000 0.0000 -79.6687 5.0336 6.0324 -1.8171 9.9761 -12.1971 465.6768 77.7516 332.8996 59.8440 -12.8379 -2.0054 13.9157 0.0000 0.0000 26.3982 0.0000 0.0000 3.5748 1.5568 -8.0400 26.0927 0.0000 0.0000 6.0671 0.0000 0.0000 16.3411 1.4102 -14.5703 11.8537 0.0000 0.0000 11.6862 0.0000 0.0000 25.2661 -0.4502 -11.7247 27.0680 0.0000 0.0000 2.4143 0.0000 0.0000 36.0921 -2.4643 -8.0850 30.0854 0.0000 0.0000 6.8504 0.0000 0.0000 0.0000 0.0000 0.0000 57.7075 -19.4274 34.5182 -116.6820 53.9384 -31.0070 305.0727 -47.3740 51.2085 -49.9399 -11.6046 3.6595 8.7942 0.0000 0.0000 24.3952 0.0000 0.0000 50.2858 -6.8229 33.6148 102.5839 0.0000 0.0000 47.8968 0.0000 0.0000 40.5685 -12.2351 37.1150 110.0000 0.0000 0.0000 50.7641 0.0000 0.0000 31.5223 -14.8038 37.3799 110.0000 0.0000 0.0000 42.0133 0.0000 0.0000 20.7703 -17.3188 36.4514 110.0000 0.0000 0.0000 38.4717 0.0000 0.0000 0.0000 0.0000 0.0000 0.0000 0.0000 0.0000 0.0000 0.0000 0.0000 0.0000 0.0000 0.0000 0.0000 0.0000 0.0000 0.0000 0.0000 0.0000
0.0000 95.0000 0.0000 0.0000 0.0000 0.0000 0.0000 0.0000 0.0000 0.0000 0.0000 0.0000 0.0000 0.0000 0.0000 0.0000 0.0000 0.0000 0.0000 0.0000 0.0000 0.0000 0.0000 0.0000 -79.9381 5.0693 6.0464 -1.8759 10.0342 -12.2164 467.0283 77.8992 334.2485 59.8440 -12.8379 -2.0054 13.9157 0.0000 0.0000 26.3982 0.0000 0.0000 3.5748 1.5568 -8.0400 26.0927 0.0000 0.0000 6.0671 0.0000 0.0000 16.3411 1.4102 -14.5703 11.8537 0.0000 0.0000 11.6862 0.0000 0.0000 25.2661 -0.4502 -11.7247 27.0680 0.0000 0.0000 2.4143 0.0000 0.0000 36.0921 -2.4643 -8.0850 30.0854 0.0000 0.0000 6.8504 0.0000 0.0000 0.0000 0.0000 0.0000 60.8446 -19.5403 32.6860 -113.4768 59.3503 -28.8472 314.8950 -40.2408 44.6476 -54.3544 -12.5899 5.7537 13.5015 0.0000 0.0000 24.5416 0.0000 0.0000 39.2236 -3.2843 30.1945 107.0481 0.0000 0.0000 47.7765 0.0000 0.0000 31.4055 -8.7416 35.1906 110.0000 0.0000 0.0000 46.7577 0.0000 0.0000 19.2143 -10.3527 35.6137 110.0000 0.0000 0.0000 38.9398 0.0000 0.0000 2.4581 -11.5905 35.3741 110.0000 0.0000 0.0000 30.4749 0.0000 0.0000 0.0000 0.0000 0.0000 0.0000 0.0000 0.0000 0.0000 0.0000 0.0000 0.0000 0.0000 0.0000 0.0000 0.0000 0.0000 0.0000 0.0000 0.0000
0.0000 95.0000 0.0000 0.0000 0.0000 0.0000 0.0000 0.0000 0.0000 0.0000 0.0000 0.0000 0.0000 0.0000 0.0000 0.0000 0.0000 0.0000 0.0000 0.0000 0.0000 0.0000 0.0000 0.0000 -79.4708 5.0109 6.0264 -2.3346 9.8774 -12.1736 466.9479 77.9477 334.1107 59.8440 -12.8379 -2.0054 13.9157 0.0000 0.0000 26.3982 0.0000 0.0000 3.5748 1.5568 -8.0400 26.0927 0.0000 0.0000 6.0671 0.0000 0.0000 16.3411 1.4102 -14.5703 11.8537 0.0000 0.0000 11.6862 0.0000 0.0000 25.2661 -0.4502 -11.7247 27.0680 0.0000 0.0000 2.4143 0.0000 0.0000 36.0921 -2.4643 -8.0850 30.0854 0.0000 0.0000 6.8504 0.0000 0.0000 0.0000 0.0000 0.0000 64.0742 -19.3124 30.4220 -90.0850 68.2025 -10.6494 329.3408 -31.1063 41.8879 -67.8924 -14.6005 13.5360 19.9912 0.0000 0.0000 2.5247 0.0000 0.0000 26.6616 -0.5093 31.3315 110.0000 0.0000 0.0000 46.0334 0.0000 0.0000 13.7511 -3.5475 33.5793 110.0000 0.0000 0.0000 25.0502 0.0000 0.0000 -1.5985 -4.5045 34.4217 110.0000 0.0000 0.0000 21.2682 0.0000 0.0000 -17.9155 -6.2333 34.2632 110.0000 0.0000 0.0000 15.5369 0.0000 0.0000 0.0000 0.0000 0.0000 0.0000 0.0000 0.0000 0.0000 0.0000 0.0000 0.0000 0.0000 0.0000 0.0000 0.0000 0.0000 0.0000 0.0000 0.0000
0.0000 95.0000 0.0000 0.0000 0.0000 0.0000 0.0000 0.0000 0.0000 0.0000 0.0000 0.0000 0.0000 0.0000 0.0000 0.0000 0.0000 0.0000 0.0000 0.0000 0.0000 0.0000 0.0000 0.0000 -75.2694 13.5120 17.4687 -7.7017 17.8169 -24.1424 467.5266 78.0616 334.6340 59.8440 -12.8379 -2.0054 13.9157 0.0000 0.0000 26.3982 0.0000 0.0000 3.5748 1.5568 -8.0400 26.0927 0.0000 0.0000 6.0671 0.0000 0.0000 16.3411 1.4102 -14.5703 11.8537 0.0000 0.0000 11.6862 0.0000 0.0000 25.2661 -0.4502 -11.7247 27.0680 0.0000 0.0000 2.4143 0.0000 0.0000 36.0921 -2.4643 -8.0850 30.0854 0.0000 0.0000 6.8504 0.0000 0.0000 0.0000 0.0000 0.0000 66.6406 -19.2029 28.8614 -50.3159 68.0544 20.9947 372.5747 -12.5341 40.5852 -94.8700 -12.3890 33.2870 30.6423 0.0000 0.0000 10.8119 0.0000 0.0000 2.2671 4.3130 25.9180 86.4548 0.0000 0.0000 89.1272 0.0000 0.0000 -11.1478 2.5626 30.5891 110.0000 0.0000 0.0000 34.5701 0.0000 0.0000 -24.2925 1.1386 33.7073 110.0000 0.0000 0.0000 36.0659 0.0000 0.0000 -37.6979 -1.5488 36.1178 110.0000 0.0000 0.0000 31.1476 0.0000 0.0000 0.0000 0.0000 0.0000 0.0000 0.0000 0.0000 0.0000 0.0000 0.0000 0.0000 0.0000 0.0000 0.0000 0.0000 0.0000 0.0000 0.0000 0.0000
0.0000 95.0000 0.0000 0.0000 0.0000 0.0000 0.0000 0.0000 0.0000 0.0000 0.0000 0.0000 0.0000 0.0000 0.0000 0.0000 0.0000 0.0000 0.0000 0.0000 0.0000 0.0000 0.0000 0.0000 -76.5715 11.6771 14.7625 -3.2513 3.6238 -3.8871 380.1907 82.5638 231.9175 59.8440 -12.8379 -2.0054 13.9157 0.0000 0.0000 26.3982 0.0000 0.0000 3.5748 1.5568 -8.0400 26.0927 0.0000 0.0000 6.0671 0.0000 0.0000 16.3411 1.4102 -14.5703 11.8537 0.0000 0.0000 11.6862 0.0000 0.0000 25.2661 -0.4502 -11.7247 27.0680 0.0000 0.0000 2.4143 0.0000 0.0000 36.0921 -2.4643 -8.0850 30.0854 0.0000 0.0000 6.8504 0.0000 0.0000 0.0000 0.0000 0.0000 69.4565 -19.1190 27.3119 -25.0759 59.7312 36.7481 412.2385 6.8479 45.5029 -100.7384 -10.3372 38.7633 39.7107 0.0000 0.0000 18.0782 0.0000 0.0000 -18.0903 4.9917 16.6343 69.4348 0.0000 0.0000 62.9498 0.0000 0.0000 -32.4030 5.4107 23.2459 82.9143 0.0000 0.0000 62.1249 0.0000 0.0000 -43.1026 4.2003 27.1948 92.1648 0.0000 0.0000 56.3945 0.0000 0.0000 -54.1167 1.5474 30.4087 78.5311 0.0000 0.0000 70.2082 0.0000 0.0000 0.0000 0.0000 0.0000 0.0000 0.0000 0.0000 0.0000 0.0000 0.0000 0.0000 0.0000 0.0000 0.0000 0.0000 0.0000 0.0000 0.0000 0.0000
0.0000 95.0000 0.0000 0.0000 0.0000 0.0000 0.0000 0.0000 0.0000 0.0000 0.0000 0.0000 0.0000 0.0000 0.0000 0.0000 0.0000 0.0000 0.0000 0.0000 0.0000 0.0000 0.0000 0.0000 -77.8990 7.9142 9.7826 -4.3332 1.3806 -1.0365 385.2952 84.9502 238.8060 59.8440 -12.8379 -2.0054 13.9157 0.0000 0.0000 26.3982 0.0000 0.0000 3.5748 1.5568 -8.0400 26.0927 0.0000 0.0000 6.0671 0.0000 0.0000 16.3411 1.4102 -14.5703 11.8537 0.0000 0.0000 11.6862 0.0000 0.0000 25.2661 -0.4502 -11.7247 27.0680 0.0000 0.0000 2.4143 0.0000 0.0000 36.0921 -2.4643 -8.0850 30.0854 0.0000 0.0000 6.8504 0.0000 0.0000 0.0000 0.0000 0.0000 74.1196 -16.6083 21.8777 -8.5302 46.1264 41.0705 436.4044 30.3746 59.3896 -77.4308 -15.2571 9.7903 25.3084 0.0000 0.0000 12.8621 0.0000 0.0000 -17.2087 0.9172 5.0458 95.2147 0.0000 0.0000 34.8501 0.0000 0.0000 -33.3532 2.0013 11.4455 94.3913 0.0000 0.0000 33.2008 0.0000 0.0000 -43.4528 0.9413 13.8015 97.5032 0.0000 0.0000 32.3790 0.0000 0.0000 -55.0363 -1.0009 15.9322 83.8705 0.0000 0.0000 40.4916 0.0000 0.0000 0.0000 0.0000 0.0000 0.0000 0.0000 0.0000 0.0000 0.0000 0.0000 0.0000 0.0000 0.0000 0.0000 0.0000 0.0000 0.0000 0.0000 0.0000
0.0000 95.0000 0.0000 0.0000 0.0000 0.0000 0.0000 0.0000 0.0000 0.0000 0.0000 0.0000 0.0000 0.0000 0.0000 0.0000 0.0000 0.0000 0.0000 0.0000 0.0000 0.0000 0.0000 0.0000 -78.4902 5.4705 6.6941 -5.7828 -2.1503 3.6287 362.0733 85.3246 214.1154 59.8440 -12.8379 -2.0054 13.9157 0.0000 0.0000 26.3982 0.0000 0.0000 3.5748 1.5568 -8.0400 26.0927 0.0000 0.0000 6.0671 0.0000 0.0000 16.3411 1.4102 -14.5703 11.8537 0.0000 0.0000 11.6862 0.0000 0.0000 25.2661 -0.4502 -11.7247 27.0680 0.0000 0.0000 2.4143 0.0000 0.0000 36.0921 -2.4643 -8.0850 30.0854 0.0000 0.0000 6.8504 0.0000 0.0000 0.0000 0.0000 0.0000 79.9656 -11.0112 13.1136 2.8674 26.9179 31.6504 465.8432 56.3069 96.4750 -77.4308 -15.2571 9.7903 25.3084 0.0000 0.0000 12.8621 0.0000 0.0000 -17.2087 0.9172 5.0458 95.2147 0.0000 0.0000 34.8501 0.0000 0.0000 -33.3532 2.0013 11.4455 94.3913 0.0000 0.0000 33.2008 0.0000 0.0000 -43.4528 0.9413 13.8015 97.5032 0.0000 0.0000 32.3790 0.0000 0.0000 -55.0363 -1.0009 15.9322 83.8705 0.0000 0.0000 40.4916 0.0000 0.0000 0.0000 0.0000 0.0000 0.0000 0.0000 0.0000 0.0000 0.0000 0.0000 0.0000 0.0000 0.0000 0.0000 0.0000 0.0000 0.0000 0.0000 0.0000
0.0000 95.0000 0.0000 0.0000 0.0000 0.0000 0.0000 0.0000 0.0000 0.0000 0.0000 0.0000 0.0000 0.0000 0.0000 0.0000 0.0000 0.0000 0.0000 0.0000 0.0000 0.0000 0.0000 0.0000 -78.6145 4.1003 5.0072 -7.4230 -4.3425 6.7354 341.9439 84.9831 192.7406 59.8440 -12.8379 -2.0054 13.9157 0.0000 0.0000 26.3982 0.0000 0.0000 3.5748 1.5568 -8.0400 26.0927 0.0000 0.0000 6.0671 0.0000 0.0000 16.3411 1.4102 -14.5703 11.8537 0.0000 0.0000 11.6862 0.0000 0.0000 25.2661 -0.4502 -11.7247 27.0680 0.0000 0.0000 2.4143 0.0000 0.0000 36.0921 -2.4643 -8.0850 30.0854 0.0000 0.0000 6.8504 0.0000 0.0000 0.0000 0.0000 0.0000 83.5166 -6.3420 7.1017 3.8327 13.3078 16.0553 503.8109 52.7007 146.6063 -77.4308 -15.2571 9.7903 25.3084 0.0000 0.0000 12.8621 0.0000 0.0000 -17.2087 0.9172 5.0458 95.2147 0.0000 0.0000 34.8501 0.0000 0.0000 -33.3532 2.0013 11.4455 94.3913 0.0000 0.0000 33.2008 0.0000 0.0000 -43.4528 0.9413 13.8015 97.5032 0.0000 0.0000 32.3790 0.0000 0.0000 -55.0363 -1.0009 15.9322 83.8705 0.0000 0.0000 40.4916 0.0000 0.0000 0.0000 0.0000 0.0000 0.0000 0.0000 0.0000 0.0000 0.0000 0.0000 0.0000 0.0000 0.0000 0.0000 0.0000 0.0000 0.0000 0.0000 0.0000
0.0000 95.0000 0.0000 0.0000 0.0000 0.0000 0.0000 0.0000 0.0000 0.0000 0.0000 0.0000 0.0000 0.0000 0.0000 0.0000 0.0000 0.0000 0.0000 0.0000 0.0000 0.0000 0.0000 0.0000 -78.4021 3.7284 4.5705 -10.2780 8.2813 -11.3322 501.9075 79.1616 368.9808 59.8440 -12.8379 -2.0054 13.9157 0.0000 0.0000 26.3982 0.0000 0.0000 3.5748 1.5568 -8.0400 26.0927 0.0000 0.0000 6.0671 0.0000 0.0000 16.3411 1.4102 -14.5703 11.8537 0.0000 0.0000 11.6862 0.0000 0.0000 25.2661 -0.4502 -11.7247 27.0680 0.0000 0.0000 2.4143 0.0000 0.0000 36.0921 -2.4643 -8.0850 30.0854 0.0000 0.0000 6.8504 0.0000 0.0000 0.0000 0.0000 0.0000 85.2791 -3.2597 3.5399 2.5163 8.9610 10.2547 511.0305 45.7697 160.5661 -77.4308 -15.2571 9.7903 25.3084 0.0000 0.0000 12.8621 0.0000 0.0000 -17.2087 0.9172 5.0458 95.2147 0.0000 0.0000 34.8501 0.0000 0.0000 -33.3532 2.0013 11.4455 94.3913 0.0000 0.0000 33.2008 0.0000 0.0000 -43.4528 0.9413 13.8015 97.5032 0.0000 0.0000 32.3790 0.0000 0.0000 -55.0363 -1.0009 15.9322 83.8705 0.0000 0.0000 40.4916 0.0000 0.0000 0.0000 0.0000 0.0000 0.0000 0.0000 0.0000 0.0000 0.0000 0.0000 0.0000 0.0000 0.0000 0.0000 0.0000 0.0000 0.0000 0.0000 0.0000
0.0000 95.0000 0.0000 0.0000 0.0000 0.0000 0.0000 0.0000 0.0000 0.0000 0.0000 0.0000 0.0000 0.0000 0.0000 0.0000 0.0000 0.0000 0.0000 0.0000 0.0000 0.0000 0.0000 0.0000 -78.3911 3.5603 4.3653 -10.9811 8.1124 -11.2152 505.5211 79.0150 372.6170 59.8440 -12.8379 -2.0054 13.9157 0.0000 0.0000 26.3982 0.0000 0.0000 3.5748 1.5568 -8.0400 26.0927 0.0000 0.0000 6.0671 0.0000 0.0000 16.3411 1.4102 -14.5703 11.8537 0.0000 0.0000 11.6862 0.0000 0.0000 25.2661 -0.4502 -11.7247 27.0680 0.0000 0.0000 2.4143 0.0000 0.0000 36.0921 -2.4643 -8.0850 30.0854 0.0000 0.0000 6.8504 0.0000 0.0000 0.0000 0.0000 0.0000 86.4463 -0.9598 1.0213 0.7390 7.9692 8.5888 511.8457 42.1913 165.0297 -77.4308 -15.2571 9.7903 25.3084 0.0000 0.0000 12.8621 0.0000 0.0000 -17.2087 0.9172 5.0458 95.2147 0.0000 0.0000 34.8501 0.0000 0.0000 -33.3532 2.0013 11.4455 94.3913 0.0000 0.0000 33.2008 0.0000 0.0000 -43.4528 0.9413 13.8015 97.5032 0.0000 0.0000 32.3790 0.0000 0.0000 -55.0363 -1.0009 15.9322 83.8705 0.0000 0.0000 40.4916 0.0000 0.0000 0.0000 0.0000 0.0000 0.0000 0.0000 0.0000 0.0000 0.0000 0.0000 0.0000 0.0000 0.0000 0.0000 0.0000 0.0000 0.0000 0.0000 0.0000
0.0000 95.0000 0.0000 0.0000 0.0000 0.0000 0.0000 0.0000 0.0000 0.0000 0.0000 0.0000 0.0000 0.0000 0.0000 0.0000 0.0000 0.0000 0.0000 0.0000 0.0000 0.0000 0.0000 0.0000 -78.3242 3.6760 4.5125 -11.6973 8.2170 -11.4491 508.6554 78.8491 375.7705 59.8440 -12.8379 -2.0054 13.9157 0.0000 0.0000 26.3982 0.0000 0.0000 3.5748 1.5568 -8.0400 26.0927 0.0000 0.0000 6.0671 0.0000 0.0000 16.3411 1.4102 -14.5703 11.8537 0.0000 0.0000 11.6862 0.0000 0.0000 25.2661 -0.4502 -11.7247 27.0680 0.0000 0.0000 2.4143 0.0000 0.0000 36.0921 -2.4643 -8.0850 30.0854 0.0000 0.0000 6.8504 0.0000 0.0000 0.0000 0.0000 0.0000 87.2273 -0.3812 0.4001 -0.4627 8.2556 8.5864 511.4101 41.6790 165.2503 -77.4308 -15.2571 9.7903 25.3084 0.0000 0.0000 12.8621 0.0000 0.0000 -17.2087 0.9172 5.0458 95.2147 0.0000 0.0000 34.8501 0.0000 0.0000 -33.3532 2.0013 11.4455 94.3913 0.0000 0.0000 33.2008 0.0000 0.0000 -43.4528 0.9413 13.8015 97.5032 0.0000 0.0000 32.3790 0.0000 0.0000 -55.0363 -1.0009 15.9322 83.8705 0.0000 0.0000 40.4916 0.0000 0.0000 0.0000 0.0000 0.0000 0.0000 0.0000 0.0000 0.0000 0.0000 0.0000 0.0000 0.0000 0.0000 0.0000 0.0000 0.0000 0.0000 0.0000 0.0000
0.0000 95.0000 0.0000 0.0000 0.0000 0.0000 0.0000 0.0000 0.0000 0.0000 0.0000 0.0000 0.0000 0.0000 0.0000 0.0000 0.0000 0.0000 0.0000 0.0000 0.0000 0.0000 0.0000 0.0000 -78.1070 3.0311 3.7356 -12.8888 7.5188 -10.7695 513.7155 78.5331 380.8276 59.8440 -12.8379 -2.0054 13.9157 0.0000 0.0000 26.3982 0.0000 0.0000 3.5748 1.5568 -8.0400 26.0927 0.0000 0.0000 6.0671 0.0000 0.0000 16.3411 1.4102 -14.5703 11.8537 0.0000 0.0000 11.6862 0.0000 0.0000 25.2661 -0.4502 -11.7247 27.0680 0.0000 0.0000 2.4143 0.0000 0.0000 36.0921 -2.4643 -8.0850 30.0854 0.0000 0.0000 6.8504 0.0000 0.0000 0.0000 0.0000 0.0000 87.9838 -0.0997 0.1033 -1.3451 8.7340 8.8329 511.1495 41.7117 165.0184 -77.4308 -15.2571 9.7903 25.3084 0.0000 0.0000 12.8621 0.0000 0.0000 -17.2087 0.9172 5.0458 95.2147 0.0000 0.0000 34.8501 0.0000 0.0000 -33.3532 2.0013 11.4455 94.3913 0.0000 0.0000 33.2008 0.0000 0.0000 -43.4528 0.9413 13.8015 97.5032 0.0000 0.0000 32.3790 0.0000 0.0000 -55.0363 -1.0009 15.9322 83.8705 0.0000 0.0000 40.4916 0.0000 0.0000 0.0000 0.0000 0.0000 0.0000 0.0000 0.0000 0.0000 0.0000 0.0000 0.0000 0.0000 0.0000 0.0000 0.0000 0.0000 0.0000 0.0000 0.0000
0.0000 95.0000 0.0000 0.0000 0.0000 0.0000 0.0000 0.0000 0.0000 0.0000 0.0000 0.0000 0.0000 0.0000 0.0000 0.0000 0.0000 0.0000 0.0000 0.0000 0.0000 0.0000 0.0000 0.0000 -77.9637 2.3102 2.8545 -13.4617 6.7728 -9.9384 516.0902 78.3421 383.2053 59.8440 -12.8379 -2.0054 13.9157 0.0000 0.0000 26.3982 0.0000 0.0000 3.5748 1.5568 -8.0400 26.0927 0.0000 0.0000 6.0671 0.0000 0.0000 16.3411 1.4102 -14.5703 11.8537 0.0000 0.0000 11.6862 0.0000 0.0000 25.2661 -0.4502 -11.7247 27.0680 0.0000 0.0000 2.4143 0.0000 0.0000 36.0921 -2.4643 -8.0850 30.0854 0.0000 0.0000 6.8504 0.0000 0.0000 0.0000 0.0000 0.0000 88.6416 0.0341 -0.0349 -2.2738 9.1245 8.9822 510.6961 41.7779 164.6027 -77.4308 -15.2571 9.7903 25.3084 0.0000 0.0000 12.8621 0.0000 0.0000 -17.2087 0.9172 5.0458 95.2147 0.0000 0.0000 34.8501 0.0000 0.0000 -33.3532 2.0013 11.4455 94.3913 0.0000 0.0000 33.2008 0.0000 0.0000 -43.4528 0.9413 13.8015 97.5032 0.0000 0.0000 32.3790 0.0000 0.0000 -55.0363 -1.0009 15.9322 83.8705 0.0000 0.0000 40.4916 0.0000 0.0000 0.0000 0.0000 0.0000 0.0000 0.0000 0.0000 0.0000 0.0000 0.0000 0.0000 0.0000 0.0000 0.0000 0.0000 0.0000 0.0000 0.0000 0.0000
0.0000 95.0000 0.0000 0.0000 0.0000 0.0000 0.0000 0.0000 0.0000 0.0000 0.0000 0.0000 0.0000 0.0000 0.0000 0.0000 0.0000 0.0000 0.0000 0.0000 0.0000 0.0000 0.0000 0.0000 -77.9577 1.8249 2.2552 -13.6360 6.2780 -9.3441 517.1354 78.2593 384.2427 59.8440 -12.8379 -2.0054 13.9157 0.0000 0.0000 26.3982 0.0000 0.0000 3.5748 1.5568 -8.0400 26.0927 0.0000 0.0000 6.0671 0.0000 0.0000 16.3411 1.4102 -14.5703 11.8537 0.0000 0.0000 11.6862 0.0000 0.0000 25.2661 -0.4502 -11.7247 27.0680 0.0000 0.0000 2.4143 0.0000 0.0000 36.0921 -2.4643 -8.0850 30.0854 0.0000 0.0000 6.8504 0.0000 0.0000 0.0000 0.0000 0.0000 88.8675 0.3286 -0.3352 -2.8014 9.2091 8.9657 510.3885 41.4783 164.6938 -77.4308 -15.2571 9.7903 25.3084 0.0000 0.0000 12.8621 0.0000 0.0000 -17.2087 0.9172 5.0458 95.2147 0.0000 0.0000 34.8501 0.0000 0.0000 -33.3532 2.0013 11.4455 94.3913 0.0000 0.0000 33.2008 0.0000 0.0000 -43.4528 0.9413 13.8015 97.5032 0.0000 0.0000 32.3790 0.0000 0.0000 -55.0363 -1.0009 15.9322 83.8705 0.0000 0.0000 40.4916 0.0000 0.0000 0.0000 0.0000 0.0000 0.0000 0.0000 0.0000 0.0000 0.0000 0.0000 0.0000 0.0000 0.0000 0.0000 0.0000 0.0000 0.0000 0.0000 0.0000
0.0000 95.0000 0.0000 0.0000 0.0000 0.0000 0.0000 0.0000 0.0000 0.0000 0.0000 0.0000 0.0000 0.0000 0.0000 0.0000 0.0000 0.0000 0.0000 0.0000 0.0000 0.0000 0.0000 0.0000 -77.8905 1.2178 1.5068 -13.5706 -7.5388 12.3596 658.4322 83.1965 507.6250 59.8440 -12.8379 -2.0054 13.9157 0.0000 0.0000 26.3982 0.0000 0.0000 3.5748 1.5568 -8.0400 26.0927 0.0000 0.0000 6.0671 0.0000 0.0000 16.3411 1.4102 -14.5703 11.8537 0.0000 0.0000 11.6862 0.0000 0.0000 25.2661 -0.4502 -11.7247 27.0680 0.0000 0.0000 2.4143 0.0000 0.0000 36.0921 -2.4643 -8.0850 30.0854 0.0000 0.0000 6.8504 0.0000 0.0000 0.0000 0.0000 0.0000 89.4661 0.5423 -0.5474 -3.3396 9.4190 9.0078 510.4737 41.4066 164.8366 -77.4308 -15.2571 9.7903 25.3084 0.0000 0.0000 12.8621 0.0000 0.0000 -17.2087 0.9172 5.0458 95.2147 0.0000 0.0000 34.8501 0.0000 0.0000 -33.3532 2.0013 11.4455 94.3913 0.0000 0.0000 33.2008 0.0000 0.0000 -43.4528 0.9413 13.8015 97.5032 0.0000 0.0000 32.3790 0.0000 0.0000 -55.0363 -1.0009 15.9322 83.8705 0.0000 0.0000 40.4916 0.0000 0.0000 0.0000 0.0000 0.0000 0.0000 0.0000 0.0000 0.0000 0.0000 0.0000 0.0000 0.0000 0.0000 0.0000 0.0000 0.0000 0.0000 0.0000 0.0000
0.0000 95.0000 0.0000 0.0000 0.0000 0.0000 0.0000 0.0000 0.0000 0.0000 0.0000 0.0000 0.0000 0.0000 0.0000 0.0000 0.0000 0.0000 0.0000 0.0000 0.0000 0.0000 0.0000 0.0000 -77.8261 1.7253 2.1372 -14.6764 6.1414 -9.3282 521.0832 77.8546 388.2003 59.8440 -12.8379 -2.0054 13.9157 0.0000 0.0000 26.3982 0.0000 0.0000 3.5748 1.5568 -8.0400 26.0927 0.0000 0.0000 6.0671 0.0000 0.0000 16.3411 1.4102 -14.5703 11.8537 0.0000 0.0000 11.6862 0.0000 0.0000 25.2661 -0.4502 -11.7247 27.0680 0.0000 0.0000 2.4143 0.0000 0.0000 36.0921 -2.4643 -8.0850 30.0854 0.0000 0.0000 6.8504 0.0000 0.0000 0.0000 0.0000 0.0000 89.7291 1.1982 -1.2039 -3.4905 9.2337 8.8142 510.9453 40.6504 166.0122 -77.4308 -15.2571 9.7903 25.3084 0.0000 0.0000 12.8621 0.0000 0.0000 -17.2087 0.9172 5.0458 95.2147 0.0000 0.0000 34.8501 0.0000 0.0000 -33.3532 2.0013 11.4455 94.3913 0.0000 0.0000 33.2008 0.0000 0.0000 -43.4528 0.9413 13.8015 97.5032 0.0000 0.0000 32.3790 0.0000 0.0000 -55.0363 -1.0009 15.9322 83.8705 0.0000 0.0000 40.4916 0.0000 0.0000 0.0000 0.0000 0.0000 0.0000 0.0000 0.0000 0.0000 0.0000 0.0000 0.0000 0.0000 0.0000 0.0000 0.0000 0.0000 0.0000 0.0000 0.0000
0.0000 95.0000 0.0000 0.0000 0.0000 0.0000 0.0000 0.0000 0.0000 0.0000 0.0000 0.0000 0.0000 0.0000 0.0000 0.0000 0.0000 0.0000 0.0000 0.0000 0.0000 0.0000 0.0000 0.0000 -77.8488 1.7227 2.1330 -14.5474 6.1438 -9.3109 520.6441 77.9044 387.7596 59.8440 -12.8379 -2.0054 13.9157 0.0000 0.0000 26.3982 0.0000 0.0000 3.5748 1.5568 -8.0400 26.0927 0.0000 0.0000 6.0671 0.0000 0.0000 16.3411 1.4102 -14.5703 11.8537 0.0000 0.0000 11.6862 0.0000 0.0000 25.2661 -0.4502 -11.7247 27.0680 0.0000 0.0000 2.4143 0.0000 0.0000 36.0921 -2.4643 -8.0850 30.0854 0.0000 0.0000 6.8504 0.0000 0.0000 0.0000 0.0000 0.0000 89.7304 1.1354 -1.1407 -3.6284 9.3823 8.9320 510.6794 40.8050 165.6458 -77.4308 -15.2571 9.7903 25.3084 0.0000 0.0000 12.8621 0.0000 0.0000 -17.2087 0.9172 5.0458 95.2147 0.0000 0.0000 34.8501 0.0000 0.0000 -33.3532 2.0013 11.4455 94.3913 0.0000 0.0000 33.2008 0.0000 0.0000 -43.4528 0.9413 13.8015 97.5032 0.0000 0.0000 32.3790 0.0000 0.0000 -55.0363 -1.0009 15.9322 83.8705 0.0000 0.0000 40.4916 0.0000 0.0000 0.0000 0.0000 0.0000 0.0000 0.0000 0.0000 0.0000 0.0000 0.0000 0.0000 0.0000 0.0000 0.0000 0.0000 0.0000 0.0000 0.0000 0.0000
0.0000 95.0000 0.0000 0.0000 0.0000 0.0000 0.0000 0.0000 0.0000 0.0000 0.0000 0.0000 0.0000 0.0000 0.0000 0.0000 0.0000 0.0000 0.0000 0.0000 0.0000 0.0000 0.0000 0.0000 -78.0086 1.3607 1.6800 -14.4192 5.7944 -8.8351 520.9939 77.8783 388.0986 59.8440 -12.8379 -2.0054 13.9157 0.0000 0.0000 26.3982 0.0000 0.0000 3.5748 1.5568 -8.0400 26.0927 0.0000 0.0000 6.0671 0.0000 0.0000 16.3411 1.4102 -14.5703 11.8537 0.0000 0.0000 11.6862 0.0000 0.0000 25.2661 -0.4502 -11.7247 27.0680 0.0000 0.0000 2.4143 0.0000 0.0000 36.0921 -2.4643 -8.0850 30.0854 0.0000 0.0000 6.8504 0.0000 0.0000 0.0000 0.0000 0.0000 89.8998 0.9907 -0.9925 -3.8820 9.6790 9.1392 510.3860 41.1509 165.0484 -77.4308 -15.2571 9.7903 25.3084 0.0000 0.0000 12.8621 0.0000 0.0000 -17.2087 0.9172 5.0458 95.2147 0.0000 0.0000 34.8501 0.0000 0.0000 -33.3532 2.0013 11.4455 94.3913 0.0000 0.0000 33.2008 0.0000 0.0000 -43.4528 0.9413 13.8015 97.5032 0.0000 0.0000 32.3790 0.0000 0.0000 -55.0363 -1.0009 15.9322 83.8705 0.0000 0.0000 40.4916 0.0000 0.0000 0.0000 0.0000 0.0000 0.0000 0.0000 0.0000 0.0000 0.0000 0.0000 0.0000 0.0000 0.0000 0.0000 0.0000 0.0000 0.0000 0.0000 0.0000
0.0000 95.0000 0.0000 0.0000 0.0000 0.0000 0.0000 0.0000 0.0000 0.0000 0.0000 0.0000 0.0000 0.0000 0.0000 0.0000 0.0000 0.0000 0.0000 0.0000 0.0000 0.0000 0.0000 0.0000 -78.0832 1.5134 1.8660 -13.7223 -7.3190 12.1046 655.9646 82.9337 505.0431 59.8440 -12.8379 -2.0054 13.9157 0.0000 0.0000 26.3982 0.0000 0.0000 3.5748 1.5568 -8.0400 26.0927 0.0000 0.0000 6.0671 0.0000 0.0000 16.3411 1.4102 -14.5703 11.8537 0.0000 0.0000 11.6862 0.0000 0.0000 25.2661 -0.4502 -11.7247 27.0680 0.0000 0.0000 2.4143 0.0000 0.0000 36.0921 -2.4643 -8.0850 30.0854 0.0000 0.0000 6.8504 0.0000 0.0000 0.0000 0.0000 0.0000 90.0315 1.1394 -1.1388 -3.7165 9.5748 9.0545 510.8729 40.9832 165.5975 -77.4308 -15.2571 9.7903 25.3084 0.0000 0.0000 12.8621 0.0000 0.0000 -17.2087 0.9172 5.0458 95.2147 0.0000 0.0000 34.8501 0.0000 0.0000 -33.3532 2.0013 11.4455 94.3913 0.0000 0.0000 33.2008 0.0000 0.0000 -43.4528 0.9413 13.8015 97.5032 0.0000 0.0000 32.3790 0.0000 0.0000 -55.0363 -1.0009 15.9322 83.8705 0.0000 0.0000 40.4916 0.0000 0.0000 0.0000 0.0000 0.0000 0.0000 0.0000 0.0000 0.0000 0.0000 0.0000 0.0000 0.0000 0.0000 0.0000 0.0000 0.0000 0.0000 0.0000 0.0000
0.0000 95.0000 0.0000 0.0000 0.0000 0.0000 0.0000 0.0000 0.0000 0.0000 0.0000 0.0000 0.0000 0.0000 0.0000 0.0000 0.0000 0.0000 0.0000 0.0000 0.0000 0.0000 0.0000 0.0000 -78.1575 1.5681 1.9310 -14.4268 6.0165 -9.0919 521.5280 77.8159 388.6352 59.8440 -12.8379 -2.0054 13.9157 0.0000 0.0000 26.3982 0.0000 0.0000 3.5748 1.5568 -8.0400 26.0927 0.0000 0.0000 6.0671 0.0000 0.0000 16.3411 1.4102 -14.5703 11.8537 0.0000 0.0000 11.6862 0.0000 0.0000 25.2661 -0.4502 -11.7247 27.0680 0.0000 0.0000 2.4143 0.0000 0.0000 36.0921 -2.4643 -8.0850 30.0854 0.0000 0.0000 6.8504 0.0000 0.0000 0.0000 0.0000 0.0000 90.2293 1.0536 -1.0494 -4.0114 9.8974 9.2770 510.5705 41.2918 165.0348 -77.4308 -15.2571 9.7903 25.3084 0.0000 0.0000 12.8621 0.0000 0.0000 -17.2087 0.9172 5.0458 95.2147 0.0000 0.0000 34.8501 0.0000 0.0000 -33.3532 2.0013 11.4455 94.3913 0.0000 0.0000 33.2008 0.0000 0.0000 -43.4528 0.9413 13.8015 97.5032 0.0000 0.0000 32.3790 0.0000 0.0000 -55.0363 -1.0009 15.9322 83.8705 0.0000 0.0000 40.4916 0.0000 0.0000 0.0000 0.0000 0.0000 0.0000 0.0000 0.0000 0.0000 0.0000 0.0000 0.0000 0.0000 0.0000 0.0000 0.0000 0.0000 0.0000 0.0000 0.0000
0.0000 95.0000 0.0000 0.0000 0.0000 0.0000 0.0000 0.0000 0.0000 0.0000 0.0000 0.0000 0.0000 0.0000 0.0000 0.0000 0.0000 0.0000 0.0000 0.0000 0.0000 0.0000 0.0000 0.0000 -78.1060 1.6867 2.0789 -13.7524 -7.1484 11.8959 655.3287 82.8838 504.3977 59.8440 -12.8379 -2.0054 13.9157 0.0000 0.0000 26.3982 0.0000 0.0000 3.5748 1.5568 -8.0400 26.0927 0.0000 0.0000 6.0671 0.0000 0.0000 16.3411 1.4102 -14.5703 11.8537 0.0000 0.0000 11.6862 0.0000 0.0000 25.2661 -0.4502 -11.7247 27.0680 0.0000 0.0000 2.4143 0.0000 0.0000 36.0921 -2.4643 -8.0850 30.0854 0.0000 0.0000 6.8504 0.0000 0.0000 0.0000 0.0000 0.0000 90.3881 0.4798 -0.4766 -3.9656 9.8089 9.1313 510.6945 41.7548 164.6266 -77.4308 -15.2571 9.7903 25.3084 0.0000 0.0000 12.8621 0.0000 0.0000 -17.2087 0.9172 5.0458 95.2147 0.0000 0.0000 34.8501 0.0000 0.0000 -33.3532 2.0013 11.4455 94.3913 0.0000 0.0000 33.2008 0.0000 0.0000 -43.4528 0.9413 13.8015 97.5032 0.0000 0.0000 32.3790 0.0000 0.0000 -55.0363 -1.0009 15.9322 83.8705 0.0000 0.0000 40.4916 0.0000 0.0000 0.0000 0.0000 0.0000 0.0000 0.0000 0.0000 0.0000 0.0000 0.0000 0.0000 0.0000 0.0000 0.0000 0.0000 0.0000 0.0000 0.0000 0.0000
0.0000 95.0000 0.0000 0.0000 0.0000 0.0000 0.0000 0.0000 0.0000 0.0000 0.0000 0.0000 0.0000 0.0000 0.0000 0.0000 0.0000 0.0000 0.0000 0.0000 0.0000 0.0000 0.0000 0.0000 -78.0717 2.2750 2.8056 -14.4416 6.7146 -9.9726 520.8552 77.8870 387.9657 59.8440 -12.8379 -2.0054 13.9157 0.0000 0.0000 26.3982 0.0000 0.0000 3.5748 1.5568 -8.0400 26.0927 0.0000 0.0000 6.0671 0.0000 0.0000 16.3411 1.4102 -14.5703 11.8537 0.0000 0.0000 11.6862 0.0000 0.0000 25.2661 -0.4502 -11.7247 27.0680 0.0000 0.0000 2.4143 0.0000 0.0000 36.0921 -2.4643 -8.0850 30.0854 0.0000 0.0000 6.8504 0.0000 0.0000 0.0000 0.0000 0.0000 90.4103 0.3443 -0.3418 -3.8721 9.6624 8.9953 510.8755 41.7750 164.7423 -77.4308 -15.2571 9.7903 25.3084 0.0000 0.0000 12.8621 0.0000 0.0000 -17.2087 0.9172 5.0458 95.2147 0.0000 0.0000 34.8501 0.0000 0.0000 -33.3532 2.0013 11.4455 94.3913 0.0000 0.0000 33.2008 0.0000 0.0000 -43.4528 0.9413 13.8015 97.5032 0.0000 0.0000 32.3790 0.0000 0.0000 -55.0363 -1.0009 15.9322 83.8705 0.0000 0.0000 40.4916 0.0000 0.0000 0.0000 0.0000 0.0000 0.0000 0.0000 0.0000 0.0000 0.0000 0.0000 0.0000 0.0000 0.0000 0.0000 0.0000 0.0000 0.0000 0.0000 0.0000
0.0000 95.0000 0.0000 0.0000 0.0000 0.0000 0.0000 0.0000 0.0000 0.0000 0.0000 0.0000 0.0000 0.0000 0.0000 0.0000 0.0000 0.0000 0.0000 0.0000 0.0000 0.0000 0.0000 0.0000 -78.2709 2.0203 2.4827 -13.1697 -6.8826 11.3951 657.5913 83.0693 506.7075 59.8440 -12.8379 -2.0054 13.9157 0.0000 0.0000 26.3982 0.0000 0.0000 3.5748 1.5568 -8.0400 26.0927 0.0000 0.0000 6.0671 0.0000 0.0000 16.3411 1.4102 -14.5703 11.8537 0.0000 0.0000 11.6862 0.0000 0.0000 25.2661 -0.4502 -11.7247 27.0680 0.0000 0.0000 2.4143 0.0000 0.0000 36.0921 -2.4643 -8.0850 30.0854 0.0000 0.0000 6.8504 0.0000 0.0000 0.0000 0.0000 0.0000 90.3458 0.2758 -0.2741 -3.9108 9.8221 9.1428 510.6304 41.9558 164.3597 -77.4308 -15.2571 9.7903 25.3084 0.0000 0.0000 12.8621 0.0000 0.0000 -17.2087 0.9172 5.0458 95.2147 0.0000 0.0000 34.8501 0.0000 0.0000 -33.3532 2.0013 11.4455 94.3913 0.0000 0.0000 33.2008 0.0000 0.0000 -43.4528 0.9413 13.8015 97.5032 0.0000 0.0000 32.3790 0.0000 0.0000 -55.0363 -1.0009 15.9322 83.8705 0.0000 0.0000 40.4916 0.0000 0.0000 0.0000 0.0000 0.0000 0.0000 0.0000 0.0000 0.0000 0.0000 0.0000 0.0000 0.0000 0.0000 0.0000 0.0000 0.0000 0.0000 0.0000 0.0000
0.0000 95.0000 0.0000 0.0000 0.0000 0.0000 0.0000 0.0000 0.0000 0.0000 0.0000 0.0000 0.0000 0.0000 0.0000 0.0000 0.0000 0.0000 0.0000 0.0000 0.0000 0.0000 0.0000 0.0000 -78.3629 1.6852 2.0676 -13.1418 -6.7728 11.0953 654.1576 83.5290 503.8804 59.8440 -12.8379 -2.0054 13.9157 0.0000 0.0000 26.3982 0.0000 0.0000 3.5748 1.5568 -8.0400 26.0927 0.0000 0.0000 6.0671 0.0000 0.0000 16.3411 1.4102 -14.5703 11.8537 0.0000 0.0000 11.6862 0.0000 0.0000 25.2661 -0.4502 -11.7247 27.0680 0.0000 0.0000 2.4143 0.0000 0.0000 36.0921 -2.4643 -8.0850 30.0854 0.0000 0.0000 6.8504 0.0000 0.0000 0.0000 0.0000 0.0000 90.3329 0.1112 -0.1106 -3.8256 10.0205 9.3302 510.5546 42.2918 163.9372 -77.4308 -15.2571 9.7903 25.3084 0.0000 0.0000 12.8621 0.0000 0.0000 -17.2087 0.9172 5.0458 95.2147 0.0000 0.0000 34.8501 0.0000 0.0000 -33.3532 2.0013 11.4455 94.3913 0.0000 0.0000 33.2008 0.0000 0.0000 -43.4528 0.9413 13.8015 97.5032 0.0000 0.0000 32.3790 0.0000 0.0000 -55.0363 -1.0009 15.9322 83.8705 0.0000 0.0000 40.4916 0.0000 0.0000 0.0000 0.0000 0.0000 0.0000 0.0000 0.0000 0.0000 0.0000 0.0000 0.0000 0.0000 0.0000 0.0000 0.0000 0.0000 0.0000 0.0000 0.0000
0.0000 95.0000 0.0000 0.0000 0.0000 0.0000 0.0000 0.0000 0.0000 0.0000 0.0000 0.0000 0.0000 0.0000 0.0000 0.0000 0.0000 0.0000 0.0000 0.0000 0.0000 0.0000 0.0000 0.0000 -78.4600 1.5418 1.8884 -13.0525 -6.8830 11.1783 653.9108 83.5948 503.7066 59.8440 -12.8379 -2.0054 13.9157 0.0000 0.0000 26.3982 0.0000 0.0000 3.5748 1.5568 -8.0400 26.0927 0.0000 0.0000 6.0671 0.0000 0.0000 16.3411 1.4102 -14.5703 11.8537 0.0000 0.0000 11.6862 0.0000 0.0000 25.2661 -0.4502 -11.7247 27.0680 0.0000 0.0000 2.4143 0.0000 0.0000 36.0921 -2.4643 -8.0850 30.0854 0.0000 0.0000 6.8504 0.0000 0.0000 0.0000 0.0000 0.0000 90.4133 0.1554 -0.1543 -3.9112 10.0284 9.3142 510.5663 42.2472 163.9946 -77.4308 -15.2571 9.7903 25.3084 0.0000 0.0000 12.8621 0.0000 0.0000 -17.2087 0.9172 5.0458 95.2147 0.0000 0.0000 34.8501 0.0000 0.0000 -33.3532 2.0013 11.4455 94.3913 0.0000 0.0000 33.2008 0.0000 0.0000 -43.4528 0.9413 13.8015 97.5032 0.0000 0.0000 32.3790 0.0000 0.0000 -55.0363 -1.0009 15.9322 83.8705 0.0000 0.0000 40.4916 0.0000 0.0000 0.0000 0.0000 0.0000 0.0000 0.0000 0.0000 0.0000 0.0000 0.0000 0.0000 0.0000 0.0000 0.0000 0.0000 0.0000 0.0000 0.0000 0.0000
0.0000 95.0000 0.0000 0.0000 0.0000 0.0000 0.0000 0.0000 0.0000 0.0000 0.0000 0.0000 0.0000 0.0000 0.0000 0.0000 0.0000 0.0000 0.0000 0.0000 0.0000 0.0000 0.0000 0.0000 -78.4859 1.5216 1.8628 -13.0436 -6.9306 11.2375 654.0142 83.5664 503.7787 59.8440 -12.8379 -2.0054 13.9157 0.0000 0.0000 26.3982 0.0000 0.0000 3.5748 1.5568 -8.0400 26.0927 0.0000 0.0000 6.0671 0.0000 0.0000 16.3411 1.4102 -14.5703 11.8537 0.0000 0.0000 11.6862 0.0000 0.0000 25.2661 -0.4502 -11.7247 27.0680 0.0000 0.0000 2.4143 0.0000 0.0000 36.0921 -2.4643 -8.0850 30.0854 0.0000 0.0000 6.8504 0.0000 0.0000 0.0000 0.0000 0.0000 90.4971 -0.3344 0.3315 -3.8919 9.7235 8.9828 510.7065 42.4357 163.8984 -77.4308 -15.2571 9.7903 25.3084 0.0000 0.0000 12.8621 0.0000 0.0000 -17.2087 0.9172 5.0458 95.2147 0.0000 0.0000 34.8501 0.0000 0.0000 -33.3532 2.0013 11.4455 94.3913 0.0000 0.0000 33.2008 0.0000 0.0000 -43.4528 0.9413 13.8015 97.5032 0.0000 0.0000 32.3790 0.0000 0.0000 -55.0363 -1.0009 15.9322 83.8705 0.0000 0.0000 40.4916 0.0000 0.0000 0.0000 0.0000 0.0000 0.0000 0.0000 0.0000 0.0000 0.0000 0.0000 0.0000 0.0000 0.0000 0.0000 0.0000 0.0000 0.0000 0.0000 0.0000
